{
    "type": "FeatureCollection",
    "features": [
        {
            "type": "Feature",
            "properties": {
                "HYRIV_ID": 41395522,
                "NEXT_DOWN": 0,
                "MAIN_RIV": 41395522,
                "LENGTH_KM": 1.14,
                "DIST_DN_KM": 0.0,
                "DIST_UP_KM": 6.5,
                "CATCH_SKM": 14.83,
                "UPLAND_SKM": 14.6,
                "ENDORHEIC": 0,
                "DIS_AV_CMS": 0.14300001,
                "ORD_STRA": 1,
                "ORD_CLAS": 1,
                "ORD_FLOW": 7,
                "HYBAS_L12": 4120049390.0,
                "Shape_Length": 0.010416666666685614
            },
            "geometry": {
                "type": "LineString",
                "coordinates": [
                    [
                        80.1166666666663,
                        9.185416666666505
                    ],
                    [
                        80.10624999999962,
                        9.185416666666505
                    ]
                ]
            }
        }
    ]
}