{
    "type": "FeatureCollection",
    "features": [
        {
            "type": "Feature",
            "properties": {
                "HYRIV_ID": 41399404,
                "NEXT_DOWN": 0,
                "MAIN_RIV": 41399404,
                "LENGTH_KM": 8.7299995,
                "DIST_DN_KM": 0.0,
                "DIST_UP_KM": 15.2,
                "CATCH_SKM": 33.75,
                "UPLAND_SKM": 33.3,
                "ENDORHEIC": 0,
                "DIS_AV_CMS": 0.34400001,
                "ORD_STRA": 1,
                "ORD_CLAS": 1,
                "ORD_FLOW": 7,
                "HYBAS_L12": 4120049250.0,
                "Shape_Length": 0.07910533905929319
            },
            "geometry": {
                "type": "LineString",
                "coordinates": [
                    [
                        79.9749999999996,
                        8.5145833333332
                    ],
                    [
                        79.96458333333297,
                        8.5145833333332
                    ],
                    [
                        79.95624999999964,
                        8.52291666666651
                    ],
                    [
                        79.94791666666632,
                        8.52291666666651
                    ],
                    [
                        79.9437499999996,
                        8.527083333333216
                    ],
                    [
                        79.92708333333294,
                        8.527083333333216
                    ],
                    [
                        79.91874999999962,
                        8.535416666666528
                    ],
                    [
                        79.91874999999962,
                        8.54374999999984
                    ],
                    [
                        79.91458333333296,
                        8.547916666666545
                    ]
                ]
            }
        }
    ]
}