{
    "type": "FeatureCollection",
    "features": [
        {
            "type": "Feature",
            "properties": {
                "HYRIV_ID": 41396545,
                "NEXT_DOWN": 0,
                "MAIN_RIV": 41396545,
                "LENGTH_KM": 0.65,
                "DIST_DN_KM": 0.0,
                "DIST_UP_KM": 65.5,
                "CATCH_SKM": 0.85,
                "UPLAND_SKM": 594.79999,
                "ENDORHEIC": 0,
                "DIS_AV_CMS": 4.9089999,
                "ORD_STRA": 3,
                "ORD_CLAS": 1,
                "ORD_FLOW": 6,
                "HYBAS_L12": 4120049340.0,
                "Shape_Length": 0.005892556510033266
            },
            "geometry": {
                "type": "LineString",
                "coordinates": [
                    [
                        80.05624999999978,
                        9.03124999999985
                    ],
                    [
                        80.05208333333294,
                        9.035416666666556
                    ]
                ]
            }
        },
        {
            "type": "Feature",
            "properties": {
                "HYRIV_ID": 41396546,
                "NEXT_DOWN": 41396545,
                "MAIN_RIV": 41396545,
                "LENGTH_KM": 5.7800002,
                "DIST_DN_KM": 1.0,
                "DIST_UP_KM": 11.9,
                "CATCH_SKM": 36.889999,
                "UPLAND_SKM": 36.900002,
                "ENDORHEIC": 0,
                "DIS_AV_CMS": 0.338,
                "ORD_STRA": 1,
                "ORD_CLAS": 2,
                "ORD_FLOW": 7,
                "HYBAS_L12": 4120049340.0,
                "Shape_Length": 0.052379449216082764
            },
            "geometry": {
                "type": "LineString",
                "coordinates": [
                    [
                        80.09583333333305,
                        9.03124999999985
                    ],
                    [
                        80.08958333333297,
                        9.03124999999985
                    ],
                    [
                        80.0854166666663,
                        9.035416666666556
                    ],
                    [
                        80.08124999999964,
                        9.035416666666556
                    ],
                    [
                        80.07708333333298,
                        9.039583333333205
                    ],
                    [
                        80.07291666666632,
                        9.039583333333205
                    ],
                    [
                        80.0687499999996,
                        9.043749999999868
                    ],
                    [
                        80.06458333333299,
                        9.043749999999868
                    ],
                    [
                        80.06041666666627,
                        9.039583333333205
                    ],
                    [
                        80.06041666666627,
                        9.035416666666556
                    ],
                    [
                        80.05624999999978,
                        9.03124999999985
                    ]
                ]
            }
        },
        {
            "type": "Feature",
            "properties": {
                "HYRIV_ID": 41396736,
                "NEXT_DOWN": 41396873,
                "MAIN_RIV": 41396545,
                "LENGTH_KM": 3.46,
                "DIST_DN_KM": 15.9,
                "DIST_UP_KM": 9.1,
                "CATCH_SKM": 18.870001,
                "UPLAND_SKM": 18.9,
                "ENDORHEIC": 0,
                "DIS_AV_CMS": 0.173,
                "ORD_STRA": 1,
                "ORD_CLAS": 2,
                "ORD_FLOW": 7,
                "HYBAS_L12": 4120049340.0,
                "Shape_Length": 0.03139805794134436
            },
            "geometry": {
                "type": "LineString",
                "coordinates": [
                    [
                        80.14583333333294,
                        9.00833333333319
                    ],
                    [
                        80.13958333333304,
                        9.002083333333196
                    ],
                    [
                        80.12708333333299,
                        9.002083333333196
                    ],
                    [
                        80.12291666666633,
                        8.997916666666548
                    ],
                    [
                        80.11874999999966,
                        8.997916666666548
                    ]
                ]
            }
        },
        {
            "type": "Feature",
            "properties": {
                "HYRIV_ID": 41396737,
                "NEXT_DOWN": 41396845,
                "MAIN_RIV": 41396545,
                "LENGTH_KM": 1.63,
                "DIST_DN_KM": 25.5,
                "DIST_UP_KM": 8.6,
                "CATCH_SKM": 13.14,
                "UPLAND_SKM": 13.1,
                "ENDORHEIC": 0,
                "DIS_AV_CMS": 0.123,
                "ORD_STRA": 1,
                "ORD_CLAS": 3,
                "ORD_FLOW": 7,
                "HYBAS_L12": 4121600420.0,
                "Shape_Length": 0.014731391274756585
            },
            "geometry": {
                "type": "LineString",
                "coordinates": [
                    [
                        80.19583333333301,
                        9.00833333333319
                    ],
                    [
                        80.18541666666627,
                        8.997916666666548
                    ]
                ]
            }
        },
        {
            "type": "Feature",
            "properties": {
                "HYRIV_ID": 41396784,
                "NEXT_DOWN": 41396845,
                "MAIN_RIV": 41396545,
                "LENGTH_KM": 7.62,
                "DIST_DN_KM": 25.5,
                "DIST_UP_KM": 12.9,
                "CATCH_SKM": 25.23,
                "UPLAND_SKM": 25.200001,
                "ENDORHEIC": 0,
                "DIS_AV_CMS": 0.236,
                "ORD_STRA": 1,
                "ORD_CLAS": 2,
                "ORD_FLOW": 7,
                "HYBAS_L12": 4121600420.0,
                "Shape_Length": 0.06904611588281223
            },
            "geometry": {
                "type": "LineString",
                "coordinates": [
                    [
                        80.23541666666628,
                        8.99166666666651
                    ],
                    [
                        80.23541666666628,
                        8.997916666666548
                    ],
                    [
                        80.23124999999962,
                        9.002083333333196
                    ],
                    [
                        80.21874999999963,
                        9.002083333333196
                    ],
                    [
                        80.21458333333297,
                        8.997916666666548
                    ],
                    [
                        80.21458333333297,
                        8.993749999999842
                    ],
                    [
                        80.2104166666663,
                        8.993749999999842
                    ],
                    [
                        80.20624999999964,
                        8.98958333333318
                    ],
                    [
                        80.20208333333298,
                        8.993749999999842
                    ],
                    [
                        80.1895833333331,
                        8.993749999999842
                    ],
                    [
                        80.18541666666627,
                        8.997916666666548
                    ]
                ]
            }
        },
        {
            "type": "Feature",
            "properties": {
                "HYRIV_ID": 41396842,
                "NEXT_DOWN": 41396545,
                "MAIN_RIV": 41396545,
                "LENGTH_KM": 8.6300001,
                "DIST_DN_KM": 0.8,
                "DIST_UP_KM": 65.0,
                "CATCH_SKM": 37.310001,
                "UPLAND_SKM": 557.5,
                "ENDORHEIC": 0,
                "DIS_AV_CMS": 4.5890002,
                "ORD_STRA": 3,
                "ORD_CLAS": 1,
                "ORD_FLOW": 6,
                "HYBAS_L12": 4120049340.0,
                "Shape_Length": 0.07803300858910513
            },
            "geometry": {
                "type": "LineString",
                "coordinates": [
                    [
                        80.07291666666632,
                        8.981249999999868
                    ],
                    [
                        80.0687499999996,
                        8.981249999999868
                    ],
                    [
                        80.06458333333299,
                        8.98541666666653
                    ],
                    [
                        80.06041666666627,
                        8.981249999999868
                    ],
                    [
                        80.04374999999962,
                        8.997916666666548
                    ],
                    [
                        80.04374999999962,
                        9.002083333333196
                    ],
                    [
                        80.0479166666664,
                        9.00624999999986
                    ],
                    [
                        80.0479166666664,
                        9.01458333333317
                    ],
                    [
                        80.05624999999978,
                        9.02291666666654
                    ],
                    [
                        80.05624999999978,
                        9.03124999999985
                    ]
                ]
            }
        },
        {
            "type": "Feature",
            "properties": {
                "HYRIV_ID": 41396843,
                "NEXT_DOWN": 41396873,
                "MAIN_RIV": 41396545,
                "LENGTH_KM": 3.52,
                "DIST_DN_KM": 16.1,
                "DIST_UP_KM": 49.8,
                "CATCH_SKM": 7.4200001,
                "UPLAND_SKM": 457.20001,
                "ENDORHEIC": 0,
                "DIS_AV_CMS": 3.9849999,
                "ORD_STRA": 3,
                "ORD_CLAS": 1,
                "ORD_FLOW": 6,
                "HYBAS_L12": 4120049340.0,
                "Shape_Length": 0.03190355937293284
            },
            "geometry": {
                "type": "LineString",
                "coordinates": [
                    [
                        80.1437499999997,
                        8.981249999999868
                    ],
                    [
                        80.13541666666637,
                        8.98958333333318
                    ],
                    [
                        80.13124999999965,
                        8.98958333333318
                    ],
                    [
                        80.12708333333299,
                        8.993749999999842
                    ],
                    [
                        80.12291666666633,
                        8.993749999999842
                    ],
                    [
                        80.11874999999966,
                        8.997916666666548
                    ]
                ]
            }
        },
        {
            "type": "Feature",
            "properties": {
                "HYRIV_ID": 41396844,
                "NEXT_DOWN": 41396843,
                "MAIN_RIV": 41396545,
                "LENGTH_KM": 3.6600001,
                "DIST_DN_KM": 19.4,
                "DIST_UP_KM": 46.400002,
                "CATCH_SKM": 9.33,
                "UPLAND_SKM": 398.89999,
                "ENDORHEIC": 0,
                "DIS_AV_CMS": 3.5020001,
                "ORD_STRA": 3,
                "ORD_CLAS": 1,
                "ORD_FLOW": 6,
                "HYBAS_L12": 4121600420.0,
                "Shape_Length": 0.03333333333324617
            },
            "geometry": {
                "type": "LineString",
                "coordinates": [
                    [
                        80.17708333333294,
                        8.981249999999868
                    ],
                    [
                        80.1437499999997,
                        8.981249999999868
                    ]
                ]
            }
        },
        {
            "type": "Feature",
            "properties": {
                "HYRIV_ID": 41396845,
                "NEXT_DOWN": 41396844,
                "MAIN_RIV": 41396545,
                "LENGTH_KM": 2.23,
                "DIST_DN_KM": 23.1,
                "DIST_UP_KM": 15.4,
                "CATCH_SKM": 7.0,
                "UPLAND_SKM": 45.400002,
                "ENDORHEIC": 0,
                "DIS_AV_CMS": 0.421,
                "ORD_STRA": 2,
                "ORD_CLAS": 2,
                "ORD_FLOW": 7,
                "HYBAS_L12": 4121600420.0,
                "Shape_Length": 0.020118446353106764
            },
            "geometry": {
                "type": "LineString",
                "coordinates": [
                    [
                        80.18541666666627,
                        8.997916666666548
                    ],
                    [
                        80.17708333333294,
                        8.98958333333318
                    ],
                    [
                        80.17708333333294,
                        8.981249999999868
                    ]
                ]
            }
        },
        {
            "type": "Feature",
            "properties": {
                "HYRIV_ID": 41396873,
                "NEXT_DOWN": 41396842,
                "MAIN_RIV": 41396545,
                "LENGTH_KM": 6.46,
                "DIST_DN_KM": 9.4,
                "DIST_UP_KM": 56.400002,
                "CATCH_SKM": 15.69,
                "UPLAND_SKM": 491.79999,
                "ENDORHEIC": 0,
                "DIS_AV_CMS": 4.1929998,
                "ORD_STRA": 3,
                "ORD_CLAS": 1,
                "ORD_FLOW": 6,
                "HYBAS_L12": 4120049340.0,
                "Shape_Length": 0.058629449216125604
            },
            "geometry": {
                "type": "LineString",
                "coordinates": [
                    [
                        80.11874999999966,
                        8.997916666666548
                    ],
                    [
                        80.0979166666663,
                        8.997916666666548
                    ],
                    [
                        80.08958333333297,
                        8.98958333333318
                    ],
                    [
                        80.08958333333297,
                        8.98541666666653
                    ],
                    [
                        80.08124999999964,
                        8.977083333333205
                    ],
                    [
                        80.07708333333298,
                        8.981249999999868
                    ],
                    [
                        80.07291666666632,
                        8.981249999999868
                    ]
                ]
            }
        },
        {
            "type": "Feature",
            "properties": {
                "HYRIV_ID": 41396935,
                "NEXT_DOWN": 41396844,
                "MAIN_RIV": 41396545,
                "LENGTH_KM": 4.89,
                "DIST_DN_KM": 23.3,
                "DIST_UP_KM": 42.599998,
                "CATCH_SKM": 13.15,
                "UPLAND_SKM": 344.20001,
                "ENDORHEIC": 0,
                "DIS_AV_CMS": 3.0550001,
                "ORD_STRA": 3,
                "ORD_CLAS": 1,
                "ORD_FLOW": 6,
                "HYBAS_L12": 4121600420.0,
                "Shape_Length": 0.044403559372888174
            },
            "geometry": {
                "type": "LineString",
                "coordinates": [
                    [
                        80.21458333333297,
                        8.964583333333188
                    ],
                    [
                        80.20624999999964,
                        8.972916666666514
                    ],
                    [
                        80.20208333333298,
                        8.972916666666514
                    ],
                    [
                        80.19791666666632,
                        8.977083333333205
                    ],
                    [
                        80.18124999999972,
                        8.977083333333205
                    ],
                    [
                        80.17708333333294,
                        8.981249999999868
                    ]
                ]
            }
        },
        {
            "type": "Feature",
            "properties": {
                "HYRIV_ID": 41396936,
                "NEXT_DOWN": 41396935,
                "MAIN_RIV": 41396545,
                "LENGTH_KM": 2.06,
                "DIST_DN_KM": 28.0,
                "DIST_UP_KM": 8.7,
                "CATCH_SKM": 15.05,
                "UPLAND_SKM": 15.1,
                "ENDORHEIC": 0,
                "DIS_AV_CMS": 0.14300001,
                "ORD_STRA": 1,
                "ORD_CLAS": 2,
                "ORD_FLOW": 7,
                "HYBAS_L12": 4121600420.0,
                "Shape_Length": 0.018750000000068212
            },
            "geometry": {
                "type": "LineString",
                "coordinates": [
                    [
                        80.23333333333304,
                        8.964583333333188
                    ],
                    [
                        80.21458333333297,
                        8.964583333333188
                    ]
                ]
            }
        },
        {
            "type": "Feature",
            "properties": {
                "HYRIV_ID": 41396992,
                "NEXT_DOWN": 41396842,
                "MAIN_RIV": 41396545,
                "LENGTH_KM": 4.87,
                "DIST_DN_KM": 9.6,
                "DIST_UP_KM": 9.5,
                "CATCH_SKM": 28.41,
                "UPLAND_SKM": 28.4,
                "ENDORHEIC": 0,
                "DIS_AV_CMS": 0.26300001,
                "ORD_STRA": 1,
                "ORD_CLAS": 2,
                "ORD_FLOW": 7,
                "HYBAS_L12": 4120049340.0,
                "Shape_Length": 0.044046115882752854
            },
            "geometry": {
                "type": "LineString",
                "coordinates": [
                    [
                        80.0999999999996,
                        8.95208333333317
                    ],
                    [
                        80.09374999999963,
                        8.95208333333317
                    ],
                    [
                        80.07708333333298,
                        8.96874999999985
                    ],
                    [
                        80.07708333333298,
                        8.977083333333205
                    ],
                    [
                        80.07291666666632,
                        8.981249999999868
                    ]
                ]
            }
        },
        {
            "type": "Feature",
            "properties": {
                "HYRIV_ID": 41397052,
                "NEXT_DOWN": 41396935,
                "MAIN_RIV": 41396545,
                "LENGTH_KM": 2.32,
                "DIST_DN_KM": 28.0,
                "DIST_UP_KM": 37.900002,
                "CATCH_SKM": 6.1500001,
                "UPLAND_SKM": 316.0,
                "ENDORHEIC": 0,
                "DIS_AV_CMS": 2.848,
                "ORD_STRA": 3,
                "ORD_CLAS": 1,
                "ORD_FLOW": 6,
                "HYBAS_L12": 4121600420.0,
                "Shape_Length": 0.020833333333328596
            },
            "geometry": {
                "type": "LineString",
                "coordinates": [
                    [
                        80.21458333333297,
                        8.94374999999986
                    ],
                    [
                        80.21458333333297,
                        8.964583333333188
                    ]
                ]
            }
        },
        {
            "type": "Feature",
            "properties": {
                "HYRIV_ID": 41397053,
                "NEXT_DOWN": 41397052,
                "MAIN_RIV": 41396545,
                "LENGTH_KM": 1.37,
                "DIST_DN_KM": 30.3,
                "DIST_UP_KM": 22.3,
                "CATCH_SKM": 1.7,
                "UPLAND_SKM": 121.9,
                "ENDORHEIC": 0,
                "DIS_AV_CMS": 1.141,
                "ORD_STRA": 2,
                "ORD_CLAS": 2,
                "ORD_FLOW": 6,
                "HYBAS_L12": 4121155000.0,
                "Shape_Length": 0.012499999999988631
            },
            "geometry": {
                "type": "LineString",
                "coordinates": [
                    [
                        80.22708333333296,
                        8.94374999999986
                    ],
                    [
                        80.21458333333297,
                        8.94374999999986
                    ]
                ]
            }
        },
        {
            "type": "Feature",
            "properties": {
                "HYRIV_ID": 41397081,
                "NEXT_DOWN": 41397053,
                "MAIN_RIV": 41396545,
                "LENGTH_KM": 7.0500002,
                "DIST_DN_KM": 31.6,
                "DIST_UP_KM": 12.7,
                "CATCH_SKM": 35.630001,
                "UPLAND_SKM": 35.599998,
                "ENDORHEIC": 0,
                "DIS_AV_CMS": 0.338,
                "ORD_STRA": 1,
                "ORD_CLAS": 3,
                "ORD_FLOW": 7,
                "HYBAS_L12": 4121155000.0,
                "Shape_Length": 0.06401650429448755
            },
            "geometry": {
                "type": "LineString",
                "coordinates": [
                    [
                        80.28333333333299,
                        8.933333333333216
                    ],
                    [
                        80.27708333333302,
                        8.939583333333196
                    ],
                    [
                        80.2687499999997,
                        8.939583333333196
                    ],
                    [
                        80.26458333333298,
                        8.935416666666534
                    ],
                    [
                        80.25624999999965,
                        8.935416666666534
                    ],
                    [
                        80.25208333333299,
                        8.939583333333196
                    ],
                    [
                        80.24374999999966,
                        8.939583333333196
                    ],
                    [
                        80.23958333333294,
                        8.94374999999986
                    ],
                    [
                        80.22708333333296,
                        8.94374999999986
                    ]
                ]
            }
        },
        {
            "type": "Feature",
            "properties": {
                "HYRIV_ID": 41397132,
                "NEXT_DOWN": 41396843,
                "MAIN_RIV": 41396545,
                "LENGTH_KM": 8.87,
                "DIST_DN_KM": 19.6,
                "DIST_UP_KM": 13.4,
                "CATCH_SKM": 50.889999,
                "UPLAND_SKM": 50.900002,
                "ENDORHEIC": 0,
                "DIS_AV_CMS": 0.466,
                "ORD_STRA": 1,
                "ORD_CLAS": 2,
                "ORD_FLOW": 7,
                "HYBAS_L12": 4121600420.0,
                "Shape_Length": 0.08026439986371087
            },
            "geometry": {
                "type": "LineString",
                "coordinates": [
                    [
                        80.1791666666663,
                        8.924999999999848
                    ],
                    [
                        80.16874999999962,
                        8.935416666666534
                    ],
                    [
                        80.16458333333307,
                        8.935416666666534
                    ],
                    [
                        80.16041666666635,
                        8.939583333333196
                    ],
                    [
                        80.16041666666635,
                        8.947916666666508
                    ],
                    [
                        80.16458333333307,
                        8.95208333333317
                    ],
                    [
                        80.13958333333304,
                        8.977083333333205
                    ],
                    [
                        80.1437499999997,
                        8.981249999999868
                    ]
                ]
            }
        },
        {
            "type": "Feature",
            "properties": {
                "HYRIV_ID": 41397287,
                "NEXT_DOWN": 41397053,
                "MAIN_RIV": 41396545,
                "LENGTH_KM": 7.7,
                "DIST_DN_KM": 31.6,
                "DIST_UP_KM": 20.9,
                "CATCH_SKM": 16.120001,
                "UPLAND_SKM": 84.599998,
                "ENDORHEIC": 0,
                "DIS_AV_CMS": 0.79400003,
                "ORD_STRA": 2,
                "ORD_CLAS": 2,
                "ORD_FLOW": 7,
                "HYBAS_L12": 4121155000.0,
                "Shape_Length": 0.06969967525572152
            },
            "geometry": {
                "type": "LineString",
                "coordinates": [
                    [
                        80.27708333333302,
                        8.902083333333188
                    ],
                    [
                        80.26458333333298,
                        8.914583333333205
                    ],
                    [
                        80.26041666666632,
                        8.914583333333205
                    ],
                    [
                        80.24791666666633,
                        8.92708333333318
                    ],
                    [
                        80.23958333333294,
                        8.92708333333318
                    ],
                    [
                        80.22708333333296,
                        8.939583333333196
                    ],
                    [
                        80.22708333333296,
                        8.94374999999986
                    ]
                ]
            }
        },
        {
            "type": "Feature",
            "properties": {
                "HYRIV_ID": 41397308,
                "NEXT_DOWN": 41397052,
                "MAIN_RIV": 41396545,
                "LENGTH_KM": 5.85,
                "DIST_DN_KM": 30.3,
                "DIST_UP_KM": 35.599998,
                "CATCH_SKM": 25.02,
                "UPLAND_SKM": 187.89999,
                "ENDORHEIC": 0,
                "DIS_AV_CMS": 1.68,
                "ORD_STRA": 2,
                "ORD_CLAS": 1,
                "ORD_FLOW": 6,
                "HYBAS_L12": 4121155010.0,
                "Shape_Length": 0.05273689270619211
            },
            "geometry": {
                "type": "LineString",
                "coordinates": [
                    [
                        80.21458333333297,
                        8.897916666666525
                    ],
                    [
                        80.2229166666663,
                        8.906249999999893
                    ],
                    [
                        80.2229166666663,
                        8.92708333333318
                    ],
                    [
                        80.21458333333297,
                        8.935416666666534
                    ],
                    [
                        80.21458333333297,
                        8.94374999999986
                    ]
                ]
            }
        },
        {
            "type": "Feature",
            "properties": {
                "HYRIV_ID": 41397368,
                "NEXT_DOWN": 41397287,
                "MAIN_RIV": 41396545,
                "LENGTH_KM": 2.09,
                "DIST_DN_KM": 39.5,
                "DIST_UP_KM": 7.4,
                "CATCH_SKM": 15.91,
                "UPLAND_SKM": 15.9,
                "ENDORHEIC": 0,
                "DIS_AV_CMS": 0.152,
                "ORD_STRA": 1,
                "ORD_CLAS": 3,
                "ORD_FLOW": 7,
                "HYBAS_L12": 4121155000.0,
                "Shape_Length": 0.018898057941294715
            },
            "geometry": {
                "type": "LineString",
                "coordinates": [
                    [
                        80.27916666666627,
                        8.887499999999882
                    ],
                    [
                        80.27291666666636,
                        8.893749999999876
                    ],
                    [
                        80.27291666666636,
                        8.897916666666525
                    ],
                    [
                        80.27708333333302,
                        8.902083333333188
                    ]
                ]
            }
        },
        {
            "type": "Feature",
            "properties": {
                "HYRIV_ID": 41397557,
                "NEXT_DOWN": 41397287,
                "MAIN_RIV": 41396545,
                "LENGTH_KM": 8.5500002,
                "DIST_DN_KM": 39.3,
                "DIST_UP_KM": 13.2,
                "CATCH_SKM": 52.599998,
                "UPLAND_SKM": 52.599998,
                "ENDORHEIC": 0,
                "DIS_AV_CMS": 0.50800002,
                "ORD_STRA": 1,
                "ORD_CLAS": 2,
                "ORD_FLOW": 7,
                "HYBAS_L12": 4121155000.0,
                "Shape_Length": 0.07737944921604682
            },
            "geometry": {
                "type": "LineString",
                "coordinates": [
                    [
                        80.32083333333301,
                        8.856249999999868
                    ],
                    [
                        80.31458333333305,
                        8.856249999999868
                    ],
                    [
                        80.31458333333305,
                        8.872916666666534
                    ],
                    [
                        80.31041666666627,
                        8.877083333333196
                    ],
                    [
                        80.31041666666627,
                        8.88541666666655
                    ],
                    [
                        80.30208333333294,
                        8.893749999999876
                    ],
                    [
                        80.2979166666664,
                        8.893749999999876
                    ],
                    [
                        80.28958333333301,
                        8.902083333333188
                    ],
                    [
                        80.27708333333302,
                        8.902083333333188
                    ]
                ]
            }
        },
        {
            "type": "Feature",
            "properties": {
                "HYRIV_ID": 41397573,
                "NEXT_DOWN": 41397308,
                "MAIN_RIV": 41396545,
                "LENGTH_KM": 6.7399998,
                "DIST_DN_KM": 36.099998,
                "DIST_UP_KM": 11.5,
                "CATCH_SKM": 36.27,
                "UPLAND_SKM": 36.3,
                "ENDORHEIC": 0,
                "DIS_AV_CMS": 0.336,
                "ORD_STRA": 1,
                "ORD_CLAS": 2,
                "ORD_FLOW": 7,
                "HYBAS_L12": 4121155010.0,
                "Shape_Length": 0.0608608404908024
            },
            "geometry": {
                "type": "LineString",
                "coordinates": [
                    [
                        80.24583333333297,
                        8.849999999999874
                    ],
                    [
                        80.22708333333296,
                        8.868749999999885
                    ],
                    [
                        80.22708333333296,
                        8.88124999999986
                    ],
                    [
                        80.21458333333297,
                        8.893749999999876
                    ],
                    [
                        80.21458333333297,
                        8.897916666666525
                    ]
                ]
            }
        },
        {
            "type": "Feature",
            "properties": {
                "HYRIV_ID": 41397891,
                "NEXT_DOWN": 41397308,
                "MAIN_RIV": 41396545,
                "LENGTH_KM": 16.129999,
                "DIST_DN_KM": 36.3,
                "DIST_UP_KM": 29.5,
                "CATCH_SKM": 57.91,
                "UPLAND_SKM": 126.6,
                "ENDORHEIC": 0,
                "DIS_AV_CMS": 1.147,
                "ORD_STRA": 2,
                "ORD_CLAS": 1,
                "ORD_FLOW": 6,
                "HYBAS_L12": 4121155010.0,
                "Shape_Length": 0.1457106781186744
            },
            "geometry": {
                "type": "LineString",
                "coordinates": [
                    [
                        80.26041666666632,
                        8.793749999999854
                    ],
                    [
                        80.25624999999965,
                        8.793749999999854
                    ],
                    [
                        80.25208333333299,
                        8.797916666666517
                    ],
                    [
                        80.23958333333294,
                        8.797916666666517
                    ],
                    [
                        80.23541666666628,
                        8.802083333333222
                    ],
                    [
                        80.23124999999962,
                        8.802083333333222
                    ],
                    [
                        80.22708333333296,
                        8.80624999999987
                    ],
                    [
                        80.22708333333296,
                        8.810416666666534
                    ],
                    [
                        80.2229166666663,
                        8.814583333333196
                    ],
                    [
                        80.2229166666663,
                        8.827083333333213
                    ],
                    [
                        80.21458333333297,
                        8.835416666666525
                    ],
                    [
                        80.21458333333297,
                        8.8479166666665
                    ],
                    [
                        80.2104166666663,
                        8.852083333333205
                    ],
                    [
                        80.2104166666663,
                        8.868749999999885
                    ],
                    [
                        80.20208333333298,
                        8.877083333333196
                    ],
                    [
                        80.20208333333298,
                        8.88124999999986
                    ],
                    [
                        80.2104166666663,
                        8.88958333333317
                    ],
                    [
                        80.2104166666663,
                        8.893749999999876
                    ],
                    [
                        80.21458333333297,
                        8.897916666666525
                    ]
                ]
            }
        },
        {
            "type": "Feature",
            "properties": {
                "HYRIV_ID": 41397892,
                "NEXT_DOWN": 41397891,
                "MAIN_RIV": 41396545,
                "LENGTH_KM": 1.4400001,
                "DIST_DN_KM": 52.3,
                "DIST_UP_KM": 5.5,
                "CATCH_SKM": 12.73,
                "UPLAND_SKM": 12.7,
                "ENDORHEIC": 0,
                "DIS_AV_CMS": 0.122,
                "ORD_STRA": 1,
                "ORD_CLAS": 2,
                "ORD_FLOW": 7,
                "HYBAS_L12": 4121155010.0,
                "Shape_Length": 0.013005501431607266
            },
            "geometry": {
                "type": "LineString",
                "coordinates": [
                    [
                        80.26666666666645,
                        8.80416666666654
                    ],
                    [
                        80.26041666666632,
                        8.797916666666517
                    ],
                    [
                        80.26041666666632,
                        8.793749999999854
                    ]
                ]
            }
        },
        {
            "type": "Feature",
            "properties": {
                "HYRIV_ID": 41398002,
                "NEXT_DOWN": 41397891,
                "MAIN_RIV": 41396545,
                "LENGTH_KM": 9.2,
                "DIST_DN_KM": 52.400002,
                "DIST_UP_KM": 13.4,
                "CATCH_SKM": 56.0,
                "UPLAND_SKM": 56.0,
                "ENDORHEIC": 0,
                "DIS_AV_CMS": 0.542,
                "ORD_STRA": 1,
                "ORD_CLAS": 1,
                "ORD_FLOW": 7,
                "HYBAS_L12": 4121155010.0,
                "Shape_Length": 0.08342006366730803
            },
            "geometry": {
                "type": "LineString",
                "coordinates": [
                    [
                        80.32916666666634,
                        8.795833333333185
                    ],
                    [
                        80.32291666666643,
                        8.789583333333205
                    ],
                    [
                        80.31458333333305,
                        8.789583333333205
                    ],
                    [
                        80.31041666666627,
                        8.785416666666542
                    ],
                    [
                        80.29374999999973,
                        8.785416666666542
                    ],
                    [
                        80.28541666666635,
                        8.77708333333323
                    ],
                    [
                        80.27708333333302,
                        8.77708333333323
                    ],
                    [
                        80.26041666666632,
                        8.793749999999854
                    ]
                ]
            }
        }
    ]
}