{
    "type": "FeatureCollection",
    "features": [
        {
            "type": "Feature",
            "properties": {
                "HYRIV_ID": 41395152,
                "NEXT_DOWN": 0,
                "MAIN_RIV": 41395152,
                "LENGTH_KM": 26.85,
                "DIST_DN_KM": 0.0,
                "DIST_UP_KM": 31.4,
                "CATCH_SKM": 89.809998,
                "UPLAND_SKM": 89.599998,
                "ENDORHEIC": 0,
                "DIS_AV_CMS": 1.091,
                "ORD_STRA": 1,
                "ORD_CLAS": 1,
                "ORD_FLOW": 6,
                "HYBAS_L12": 4120049450.0,
                "Shape_Length": 0.24219757082488286
            },
            "geometry": {
                "type": "LineString",
                "coordinates": [
                    [
                        80.51666666666628,
                        9.239583333333194
                    ],
                    [
                        80.51041666666632,
                        9.239583333333194
                    ],
                    [
                        80.50624999999965,
                        9.243749999999856
                    ],
                    [
                        80.50624999999965,
                        9.252083333333168
                    ],
                    [
                        80.50208333333299,
                        9.256249999999874
                    ],
                    [
                        80.50208333333299,
                        9.260416666666536
                    ],
                    [
                        80.50624999999965,
                        9.264583333333185
                    ],
                    [
                        80.50624999999965,
                        9.268749999999848
                    ],
                    [
                        80.50208333333299,
                        9.272916666666553
                    ],
                    [
                        80.50208333333299,
                        9.285416666666528
                    ],
                    [
                        80.50624999999965,
                        9.289583333333177
                    ],
                    [
                        80.50624999999965,
                        9.29374999999984
                    ],
                    [
                        80.51041666666632,
                        9.297916666666545
                    ],
                    [
                        80.51041666666632,
                        9.31041666666652
                    ],
                    [
                        80.51458333333298,
                        9.314583333333168
                    ],
                    [
                        80.51458333333298,
                        9.322916666666536
                    ],
                    [
                        80.51874999999964,
                        9.327083333333185
                    ],
                    [
                        80.51874999999964,
                        9.352083333333177
                    ],
                    [
                        80.5229166666663,
                        9.35624999999984
                    ],
                    [
                        80.5229166666663,
                        9.360416666666545
                    ],
                    [
                        80.52708333333302,
                        9.364583333333208
                    ],
                    [
                        80.52708333333302,
                        9.37291666666652
                    ],
                    [
                        80.53124999999969,
                        9.377083333333182
                    ],
                    [
                        80.53124999999969,
                        9.402083333333174
                    ],
                    [
                        80.53541666666635,
                        9.406249999999865
                    ],
                    [
                        80.53541666666635,
                        9.41458333333319
                    ],
                    [
                        80.54374999999968,
                        9.422916666666502
                    ],
                    [
                        80.54374999999968,
                        9.439583333333225
                    ],
                    [
                        80.55208333333306,
                        9.447916666666536
                    ]
                ]
            }
        }
    ]
}