{
    "type": "FeatureCollection",
    "features": [
        {
            "type": "Feature",
            "properties": {
                "HYRIV_ID": 41399133,
                "NEXT_DOWN": 41399168,
                "MAIN_RIV": 41399445,
                "LENGTH_KM": 2.83,
                "DIST_DN_KM": 8.3,
                "DIST_UP_KM": 7.4,
                "CATCH_SKM": 21.01,
                "UPLAND_SKM": 21.0,
                "ENDORHEIC": 0,
                "DIS_AV_CMS": 0.336,
                "ORD_STRA": 1,
                "ORD_CLAS": 2,
                "ORD_FLOW": 7,
                "HYBAS_L12": 4120049640.0,
                "Shape_Length": 0.02550550143145694
            },
            "geometry": {
                "type": "LineString",
                "coordinates": [
                    [
                        81.07916666666628,
                        8.591666666666548
                    ],
                    [
                        81.08541666666625,
                        8.58541666666651
                    ],
                    [
                        81.08541666666625,
                        8.568749999999888
                    ]
                ]
            }
        },
        {
            "type": "Feature",
            "properties": {
                "HYRIV_ID": 41399168,
                "NEXT_DOWN": 41399230,
                "MAIN_RIV": 41399445,
                "LENGTH_KM": 1.3,
                "DIST_DN_KM": 7.2,
                "DIST_UP_KM": 21.4,
                "CATCH_SKM": 1.7,
                "UPLAND_SKM": 66.0,
                "ENDORHEIC": 0,
                "DIS_AV_CMS": 1.06,
                "ORD_STRA": 2,
                "ORD_CLAS": 1,
                "ORD_FLOW": 6,
                "HYBAS_L12": 4120049640.0,
                "Shape_Length": 0.011785113019875608
            },
            "geometry": {
                "type": "LineString",
                "coordinates": [
                    [
                        81.08541666666625,
                        8.568749999999888
                    ],
                    [
                        81.09374999999969,
                        8.56041666666652
                    ]
                ]
            }
        },
        {
            "type": "Feature",
            "properties": {
                "HYRIV_ID": 41399230,
                "NEXT_DOWN": 41399390,
                "MAIN_RIV": 41399445,
                "LENGTH_KM": 1.96,
                "DIST_DN_KM": 5.2,
                "DIST_UP_KM": 23.3,
                "CATCH_SKM": 5.0900002,
                "UPLAND_SKM": 84.699997,
                "ENDORHEIC": 0,
                "DIS_AV_CMS": 1.359,
                "ORD_STRA": 2,
                "ORD_CLAS": 1,
                "ORD_FLOW": 6,
                "HYBAS_L12": 4120049640.0,
                "Shape_Length": 0.017677669529677757
            },
            "geometry": {
                "type": "LineString",
                "coordinates": [
                    [
                        81.09374999999969,
                        8.56041666666652
                    ],
                    [
                        81.10624999999973,
                        8.547916666666545
                    ]
                ]
            }
        },
        {
            "type": "Feature",
            "properties": {
                "HYRIV_ID": 41399231,
                "NEXT_DOWN": 41399390,
                "MAIN_RIV": 41399445,
                "LENGTH_KM": 0.98,
                "DIST_DN_KM": 5.2,
                "DIST_UP_KM": 4.6,
                "CATCH_SKM": 8.7,
                "UPLAND_SKM": 8.7,
                "ENDORHEIC": 0,
                "DIS_AV_CMS": 0.141,
                "ORD_STRA": 1,
                "ORD_CLAS": 2,
                "ORD_FLOW": 7,
                "HYBAS_L12": 4120049640.0,
                "Shape_Length": 0.008838834764763513
            },
            "geometry": {
                "type": "LineString",
                "coordinates": [
                    [
                        81.11249999999964,
                        8.55416666666654
                    ],
                    [
                        81.10624999999973,
                        8.547916666666545
                    ]
                ]
            }
        },
        {
            "type": "Feature",
            "properties": {
                "HYRIV_ID": 41399263,
                "NEXT_DOWN": 41399230,
                "MAIN_RIV": 41399445,
                "LENGTH_KM": 4.6900001,
                "DIST_DN_KM": 7.0,
                "DIST_UP_KM": 8.6,
                "CATCH_SKM": 13.59,
                "UPLAND_SKM": 13.6,
                "ENDORHEIC": 0,
                "DIS_AV_CMS": 0.222,
                "ORD_STRA": 1,
                "ORD_CLAS": 2,
                "ORD_FLOW": 7,
                "HYBAS_L12": 4120049640.0,
                "Shape_Length": 0.04246828398093956
            },
            "geometry": {
                "type": "LineString",
                "coordinates": [
                    [
                        81.06249999999963,
                        8.541666666666565
                    ],
                    [
                        81.07708333333304,
                        8.55624999999987
                    ],
                    [
                        81.0812499999997,
                        8.552083333333208
                    ],
                    [
                        81.08958333333302,
                        8.56041666666652
                    ],
                    [
                        81.09374999999969,
                        8.56041666666652
                    ]
                ]
            }
        },
        {
            "type": "Feature",
            "properties": {
                "HYRIV_ID": 41399390,
                "NEXT_DOWN": 41399445,
                "MAIN_RIV": 41399445,
                "LENGTH_KM": 3.62,
                "DIST_DN_KM": 1.4,
                "DIST_UP_KM": 27.200001,
                "CATCH_SKM": 13.16,
                "UPLAND_SKM": 106.6,
                "ENDORHEIC": 0,
                "DIS_AV_CMS": 1.698,
                "ORD_STRA": 2,
                "ORD_CLAS": 1,
                "ORD_FLOW": 6,
                "HYBAS_L12": 4120049640.0,
                "Shape_Length": 0.03261844635304759
            },
            "geometry": {
                "type": "LineString",
                "coordinates": [
                    [
                        81.10624999999973,
                        8.547916666666545
                    ],
                    [
                        81.11041666666628,
                        8.54374999999984
                    ],
                    [
                        81.11041666666628,
                        8.531249999999865
                    ],
                    [
                        81.11458333333294,
                        8.527083333333216
                    ],
                    [
                        81.11458333333294,
                        8.518749999999848
                    ]
                ]
            }
        },
        {
            "type": "Feature",
            "properties": {
                "HYRIV_ID": 41399412,
                "NEXT_DOWN": 41399445,
                "MAIN_RIV": 41399445,
                "LENGTH_KM": 2.52,
                "DIST_DN_KM": 1.4,
                "DIST_UP_KM": 6.9,
                "CATCH_SKM": 8.4899998,
                "UPLAND_SKM": 8.5,
                "ENDORHEIC": 0,
                "DIS_AV_CMS": 0.141,
                "ORD_STRA": 1,
                "ORD_CLAS": 2,
                "ORD_FLOW": 7,
                "HYBAS_L12": 4120049640.0,
                "Shape_Length": 0.022916666666660035
            },
            "geometry": {
                "type": "LineString",
                "coordinates": [
                    [
                        81.09583333333293,
                        8.5145833333332
                    ],
                    [
                        81.11458333333294,
                        8.5145833333332
                    ],
                    [
                        81.11458333333294,
                        8.518749999999848
                    ]
                ]
            }
        },
        {
            "type": "Feature",
            "properties": {
                "HYRIV_ID": 41399445,
                "NEXT_DOWN": 0,
                "MAIN_RIV": 41399445,
                "LENGTH_KM": 1.3,
                "DIST_DN_KM": 0.0,
                "DIST_UP_KM": 28.3,
                "CATCH_SKM": 2.97,
                "UPLAND_SKM": 117.6,
                "ENDORHEIC": 0,
                "DIS_AV_CMS": 1.875,
                "ORD_STRA": 2,
                "ORD_CLAS": 1,
                "ORD_FLOW": 6,
                "HYBAS_L12": 4120049640.0,
                "Shape_Length": 0.011785113019755026
            },
            "geometry": {
                "type": "LineString",
                "coordinates": [
                    [
                        81.11458333333294,
                        8.518749999999848
                    ],
                    [
                        81.12291666666627,
                        8.510416666666536
                    ]
                ]
            }
        },
        {
            "type": "Feature",
            "properties": {
                "HYRIV_ID": 41399574,
                "NEXT_DOWN": 41399168,
                "MAIN_RIV": 41399445,
                "LENGTH_KM": 15.44,
                "DIST_DN_KM": 8.3,
                "DIST_UP_KM": 20.3,
                "CATCH_SKM": 43.310001,
                "UPLAND_SKM": 43.3,
                "ENDORHEIC": 0,
                "DIS_AV_CMS": 0.7,
                "ORD_STRA": 1,
                "ORD_CLAS": 1,
                "ORD_FLOW": 7,
                "HYBAS_L12": 4120049640.0,
                "Shape_Length": 0.13960873605991836
            },
            "geometry": {
                "type": "LineString",
                "coordinates": [
                    [
                        81.02499999999972,
                        8.47916666666655
                    ],
                    [
                        81.03124999999963,
                        8.485416666666545
                    ],
                    [
                        81.03124999999963,
                        8.493749999999856
                    ],
                    [
                        81.0354166666663,
                        8.49791666666652
                    ],
                    [
                        81.0354166666663,
                        8.502083333333225
                    ],
                    [
                        81.03958333333296,
                        8.506249999999874
                    ],
                    [
                        81.03958333333296,
                        8.510416666666536
                    ],
                    [
                        81.03124999999963,
                        8.518749999999848
                    ],
                    [
                        81.03124999999963,
                        8.527083333333216
                    ],
                    [
                        81.02708333333297,
                        8.531249999999865
                    ],
                    [
                        81.02708333333297,
                        8.535416666666528
                    ],
                    [
                        81.0354166666663,
                        8.54374999999984
                    ],
                    [
                        81.03958333333296,
                        8.54374999999984
                    ],
                    [
                        81.04374999999962,
                        8.547916666666545
                    ],
                    [
                        81.04791666666628,
                        8.547916666666545
                    ],
                    [
                        81.06041666666633,
                        8.56041666666652
                    ],
                    [
                        81.06458333333299,
                        8.56041666666652
                    ],
                    [
                        81.07291666666632,
                        8.568749999999888
                    ],
                    [
                        81.08541666666625,
                        8.568749999999888
                    ]
                ]
            }
        }
    ]
}