{
    "type": "FeatureCollection",
    "features": [
        {
            "type": "Feature",
            "properties": {
                "HYRIV_ID": 41393958,
                "NEXT_DOWN": 41393959,
                "MAIN_RIV": 41393959,
                "LENGTH_KM": 5.14,
                "DIST_DN_KM": 1.3,
                "DIST_UP_KM": 8.7,
                "CATCH_SKM": 23.93,
                "UPLAND_SKM": 23.9,
                "ENDORHEIC": 0,
                "DIS_AV_CMS": 0.325,
                "ORD_STRA": 1,
                "ORD_CLAS": 1,
                "ORD_FLOW": 7,
                "HYBAS_L12": 4120049470.0,
                "Shape_Length": 0.046486892706212
            },
            "geometry": {
                "type": "LineString",
                "coordinates": [
                    [
                        80.63541666666632,
                        9.408333333333196
                    ],
                    [
                        80.63541666666632,
                        9.422916666666502
                    ],
                    [
                        80.63958333333298,
                        9.427083333333208
                    ],
                    [
                        80.64374999999964,
                        9.427083333333208
                    ],
                    [
                        80.6479166666663,
                        9.422916666666502
                    ],
                    [
                        80.6479166666663,
                        9.41874999999984
                    ],
                    [
                        80.65624999999963,
                        9.410416666666528
                    ]
                ]
            }
        },
        {
            "type": "Feature",
            "properties": {
                "HYRIV_ID": 41393959,
                "NEXT_DOWN": 0,
                "MAIN_RIV": 41393959,
                "LENGTH_KM": 0.91,
                "DIST_DN_KM": 0.0,
                "DIST_UP_KM": 9.8,
                "CATCH_SKM": 0.64,
                "UPLAND_SKM": 33.900002,
                "ENDORHEIC": 0,
                "DIS_AV_CMS": 0.459,
                "ORD_STRA": 2,
                "ORD_CLAS": 1,
                "ORD_FLOW": 7,
                "HYBAS_L12": 4120049470.0,
                "Shape_Length": 0.008333333333382598
            },
            "geometry": {
                "type": "LineString",
                "coordinates": [
                    [
                        80.65624999999963,
                        9.410416666666528
                    ],
                    [
                        80.66458333333301,
                        9.410416666666528
                    ]
                ]
            }
        },
        {
            "type": "Feature",
            "properties": {
                "HYRIV_ID": 41394067,
                "NEXT_DOWN": 41393959,
                "MAIN_RIV": 41393959,
                "LENGTH_KM": 2.45,
                "DIST_DN_KM": 1.1,
                "DIST_UP_KM": 8.6,
                "CATCH_SKM": 9.5299997,
                "UPLAND_SKM": 9.5,
                "ENDORHEIC": 0,
                "DIS_AV_CMS": 0.129,
                "ORD_STRA": 1,
                "ORD_CLAS": 2,
                "ORD_FLOW": 7,
                "HYBAS_L12": 4120049470.0,
                "Shape_Length": 0.022201779686470784
            },
            "geometry": {
                "type": "LineString",
                "coordinates": [
                    [
                        80.64166666666628,
                        9.39791666666651
                    ],
                    [
                        80.6479166666663,
                        9.39791666666651
                    ],
                    [
                        80.65624999999963,
                        9.406249999999865
                    ],
                    [
                        80.65624999999963,
                        9.410416666666528
                    ]
                ]
            }
        }
    ]
}