{
    "type": "FeatureCollection",
    "features": [
        {
            "type": "Feature",
            "properties": {
                "HYRIV_ID": 41399515,
                "NEXT_DOWN": 0,
                "MAIN_RIV": 41399515,
                "LENGTH_KM": 11.04,
                "DIST_DN_KM": 0.0,
                "DIST_UP_KM": 23.9,
                "CATCH_SKM": 30.780001,
                "UPLAND_SKM": 83.699997,
                "ENDORHEIC": 0,
                "DIS_AV_CMS": 0.85100001,
                "ORD_STRA": 2,
                "ORD_CLAS": 1,
                "ORD_FLOW": 7,
                "HYBAS_L12": 4120049250.0,
                "Shape_Length": 0.09987734478544719
            },
            "geometry": {
                "type": "LineString",
                "coordinates": [
                    [
                        79.95208333333298,
                        8.493749999999856
                    ],
                    [
                        79.94791666666632,
                        8.49791666666652
                    ],
                    [
                        79.9437499999996,
                        8.49791666666652
                    ],
                    [
                        79.93958333333299,
                        8.502083333333225
                    ],
                    [
                        79.93541666666627,
                        8.49791666666652
                    ],
                    [
                        79.9229166666664,
                        8.510416666666536
                    ],
                    [
                        79.9104166666663,
                        8.510416666666536
                    ],
                    [
                        79.90624999999974,
                        8.5145833333332
                    ],
                    [
                        79.90208333333308,
                        8.5145833333332
                    ],
                    [
                        79.89791666666636,
                        8.510416666666536
                    ],
                    [
                        79.8937499999997,
                        8.5145833333332
                    ],
                    [
                        79.8937499999997,
                        8.52291666666651
                    ],
                    [
                        79.8812499999996,
                        8.535416666666528
                    ]
                ]
            }
        },
        {
            "type": "Feature",
            "properties": {
                "HYRIV_ID": 41399516,
                "NEXT_DOWN": 41399515,
                "MAIN_RIV": 41399515,
                "LENGTH_KM": 4.35,
                "DIST_DN_KM": 11.2,
                "DIST_UP_KM": 10.1,
                "CATCH_SKM": 19.110001,
                "UPLAND_SKM": 19.1,
                "ENDORHEIC": 0,
                "DIS_AV_CMS": 0.197,
                "ORD_STRA": 1,
                "ORD_CLAS": 2,
                "ORD_FLOW": 7,
                "HYBAS_L12": 4120049250.0,
                "Shape_Length": 0.039583333333325754
            },
            "geometry": {
                "type": "LineString",
                "coordinates": [
                    [
                        79.9916666666663,
                        8.493749999999856
                    ],
                    [
                        79.95208333333298,
                        8.493749999999856
                    ]
                ]
            }
        },
        {
            "type": "Feature",
            "properties": {
                "HYRIV_ID": 41399639,
                "NEXT_DOWN": 41399515,
                "MAIN_RIV": 41399515,
                "LENGTH_KM": 7.1900001,
                "DIST_DN_KM": 11.4,
                "DIST_UP_KM": 12.9,
                "CATCH_SKM": 34.610001,
                "UPLAND_SKM": 34.599998,
                "ENDORHEIC": 0,
                "DIS_AV_CMS": 0.35600001,
                "ORD_STRA": 1,
                "ORD_CLAS": 1,
                "ORD_FLOW": 7,
                "HYBAS_L12": 4120049250.0,
                "Shape_Length": 0.06502750715747849
            },
            "geometry": {
                "type": "LineString",
                "coordinates": [
                    [
                        79.98749999999964,
                        8.462499999999885
                    ],
                    [
                        79.98124999999968,
                        8.468749999999865
                    ],
                    [
                        79.97708333333296,
                        8.468749999999865
                    ],
                    [
                        79.96874999999963,
                        8.47708333333319
                    ],
                    [
                        79.96874999999963,
                        8.481249999999882
                    ],
                    [
                        79.96458333333297,
                        8.485416666666545
                    ],
                    [
                        79.9604166666663,
                        8.481249999999882
                    ],
                    [
                        79.95208333333298,
                        8.481249999999882
                    ],
                    [
                        79.94791666666632,
                        8.485416666666545
                    ],
                    [
                        79.94791666666632,
                        8.489583333333208
                    ],
                    [
                        79.95208333333298,
                        8.493749999999856
                    ]
                ]
            }
        }
    ]
}