{
    "type": "FeatureCollection",
    "features": [
        {
            "type": "Feature",
            "properties": {
                "HYRIV_ID": 41398298,
                "NEXT_DOWN": 41398325,
                "MAIN_RIV": 41398326,
                "LENGTH_KM": 2.81,
                "DIST_DN_KM": 5.0,
                "DIST_UP_KM": 7.3,
                "CATCH_SKM": 12.52,
                "UPLAND_SKM": 12.5,
                "ENDORHEIC": 0,
                "DIS_AV_CMS": 0.191,
                "ORD_STRA": 1,
                "ORD_CLAS": 2,
                "ORD_FLOW": 7,
                "HYBAS_L12": 4120049620.0,
                "Shape_Length": 0.025505501431452065
            },
            "geometry": {
                "type": "LineString",
                "coordinates": [
                    [
                        81.12083333333297,
                        8.724999999999874
                    ],
                    [
                        81.1270833333331,
                        8.731249999999854
                    ],
                    [
                        81.14374999999964,
                        8.731249999999854
                    ]
                ]
            }
        },
        {
            "type": "Feature",
            "properties": {
                "HYRIV_ID": 41398324,
                "NEXT_DOWN": 41398325,
                "MAIN_RIV": 41398326,
                "LENGTH_KM": 1.35,
                "DIST_DN_KM": 5.2,
                "DIST_UP_KM": 5.3,
                "CATCH_SKM": 10.82,
                "UPLAND_SKM": 10.8,
                "ENDORHEIC": 0,
                "DIS_AV_CMS": 0.166,
                "ORD_STRA": 1,
                "ORD_CLAS": 3,
                "ORD_FLOW": 7,
                "HYBAS_L12": 4120049620.0,
                "Shape_Length": 0.012142556509902836
            },
            "geometry": {
                "type": "LineString",
                "coordinates": [
                    [
                        81.13958333333292,
                        8.72083333333321
                    ],
                    [
                        81.13958333333292,
                        8.72708333333319
                    ],
                    [
                        81.14374999999964,
                        8.731249999999854
                    ]
                ]
            }
        },
        {
            "type": "Feature",
            "properties": {
                "HYRIV_ID": 41398325,
                "NEXT_DOWN": 41398326,
                "MAIN_RIV": 41398326,
                "LENGTH_KM": 4.25,
                "DIST_DN_KM": 1.0,
                "DIST_UP_KM": 11.4,
                "CATCH_SKM": 7.85,
                "UPLAND_SKM": 31.200001,
                "ENDORHEIC": 0,
                "DIS_AV_CMS": 0.47,
                "ORD_STRA": 2,
                "ORD_CLAS": 2,
                "ORD_FLOW": 7,
                "HYBAS_L12": 4120049620.0,
                "Shape_Length": 0.03851100286292769
            },
            "geometry": {
                "type": "LineString",
                "coordinates": [
                    [
                        81.14374999999964,
                        8.731249999999854
                    ],
                    [
                        81.15208333333297,
                        8.731249999999854
                    ],
                    [
                        81.1604166666663,
                        8.722916666666542
                    ],
                    [
                        81.16874999999962,
                        8.722916666666542
                    ],
                    [
                        81.16874999999962,
                        8.72708333333319
                    ],
                    [
                        81.17291666666628,
                        8.722916666666542
                    ]
                ]
            }
        },
        {
            "type": "Feature",
            "properties": {
                "HYRIV_ID": 41398326,
                "NEXT_DOWN": 0,
                "MAIN_RIV": 41398326,
                "LENGTH_KM": 0.65,
                "DIST_DN_KM": 0.0,
                "DIST_UP_KM": 29.6,
                "CATCH_SKM": 0.64,
                "UPLAND_SKM": 192.5,
                "ENDORHEIC": 0,
                "DIS_AV_CMS": 2.892,
                "ORD_STRA": 3,
                "ORD_CLAS": 1,
                "ORD_FLOW": 6,
                "HYBAS_L12": 4120049620.0,
                "Shape_Length": 0.005892556509872488
            },
            "geometry": {
                "type": "LineString",
                "coordinates": [
                    [
                        81.17291666666628,
                        8.722916666666542
                    ],
                    [
                        81.17708333333294,
                        8.72708333333319
                    ]
                ]
            }
        },
        {
            "type": "Feature",
            "properties": {
                "HYRIV_ID": 41398621,
                "NEXT_DOWN": 41398326,
                "MAIN_RIV": 41398326,
                "LENGTH_KM": 6.4,
                "DIST_DN_KM": 0.8,
                "DIST_UP_KM": 29.1,
                "CATCH_SKM": 21.01,
                "UPLAND_SKM": 161.10001,
                "ENDORHEIC": 0,
                "DIS_AV_CMS": 2.4230001,
                "ORD_STRA": 2,
                "ORD_CLAS": 1,
                "ORD_FLOW": 6,
                "HYBAS_L12": 4120049620.0,
                "Shape_Length": 0.057618446353172134
            },
            "geometry": {
                "type": "LineString",
                "coordinates": [
                    [
                        81.18124999999966,
                        8.668749999999854
                    ],
                    [
                        81.18124999999966,
                        8.693749999999888
                    ],
                    [
                        81.17708333333294,
                        8.69791666666655
                    ],
                    [
                        81.17708333333294,
                        8.710416666666525
                    ],
                    [
                        81.17291666666628,
                        8.714583333333174
                    ],
                    [
                        81.17291666666628,
                        8.722916666666542
                    ]
                ]
            }
        },
        {
            "type": "Feature",
            "properties": {
                "HYRIV_ID": 41398648,
                "NEXT_DOWN": 41398621,
                "MAIN_RIV": 41398326,
                "LENGTH_KM": 0.46,
                "DIST_DN_KM": 7.2,
                "DIST_UP_KM": 22.700001,
                "CATCH_SKM": 0.21,
                "UPLAND_SKM": 121.0,
                "ENDORHEIC": 0,
                "DIS_AV_CMS": 1.859,
                "ORD_STRA": 2,
                "ORD_CLAS": 1,
                "ORD_FLOW": 6,
                "HYBAS_L12": 4120049620.0,
                "Shape_Length": 0.004166666666662877
            },
            "geometry": {
                "type": "LineString",
                "coordinates": [
                    [
                        81.18124999999966,
                        8.66458333333319
                    ],
                    [
                        81.18124999999966,
                        8.668749999999854
                    ]
                ]
            }
        },
        {
            "type": "Feature",
            "properties": {
                "HYRIV_ID": 41398649,
                "NEXT_DOWN": 41398648,
                "MAIN_RIV": 41398326,
                "LENGTH_KM": 0.69,
                "DIST_DN_KM": 7.6,
                "DIST_UP_KM": 3.6,
                "CATCH_SKM": 6.58,
                "UPLAND_SKM": 6.6,
                "ENDORHEIC": 0,
                "DIS_AV_CMS": 0.103,
                "ORD_STRA": 1,
                "ORD_CLAS": 2,
                "ORD_FLOW": 7,
                "HYBAS_L12": 4120049620.0,
                "Shape_Length": 0.006249999999965894
            },
            "geometry": {
                "type": "LineString",
                "coordinates": [
                    [
                        81.18749999999963,
                        8.66458333333319
                    ],
                    [
                        81.18124999999966,
                        8.66458333333319
                    ]
                ]
            }
        },
        {
            "type": "Feature",
            "properties": {
                "HYRIV_ID": 41398670,
                "NEXT_DOWN": 41398621,
                "MAIN_RIV": 41398326,
                "LENGTH_KM": 5.5100002,
                "DIST_DN_KM": 7.4,
                "DIST_UP_KM": 10.8,
                "CATCH_SKM": 19.1,
                "UPLAND_SKM": 19.1,
                "ENDORHEIC": 0,
                "DIS_AV_CMS": 0.294,
                "ORD_STRA": 1,
                "ORD_CLAS": 2,
                "ORD_FLOW": 7,
                "HYBAS_L12": 4120049620.0,
                "Shape_Length": 0.04993867239262706
            },
            "geometry": {
                "type": "LineString",
                "coordinates": [
                    [
                        81.14166666666634,
                        8.677083333333208
                    ],
                    [
                        81.15208333333297,
                        8.677083333333208
                    ],
                    [
                        81.16458333333296,
                        8.66458333333319
                    ],
                    [
                        81.16874999999962,
                        8.66458333333319
                    ],
                    [
                        81.17291666666628,
                        8.660416666666542
                    ],
                    [
                        81.18124999999966,
                        8.668749999999854
                    ]
                ]
            }
        },
        {
            "type": "Feature",
            "properties": {
                "HYRIV_ID": 41398702,
                "NEXT_DOWN": 41398648,
                "MAIN_RIV": 41398326,
                "LENGTH_KM": 3.98,
                "DIST_DN_KM": 7.7,
                "DIST_UP_KM": 22.3,
                "CATCH_SKM": 15.7,
                "UPLAND_SKM": 114.2,
                "ENDORHEIC": 0,
                "DIS_AV_CMS": 1.755,
                "ORD_STRA": 2,
                "ORD_CLAS": 1,
                "ORD_FLOW": 6,
                "HYBAS_L12": 4120049620.0,
                "Shape_Length": 0.03607022603954476
            },
            "geometry": {
                "type": "LineString",
                "coordinates": [
                    [
                        81.15624999999963,
                        8.652083333333216
                    ],
                    [
                        81.1604166666663,
                        8.652083333333216
                    ],
                    [
                        81.16458333333296,
                        8.65624999999988
                    ],
                    [
                        81.16874999999962,
                        8.65624999999988
                    ],
                    [
                        81.17291666666628,
                        8.652083333333216
                    ],
                    [
                        81.18124999999966,
                        8.660416666666542
                    ],
                    [
                        81.18124999999966,
                        8.66458333333319
                    ]
                ]
            }
        },
        {
            "type": "Feature",
            "properties": {
                "HYRIV_ID": 41398829,
                "NEXT_DOWN": 41398702,
                "MAIN_RIV": 41398326,
                "LENGTH_KM": 2.6900001,
                "DIST_DN_KM": 11.6,
                "DIST_UP_KM": 10.9,
                "CATCH_SKM": 2.76,
                "UPLAND_SKM": 41.0,
                "ENDORHEIC": 0,
                "DIS_AV_CMS": 0.64499998,
                "ORD_STRA": 2,
                "ORD_CLAS": 2,
                "ORD_FLOW": 7,
                "HYBAS_L12": 4120049620.0,
                "Shape_Length": 0.024285113019816434
            },
            "geometry": {
                "type": "LineString",
                "coordinates": [
                    [
                        81.14791666666625,
                        8.631249999999888
                    ],
                    [
                        81.15208333333297,
                        8.635416666666536
                    ],
                    [
                        81.15208333333297,
                        8.643749999999862
                    ],
                    [
                        81.15624999999963,
                        8.64791666666651
                    ],
                    [
                        81.15624999999963,
                        8.652083333333216
                    ]
                ]
            }
        },
        {
            "type": "Feature",
            "properties": {
                "HYRIV_ID": 41398848,
                "NEXT_DOWN": 41398702,
                "MAIN_RIV": 41398326,
                "LENGTH_KM": 14.05,
                "DIST_DN_KM": 11.6,
                "DIST_UP_KM": 18.3,
                "CATCH_SKM": 57.509998,
                "UPLAND_SKM": 57.5,
                "ENDORHEIC": 0,
                "DIS_AV_CMS": 0.88300002,
                "ORD_STRA": 1,
                "ORD_CLAS": 1,
                "ORD_FLOW": 7,
                "HYBAS_L12": 4120049620.0,
                "Shape_Length": 0.12710873606001083
            },
            "geometry": {
                "type": "LineString",
                "coordinates": [
                    [
                        81.07083333333296,
                        8.62499999999985
                    ],
                    [
                        81.07708333333304,
                        8.631249999999888
                    ],
                    [
                        81.07708333333304,
                        8.635416666666536
                    ],
                    [
                        81.0812499999997,
                        8.6395833333332
                    ],
                    [
                        81.0812499999997,
                        8.643749999999862
                    ],
                    [
                        81.08541666666625,
                        8.64791666666651
                    ],
                    [
                        81.08541666666625,
                        8.65624999999988
                    ],
                    [
                        81.08958333333302,
                        8.660416666666542
                    ],
                    [
                        81.09374999999969,
                        8.660416666666542
                    ],
                    [
                        81.09791666666635,
                        8.66458333333319
                    ],
                    [
                        81.11041666666628,
                        8.652083333333216
                    ],
                    [
                        81.11458333333294,
                        8.652083333333216
                    ],
                    [
                        81.1270833333331,
                        8.66458333333319
                    ],
                    [
                        81.1312499999996,
                        8.660416666666542
                    ],
                    [
                        81.13541666666632,
                        8.660416666666542
                    ],
                    [
                        81.14374999999964,
                        8.652083333333216
                    ],
                    [
                        81.15624999999963,
                        8.652083333333216
                    ]
                ]
            }
        },
        {
            "type": "Feature",
            "properties": {
                "HYRIV_ID": 41398849,
                "NEXT_DOWN": 41398829,
                "MAIN_RIV": 41398326,
                "LENGTH_KM": 4.8600001,
                "DIST_DN_KM": 14.3,
                "DIST_UP_KM": 8.2,
                "CATCH_SKM": 16.549999,
                "UPLAND_SKM": 16.6,
                "ENDORHEIC": 0,
                "DIS_AV_CMS": 0.26100001,
                "ORD_STRA": 1,
                "ORD_CLAS": 3,
                "ORD_FLOW": 7,
                "HYBAS_L12": 4120049620.0,
                "Shape_Length": 0.04404611588262768
            },
            "geometry": {
                "type": "LineString",
                "coordinates": [
                    [
                        81.11249999999964,
                        8.627083333333182
                    ],
                    [
                        81.11874999999961,
                        8.627083333333182
                    ],
                    [
                        81.1270833333331,
                        8.635416666666536
                    ],
                    [
                        81.1312499999996,
                        8.635416666666536
                    ],
                    [
                        81.13541666666632,
                        8.631249999999888
                    ],
                    [
                        81.13958333333292,
                        8.635416666666536
                    ],
                    [
                        81.14374999999964,
                        8.631249999999888
                    ],
                    [
                        81.14791666666625,
                        8.631249999999888
                    ]
                ]
            }
        },
        {
            "type": "Feature",
            "properties": {
                "HYRIV_ID": 41398919,
                "NEXT_DOWN": 41398829,
                "MAIN_RIV": 41398326,
                "LENGTH_KM": 3.57,
                "DIST_DN_KM": 14.5,
                "DIST_UP_KM": 8.1,
                "CATCH_SKM": 21.65,
                "UPLAND_SKM": 21.6,
                "ENDORHEIC": 0,
                "DIS_AV_CMS": 0.345,
                "ORD_STRA": 1,
                "ORD_CLAS": 2,
                "ORD_FLOW": 7,
                "HYBAS_L12": 4120049620.0,
                "Shape_Length": 0.03226100286299539
            },
            "geometry": {
                "type": "LineString",
                "coordinates": [
                    [
                        81.13749999999968,
                        8.610416666666545
                    ],
                    [
                        81.14374999999964,
                        8.610416666666545
                    ],
                    [
                        81.14791666666625,
                        8.614583333333208
                    ],
                    [
                        81.14791666666625,
                        8.62291666666652
                    ],
                    [
                        81.15208333333297,
                        8.627083333333182
                    ],
                    [
                        81.14791666666625,
                        8.631249999999888
                    ]
                ]
            }
        }
    ]
}