{
    "type": "FeatureCollection",
    "features": [
        {
            "type": "Feature",
            "properties": {
                "HYRIV_ID": 41393717,
                "NEXT_DOWN": 0,
                "MAIN_RIV": 41393717,
                "LENGTH_KM": 2.9200001,
                "DIST_DN_KM": 0.0,
                "DIST_UP_KM": 10.1,
                "CATCH_SKM": 21.809999,
                "UPLAND_SKM": 21.6,
                "ENDORHEIC": 0,
                "DIS_AV_CMS": 0.258,
                "ORD_STRA": 1,
                "ORD_CLAS": 1,
                "ORD_FLOW": 7,
                "HYBAS_L12": 4120049430.0,
                "Shape_Length": 0.026368446353183903
            },
            "geometry": {
                "type": "LineString",
                "coordinates": [
                    [
                        80.36874999999966,
                        9.445833333333162
                    ],
                    [
                        80.36874999999966,
                        9.456249999999848
                    ],
                    [
                        80.36041666666628,
                        9.464583333333216
                    ],
                    [
                        80.36041666666628,
                        9.46874999999988
                    ]
                ]
            }
        }
    ]
}