{
    "type": "FeatureCollection",
    "features": [
        {
            "type": "Feature",
            "properties": {
                "HYRIV_ID": 41393657,
                "NEXT_DOWN": 0,
                "MAIN_RIV": 41393657,
                "LENGTH_KM": 2.22,
                "DIST_DN_KM": 0.0,
                "DIST_UP_KM": 49.3,
                "CATCH_SKM": 16.3,
                "UPLAND_SKM": 347.60001,
                "ENDORHEIC": 0,
                "DIS_AV_CMS": 3.319,
                "ORD_STRA": 3,
                "ORD_CLAS": 1,
                "ORD_FLOW": 6,
                "HYBAS_L12": 4120049420.0,
                "Shape_Length": 0.020118446353161165
            },
            "geometry": {
                "type": "LineString",
                "coordinates": [
                    [
                        80.23958333333294,
                        9.456249999999848
                    ],
                    [
                        80.23958333333294,
                        9.46041666666651
                    ],
                    [
                        80.24791666666633,
                        9.46874999999988
                    ],
                    [
                        80.25208333333299,
                        9.46874999999988
                    ]
                ]
            }
        },
        {
            "type": "Feature",
            "properties": {
                "HYRIV_ID": 41393716,
                "NEXT_DOWN": 41393657,
                "MAIN_RIV": 41393657,
                "LENGTH_KM": 1.8,
                "DIST_DN_KM": 2.5,
                "DIST_UP_KM": 5.5,
                "CATCH_SKM": 13.34,
                "UPLAND_SKM": 13.3,
                "ENDORHEIC": 0,
                "DIS_AV_CMS": 0.156,
                "ORD_STRA": 1,
                "ORD_CLAS": 2,
                "ORD_FLOW": 7,
                "HYBAS_L12": 4120049420.0,
                "Shape_Length": 0.016309223176440252
            },
            "geometry": {
                "type": "LineString",
                "coordinates": [
                    [
                        80.22916666666637,
                        9.447916666666536
                    ],
                    [
                        80.23541666666628,
                        9.447916666666536
                    ],
                    [
                        80.23958333333294,
                        9.4520833333332
                    ],
                    [
                        80.23958333333294,
                        9.456249999999848
                    ]
                ]
            }
        },
        {
            "type": "Feature",
            "properties": {
                "HYRIV_ID": 41393789,
                "NEXT_DOWN": 41393657,
                "MAIN_RIV": 41393657,
                "LENGTH_KM": 3.52,
                "DIST_DN_KM": 2.6,
                "DIST_UP_KM": 46.900002,
                "CATCH_SKM": 9.1099997,
                "UPLAND_SKM": 319.0,
                "ENDORHEIC": 0,
                "DIS_AV_CMS": 3.0369999,
                "ORD_STRA": 3,
                "ORD_CLAS": 1,
                "ORD_FLOW": 6,
                "HYBAS_L12": 4120049420.0,
                "Shape_Length": 0.03190355937291863
            },
            "geometry": {
                "type": "LineString",
                "coordinates": [
                    [
                        80.26041666666632,
                        9.43541666666652
                    ],
                    [
                        80.25208333333299,
                        9.443749999999831
                    ],
                    [
                        80.24791666666633,
                        9.443749999999831
                    ],
                    [
                        80.24791666666633,
                        9.447916666666536
                    ],
                    [
                        80.23958333333294,
                        9.456249999999848
                    ]
                ]
            }
        },
        {
            "type": "Feature",
            "properties": {
                "HYRIV_ID": 41393790,
                "NEXT_DOWN": 41393789,
                "MAIN_RIV": 41393657,
                "LENGTH_KM": 0.46,
                "DIST_DN_KM": 6.0,
                "DIST_UP_KM": 43.599998,
                "CATCH_SKM": 0.64,
                "UPLAND_SKM": 270.70001,
                "ENDORHEIC": 0,
                "DIS_AV_CMS": 2.5780001,
                "ORD_STRA": 3,
                "ORD_CLAS": 1,
                "ORD_FLOW": 6,
                "HYBAS_L12": 4120049420.0,
                "Shape_Length": 0.004166666666662877
            },
            "geometry": {
                "type": "LineString",
                "coordinates": [
                    [
                        80.26458333333298,
                        9.43541666666652
                    ],
                    [
                        80.26041666666632,
                        9.43541666666652
                    ]
                ]
            }
        },
        {
            "type": "Feature",
            "properties": {
                "HYRIV_ID": 41393834,
                "NEXT_DOWN": 41393789,
                "MAIN_RIV": 41393657,
                "LENGTH_KM": 0.93,
                "DIST_DN_KM": 6.0,
                "DIST_UP_KM": 10.5,
                "CATCH_SKM": 0.85,
                "UPLAND_SKM": 39.200001,
                "ENDORHEIC": 0,
                "DIS_AV_CMS": 0.433,
                "ORD_STRA": 2,
                "ORD_CLAS": 2,
                "ORD_FLOW": 7,
                "HYBAS_L12": 4120049420.0,
                "Shape_Length": 0.008333333333311543
            },
            "geometry": {
                "type": "LineString",
                "coordinates": [
                    [
                        80.26041666666632,
                        9.427083333333208
                    ],
                    [
                        80.26041666666632,
                        9.43541666666652
                    ]
                ]
            }
        },
        {
            "type": "Feature",
            "properties": {
                "HYRIV_ID": 41393835,
                "NEXT_DOWN": 41393790,
                "MAIN_RIV": 41393657,
                "LENGTH_KM": 1.4400001,
                "DIST_DN_KM": 6.4,
                "DIST_UP_KM": 6.3,
                "CATCH_SKM": 12.28,
                "UPLAND_SKM": 12.3,
                "ENDORHEIC": 0,
                "DIS_AV_CMS": 0.139,
                "ORD_STRA": 1,
                "ORD_CLAS": 2,
                "ORD_FLOW": 7,
                "HYBAS_L12": 4120049420.0,
                "Shape_Length": 0.013005501431486682
            },
            "geometry": {
                "type": "LineString",
                "coordinates": [
                    [
                        80.27083333333294,
                        9.424999999999834
                    ],
                    [
                        80.26458333333298,
                        9.431249999999856
                    ],
                    [
                        80.26458333333298,
                        9.43541666666652
                    ]
                ]
            }
        },
        {
            "type": "Feature",
            "properties": {
                "HYRIV_ID": 41393919,
                "NEXT_DOWN": 41393834,
                "MAIN_RIV": 41393657,
                "LENGTH_KM": 3.6500001,
                "DIST_DN_KM": 7.1,
                "DIST_UP_KM": 7.6,
                "CATCH_SKM": 22.02,
                "UPLAND_SKM": 22.0,
                "ENDORHEIC": 0,
                "DIS_AV_CMS": 0.24600001,
                "ORD_STRA": 1,
                "ORD_CLAS": 3,
                "ORD_FLOW": 7,
                "HYBAS_L12": 4120049420.0,
                "Shape_Length": 0.03312394778459416
            },
            "geometry": {
                "type": "LineString",
                "coordinates": [
                    [
                        80.23333333333304,
                        9.41249999999986
                    ],
                    [
                        80.23958333333294,
                        9.41874999999984
                    ],
                    [
                        80.24374999999966,
                        9.41874999999984
                    ],
                    [
                        80.24791666666633,
                        9.422916666666502
                    ],
                    [
                        80.25624999999965,
                        9.422916666666502
                    ],
                    [
                        80.26041666666632,
                        9.427083333333208
                    ]
                ]
            }
        },
        {
            "type": "Feature",
            "properties": {
                "HYRIV_ID": 41393956,
                "NEXT_DOWN": 41393790,
                "MAIN_RIV": 41393657,
                "LENGTH_KM": 7.39,
                "DIST_DN_KM": 6.4,
                "DIST_UP_KM": 43.099998,
                "CATCH_SKM": 18.639999,
                "UPLAND_SKM": 257.79999,
                "ENDORHEIC": 0,
                "DIS_AV_CMS": 2.4430001,
                "ORD_STRA": 3,
                "ORD_CLAS": 1,
                "ORD_FLOW": 6,
                "HYBAS_L12": 4120049420.0,
                "Shape_Length": 0.06696278254944059
            },
            "geometry": {
                "type": "LineString",
                "coordinates": [
                    [
                        80.31041666666627,
                        9.410416666666528
                    ],
                    [
                        80.30624999999961,
                        9.41458333333319
                    ],
                    [
                        80.30624999999961,
                        9.427083333333208
                    ],
                    [
                        80.30208333333294,
                        9.431249999999856
                    ],
                    [
                        80.2979166666664,
                        9.431249999999856
                    ],
                    [
                        80.28958333333301,
                        9.439583333333225
                    ],
                    [
                        80.28541666666635,
                        9.439583333333225
                    ],
                    [
                        80.28124999999969,
                        9.43541666666652
                    ],
                    [
                        80.26458333333298,
                        9.43541666666652
                    ]
                ]
            }
        },
        {
            "type": "Feature",
            "properties": {
                "HYRIV_ID": 41394028,
                "NEXT_DOWN": 41393834,
                "MAIN_RIV": 41393657,
                "LENGTH_KM": 3.3900001,
                "DIST_DN_KM": 6.9,
                "DIST_UP_KM": 9.5,
                "CATCH_SKM": 16.309999,
                "UPLAND_SKM": 16.3,
                "ENDORHEIC": 0,
                "DIS_AV_CMS": 0.18,
                "ORD_STRA": 1,
                "ORD_CLAS": 2,
                "ORD_FLOW": 7,
                "HYBAS_L12": 4120049420.0,
                "Shape_Length": 0.030535113019766393
            },
            "geometry": {
                "type": "LineString",
                "coordinates": [
                    [
                        80.26041666666632,
                        9.399999999999885
                    ],
                    [
                        80.26041666666632,
                        9.410416666666528
                    ],
                    [
                        80.25624999999965,
                        9.41458333333319
                    ],
                    [
                        80.26041666666632,
                        9.41874999999984
                    ],
                    [
                        80.26041666666632,
                        9.427083333333208
                    ]
                ]
            }
        },
        {
            "type": "Feature",
            "properties": {
                "HYRIV_ID": 41394229,
                "NEXT_DOWN": 41393956,
                "MAIN_RIV": 41393657,
                "LENGTH_KM": 4.9200001,
                "DIST_DN_KM": 13.8,
                "DIST_UP_KM": 35.700001,
                "CATCH_SKM": 9.1099997,
                "UPLAND_SKM": 179.89999,
                "ENDORHEIC": 0,
                "DIS_AV_CMS": 1.734,
                "ORD_STRA": 2,
                "ORD_CLAS": 1,
                "ORD_FLOW": 6,
                "HYBAS_L12": 4120049420.0,
                "Shape_Length": 0.04440355937280262
            },
            "geometry": {
                "type": "LineString",
                "coordinates": [
                    [
                        80.29374999999973,
                        9.37291666666652
                    ],
                    [
                        80.29374999999973,
                        9.377083333333182
                    ],
                    [
                        80.31041666666627,
                        9.393749999999848
                    ],
                    [
                        80.31041666666627,
                        9.410416666666528
                    ]
                ]
            }
        },
        {
            "type": "Feature",
            "properties": {
                "HYRIV_ID": 41394320,
                "NEXT_DOWN": 41393956,
                "MAIN_RIV": 41393657,
                "LENGTH_KM": 9.6300001,
                "DIST_DN_KM": 14.0,
                "DIST_UP_KM": 17.4,
                "CATCH_SKM": 28.8,
                "UPLAND_SKM": 59.3,
                "ENDORHEIC": 0,
                "DIS_AV_CMS": 0.63700002,
                "ORD_STRA": 2,
                "ORD_CLAS": 2,
                "ORD_FLOW": 7,
                "HYBAS_L12": 4120049420.0,
                "Shape_Length": 0.08708122890248392
            },
            "geometry": {
                "type": "LineString",
                "coordinates": [
                    [
                        80.35624999999962,
                        9.360416666666545
                    ],
                    [
                        80.35208333333296,
                        9.364583333333208
                    ],
                    [
                        80.3479166666663,
                        9.364583333333208
                    ],
                    [
                        80.34374999999963,
                        9.368749999999856
                    ],
                    [
                        80.34374999999963,
                        9.381249999999831
                    ],
                    [
                        80.33958333333297,
                        9.385416666666536
                    ],
                    [
                        80.33124999999964,
                        9.385416666666536
                    ],
                    [
                        80.33124999999964,
                        9.3895833333332
                    ],
                    [
                        80.32708333333292,
                        9.393749999999848
                    ],
                    [
                        80.32291666666643,
                        9.393749999999848
                    ],
                    [
                        80.3187499999996,
                        9.39791666666651
                    ],
                    [
                        80.3187499999996,
                        9.410416666666528
                    ],
                    [
                        80.31458333333305,
                        9.41458333333319
                    ],
                    [
                        80.31041666666627,
                        9.410416666666528
                    ]
                ]
            }
        },
        {
            "type": "Feature",
            "properties": {
                "HYRIV_ID": 41394380,
                "NEXT_DOWN": 41394320,
                "MAIN_RIV": 41393657,
                "LENGTH_KM": 2.54,
                "DIST_DN_KM": 23.4,
                "DIST_UP_KM": 8.0,
                "CATCH_SKM": 14.62,
                "UPLAND_SKM": 14.6,
                "ENDORHEIC": 0,
                "DIS_AV_CMS": 0.16500001,
                "ORD_STRA": 1,
                "ORD_CLAS": 3,
                "ORD_FLOW": 7,
                "HYBAS_L12": 4120049420.0,
                "Shape_Length": 0.02306472460816933
            },
            "geometry": {
                "type": "LineString",
                "coordinates": [
                    [
                        80.37499999999974,
                        9.34999999999986
                    ],
                    [
                        80.36874999999966,
                        9.35624999999984
                    ],
                    [
                        80.36458333333294,
                        9.35624999999984
                    ],
                    [
                        80.36041666666628,
                        9.360416666666545
                    ],
                    [
                        80.35624999999962,
                        9.360416666666545
                    ]
                ]
            }
        },
        {
            "type": "Feature",
            "properties": {
                "HYRIV_ID": 41394491,
                "NEXT_DOWN": 41394229,
                "MAIN_RIV": 41393657,
                "LENGTH_KM": 5.23,
                "DIST_DN_KM": 18.700001,
                "DIST_UP_KM": 10.9,
                "CATCH_SKM": 25.209999,
                "UPLAND_SKM": 25.200001,
                "ENDORHEIC": 0,
                "DIS_AV_CMS": 0.26800001,
                "ORD_STRA": 1,
                "ORD_CLAS": 2,
                "ORD_FLOW": 7,
                "HYBAS_L12": 4121599930.0,
                "Shape_Length": 0.047201779686499
            },
            "geometry": {
                "type": "LineString",
                "coordinates": [
                    [
                        80.28958333333301,
                        9.33333333333318
                    ],
                    [
                        80.28958333333301,
                        9.339583333333202
                    ],
                    [
                        80.28541666666635,
                        9.343749999999865
                    ],
                    [
                        80.28541666666635,
                        9.368749999999856
                    ],
                    [
                        80.28958333333301,
                        9.37291666666652
                    ],
                    [
                        80.29374999999973,
                        9.37291666666652
                    ]
                ]
            }
        },
        {
            "type": "Feature",
            "properties": {
                "HYRIV_ID": 41394492,
                "NEXT_DOWN": 41394320,
                "MAIN_RIV": 41393657,
                "LENGTH_KM": 3.29,
                "DIST_DN_KM": 23.4,
                "DIST_UP_KM": 8.0,
                "CATCH_SKM": 15.89,
                "UPLAND_SKM": 15.9,
                "ENDORHEIC": 0,
                "DIS_AV_CMS": 0.176,
                "ORD_STRA": 1,
                "ORD_CLAS": 2,
                "ORD_FLOW": 7,
                "HYBAS_L12": 4120049420.0,
                "Shape_Length": 0.029672168098247
            },
            "geometry": {
                "type": "LineString",
                "coordinates": [
                    [
                        80.3624999999997,
                        9.33333333333318
                    ],
                    [
                        80.35624999999962,
                        9.339583333333202
                    ],
                    [
                        80.35624999999962,
                        9.360416666666545
                    ]
                ]
            }
        },
        {
            "type": "Feature",
            "properties": {
                "HYRIV_ID": 41394712,
                "NEXT_DOWN": 41394229,
                "MAIN_RIV": 41393657,
                "LENGTH_KM": 9.6400003,
                "DIST_DN_KM": 18.700001,
                "DIST_UP_KM": 30.8,
                "CATCH_SKM": 27.959999,
                "UPLAND_SKM": 145.5,
                "ENDORHEIC": 0,
                "DIS_AV_CMS": 1.428,
                "ORD_STRA": 2,
                "ORD_CLAS": 1,
                "ORD_FLOW": 6,
                "HYBAS_L12": 4121599930.0,
                "Shape_Length": 0.08708122890240151
            },
            "geometry": {
                "type": "LineString",
                "coordinates": [
                    [
                        80.32291666666643,
                        9.306249999999856
                    ],
                    [
                        80.32291666666643,
                        9.31041666666652
                    ],
                    [
                        80.31458333333305,
                        9.318749999999831
                    ],
                    [
                        80.31458333333305,
                        9.322916666666536
                    ],
                    [
                        80.3187499999996,
                        9.327083333333185
                    ],
                    [
                        80.3187499999996,
                        9.339583333333202
                    ],
                    [
                        80.31458333333305,
                        9.343749999999865
                    ],
                    [
                        80.31041666666627,
                        9.343749999999865
                    ],
                    [
                        80.30624999999961,
                        9.347916666666528
                    ],
                    [
                        80.30624999999961,
                        9.35624999999984
                    ],
                    [
                        80.30208333333294,
                        9.360416666666545
                    ],
                    [
                        80.2979166666664,
                        9.360416666666545
                    ],
                    [
                        80.29374999999973,
                        9.364583333333208
                    ],
                    [
                        80.29374999999973,
                        9.37291666666652
                    ]
                ]
            }
        },
        {
            "type": "Feature",
            "properties": {
                "HYRIV_ID": 41394802,
                "NEXT_DOWN": 41394712,
                "MAIN_RIV": 41393657,
                "LENGTH_KM": 5.58,
                "DIST_DN_KM": 28.4,
                "DIST_UP_KM": 11.1,
                "CATCH_SKM": 30.5,
                "UPLAND_SKM": 30.5,
                "ENDORHEIC": 0,
                "DIS_AV_CMS": 0.32800001,
                "ORD_STRA": 1,
                "ORD_CLAS": 2,
                "ORD_FLOW": 7,
                "HYBAS_L12": 4121599930.0,
                "Shape_Length": 0.050653559372721
            },
            "geometry": {
                "type": "LineString",
                "coordinates": [
                    [
                        80.36041666666628,
                        9.291666666666508
                    ],
                    [
                        80.36041666666628,
                        9.297916666666545
                    ],
                    [
                        80.35624999999962,
                        9.302083333333194
                    ],
                    [
                        80.35208333333296,
                        9.297916666666545
                    ],
                    [
                        80.3479166666663,
                        9.302083333333194
                    ],
                    [
                        80.33124999999964,
                        9.302083333333194
                    ],
                    [
                        80.32708333333292,
                        9.306249999999856
                    ],
                    [
                        80.32291666666643,
                        9.306249999999856
                    ]
                ]
            }
        },
        {
            "type": "Feature",
            "properties": {
                "HYRIV_ID": 41395439,
                "NEXT_DOWN": 41394712,
                "MAIN_RIV": 41393657,
                "LENGTH_KM": 16.01,
                "DIST_DN_KM": 28.4,
                "DIST_UP_KM": 21.200001,
                "CATCH_SKM": 87.080002,
                "UPLAND_SKM": 87.099998,
                "ENDORHEIC": 0,
                "DIS_AV_CMS": 0.89,
                "ORD_STRA": 1,
                "ORD_CLAS": 1,
                "ORD_FLOW": 7,
                "HYBAS_L12": 4121599930.0,
                "Shape_Length": 0.14463834764825034
            },
            "geometry": {
                "type": "LineString",
                "coordinates": [
                    [
                        80.39374999999964,
                        9.19583333333319
                    ],
                    [
                        80.39374999999964,
                        9.20624999999989
                    ],
                    [
                        80.38958333333298,
                        9.210416666666497
                    ],
                    [
                        80.38958333333298,
                        9.214583333333202
                    ],
                    [
                        80.38541666666632,
                        9.218749999999865
                    ],
                    [
                        80.38541666666632,
                        9.222916666666514
                    ],
                    [
                        80.37291666666633,
                        9.23541666666653
                    ],
                    [
                        80.36458333333294,
                        9.23541666666653
                    ],
                    [
                        80.33958333333297,
                        9.260416666666536
                    ],
                    [
                        80.33958333333297,
                        9.264583333333185
                    ],
                    [
                        80.33124999999964,
                        9.272916666666553
                    ],
                    [
                        80.33124999999964,
                        9.281249999999865
                    ],
                    [
                        80.32708333333292,
                        9.285416666666528
                    ],
                    [
                        80.32708333333292,
                        9.289583333333177
                    ],
                    [
                        80.32291666666643,
                        9.29374999999984
                    ],
                    [
                        80.32291666666643,
                        9.306249999999856
                    ]
                ]
            }
        }
    ]
}