{
    "type": "FeatureCollection",
    "features": [
        {
            "type": "Feature",
            "properties": {
                "HYRIV_ID": 41395867,
                "NEXT_DOWN": 0,
                "MAIN_RIV": 41395867,
                "LENGTH_KM": 5.35,
                "DIST_DN_KM": 0.0,
                "DIST_UP_KM": 35.8,
                "CATCH_SKM": 25.639999,
                "UPLAND_SKM": 296.10001,
                "ENDORHEIC": 0,
                "DIS_AV_CMS": 4.052,
                "ORD_STRA": 3,
                "ORD_CLAS": 1,
                "ORD_FLOW": 6,
                "HYBAS_L12": 4120049520.0,
                "Shape_Length": 0.0485702260395944
            },
            "geometry": {
                "type": "LineString",
                "coordinates": [
                    [
                        80.83541666666625,
                        9.143749999999834
                    ],
                    [
                        80.86041666666628,
                        9.143749999999834
                    ],
                    [
                        80.87291666666627,
                        9.13124999999986
                    ],
                    [
                        80.87708333333299,
                        9.135416666666522
                    ]
                ]
            }
        },
        {
            "type": "Feature",
            "properties": {
                "HYRIV_ID": 41396115,
                "NEXT_DOWN": 41395867,
                "MAIN_RIV": 41395867,
                "LENGTH_KM": 7.3400002,
                "DIST_DN_KM": 5.7,
                "DIST_UP_KM": 16.6,
                "CATCH_SKM": 22.68,
                "UPLAND_SKM": 69.300003,
                "ENDORHEIC": 0,
                "DIS_AV_CMS": 0.991,
                "ORD_STRA": 2,
                "ORD_CLAS": 2,
                "ORD_FLOW": 7,
                "HYBAS_L12": 4120049520.0,
                "Shape_Length": 0.06624789556909716
            },
            "geometry": {
                "type": "LineString",
                "coordinates": [
                    [
                        80.81458333333305,
                        9.089583333333202
                    ],
                    [
                        80.81458333333305,
                        9.09374999999985
                    ],
                    [
                        80.81874999999971,
                        9.097916666666514
                    ],
                    [
                        80.81874999999971,
                        9.106249999999868
                    ],
                    [
                        80.81458333333305,
                        9.11041666666653
                    ],
                    [
                        80.81458333333305,
                        9.122916666666548
                    ],
                    [
                        80.83541666666625,
                        9.143749999999834
                    ]
                ]
            }
        },
        {
            "type": "Feature",
            "properties": {
                "HYRIV_ID": 41396149,
                "NEXT_DOWN": 41395867,
                "MAIN_RIV": 41395867,
                "LENGTH_KM": 13.69,
                "DIST_DN_KM": 5.5,
                "DIST_UP_KM": 30.700001,
                "CATCH_SKM": 78.209999,
                "UPLAND_SKM": 201.39999,
                "ENDORHEIC": 0,
                "DIS_AV_CMS": 2.7449999,
                "ORD_STRA": 2,
                "ORD_CLAS": 1,
                "ORD_FLOW": 6,
                "HYBAS_L12": 4120049520.0,
                "Shape_Length": 0.12416245780506469
            },
            "geometry": {
                "type": "LineString",
                "coordinates": [
                    [
                        80.73541666666628,
                        9.085416666666497
                    ],
                    [
                        80.75208333333299,
                        9.10208333333322
                    ],
                    [
                        80.76458333333298,
                        9.10208333333322
                    ],
                    [
                        80.77708333333297,
                        9.114583333333194
                    ],
                    [
                        80.7854166666663,
                        9.114583333333194
                    ],
                    [
                        80.79374999999968,
                        9.122916666666548
                    ],
                    [
                        80.79791666666634,
                        9.122916666666548
                    ],
                    [
                        80.80624999999966,
                        9.13124999999986
                    ],
                    [
                        80.81041666666633,
                        9.13124999999986
                    ],
                    [
                        80.81874999999971,
                        9.139583333333185
                    ],
                    [
                        80.82291666666637,
                        9.139583333333185
                    ],
                    [
                        80.82708333333292,
                        9.143749999999834
                    ],
                    [
                        80.83541666666625,
                        9.143749999999834
                    ]
                ]
            }
        },
        {
            "type": "Feature",
            "properties": {
                "HYRIV_ID": 41396150,
                "NEXT_DOWN": 41396149,
                "MAIN_RIV": 41395867,
                "LENGTH_KM": 0.69,
                "DIST_DN_KM": 19.200001,
                "DIST_UP_KM": 5.4,
                "CATCH_SKM": 8.0500002,
                "UPLAND_SKM": 8.1,
                "ENDORHEIC": 0,
                "DIS_AV_CMS": 0.115,
                "ORD_STRA": 1,
                "ORD_CLAS": 2,
                "ORD_FLOW": 7,
                "HYBAS_L12": 4121600230.0,
                "Shape_Length": 0.006250000000079581
            },
            "geometry": {
                "type": "LineString",
                "coordinates": [
                    [
                        80.74166666666636,
                        9.085416666666497
                    ],
                    [
                        80.73541666666628,
                        9.085416666666497
                    ]
                ]
            }
        },
        {
            "type": "Feature",
            "properties": {
                "HYRIV_ID": 41396187,
                "NEXT_DOWN": 41396149,
                "MAIN_RIV": 41395867,
                "LENGTH_KM": 1.11,
                "DIST_DN_KM": 19.200001,
                "DIST_UP_KM": 17.0,
                "CATCH_SKM": 2.76,
                "UPLAND_SKM": 115.1,
                "ENDORHEIC": 0,
                "DIS_AV_CMS": 1.582,
                "ORD_STRA": 2,
                "ORD_CLAS": 1,
                "ORD_FLOW": 6,
                "HYBAS_L12": 4121600230.0,
                "Shape_Length": 0.010059223176515268
            },
            "geometry": {
                "type": "LineString",
                "coordinates": [
                    [
                        80.72708333333296,
                        9.081249999999876
                    ],
                    [
                        80.73124999999962,
                        9.085416666666497
                    ],
                    [
                        80.73541666666628,
                        9.085416666666497
                    ]
                ]
            }
        },
        {
            "type": "Feature",
            "properties": {
                "HYRIV_ID": 41396226,
                "NEXT_DOWN": 41396187,
                "MAIN_RIV": 41395867,
                "LENGTH_KM": 0.65,
                "DIST_DN_KM": 20.5,
                "DIST_UP_KM": 15.7,
                "CATCH_SKM": 0.21,
                "UPLAND_SKM": 104.3,
                "ENDORHEIC": 0,
                "DIS_AV_CMS": 1.433,
                "ORD_STRA": 2,
                "ORD_CLAS": 1,
                "ORD_FLOW": 6,
                "HYBAS_L12": 4121600230.0,
                "Shape_Length": 0.005892556509902633
            },
            "geometry": {
                "type": "LineString",
                "coordinates": [
                    [
                        80.7229166666663,
                        9.077083333333185
                    ],
                    [
                        80.72708333333296,
                        9.081249999999876
                    ]
                ]
            }
        },
        {
            "type": "Feature",
            "properties": {
                "HYRIV_ID": 41396287,
                "NEXT_DOWN": 41396226,
                "MAIN_RIV": 41395867,
                "LENGTH_KM": 3.52,
                "DIST_DN_KM": 21.1,
                "DIST_UP_KM": 15.0,
                "CATCH_SKM": 12.72,
                "UPLAND_SKM": 67.199997,
                "ENDORHEIC": 0,
                "DIS_AV_CMS": 0.91799998,
                "ORD_STRA": 2,
                "ORD_CLAS": 1,
                "ORD_FLOW": 7,
                "HYBAS_L12": 4121600230.0,
                "Shape_Length": 0.03190355937283235
            },
            "geometry": {
                "type": "LineString",
                "coordinates": [
                    [
                        80.69791666666637,
                        9.06874999999986
                    ],
                    [
                        80.7062499999997,
                        9.077083333333185
                    ],
                    [
                        80.71458333333308,
                        9.077083333333185
                    ],
                    [
                        80.71874999999963,
                        9.072916666666522
                    ],
                    [
                        80.7229166666663,
                        9.077083333333185
                    ]
                ]
            }
        },
        {
            "type": "Feature",
            "properties": {
                "HYRIV_ID": 41396288,
                "NEXT_DOWN": 41396187,
                "MAIN_RIV": 41395867,
                "LENGTH_KM": 1.81,
                "DIST_DN_KM": 20.3,
                "DIST_UP_KM": 7.2,
                "CATCH_SKM": 8.0600004,
                "UPLAND_SKM": 8.1,
                "ENDORHEIC": 0,
                "DIS_AV_CMS": 0.115,
                "ORD_STRA": 1,
                "ORD_CLAS": 2,
                "ORD_FLOW": 7,
                "HYBAS_L12": 4121600230.0,
                "Shape_Length": 0.01630922317656815
            },
            "geometry": {
                "type": "LineString",
                "coordinates": [
                    [
                        80.73124999999962,
                        9.066666666666528
                    ],
                    [
                        80.73124999999962,
                        9.072916666666522
                    ],
                    [
                        80.72708333333296,
                        9.077083333333185
                    ],
                    [
                        80.72708333333296,
                        9.081249999999876
                    ]
                ]
            }
        },
        {
            "type": "Feature",
            "properties": {
                "HYRIV_ID": 41396310,
                "NEXT_DOWN": 41396115,
                "MAIN_RIV": 41395867,
                "LENGTH_KM": 3.3900001,
                "DIST_DN_KM": 13.0,
                "DIST_UP_KM": 6.8,
                "CATCH_SKM": 16.32,
                "UPLAND_SKM": 16.3,
                "ENDORHEIC": 0,
                "DIS_AV_CMS": 0.23800001,
                "ORD_STRA": 1,
                "ORD_CLAS": 3,
                "ORD_FLOW": 7,
                "HYBAS_L12": 4120049520.0,
                "Shape_Length": 0.030535113019749743
            },
            "geometry": {
                "type": "LineString",
                "coordinates": [
                    [
                        80.82291666666637,
                        9.06249999999988
                    ],
                    [
                        80.82291666666637,
                        9.06874999999986
                    ],
                    [
                        80.81874999999971,
                        9.072916666666522
                    ],
                    [
                        80.81874999999971,
                        9.085416666666497
                    ],
                    [
                        80.81458333333305,
                        9.089583333333202
                    ]
                ]
            }
        },
        {
            "type": "Feature",
            "properties": {
                "HYRIV_ID": 41396347,
                "NEXT_DOWN": 41396115,
                "MAIN_RIV": 41395867,
                "LENGTH_KM": 5.06,
                "DIST_DN_KM": 13.0,
                "DIST_UP_KM": 9.3,
                "CATCH_SKM": 30.309999,
                "UPLAND_SKM": 30.3,
                "ENDORHEIC": 0,
                "DIS_AV_CMS": 0.43700001,
                "ORD_STRA": 1,
                "ORD_CLAS": 2,
                "ORD_FLOW": 7,
                "HYBAS_L12": 4120049520.0,
                "Shape_Length": 0.04577200572608549
            },
            "geometry": {
                "type": "LineString",
                "coordinates": [
                    [
                        80.7854166666663,
                        9.058333333333174
                    ],
                    [
                        80.7854166666663,
                        9.06458333333321
                    ],
                    [
                        80.80624999999966,
                        9.085416666666497
                    ],
                    [
                        80.81041666666633,
                        9.085416666666497
                    ],
                    [
                        80.81458333333305,
                        9.089583333333202
                    ]
                ]
            }
        },
        {
            "type": "Feature",
            "properties": {
                "HYRIV_ID": 41396424,
                "NEXT_DOWN": 41396287,
                "MAIN_RIV": 41395867,
                "LENGTH_KM": 7.3600001,
                "DIST_DN_KM": 24.4,
                "DIST_UP_KM": 11.7,
                "CATCH_SKM": 29.889999,
                "UPLAND_SKM": 29.9,
                "ENDORHEIC": 0,
                "DIS_AV_CMS": 0.40700001,
                "ORD_STRA": 1,
                "ORD_CLAS": 1,
                "ORD_FLOW": 7,
                "HYBAS_L12": 4121600230.0,
                "Shape_Length": 0.0666053390594481
            },
            "geometry": {
                "type": "LineString",
                "coordinates": [
                    [
                        80.65416666666627,
                        9.04791666666653
                    ],
                    [
                        80.66041666666635,
                        9.04791666666653
                    ],
                    [
                        80.66041666666635,
                        9.056249999999842
                    ],
                    [
                        80.67291666666634,
                        9.06874999999986
                    ],
                    [
                        80.67291666666634,
                        9.072916666666522
                    ],
                    [
                        80.677083333333,
                        9.077083333333185
                    ],
                    [
                        80.68541666666638,
                        9.077083333333185
                    ],
                    [
                        80.6937499999996,
                        9.06874999999986
                    ],
                    [
                        80.69791666666637,
                        9.06874999999986
                    ]
                ]
            }
        },
        {
            "type": "Feature",
            "properties": {
                "HYRIV_ID": 41396547,
                "NEXT_DOWN": 41396287,
                "MAIN_RIV": 41395867,
                "LENGTH_KM": 5.4299998,
                "DIST_DN_KM": 24.4,
                "DIST_UP_KM": 10.0,
                "CATCH_SKM": 24.59,
                "UPLAND_SKM": 24.6,
                "ENDORHEIC": 0,
                "DIS_AV_CMS": 0.339,
                "ORD_STRA": 1,
                "ORD_CLAS": 2,
                "ORD_FLOW": 7,
                "HYBAS_L12": 4121600230.0,
                "Shape_Length": 0.049075727471091735
            },
            "geometry": {
                "type": "LineString",
                "coordinates": [
                    [
                        80.67499999999964,
                        9.02916666666652
                    ],
                    [
                        80.68541666666638,
                        9.039583333333205
                    ],
                    [
                        80.68541666666638,
                        9.04791666666653
                    ],
                    [
                        80.69791666666637,
                        9.060416666666548
                    ],
                    [
                        80.69791666666637,
                        9.06874999999986
                    ]
                ]
            }
        },
        {
            "type": "Feature",
            "properties": {
                "HYRIV_ID": 41396634,
                "NEXT_DOWN": 41396226,
                "MAIN_RIV": 41395867,
                "LENGTH_KM": 8.3900003,
                "DIST_DN_KM": 20.9,
                "DIST_UP_KM": 12.1,
                "CATCH_SKM": 36.889999,
                "UPLAND_SKM": 36.900002,
                "ENDORHEIC": 0,
                "DIS_AV_CMS": 0.514,
                "ORD_STRA": 1,
                "ORD_CLAS": 2,
                "ORD_FLOW": 7,
                "HYBAS_L12": 4121600230.0,
                "Shape_Length": 0.0756535593728764
            },
            "geometry": {
                "type": "LineString",
                "coordinates": [
                    [
                        80.70208333333292,
                        9.012499999999882
                    ],
                    [
                        80.70208333333292,
                        9.018749999999876
                    ],
                    [
                        80.7062499999997,
                        9.02291666666654
                    ],
                    [
                        80.7062499999997,
                        9.027083333333188
                    ],
                    [
                        80.71041666666642,
                        9.03124999999985
                    ],
                    [
                        80.71458333333308,
                        9.03124999999985
                    ],
                    [
                        80.71874999999963,
                        9.035416666666556
                    ],
                    [
                        80.71874999999963,
                        9.06458333333321
                    ],
                    [
                        80.7229166666663,
                        9.06874999999986
                    ],
                    [
                        80.7229166666663,
                        9.077083333333185
                    ]
                ]
            }
        }
    ]
}