{
    "type": "FeatureCollection",
    "features": [
        {
            "type": "Feature",
            "properties": {
                "HYRIV_ID": 41399753,
                "NEXT_DOWN": 0,
                "MAIN_RIV": 41399753,
                "LENGTH_KM": 4.5900002,
                "DIST_DN_KM": 0.0,
                "DIST_UP_KM": 7.2,
                "CATCH_SKM": 23.360001,
                "UPLAND_SKM": 22.9,
                "ENDORHEIC": 0,
                "DIS_AV_CMS": 0.417,
                "ORD_STRA": 1,
                "ORD_CLAS": 1,
                "ORD_FLOW": 7,
                "HYBAS_L12": 4120049690.0,
                "Shape_Length": 0.04145728111794173
            },
            "geometry": {
                "type": "LineString",
                "coordinates": [
                    [
                        81.30416666666625,
                        8.441666666666542
                    ],
                    [
                        81.29791666666628,
                        8.447916666666536
                    ],
                    [
                        81.29791666666628,
                        8.460416666666553
                    ],
                    [
                        81.29374999999962,
                        8.460416666666553
                    ],
                    [
                        81.28958333333296,
                        8.464583333333216
                    ],
                    [
                        81.2854166666663,
                        8.464583333333216
                    ],
                    [
                        81.28124999999957,
                        8.468749999999865
                    ]
                ]
            }
        }
    ]
}