{
    "type": "FeatureCollection",
    "features": [
        {
            "type": "Feature",
            "properties": {
                "HYRIV_ID": 41397662,
                "NEXT_DOWN": 0,
                "MAIN_RIV": 41397662,
                "LENGTH_KM": 3.53,
                "DIST_DN_KM": 0.0,
                "DIST_UP_KM": 27.8,
                "CATCH_SKM": 10.61,
                "UPLAND_SKM": 126.4,
                "ENDORHEIC": 0,
                "DIS_AV_CMS": 1.863,
                "ORD_STRA": 2,
                "ORD_CLAS": 1,
                "ORD_FLOW": 6,
                "HYBAS_L12": 4120049580.0,
                "Shape_Length": 0.03190355937286178
            },
            "geometry": {
                "type": "LineString",
                "coordinates": [
                    [
                        81.06041666666633,
                        8.835416666666525
                    ],
                    [
                        81.06458333333299,
                        8.839583333333188
                    ],
                    [
                        81.06458333333299,
                        8.8479166666665
                    ],
                    [
                        81.07291666666632,
                        8.856249999999868
                    ],
                    [
                        81.06874999999965,
                        8.860416666666517
                    ]
                ]
            }
        },
        {
            "type": "Feature",
            "properties": {
                "HYRIV_ID": 41397684,
                "NEXT_DOWN": 41397662,
                "MAIN_RIV": 41397662,
                "LENGTH_KM": 1.35,
                "DIST_DN_KM": 3.9,
                "DIST_UP_KM": 4.5,
                "CATCH_SKM": 8.4799995,
                "UPLAND_SKM": 8.5,
                "ENDORHEIC": 0,
                "DIS_AV_CMS": 0.126,
                "ORD_STRA": 1,
                "ORD_CLAS": 2,
                "ORD_FLOW": 7,
                "HYBAS_L12": 4120049580.0,
                "Shape_Length": 0.012142556509876851
            },
            "geometry": {
                "type": "LineString",
                "coordinates": [
                    [
                        81.05624999999966,
                        8.837499999999856
                    ],
                    [
                        81.05624999999966,
                        8.831249999999862
                    ],
                    [
                        81.06041666666633,
                        8.835416666666525
                    ]
                ]
            }
        },
        {
            "type": "Feature",
            "properties": {
                "HYRIV_ID": 41397779,
                "NEXT_DOWN": 41397662,
                "MAIN_RIV": 41397662,
                "LENGTH_KM": 2.6900001,
                "DIST_DN_KM": 3.7,
                "DIST_UP_KM": 24.5,
                "CATCH_SKM": 6.79,
                "UPLAND_SKM": 107.8,
                "ENDORHEIC": 0,
                "DIS_AV_CMS": 1.604,
                "ORD_STRA": 2,
                "ORD_CLAS": 1,
                "ORD_FLOW": 6,
                "HYBAS_L12": 4120049580.0,
                "Shape_Length": 0.024285113019772077
            },
            "geometry": {
                "type": "LineString",
                "coordinates": [
                    [
                        81.052083333333,
                        8.814583333333196
                    ],
                    [
                        81.06041666666633,
                        8.822916666666508
                    ],
                    [
                        81.06041666666633,
                        8.835416666666525
                    ]
                ]
            }
        },
        {
            "type": "Feature",
            "properties": {
                "HYRIV_ID": 41397919,
                "NEXT_DOWN": 41397779,
                "MAIN_RIV": 41397662,
                "LENGTH_KM": 4.0500002,
                "DIST_DN_KM": 6.6,
                "DIST_UP_KM": 7.7,
                "CATCH_SKM": 12.94,
                "UPLAND_SKM": 12.9,
                "ENDORHEIC": 0,
                "DIS_AV_CMS": 0.19400001,
                "ORD_STRA": 1,
                "ORD_CLAS": 2,
                "ORD_FLOW": 7,
                "HYBAS_L12": 4120049580.0,
                "Shape_Length": 0.03657572747109966
            },
            "geometry": {
                "type": "LineString",
                "coordinates": [
                    [
                        81.0374999999996,
                        8.787499999999874
                    ],
                    [
                        81.04791666666628,
                        8.797916666666517
                    ],
                    [
                        81.04791666666628,
                        8.802083333333222
                    ],
                    [
                        81.05624999999966,
                        8.810416666666534
                    ],
                    [
                        81.052083333333,
                        8.814583333333196
                    ]
                ]
            }
        },
        {
            "type": "Feature",
            "properties": {
                "HYRIV_ID": 41397974,
                "NEXT_DOWN": 41397975,
                "MAIN_RIV": 41397662,
                "LENGTH_KM": 0.98,
                "DIST_DN_KM": 14.1,
                "DIST_UP_KM": 4.4,
                "CATCH_SKM": 9.12,
                "UPLAND_SKM": 9.1,
                "ENDORHEIC": 0,
                "DIS_AV_CMS": 0.14,
                "ORD_STRA": 1,
                "ORD_CLAS": 2,
                "ORD_FLOW": 7,
                "HYBAS_L12": 4120049580.0,
                "Shape_Length": 0.008838834764803707
            },
            "geometry": {
                "type": "LineString",
                "coordinates": [
                    [
                        80.9916666666663,
                        8.787499999999874
                    ],
                    [
                        80.99791666666627,
                        8.78124999999988
                    ]
                ]
            }
        },
        {
            "type": "Feature",
            "properties": {
                "HYRIV_ID": 41397975,
                "NEXT_DOWN": 41397779,
                "MAIN_RIV": 41397662,
                "LENGTH_KM": 7.5,
                "DIST_DN_KM": 6.4,
                "DIST_UP_KM": 21.8,
                "CATCH_SKM": 17.18,
                "UPLAND_SKM": 88.0,
                "ENDORHEIC": 0,
                "DIS_AV_CMS": 1.323,
                "ORD_STRA": 2,
                "ORD_CLAS": 1,
                "ORD_FLOW": 6,
                "HYBAS_L12": 4120049580.0,
                "Shape_Length": 0.06797378541248175
            },
            "geometry": {
                "type": "LineString",
                "coordinates": [
                    [
                        80.99791666666627,
                        8.78124999999988
                    ],
                    [
                        81.01041666666632,
                        8.793749999999854
                    ],
                    [
                        81.01874999999964,
                        8.793749999999854
                    ],
                    [
                        81.03124999999963,
                        8.80624999999987
                    ],
                    [
                        81.0354166666663,
                        8.80624999999987
                    ],
                    [
                        81.04374999999962,
                        8.814583333333196
                    ],
                    [
                        81.052083333333,
                        8.814583333333196
                    ]
                ]
            }
        },
        {
            "type": "Feature",
            "properties": {
                "HYRIV_ID": 41398104,
                "NEXT_DOWN": 41397975,
                "MAIN_RIV": 41397662,
                "LENGTH_KM": 2.5,
                "DIST_DN_KM": 13.9,
                "DIST_UP_KM": 14.3,
                "CATCH_SKM": 6.3600001,
                "UPLAND_SKM": 61.700001,
                "ENDORHEIC": 0,
                "DIS_AV_CMS": 0.95,
                "ORD_STRA": 2,
                "ORD_CLAS": 1,
                "ORD_FLOW": 7,
                "HYBAS_L12": 4120049580.0,
                "Shape_Length": 0.02255922317655242
            },
            "geometry": {
                "type": "LineString",
                "coordinates": [
                    [
                        80.99374999999961,
                        8.76041666666655
                    ],
                    [
                        80.99374999999961,
                        8.764583333333213
                    ],
                    [
                        80.99791666666627,
                        8.768749999999862
                    ],
                    [
                        80.99791666666627,
                        8.78124999999988
                    ]
                ]
            }
        },
        {
            "type": "Feature",
            "properties": {
                "HYRIV_ID": 41398132,
                "NEXT_DOWN": 41398104,
                "MAIN_RIV": 41397662,
                "LENGTH_KM": 1.8,
                "DIST_DN_KM": 16.4,
                "DIST_UP_KM": 5.8,
                "CATCH_SKM": 9.3400002,
                "UPLAND_SKM": 9.3,
                "ENDORHEIC": 0,
                "DIS_AV_CMS": 0.144,
                "ORD_STRA": 1,
                "ORD_CLAS": 3,
                "ORD_FLOW": 7,
                "HYBAS_L12": 4120049580.0,
                "Shape_Length": 0.016309223176541453
            },
            "geometry": {
                "type": "LineString",
                "coordinates": [
                    [
                        80.97916666666632,
                        8.756249999999845
                    ],
                    [
                        80.98541666666628,
                        8.756249999999845
                    ],
                    [
                        80.98958333333294,
                        8.76041666666655
                    ],
                    [
                        80.99374999999961,
                        8.76041666666655
                    ]
                ]
            }
        },
        {
            "type": "Feature",
            "properties": {
                "HYRIV_ID": 41398323,
                "NEXT_DOWN": 41398104,
                "MAIN_RIV": 41397662,
                "LENGTH_KM": 7.0,
                "DIST_DN_KM": 16.4,
                "DIST_UP_KM": 9.4,
                "CATCH_SKM": 21.85,
                "UPLAND_SKM": 21.9,
                "ENDORHEIC": 0,
                "DIS_AV_CMS": 0.338,
                "ORD_STRA": 1,
                "ORD_CLAS": 2,
                "ORD_FLOW": 7,
                "HYBAS_L12": 4120049580.0,
                "Shape_Length": 0.06330161731430978
            },
            "geometry": {
                "type": "LineString",
                "coordinates": [
                    [
                        80.95416666666628,
                        8.72083333333321
                    ],
                    [
                        80.96041666666625,
                        8.72708333333319
                    ],
                    [
                        80.96041666666625,
                        8.731249999999854
                    ],
                    [
                        80.96874999999969,
                        8.731249999999854
                    ],
                    [
                        80.97708333333296,
                        8.739583333333208
                    ],
                    [
                        80.98124999999962,
                        8.739583333333208
                    ],
                    [
                        80.98958333333294,
                        8.747916666666534
                    ],
                    [
                        80.98958333333294,
                        8.752083333333196
                    ],
                    [
                        80.99374999999961,
                        8.756249999999845
                    ],
                    [
                        80.99374999999961,
                        8.76041666666655
                    ]
                ]
            }
        },
        {
            "type": "Feature",
            "properties": {
                "HYRIV_ID": 41398462,
                "NEXT_DOWN": 41398104,
                "MAIN_RIV": 41397662,
                "LENGTH_KM": 8.4,
                "DIST_DN_KM": 16.6,
                "DIST_UP_KM": 11.6,
                "CATCH_SKM": 24.190001,
                "UPLAND_SKM": 24.200001,
                "ENDORHEIC": 0,
                "DIS_AV_CMS": 0.37400001,
                "ORD_STRA": 1,
                "ORD_CLAS": 1,
                "ORD_FLOW": 7,
                "HYBAS_L12": 4120049580.0,
                "Shape_Length": 0.07580161731422005
            },
            "geometry": {
                "type": "LineString",
                "coordinates": [
                    [
                        80.97083333333299,
                        8.699999999999868
                    ],
                    [
                        80.97708333333296,
                        8.706249999999862
                    ],
                    [
                        80.97708333333296,
                        8.714583333333174
                    ],
                    [
                        80.98124999999962,
                        8.71874999999988
                    ],
                    [
                        80.98124999999962,
                        8.722916666666542
                    ],
                    [
                        80.98958333333294,
                        8.731249999999854
                    ],
                    [
                        80.99374999999961,
                        8.731249999999854
                    ],
                    [
                        80.99791666666627,
                        8.73541666666656
                    ],
                    [
                        80.99791666666627,
                        8.756249999999845
                    ],
                    [
                        80.99374999999961,
                        8.76041666666655
                    ]
                ]
            }
        }
    ]
}