{
    "type": "FeatureCollection",
    "features": [
        {
            "type": "Feature",
            "properties": {
                "HYRIV_ID": 41397418,
                "NEXT_DOWN": 0,
                "MAIN_RIV": 41397418,
                "LENGTH_KM": 2.56,
                "DIST_DN_KM": 0.0,
                "DIST_UP_KM": 6.5,
                "CATCH_SKM": 15.7,
                "UPLAND_SKM": 15.3,
                "ENDORHEIC": 0,
                "DIS_AV_CMS": 0.227,
                "ORD_STRA": 1,
                "ORD_CLAS": 1,
                "ORD_FLOW": 7,
                "HYBAS_L12": 4120049570.0,
                "Shape_Length": 0.023064724608022048
            },
            "geometry": {
                "type": "LineString",
                "coordinates": [
                    [
                        81.02916666666627,
                        8.879166666666528
                    ],
                    [
                        81.0229166666663,
                        8.88541666666655
                    ],
                    [
                        81.0229166666663,
                        8.893749999999876
                    ],
                    [
                        81.02708333333297,
                        8.897916666666525
                    ]
                ]
            }
        }
    ]
}