{
    "type": "FeatureCollection",
    "features": [
        {
            "type": "Feature",
            "properties": {
                "HYRIV_ID": 41394622,
                "NEXT_DOWN": 0,
                "MAIN_RIV": 41394622,
                "LENGTH_KM": 10.0,
                "DIST_DN_KM": 0.0,
                "DIST_UP_KM": 22.4,
                "CATCH_SKM": 24.15,
                "UPLAND_SKM": 74.800003,
                "ENDORHEIC": 0,
                "DIS_AV_CMS": 0.99800003,
                "ORD_STRA": 2,
                "ORD_CLAS": 1,
                "ORD_FLOW": 7,
                "HYBAS_L12": 4120049480.0,
                "Shape_Length": 0.09053300858899643
            },
            "geometry": {
                "type": "LineString",
                "coordinates": [
                    [
                        80.6479166666663,
                        9.318749999999831
                    ],
                    [
                        80.6479166666663,
                        9.327083333333185
                    ],
                    [
                        80.65208333333297,
                        9.331249999999848
                    ],
                    [
                        80.65208333333297,
                        9.33541666666651
                    ],
                    [
                        80.65624999999963,
                        9.339583333333202
                    ],
                    [
                        80.66041666666635,
                        9.339583333333202
                    ],
                    [
                        80.67291666666634,
                        9.352083333333177
                    ],
                    [
                        80.677083333333,
                        9.352083333333177
                    ],
                    [
                        80.68124999999966,
                        9.35624999999984
                    ],
                    [
                        80.68958333333305,
                        9.35624999999984
                    ],
                    [
                        80.69791666666637,
                        9.364583333333208
                    ],
                    [
                        80.69791666666637,
                        9.37291666666652
                    ],
                    [
                        80.70208333333292,
                        9.377083333333182
                    ]
                ]
            }
        },
        {
            "type": "Feature",
            "properties": {
                "HYRIV_ID": 41394852,
                "NEXT_DOWN": 41394622,
                "MAIN_RIV": 41394622,
                "LENGTH_KM": 4.96,
                "DIST_DN_KM": 10.3,
                "DIST_UP_KM": 8.8,
                "CATCH_SKM": 20.549999,
                "UPLAND_SKM": 20.5,
                "ENDORHEIC": 0,
                "DIS_AV_CMS": 0.276,
                "ORD_STRA": 1,
                "ORD_CLAS": 2,
                "ORD_FLOW": 7,
                "HYBAS_L12": 4120049480.0,
                "Shape_Length": 0.044761002862960475
            },
            "geometry": {
                "type": "LineString",
                "coordinates": [
                    [
                        80.63124999999965,
                        9.283333333333196
                    ],
                    [
                        80.63124999999965,
                        9.289583333333177
                    ],
                    [
                        80.63541666666632,
                        9.29374999999984
                    ],
                    [
                        80.63541666666632,
                        9.31041666666652
                    ],
                    [
                        80.63958333333298,
                        9.314583333333168
                    ],
                    [
                        80.64374999999964,
                        9.314583333333168
                    ],
                    [
                        80.6479166666663,
                        9.318749999999831
                    ]
                ]
            }
        },
        {
            "type": "Feature",
            "properties": {
                "HYRIV_ID": 41394976,
                "NEXT_DOWN": 41394622,
                "MAIN_RIV": 41394622,
                "LENGTH_KM": 8.2200003,
                "DIST_DN_KM": 10.3,
                "DIST_UP_KM": 12.4,
                "CATCH_SKM": 30.08,
                "UPLAND_SKM": 30.1,
                "ENDORHEIC": 0,
                "DIS_AV_CMS": 0.40900001,
                "ORD_STRA": 1,
                "ORD_CLAS": 1,
                "ORD_FLOW": 7,
                "HYBAS_L12": 4120049480.0,
                "Shape_Length": 0.07437184335388418
            },
            "geometry": {
                "type": "LineString",
                "coordinates": [
                    [
                        80.65416666666627,
                        9.262499999999854
                    ],
                    [
                        80.67291666666634,
                        9.281249999999865
                    ],
                    [
                        80.66874999999968,
                        9.285416666666528
                    ],
                    [
                        80.66874999999968,
                        9.297916666666545
                    ],
                    [
                        80.6479166666663,
                        9.318749999999831
                    ]
                ]
            }
        }
    ]
}