{
    "type": "FeatureCollection",
    "features": [
        {
            "type": "Feature",
            "properties": {
                "HYRIV_ID": 41393691,
                "NEXT_DOWN": 0,
                "MAIN_RIV": 41393691,
                "LENGTH_KM": 0.69,
                "DIST_DN_KM": 0.0,
                "DIST_UP_KM": 6.0,
                "CATCH_SKM": 9.5299997,
                "UPLAND_SKM": 9.1,
                "ENDORHEIC": 0,
                "DIS_AV_CMS": 0.123,
                "ORD_STRA": 1,
                "ORD_CLAS": 1,
                "ORD_FLOW": 7,
                "HYBAS_L12": 4120049470.0,
                "Shape_Length": 0.006249999999980105
            },
            "geometry": {
                "type": "LineString",
                "coordinates": [
                    [
                        80.5979166666663,
                        9.449999999999868
                    ],
                    [
                        80.5979166666663,
                        9.456249999999848
                    ]
                ]
            }
        }
    ]
}