{
    "type": "FeatureCollection",
    "features": [
        {
            "type": "Feature",
            "properties": {
                "HYRIV_ID": 41393402,
                "NEXT_DOWN": 0,
                "MAIN_RIV": 41393402,
                "LENGTH_KM": 1.63,
                "DIST_DN_KM": 0.0,
                "DIST_UP_KM": 6.2,
                "CATCH_SKM": 20.540001,
                "UPLAND_SKM": 20.3,
                "ENDORHEIC": 0,
                "DIS_AV_CMS": 0.207,
                "ORD_STRA": 1,
                "ORD_CLAS": 1,
                "ORD_FLOW": 7,
                "HYBAS_L12": 4120050190.0,
                "Shape_Length": 0.014731391274756585
            },
            "geometry": {
                "type": "LineString",
                "coordinates": [
                    [
                        79.68749999999969,
                        9.504166666666514
                    ],
                    [
                        79.67708333333294,
                        9.49374999999987
                    ]
                ]
            }
        }
    ]
}