{
    "type": "FeatureCollection",
    "features": [
        {
            "type": "Feature",
            "properties": {
                "HYRIV_ID": 41399628,
                "NEXT_DOWN": 0,
                "MAIN_RIV": 41399628,
                "LENGTH_KM": 2.26,
                "DIST_DN_KM": 0.0,
                "DIST_UP_KM": 4.9,
                "CATCH_SKM": 9.3400002,
                "UPLAND_SKM": 9.1,
                "ENDORHEIC": 0,
                "DIS_AV_CMS": 0.166,
                "ORD_STRA": 1,
                "ORD_CLAS": 1,
                "ORD_FLOW": 7,
                "HYBAS_L12": 4120049690.0,
                "Shape_Length": 0.020475889843282996
            },
            "geometry": {
                "type": "LineString",
                "coordinates": [
                    [
                        81.34374999999957,
                        8.466666666666534
                    ],
                    [
                        81.34374999999957,
                        8.472916666666528
                    ],
                    [
                        81.34791666666635,
                        8.47708333333319
                    ],
                    [
                        81.35624999999968,
                        8.47708333333319
                    ]
                ]
            }
        }
    ]
}