{
    "type": "FeatureCollection",
    "features": [
        {
            "type": "Feature",
            "properties": {
                "HYRIV_ID": 41393957,
                "NEXT_DOWN": 0,
                "MAIN_RIV": 41393957,
                "LENGTH_KM": 8.2399998,
                "DIST_DN_KM": 0.0,
                "DIST_UP_KM": 16.200001,
                "CATCH_SKM": 31.549999,
                "UPLAND_SKM": 55.099998,
                "ENDORHEIC": 0,
                "DIS_AV_CMS": 0.62300003,
                "ORD_STRA": 2,
                "ORD_CLAS": 1,
                "ORD_FLOW": 7,
                "HYBAS_L12": 4120049430.0,
                "Shape_Length": 0.07458122890258959
            },
            "geometry": {
                "type": "LineString",
                "coordinates": [
                    [
                        80.37291666666633,
                        9.410416666666528
                    ],
                    [
                        80.36874999999966,
                        9.410416666666528
                    ],
                    [
                        80.36041666666628,
                        9.41874999999984
                    ],
                    [
                        80.36041666666628,
                        9.422916666666502
                    ],
                    [
                        80.3479166666663,
                        9.43541666666652
                    ],
                    [
                        80.3479166666663,
                        9.439583333333225
                    ],
                    [
                        80.34374999999963,
                        9.443749999999831
                    ],
                    [
                        80.33124999999964,
                        9.443749999999831
                    ],
                    [
                        80.32708333333292,
                        9.447916666666536
                    ],
                    [
                        80.32708333333292,
                        9.456249999999848
                    ]
                ]
            }
        },
        {
            "type": "Feature",
            "properties": {
                "HYRIV_ID": 41393987,
                "NEXT_DOWN": 41393957,
                "MAIN_RIV": 41393957,
                "LENGTH_KM": 1.89,
                "DIST_DN_KM": 8.5,
                "DIST_UP_KM": 5.9,
                "CATCH_SKM": 11.22,
                "UPLAND_SKM": 11.2,
                "ENDORHEIC": 0,
                "DIS_AV_CMS": 0.132,
                "ORD_STRA": 1,
                "ORD_CLAS": 2,
                "ORD_FLOW": 7,
                "HYBAS_L12": 4120049430.0,
                "Shape_Length": 0.01717216809814956
            },
            "geometry": {
                "type": "LineString",
                "coordinates": [
                    [
                        80.38749999999962,
                        9.404166666666505
                    ],
                    [
                        80.38124999999965,
                        9.410416666666528
                    ],
                    [
                        80.37291666666633,
                        9.410416666666528
                    ]
                ]
            }
        },
        {
            "type": "Feature",
            "properties": {
                "HYRIV_ID": 41394066,
                "NEXT_DOWN": 41393957,
                "MAIN_RIV": 41393957,
                "LENGTH_KM": 2.09,
                "DIST_DN_KM": 8.7,
                "DIST_UP_KM": 7.8,
                "CATCH_SKM": 12.5,
                "UPLAND_SKM": 12.5,
                "ENDORHEIC": 0,
                "DIS_AV_CMS": 0.144,
                "ORD_STRA": 1,
                "ORD_CLAS": 1,
                "ORD_FLOW": 7,
                "HYBAS_L12": 4120049430.0,
                "Shape_Length": 0.018898057941337348
            },
            "geometry": {
                "type": "LineString",
                "coordinates": [
                    [
                        80.37083333333308,
                        9.39583333333318
                    ],
                    [
                        80.37708333333299,
                        9.402083333333174
                    ],
                    [
                        80.37708333333299,
                        9.406249999999865
                    ],
                    [
                        80.37291666666633,
                        9.410416666666528
                    ]
                ]
            }
        }
    ]
}