{
    "type": "FeatureCollection",
    "features": [
        {
            "type": "Feature",
            "properties": {
                "HYRIV_ID": 41392083,
                "NEXT_DOWN": 0,
                "MAIN_RIV": 41392083,
                "LENGTH_KM": 1.14,
                "DIST_DN_KM": 0.0,
                "DIST_UP_KM": 7.9,
                "CATCH_SKM": 11.0,
                "UPLAND_SKM": 10.4,
                "ENDORHEIC": 0,
                "DIS_AV_CMS": 0.113,
                "ORD_STRA": 1,
                "ORD_CLAS": 1,
                "ORD_FLOW": 7,
                "HYBAS_L12": 4120050180.0,
                "Shape_Length": 0.010416666666685614
            },
            "geometry": {
                "type": "LineString",
                "coordinates": [
                    [
                        79.85833333333298,
                        9.689583333333196
                    ],
                    [
                        79.8479166666663,
                        9.689583333333196
                    ]
                ]
            }
        }
    ]
}