{
    "type": "FeatureCollection",
    "features": [
        {
            "type": "Feature",
            "properties": {
                "HYRIV_ID": 41391774,
                "NEXT_DOWN": 41392010,
                "MAIN_RIV": 41392010,
                "LENGTH_KM": 2.0,
                "DIST_DN_KM": 4.8,
                "DIST_UP_KM": 5.4,
                "CATCH_SKM": 9.5200005,
                "UPLAND_SKM": 9.5,
                "ENDORHEIC": 0,
                "DIS_AV_CMS": 0.116,
                "ORD_STRA": 1,
                "ORD_CLAS": 2,
                "ORD_FLOW": 7,
                "HYBAS_L12": 4120050170.0,
                "Shape_Length": 0.01803511301978781
            },
            "geometry": {
                "type": "LineString",
                "coordinates": [
                    [
                        79.96458333333297,
                        9.745833333333202
                    ],
                    [
                        79.96458333333297,
                        9.73958333333318
                    ],
                    [
                        79.9729166666663,
                        9.731249999999854
                    ]
                ]
            }
        },
        {
            "type": "Feature",
            "properties": {
                "HYRIV_ID": 41391775,
                "NEXT_DOWN": 41392010,
                "MAIN_RIV": 41392010,
                "LENGTH_KM": 7.7399998,
                "DIST_DN_KM": 4.8,
                "DIST_UP_KM": 10.2,
                "CATCH_SKM": 35.75,
                "UPLAND_SKM": 35.8,
                "ENDORHEIC": 0,
                "DIS_AV_CMS": 0.456,
                "ORD_STRA": 1,
                "ORD_CLAS": 1,
                "ORD_FLOW": 7,
                "HYBAS_L12": 4120050170.0,
                "Shape_Length": 0.07020517668718282
            },
            "geometry": {
                "type": "LineString",
                "coordinates": [
                    [
                        80.02499999999966,
                        9.774999999999856
                    ],
                    [
                        79.989583333333,
                        9.73958333333318
                    ],
                    [
                        79.98124999999968,
                        9.73958333333318
                    ],
                    [
                        79.9729166666663,
                        9.731249999999854
                    ]
                ]
            }
        },
        {
            "type": "Feature",
            "properties": {
                "HYRIV_ID": 41392010,
                "NEXT_DOWN": 0,
                "MAIN_RIV": 41392010,
                "LENGTH_KM": 4.46,
                "DIST_DN_KM": 0.0,
                "DIST_UP_KM": 14.6,
                "CATCH_SKM": 11.85,
                "UPLAND_SKM": 56.900002,
                "ENDORHEIC": 0,
                "DIS_AV_CMS": 0.588,
                "ORD_STRA": 2,
                "ORD_CLAS": 1,
                "ORD_FLOW": 7,
                "HYBAS_L12": 4120050170.0,
                "Shape_Length": 0.040236892706203474
            },
            "geometry": {
                "type": "LineString",
                "coordinates": [
                    [
                        79.9729166666663,
                        9.731249999999854
                    ],
                    [
                        79.9729166666663,
                        9.727083333333205
                    ],
                    [
                        79.96874999999963,
                        9.7229166666665
                    ],
                    [
                        79.96874999999963,
                        9.714583333333188
                    ],
                    [
                        79.9729166666663,
                        9.710416666666525
                    ],
                    [
                        79.9729166666663,
                        9.706249999999862
                    ],
                    [
                        79.96458333333297,
                        9.697916666666508
                    ]
                ]
            }
        }
    ]
}