{
    "type": "FeatureCollection",
    "features": [
        {
            "type": "Feature",
            "properties": {
                "HYRIV_ID": 41395042,
                "NEXT_DOWN": 0,
                "MAIN_RIV": 41395042,
                "LENGTH_KM": 0.92,
                "DIST_DN_KM": 0.0,
                "DIST_UP_KM": 16.8,
                "CATCH_SKM": 1.91,
                "UPLAND_SKM": 77.300003,
                "ENDORHEIC": 0,
                "DIS_AV_CMS": 0.741,
                "ORD_STRA": 2,
                "ORD_CLAS": 1,
                "ORD_FLOW": 7,
                "HYBAS_L12": 4120049390.0,
                "Shape_Length": 0.008333333333325754
            },
            "geometry": {
                "type": "LineString",
                "coordinates": [
                    [
                        80.13124999999965,
                        9.256249999999874
                    ],
                    [
                        80.12291666666633,
                        9.256249999999874
                    ]
                ]
            }
        },
        {
            "type": "Feature",
            "properties": {
                "HYRIV_ID": 41395208,
                "NEXT_DOWN": 41395042,
                "MAIN_RIV": 41395042,
                "LENGTH_KM": 8.0900002,
                "DIST_DN_KM": 1.1,
                "DIST_UP_KM": 13.3,
                "CATCH_SKM": 25.85,
                "UPLAND_SKM": 25.8,
                "ENDORHEIC": 0,
                "DIS_AV_CMS": 0.252,
                "ORD_STRA": 1,
                "ORD_CLAS": 2,
                "ORD_FLOW": 7,
                "HYBAS_L12": 4120049390.0,
                "Shape_Length": 0.07336084049085966
            },
            "geometry": {
                "type": "LineString",
                "coordinates": [
                    [
                        80.18749999999969,
                        9.229166666666508
                    ],
                    [
                        80.18124999999972,
                        9.23541666666653
                    ],
                    [
                        80.18124999999972,
                        9.239583333333194
                    ],
                    [
                        80.17708333333294,
                        9.243749999999856
                    ],
                    [
                        80.1729166666664,
                        9.243749999999856
                    ],
                    [
                        80.16458333333307,
                        9.252083333333168
                    ],
                    [
                        80.15208333333302,
                        9.252083333333168
                    ],
                    [
                        80.1437499999997,
                        9.260416666666536
                    ],
                    [
                        80.13958333333304,
                        9.256249999999874
                    ],
                    [
                        80.13124999999965,
                        9.256249999999874
                    ]
                ]
            }
        },
        {
            "type": "Feature",
            "properties": {
                "HYRIV_ID": 41395231,
                "NEXT_DOWN": 41395042,
                "MAIN_RIV": 41395042,
                "LENGTH_KM": 3.99,
                "DIST_DN_KM": 1.1,
                "DIST_UP_KM": 15.9,
                "CATCH_SKM": 11.87,
                "UPLAND_SKM": 49.8,
                "ENDORHEIC": 0,
                "DIS_AV_CMS": 0.477,
                "ORD_STRA": 2,
                "ORD_CLAS": 1,
                "ORD_FLOW": 7,
                "HYBAS_L12": 4120049390.0,
                "Shape_Length": 0.036070226039619985
            },
            "geometry": {
                "type": "LineString",
                "coordinates": [
                    [
                        80.14791666666636,
                        9.227083333333177
                    ],
                    [
                        80.14791666666636,
                        9.23541666666653
                    ],
                    [
                        80.13124999999965,
                        9.252083333333168
                    ],
                    [
                        80.13124999999965,
                        9.256249999999874
                    ]
                ]
            }
        },
        {
            "type": "Feature",
            "properties": {
                "HYRIV_ID": 41395285,
                "NEXT_DOWN": 41395231,
                "MAIN_RIV": 41395042,
                "LENGTH_KM": 1.35,
                "DIST_DN_KM": 5.3,
                "DIST_UP_KM": 8.2,
                "CATCH_SKM": 12.08,
                "UPLAND_SKM": 12.1,
                "ENDORHEIC": 0,
                "DIS_AV_CMS": 0.118,
                "ORD_STRA": 1,
                "ORD_CLAS": 2,
                "ORD_FLOW": 7,
                "HYBAS_L12": 4120049390.0,
                "Shape_Length": 0.01214255650986264
            },
            "geometry": {
                "type": "LineString",
                "coordinates": [
                    [
                        80.1437499999997,
                        9.216666666666534
                    ],
                    [
                        80.1437499999997,
                        9.222916666666514
                    ],
                    [
                        80.14791666666636,
                        9.227083333333177
                    ]
                ]
            }
        },
        {
            "type": "Feature",
            "properties": {
                "HYRIV_ID": 41395410,
                "NEXT_DOWN": 41395231,
                "MAIN_RIV": 41395042,
                "LENGTH_KM": 6.2399998,
                "DIST_DN_KM": 5.3,
                "DIST_UP_KM": 11.7,
                "CATCH_SKM": 25.85,
                "UPLAND_SKM": 25.9,
                "ENDORHEIC": 0,
                "DIS_AV_CMS": 0.25,
                "ORD_STRA": 1,
                "ORD_CLAS": 1,
                "ORD_FLOW": 7,
                "HYBAS_L12": 4120049390.0,
                "Shape_Length": 0.05654611588283163
            },
            "geometry": {
                "type": "LineString",
                "coordinates": [
                    [
                        80.18749999999969,
                        9.20624999999989
                    ],
                    [
                        80.17708333333294,
                        9.20624999999989
                    ],
                    [
                        80.1729166666664,
                        9.202083333333185
                    ],
                    [
                        80.16458333333307,
                        9.210416666666497
                    ],
                    [
                        80.16458333333307,
                        9.214583333333202
                    ],
                    [
                        80.16041666666635,
                        9.214583333333202
                    ],
                    [
                        80.15624999999969,
                        9.218749999999865
                    ],
                    [
                        80.15624999999969,
                        9.222916666666514
                    ],
                    [
                        80.15208333333302,
                        9.222916666666514
                    ],
                    [
                        80.14791666666636,
                        9.227083333333177
                    ]
                ]
            }
        }
    ]
}