{
    "type": "FeatureCollection",
    "features": [
        {
            "type": "Feature",
            "properties": {
                "HYRIV_ID": 41394294,
                "NEXT_DOWN": 0,
                "MAIN_RIV": 41394294,
                "LENGTH_KM": 1.95,
                "DIST_DN_KM": 0.0,
                "DIST_UP_KM": 13.1,
                "CATCH_SKM": 1.48,
                "UPLAND_SKM": 36.599998,
                "ENDORHEIC": 0,
                "DIS_AV_CMS": 0.50800002,
                "ORD_STRA": 2,
                "ORD_CLAS": 2,
                "ORD_FLOW": 7,
                "HYBAS_L12": 4120049480.0,
                "Shape_Length": 0.017677669529758144
            },
            "geometry": {
                "type": "LineString",
                "coordinates": [
                    [
                        80.71458333333308,
                        9.364583333333208
                    ],
                    [
                        80.70208333333292,
                        9.377083333333182
                    ]
                ]
            }
        },
        {
            "type": "Feature",
            "properties": {
                "HYRIV_ID": 41394396,
                "NEXT_DOWN": 41394294,
                "MAIN_RIV": 41394294,
                "LENGTH_KM": 2.46,
                "DIST_DN_KM": 2.3,
                "DIST_UP_KM": 9.1,
                "CATCH_SKM": 13.34,
                "UPLAND_SKM": 13.3,
                "ENDORHEIC": 0,
                "DIS_AV_CMS": 0.18700001,
                "ORD_STRA": 1,
                "ORD_CLAS": 3,
                "ORD_FLOW": 7,
                "HYBAS_L12": 4120049480.0,
                "Shape_Length": 0.022201779686357812
            },
            "geometry": {
                "type": "LineString",
                "coordinates": [
                    [
                        80.7229166666663,
                        9.345833333333196
                    ],
                    [
                        80.7229166666663,
                        9.35624999999984
                    ],
                    [
                        80.71458333333308,
                        9.364583333333208
                    ]
                ]
            }
        },
        {
            "type": "Feature",
            "properties": {
                "HYRIV_ID": 41394589,
                "NEXT_DOWN": 41394294,
                "MAIN_RIV": 41394294,
                "LENGTH_KM": 6.27,
                "DIST_DN_KM": 2.3,
                "DIST_UP_KM": 11.1,
                "CATCH_SKM": 21.82,
                "UPLAND_SKM": 21.8,
                "ENDORHEIC": 0,
                "DIS_AV_CMS": 0.302,
                "ORD_STRA": 1,
                "ORD_CLAS": 2,
                "ORD_FLOW": 7,
                "HYBAS_L12": 4120049480.0,
                "Shape_Length": 0.05669417382426427
            },
            "geometry": {
                "type": "LineString",
                "coordinates": [
                    [
                        80.69999999999962,
                        9.320833333333162
                    ],
                    [
                        80.7062499999997,
                        9.327083333333185
                    ],
                    [
                        80.7062499999997,
                        9.331249999999848
                    ],
                    [
                        80.69791666666637,
                        9.339583333333202
                    ],
                    [
                        80.69791666666637,
                        9.343749999999865
                    ],
                    [
                        80.70208333333292,
                        9.347916666666528
                    ],
                    [
                        80.70208333333292,
                        9.352083333333177
                    ],
                    [
                        80.71458333333308,
                        9.364583333333208
                    ]
                ]
            }
        }
    ]
}