{
    "type": "FeatureCollection",
    "features": [
        {
            "type": "Feature",
            "properties": {
                "HYRIV_ID": 41397976,
                "NEXT_DOWN": 0,
                "MAIN_RIV": 41397976,
                "LENGTH_KM": 1.95,
                "DIST_DN_KM": 0.0,
                "DIST_UP_KM": 63.8,
                "CATCH_SKM": 2.55,
                "UPLAND_SKM": 455.29999,
                "ENDORHEIC": 0,
                "DIS_AV_CMS": 6.645,
                "ORD_STRA": 3,
                "ORD_CLAS": 1,
                "ORD_FLOW": 6,
                "HYBAS_L12": 4120049600.0,
                "Shape_Length": 0.017677669529637563
            },
            "geometry": {
                "type": "LineString",
                "coordinates": [
                    [
                        81.11041666666628,
                        8.78124999999988
                    ],
                    [
                        81.12291666666627,
                        8.793749999999854
                    ]
                ]
            }
        },
        {
            "type": "Feature",
            "properties": {
                "HYRIV_ID": 41398167,
                "NEXT_DOWN": 41397976,
                "MAIN_RIV": 41397976,
                "LENGTH_KM": 6.48,
                "DIST_DN_KM": 2.1,
                "DIST_UP_KM": 62.0,
                "CATCH_SKM": 24.610001,
                "UPLAND_SKM": 427.5,
                "ENDORHEIC": 0,
                "DIS_AV_CMS": 6.2659998,
                "ORD_STRA": 3,
                "ORD_CLAS": 1,
                "ORD_FLOW": 6,
                "HYBAS_L12": 4120049600.0,
                "Shape_Length": 0.05862944921605799
            },
            "geometry": {
                "type": "LineString",
                "coordinates": [
                    [
                        81.07291666666632,
                        8.747916666666534
                    ],
                    [
                        81.07708333333304,
                        8.752083333333196
                    ],
                    [
                        81.07708333333304,
                        8.756249999999845
                    ],
                    [
                        81.0812499999997,
                        8.76041666666655
                    ],
                    [
                        81.0812499999997,
                        8.768749999999862
                    ],
                    [
                        81.08958333333302,
                        8.768749999999862
                    ],
                    [
                        81.09791666666635,
                        8.77708333333323
                    ],
                    [
                        81.10208333333307,
                        8.77708333333323
                    ],
                    [
                        81.10624999999973,
                        8.78124999999988
                    ],
                    [
                        81.11041666666628,
                        8.78124999999988
                    ]
                ]
            }
        },
        {
            "type": "Feature",
            "properties": {
                "HYRIV_ID": 41398168,
                "NEXT_DOWN": 41397976,
                "MAIN_RIV": 41397976,
                "LENGTH_KM": 4.6,
                "DIST_DN_KM": 2.3,
                "DIST_UP_KM": 8.8,
                "CATCH_SKM": 25.459999,
                "UPLAND_SKM": 25.5,
                "ENDORHEIC": 0,
                "DIS_AV_CMS": 0.383,
                "ORD_STRA": 1,
                "ORD_CLAS": 2,
                "ORD_FLOW": 7,
                "HYBAS_L12": 4120049600.0,
                "Shape_Length": 0.04145728111793412
            },
            "geometry": {
                "type": "LineString",
                "coordinates": [
                    [
                        81.10416666666632,
                        8.745833333333202
                    ],
                    [
                        81.11458333333294,
                        8.756249999999845
                    ],
                    [
                        81.11458333333294,
                        8.77708333333323
                    ],
                    [
                        81.11041666666628,
                        8.78124999999988
                    ]
                ]
            }
        },
        {
            "type": "Feature",
            "properties": {
                "HYRIV_ID": 41398228,
                "NEXT_DOWN": 41398229,
                "MAIN_RIV": 41397976,
                "LENGTH_KM": 1.34,
                "DIST_DN_KM": 10.5,
                "DIST_UP_KM": 5.7,
                "CATCH_SKM": 8.9099998,
                "UPLAND_SKM": 8.9,
                "ENDORHEIC": 0,
                "DIS_AV_CMS": 0.13500001,
                "ORD_STRA": 1,
                "ORD_CLAS": 2,
                "ORD_FLOW": 7,
                "HYBAS_L12": 4120049600.0,
                "Shape_Length": 0.012142556509791586
            },
            "geometry": {
                "type": "LineString",
                "coordinates": [
                    [
                        81.04999999999976,
                        8.74374999999987
                    ],
                    [
                        81.05624999999966,
                        8.74374999999987
                    ],
                    [
                        81.06041666666633,
                        8.739583333333208
                    ]
                ]
            }
        },
        {
            "type": "Feature",
            "properties": {
                "HYRIV_ID": 41398229,
                "NEXT_DOWN": 41398167,
                "MAIN_RIV": 41397976,
                "LENGTH_KM": 1.76,
                "DIST_DN_KM": 8.8,
                "DIST_UP_KM": 55.400002,
                "CATCH_SKM": 5.3,
                "UPLAND_SKM": 364.0,
                "ENDORHEIC": 0,
                "DIS_AV_CMS": 5.4489999,
                "ORD_STRA": 3,
                "ORD_CLAS": 1,
                "ORD_FLOW": 6,
                "HYBAS_L12": 4120049600.0,
                "Shape_Length": 0.01595177968642795
            },
            "geometry": {
                "type": "LineString",
                "coordinates": [
                    [
                        81.06041666666633,
                        8.739583333333208
                    ],
                    [
                        81.06458333333299,
                        8.74374999999987
                    ],
                    [
                        81.06874999999965,
                        8.74374999999987
                    ],
                    [
                        81.07291666666632,
                        8.747916666666534
                    ]
                ]
            }
        },
        {
            "type": "Feature",
            "properties": {
                "HYRIV_ID": 41398296,
                "NEXT_DOWN": 41398297,
                "MAIN_RIV": 41397976,
                "LENGTH_KM": 1.34,
                "DIST_DN_KM": 13.2,
                "DIST_UP_KM": 4.0,
                "CATCH_SKM": 7.64,
                "UPLAND_SKM": 7.6,
                "ENDORHEIC": 0,
                "DIS_AV_CMS": 0.117,
                "ORD_STRA": 1,
                "ORD_CLAS": 2,
                "ORD_FLOW": 7,
                "HYBAS_L12": 4120049600.0,
                "Shape_Length": 0.012142556509791586
            },
            "geometry": {
                "type": "LineString",
                "coordinates": [
                    [
                        81.03333333333305,
                        8.731249999999854
                    ],
                    [
                        81.03958333333296,
                        8.731249999999854
                    ],
                    [
                        81.04374999999962,
                        8.72708333333319
                    ]
                ]
            }
        },
        {
            "type": "Feature",
            "properties": {
                "HYRIV_ID": 41398297,
                "NEXT_DOWN": 41398229,
                "MAIN_RIV": 41397976,
                "LENGTH_KM": 2.6800001,
                "DIST_DN_KM": 10.3,
                "DIST_UP_KM": 53.8,
                "CATCH_SKM": 4.8800001,
                "UPLAND_SKM": 349.79999,
                "ENDORHEIC": 0,
                "DIS_AV_CMS": 5.2649999,
                "ORD_STRA": 3,
                "ORD_CLAS": 1,
                "ORD_FLOW": 6,
                "HYBAS_L12": 4120049600.0,
                "Shape_Length": 0.02428511301982648
            },
            "geometry": {
                "type": "LineString",
                "coordinates": [
                    [
                        81.04374999999962,
                        8.72708333333319
                    ],
                    [
                        81.04791666666628,
                        8.731249999999854
                    ],
                    [
                        81.05624999999966,
                        8.731249999999854
                    ],
                    [
                        81.06041666666633,
                        8.73541666666656
                    ],
                    [
                        81.06041666666633,
                        8.739583333333208
                    ]
                ]
            }
        },
        {
            "type": "Feature",
            "properties": {
                "HYRIV_ID": 41398526,
                "NEXT_DOWN": 41398297,
                "MAIN_RIV": 41397976,
                "LENGTH_KM": 5.8400002,
                "DIST_DN_KM": 13.0,
                "DIST_UP_KM": 51.099998,
                "CATCH_SKM": 25.459999,
                "UPLAND_SKM": 337.29999,
                "ENDORHEIC": 0,
                "DIS_AV_CMS": 5.1240001,
                "ORD_STRA": 3,
                "ORD_CLAS": 1,
                "ORD_FLOW": 6,
                "HYBAS_L12": 4120049600.0,
                "Shape_Length": 0.05273689270620876
            },
            "geometry": {
                "type": "LineString",
                "coordinates": [
                    [
                        81.01874999999964,
                        8.689583333333182
                    ],
                    [
                        81.01874999999964,
                        8.69791666666655
                    ],
                    [
                        81.02708333333297,
                        8.706249999999862
                    ],
                    [
                        81.02708333333297,
                        8.710416666666525
                    ],
                    [
                        81.03124999999963,
                        8.714583333333174
                    ],
                    [
                        81.03958333333296,
                        8.714583333333174
                    ],
                    [
                        81.04374999999962,
                        8.71874999999988
                    ],
                    [
                        81.04374999999962,
                        8.72708333333319
                    ]
                ]
            }
        },
        {
            "type": "Feature",
            "properties": {
                "HYRIV_ID": 41398546,
                "NEXT_DOWN": 41398167,
                "MAIN_RIV": 41397976,
                "LENGTH_KM": 7.75,
                "DIST_DN_KM": 8.6,
                "DIST_UP_KM": 12.4,
                "CATCH_SKM": 38.830002,
                "UPLAND_SKM": 38.8,
                "ENDORHEIC": 0,
                "DIS_AV_CMS": 0.589,
                "ORD_STRA": 1,
                "ORD_CLAS": 2,
                "ORD_FLOW": 7,
                "HYBAS_L12": 4120049600.0,
                "Shape_Length": 0.06976100286296544
            },
            "geometry": {
                "type": "LineString",
                "coordinates": [
                    [
                        81.06874999999965,
                        8.683333333333202
                    ],
                    [
                        81.06874999999965,
                        8.693749999999888
                    ],
                    [
                        81.06458333333299,
                        8.69791666666655
                    ],
                    [
                        81.06458333333299,
                        8.714583333333174
                    ],
                    [
                        81.06874999999965,
                        8.71874999999988
                    ],
                    [
                        81.06874999999965,
                        8.731249999999854
                    ],
                    [
                        81.07291666666632,
                        8.73541666666656
                    ],
                    [
                        81.07291666666632,
                        8.747916666666534
                    ]
                ]
            }
        },
        {
            "type": "Feature",
            "properties": {
                "HYRIV_ID": 41398605,
                "NEXT_DOWN": 41398526,
                "MAIN_RIV": 41397976,
                "LENGTH_KM": 2.56,
                "DIST_DN_KM": 19.0,
                "DIST_UP_KM": 8.0,
                "CATCH_SKM": 20.370001,
                "UPLAND_SKM": 20.4,
                "ENDORHEIC": 0,
                "DIS_AV_CMS": 0.317,
                "ORD_STRA": 1,
                "ORD_CLAS": 2,
                "ORD_FLOW": 7,
                "HYBAS_L12": 4121600760.0,
                "Shape_Length": 0.0230647246079919
            },
            "geometry": {
                "type": "LineString",
                "coordinates": [
                    [
                        81.00833333333301,
                        8.670833333333228
                    ],
                    [
                        81.01458333333292,
                        8.677083333333208
                    ],
                    [
                        81.01458333333292,
                        8.685416666666534
                    ],
                    [
                        81.01874999999964,
                        8.689583333333182
                    ]
                ]
            }
        },
        {
            "type": "Feature",
            "properties": {
                "HYRIV_ID": 41398749,
                "NEXT_DOWN": 41398526,
                "MAIN_RIV": 41397976,
                "LENGTH_KM": 6.6799998,
                "DIST_DN_KM": 19.0,
                "DIST_UP_KM": 45.099998,
                "CATCH_SKM": 21.43,
                "UPLAND_SKM": 291.5,
                "ENDORHEIC": 0,
                "DIS_AV_CMS": 4.5180001,
                "ORD_STRA": 3,
                "ORD_CLAS": 1,
                "ORD_FLOW": 6,
                "HYBAS_L12": 4121600760.0,
                "Shape_Length": 0.060355339059336946
            },
            "geometry": {
                "type": "LineString",
                "coordinates": [
                    [
                        81.01458333333292,
                        8.643749999999862
                    ],
                    [
                        81.01458333333292,
                        8.64791666666651
                    ],
                    [
                        81.02708333333297,
                        8.660416666666542
                    ],
                    [
                        81.02708333333297,
                        8.67291666666656
                    ],
                    [
                        81.03124999999963,
                        8.677083333333208
                    ],
                    [
                        81.03124999999963,
                        8.68124999999987
                    ],
                    [
                        81.02708333333297,
                        8.685416666666534
                    ],
                    [
                        81.0229166666663,
                        8.685416666666534
                    ],
                    [
                        81.01874999999964,
                        8.689583333333182
                    ]
                ]
            }
        },
        {
            "type": "Feature",
            "properties": {
                "HYRIV_ID": 41398773,
                "NEXT_DOWN": 41398749,
                "MAIN_RIV": 41397976,
                "LENGTH_KM": 0.98,
                "DIST_DN_KM": 25.700001,
                "DIST_UP_KM": 5.2,
                "CATCH_SKM": 7.85,
                "UPLAND_SKM": 7.9,
                "ENDORHEIC": 0,
                "DIS_AV_CMS": 0.124,
                "ORD_STRA": 1,
                "ORD_CLAS": 2,
                "ORD_FLOW": 7,
                "HYBAS_L12": 4121600760.0,
                "Shape_Length": 0.008838834764763513
            },
            "geometry": {
                "type": "LineString",
                "coordinates": [
                    [
                        81.00833333333301,
                        8.637499999999868
                    ],
                    [
                        81.01458333333292,
                        8.643749999999862
                    ]
                ]
            }
        },
        {
            "type": "Feature",
            "properties": {
                "HYRIV_ID": 41398827,
                "NEXT_DOWN": 41398749,
                "MAIN_RIV": 41397976,
                "LENGTH_KM": 1.58,
                "DIST_DN_KM": 25.700001,
                "DIST_UP_KM": 38.400002,
                "CATCH_SKM": 1.7,
                "UPLAND_SKM": 262.20001,
                "ENDORHEIC": 0,
                "DIS_AV_CMS": 4.1570001,
                "ORD_STRA": 3,
                "ORD_CLAS": 1,
                "ORD_FLOW": 6,
                "HYBAS_L12": 4121600760.0,
                "Shape_Length": 0.014225889843234274
            },
            "geometry": {
                "type": "LineString",
                "coordinates": [
                    [
                        81.01874999999964,
                        8.631249999999888
                    ],
                    [
                        81.01874999999964,
                        8.6395833333332
                    ],
                    [
                        81.01458333333292,
                        8.643749999999862
                    ]
                ]
            }
        },
        {
            "type": "Feature",
            "properties": {
                "HYRIV_ID": 41398828,
                "NEXT_DOWN": 41398827,
                "MAIN_RIV": 41397976,
                "LENGTH_KM": 0.69,
                "DIST_DN_KM": 27.1,
                "DIST_UP_KM": 5.6,
                "CATCH_SKM": 7.0,
                "UPLAND_SKM": 7.0,
                "ENDORHEIC": 0,
                "DIS_AV_CMS": 0.111,
                "ORD_STRA": 1,
                "ORD_CLAS": 2,
                "ORD_FLOW": 7,
                "HYBAS_L12": 4121600760.0,
                "Shape_Length": 0.006250000000079581
            },
            "geometry": {
                "type": "LineString",
                "coordinates": [
                    [
                        81.02499999999972,
                        8.631249999999888
                    ],
                    [
                        81.01874999999964,
                        8.631249999999888
                    ]
                ]
            }
        },
        {
            "type": "Feature",
            "properties": {
                "HYRIV_ID": 41398892,
                "NEXT_DOWN": 41398827,
                "MAIN_RIV": 41397976,
                "LENGTH_KM": 2.4100001,
                "DIST_DN_KM": 27.3,
                "DIST_UP_KM": 36.8,
                "CATCH_SKM": 6.1599998,
                "UPLAND_SKM": 253.5,
                "ENDORHEIC": 0,
                "DIS_AV_CMS": 4.0419998,
                "ORD_STRA": 3,
                "ORD_CLAS": 1,
                "ORD_FLOW": 6,
                "HYBAS_L12": 4121600760.0,
                "Shape_Length": 0.021844336196313936
            },
            "geometry": {
                "type": "LineString",
                "coordinates": [
                    [
                        81.00208333333299,
                        8.61874999999987
                    ],
                    [
                        81.01041666666632,
                        8.627083333333182
                    ],
                    [
                        81.01458333333292,
                        8.627083333333182
                    ],
                    [
                        81.01874999999964,
                        8.631249999999888
                    ]
                ]
            }
        },
        {
            "type": "Feature",
            "properties": {
                "HYRIV_ID": 41398911,
                "NEXT_DOWN": 41398892,
                "MAIN_RIV": 41397976,
                "LENGTH_KM": 1.11,
                "DIST_DN_KM": 29.5,
                "DIST_UP_KM": 34.599998,
                "CATCH_SKM": 1.49,
                "UPLAND_SKM": 170.5,
                "ENDORHEIC": 0,
                "DIS_AV_CMS": 2.7490001,
                "ORD_STRA": 2,
                "ORD_CLAS": 1,
                "ORD_FLOW": 6,
                "HYBAS_L12": 4121600760.0,
                "Shape_Length": 0.010059223176602256
            },
            "geometry": {
                "type": "LineString",
                "coordinates": [
                    [
                        80.99374999999961,
                        8.614583333333208
                    ],
                    [
                        80.99791666666627,
                        8.61874999999987
                    ],
                    [
                        81.00208333333299,
                        8.61874999999987
                    ]
                ]
            }
        },
        {
            "type": "Feature",
            "properties": {
                "HYRIV_ID": 41398976,
                "NEXT_DOWN": 41398911,
                "MAIN_RIV": 41397976,
                "LENGTH_KM": 2.09,
                "DIST_DN_KM": 30.6,
                "DIST_UP_KM": 5.9,
                "CATCH_SKM": 9.9799995,
                "UPLAND_SKM": 10.0,
                "ENDORHEIC": 0,
                "DIS_AV_CMS": 0.161,
                "ORD_STRA": 1,
                "ORD_CLAS": 2,
                "ORD_FLOW": 7,
                "HYBAS_L12": 4121600760.0,
                "Shape_Length": 0.018898057941369218
            },
            "geometry": {
                "type": "LineString",
                "coordinates": [
                    [
                        80.9916666666663,
                        8.59999999999986
                    ],
                    [
                        80.99791666666627,
                        8.606249999999896
                    ],
                    [
                        80.99374999999961,
                        8.610416666666545
                    ],
                    [
                        80.99374999999961,
                        8.614583333333208
                    ]
                ]
            }
        },
        {
            "type": "Feature",
            "properties": {
                "HYRIV_ID": 41398990,
                "NEXT_DOWN": 41398892,
                "MAIN_RIV": 41397976,
                "LENGTH_KM": 2.6900001,
                "DIST_DN_KM": 29.5,
                "DIST_UP_KM": 17.700001,
                "CATCH_SKM": 4.46,
                "UPLAND_SKM": 76.800003,
                "ENDORHEIC": 0,
                "DIS_AV_CMS": 1.224,
                "ORD_STRA": 2,
                "ORD_CLAS": 2,
                "ORD_FLOW": 6,
                "HYBAS_L12": 4121600760.0,
                "Shape_Length": 0.024285113019786288
            },
            "geometry": {
                "type": "LineString",
                "coordinates": [
                    [
                        81.01041666666632,
                        8.597916666666528
                    ],
                    [
                        81.01041666666632,
                        8.606249999999896
                    ],
                    [
                        81.00208333333299,
                        8.614583333333208
                    ],
                    [
                        81.00208333333299,
                        8.61874999999987
                    ]
                ]
            }
        },
        {
            "type": "Feature",
            "properties": {
                "HYRIV_ID": 41399032,
                "NEXT_DOWN": 41399033,
                "MAIN_RIV": 41397976,
                "LENGTH_KM": 1.15,
                "DIST_DN_KM": 36.900002,
                "DIST_UP_KM": 4.6,
                "CATCH_SKM": 7.4299998,
                "UPLAND_SKM": 7.4,
                "ENDORHEIC": 0,
                "DIS_AV_CMS": 0.12,
                "ORD_STRA": 1,
                "ORD_CLAS": 2,
                "ORD_FLOW": 7,
                "HYBAS_L12": 4121600830.0,
                "Shape_Length": 0.010416666666628771
            },
            "geometry": {
                "type": "LineString",
                "coordinates": [
                    [
                        80.9416666666663,
                        8.589583333333216
                    ],
                    [
                        80.95208333333292,
                        8.589583333333216
                    ]
                ]
            }
        },
        {
            "type": "Feature",
            "properties": {
                "HYRIV_ID": 41399033,
                "NEXT_DOWN": 41398911,
                "MAIN_RIV": 41397976,
                "LENGTH_KM": 6.2800002,
                "DIST_DN_KM": 30.6,
                "DIST_UP_KM": 33.5,
                "CATCH_SKM": 28.23,
                "UPLAND_SKM": 159.0,
                "ENDORHEIC": 0,
                "DIS_AV_CMS": 2.5680001,
                "ORD_STRA": 2,
                "ORD_CLAS": 1,
                "ORD_FLOW": 6,
                "HYBAS_L12": 4121600760.0,
                "Shape_Length": 0.0569035593728626
            },
            "geometry": {
                "type": "LineString",
                "coordinates": [
                    [
                        80.95208333333292,
                        8.589583333333216
                    ],
                    [
                        80.9562499999997,
                        8.59374999999988
                    ],
                    [
                        80.9562499999997,
                        8.60208333333319
                    ],
                    [
                        80.96458333333302,
                        8.610416666666545
                    ],
                    [
                        80.97708333333296,
                        8.610416666666545
                    ],
                    [
                        80.98124999999962,
                        8.614583333333208
                    ],
                    [
                        80.99374999999961,
                        8.614583333333208
                    ]
                ]
            }
        },
        {
            "type": "Feature",
            "properties": {
                "HYRIV_ID": 41399132,
                "NEXT_DOWN": 41398990,
                "MAIN_RIV": 41397976,
                "LENGTH_KM": 4.6799998,
                "DIST_DN_KM": 32.200001,
                "DIST_UP_KM": 8.0,
                "CATCH_SKM": 17.83,
                "UPLAND_SKM": 17.8,
                "ENDORHEIC": 0,
                "DIS_AV_CMS": 0.288,
                "ORD_STRA": 1,
                "ORD_CLAS": 3,
                "ORD_FLOW": 7,
                "HYBAS_L12": 4121600760.0,
                "Shape_Length": 0.042320226039516545
            },
            "geometry": {
                "type": "LineString",
                "coordinates": [
                    [
                        80.98749999999964,
                        8.568749999999888
                    ],
                    [
                        80.99374999999961,
                        8.568749999999888
                    ],
                    [
                        80.99791666666627,
                        8.572916666666536
                    ],
                    [
                        80.99791666666627,
                        8.5770833333332
                    ],
                    [
                        81.00208333333299,
                        8.581249999999862
                    ],
                    [
                        81.00208333333299,
                        8.58541666666651
                    ],
                    [
                        81.01041666666632,
                        8.59374999999988
                    ],
                    [
                        81.01041666666632,
                        8.597916666666528
                    ]
                ]
            }
        },
        {
            "type": "Feature",
            "properties": {
                "HYRIV_ID": 41399208,
                "NEXT_DOWN": 41399209,
                "MAIN_RIV": 41397976,
                "LENGTH_KM": 0.69,
                "DIST_DN_KM": 41.3,
                "DIST_UP_KM": 3.6,
                "CATCH_SKM": 7.0,
                "UPLAND_SKM": 7.0,
                "ENDORHEIC": 0,
                "DIS_AV_CMS": 0.114,
                "ORD_STRA": 1,
                "ORD_CLAS": 2,
                "ORD_FLOW": 7,
                "HYBAS_L12": 4121600830.0,
                "Shape_Length": 0.006250000000079581
            },
            "geometry": {
                "type": "LineString",
                "coordinates": [
                    [
                        80.9416666666663,
                        8.552083333333208
                    ],
                    [
                        80.94791666666637,
                        8.552083333333208
                    ]
                ]
            }
        },
        {
            "type": "Feature",
            "properties": {
                "HYRIV_ID": 41399209,
                "NEXT_DOWN": 41399033,
                "MAIN_RIV": 41397976,
                "LENGTH_KM": 4.3600001,
                "DIST_DN_KM": 36.900002,
                "DIST_UP_KM": 27.200001,
                "CATCH_SKM": 10.19,
                "UPLAND_SKM": 123.3,
                "ENDORHEIC": 0,
                "DIS_AV_CMS": 2.0109999,
                "ORD_STRA": 2,
                "ORD_CLAS": 1,
                "ORD_FLOW": 6,
                "HYBAS_L12": 4121600830.0,
                "Shape_Length": 0.03922588984313531
            },
            "geometry": {
                "type": "LineString",
                "coordinates": [
                    [
                        80.94791666666637,
                        8.552083333333208
                    ],
                    [
                        80.94791666666637,
                        8.564583333333182
                    ],
                    [
                        80.95208333333292,
                        8.568749999999888
                    ],
                    [
                        80.95208333333292,
                        8.589583333333216
                    ]
                ]
            }
        },
        {
            "type": "Feature",
            "properties": {
                "HYRIV_ID": 41399210,
                "NEXT_DOWN": 41398990,
                "MAIN_RIV": 41397976,
                "LENGTH_KM": 5.4699998,
                "DIST_DN_KM": 32.400002,
                "DIST_UP_KM": 14.8,
                "CATCH_SKM": 22.709999,
                "UPLAND_SKM": 54.599998,
                "ENDORHEIC": 0,
                "DIS_AV_CMS": 0.875,
                "ORD_STRA": 2,
                "ORD_CLAS": 2,
                "ORD_FLOW": 7,
                "HYBAS_L12": 4121600760.0,
                "Shape_Length": 0.04928511301976355
            },
            "geometry": {
                "type": "LineString",
                "coordinates": [
                    [
                        81.01874999999964,
                        8.552083333333208
                    ],
                    [
                        81.01874999999964,
                        8.5770833333332
                    ],
                    [
                        81.01458333333292,
                        8.581249999999862
                    ],
                    [
                        81.01458333333292,
                        8.59374999999988
                    ],
                    [
                        81.01041666666632,
                        8.597916666666528
                    ]
                ]
            }
        },
        {
            "type": "Feature",
            "properties": {
                "HYRIV_ID": 41399229,
                "NEXT_DOWN": 41399210,
                "MAIN_RIV": 41397976,
                "LENGTH_KM": 0.98,
                "DIST_DN_KM": 37.900002,
                "DIST_UP_KM": 5.0,
                "CATCH_SKM": 7.0,
                "UPLAND_SKM": 7.0,
                "ENDORHEIC": 0,
                "DIS_AV_CMS": 0.115,
                "ORD_STRA": 1,
                "ORD_CLAS": 3,
                "ORD_FLOW": 7,
                "HYBAS_L12": 4121600760.0,
                "Shape_Length": 0.008838834764833853
            },
            "geometry": {
                "type": "LineString",
                "coordinates": [
                    [
                        81.01249999999968,
                        8.54583333333317
                    ],
                    [
                        81.01874999999964,
                        8.552083333333208
                    ]
                ]
            }
        },
        {
            "type": "Feature",
            "properties": {
                "HYRIV_ID": 41399411,
                "NEXT_DOWN": 41399209,
                "MAIN_RIV": 41397976,
                "LENGTH_KM": 4.1700001,
                "DIST_DN_KM": 41.3,
                "DIST_UP_KM": 22.8,
                "CATCH_SKM": 22.290001,
                "UPLAND_SKM": 106.2,
                "ENDORHEIC": 0,
                "DIS_AV_CMS": 1.742,
                "ORD_STRA": 2,
                "ORD_CLAS": 1,
                "ORD_FLOW": 6,
                "HYBAS_L12": 4121600830.0,
                "Shape_Length": 0.037500000000008527
            },
            "geometry": {
                "type": "LineString",
                "coordinates": [
                    [
                        80.94791666666637,
                        8.5145833333332
                    ],
                    [
                        80.94791666666637,
                        8.552083333333208
                    ]
                ]
            }
        },
        {
            "type": "Feature",
            "properties": {
                "HYRIV_ID": 41399444,
                "NEXT_DOWN": 41399210,
                "MAIN_RIV": 41397976,
                "LENGTH_KM": 6.0900002,
                "DIST_DN_KM": 37.900002,
                "DIST_UP_KM": 9.3,
                "CATCH_SKM": 24.84,
                "UPLAND_SKM": 24.8,
                "ENDORHEIC": 0,
                "DIS_AV_CMS": 0.40700001,
                "ORD_STRA": 1,
                "ORD_CLAS": 2,
                "ORD_FLOW": 7,
                "HYBAS_L12": 4121600760.0,
                "Shape_Length": 0.05496828398089389
            },
            "geometry": {
                "type": "LineString",
                "coordinates": [
                    [
                        80.99999999999969,
                        8.508333333333205
                    ],
                    [
                        81.01041666666632,
                        8.518749999999848
                    ],
                    [
                        81.01041666666632,
                        8.52291666666651
                    ],
                    [
                        81.01874999999964,
                        8.531249999999865
                    ],
                    [
                        81.01874999999964,
                        8.54374999999984
                    ],
                    [
                        81.0229166666663,
                        8.547916666666545
                    ],
                    [
                        81.01874999999964,
                        8.552083333333208
                    ]
                ]
            }
        },
        {
            "type": "Feature",
            "properties": {
                "HYRIV_ID": 41399562,
                "NEXT_DOWN": 41399411,
                "MAIN_RIV": 41397976,
                "LENGTH_KM": 4.7,
                "DIST_DN_KM": 45.599998,
                "DIST_UP_KM": 7.7,
                "CATCH_SKM": 17.41,
                "UPLAND_SKM": 17.4,
                "ENDORHEIC": 0,
                "DIS_AV_CMS": 0.28600001,
                "ORD_STRA": 1,
                "ORD_CLAS": 2,
                "ORD_FLOW": 7,
                "HYBAS_L12": 4121600830.0,
                "Shape_Length": 0.04246828398100574
            },
            "geometry": {
                "type": "LineString",
                "coordinates": [
                    [
                        80.92083333333292,
                        8.483333333333213
                    ],
                    [
                        80.93958333333299,
                        8.502083333333225
                    ],
                    [
                        80.93958333333299,
                        8.506249999999874
                    ],
                    [
                        80.94791666666637,
                        8.5145833333332
                    ]
                ]
            }
        },
        {
            "type": "Feature",
            "properties": {
                "HYRIV_ID": 41399903,
                "NEXT_DOWN": 41399411,
                "MAIN_RIV": 41397976,
                "LENGTH_KM": 15.19,
                "DIST_DN_KM": 45.599998,
                "DIST_UP_KM": 18.5,
                "CATCH_SKM": 66.459999,
                "UPLAND_SKM": 66.5,
                "ENDORHEIC": 0,
                "DIS_AV_CMS": 1.098,
                "ORD_STRA": 1,
                "ORD_CLAS": 1,
                "ORD_FLOW": 6,
                "HYBAS_L12": 4121600830.0,
                "Shape_Length": 0.1371679592365077
            },
            "geometry": {
                "type": "LineString",
                "coordinates": [
                    [
                        80.92916666666625,
                        8.4125
                    ],
                    [
                        80.91874999999968,
                        8.422916666666545
                    ],
                    [
                        80.927083333333,
                        8.431249999999856
                    ],
                    [
                        80.927083333333,
                        8.43541666666652
                    ],
                    [
                        80.93541666666633,
                        8.443749999999874
                    ],
                    [
                        80.93541666666633,
                        8.447916666666536
                    ],
                    [
                        80.94374999999971,
                        8.456249999999848
                    ],
                    [
                        80.94374999999971,
                        8.460416666666553
                    ],
                    [
                        80.94791666666637,
                        8.464583333333216
                    ],
                    [
                        80.95208333333292,
                        8.464583333333216
                    ],
                    [
                        80.96458333333302,
                        8.47708333333319
                    ],
                    [
                        80.96458333333302,
                        8.49791666666652
                    ],
                    [
                        80.9562499999997,
                        8.506249999999874
                    ],
                    [
                        80.95208333333292,
                        8.506249999999874
                    ],
                    [
                        80.95208333333292,
                        8.510416666666536
                    ],
                    [
                        80.94791666666637,
                        8.5145833333332
                    ]
                ]
            }
        }
    ]
}