{
    "type": "FeatureCollection",
    "features": [
        {
            "type": "Feature",
            "properties": {
                "HYRIV_ID": 41396184,
                "NEXT_DOWN": 41396222,
                "MAIN_RIV": 41396222,
                "LENGTH_KM": 4.31,
                "DIST_DN_KM": 1.5,
                "DIST_UP_KM": 8.2,
                "CATCH_SKM": 17.17,
                "UPLAND_SKM": 17.200001,
                "ENDORHEIC": 0,
                "DIS_AV_CMS": 0.162,
                "ORD_STRA": 1,
                "ORD_CLAS": 2,
                "ORD_FLOW": 7,
                "HYBAS_L12": 4120049360.0,
                "Shape_Length": 0.03901650429456297
            },
            "geometry": {
                "type": "LineString",
                "coordinates": [
                    [
                        80.10833333333309,
                        9.09166666666652
                    ],
                    [
                        80.10208333333296,
                        9.097916666666514
                    ],
                    [
                        80.09374999999963,
                        9.097916666666514
                    ],
                    [
                        80.0854166666663,
                        9.089583333333202
                    ],
                    [
                        80.0854166666663,
                        9.085416666666497
                    ],
                    [
                        80.08124999999964,
                        9.081249999999876
                    ]
                ]
            }
        },
        {
            "type": "Feature",
            "properties": {
                "HYRIV_ID": 41396222,
                "NEXT_DOWN": 0,
                "MAIN_RIV": 41396222,
                "LENGTH_KM": 1.11,
                "DIST_DN_KM": 0.0,
                "DIST_UP_KM": 85.099998,
                "CATCH_SKM": 2.54,
                "UPLAND_SKM": 796.5,
                "ENDORHEIC": 0,
                "DIS_AV_CMS": 6.2550001,
                "ORD_STRA": 3,
                "ORD_CLAS": 1,
                "ORD_FLOW": 6,
                "HYBAS_L12": 4120049360.0,
                "Shape_Length": 0.010059223176565511
            },
            "geometry": {
                "type": "LineString",
                "coordinates": [
                    [
                        80.08124999999964,
                        9.081249999999876
                    ],
                    [
                        80.07708333333298,
                        9.077083333333185
                    ],
                    [
                        80.07291666666632,
                        9.077083333333185
                    ]
                ]
            }
        },
        {
            "type": "Feature",
            "properties": {
                "HYRIV_ID": 41396421,
                "NEXT_DOWN": 41396222,
                "MAIN_RIV": 41396222,
                "LENGTH_KM": 16.709999,
                "DIST_DN_KM": 1.5,
                "DIST_UP_KM": 83.800003,
                "CATCH_SKM": 50.029999,
                "UPLAND_SKM": 777.20001,
                "ENDORHEIC": 0,
                "DIS_AV_CMS": 6.14,
                "ORD_STRA": 3,
                "ORD_CLAS": 1,
                "ORD_FLOW": 6,
                "HYBAS_L12": 4120049360.0,
                "Shape_Length": 0.1516032346284217
            },
            "geometry": {
                "type": "LineString",
                "coordinates": [
                    [
                        80.20624999999964,
                        9.04791666666653
                    ],
                    [
                        80.20208333333298,
                        9.04791666666653
                    ],
                    [
                        80.19791666666632,
                        9.05208333333318
                    ],
                    [
                        80.18124999999972,
                        9.05208333333318
                    ],
                    [
                        80.17708333333294,
                        9.04791666666653
                    ],
                    [
                        80.16458333333307,
                        9.04791666666653
                    ],
                    [
                        80.16041666666635,
                        9.05208333333318
                    ],
                    [
                        80.15624999999969,
                        9.04791666666653
                    ],
                    [
                        80.14791666666636,
                        9.04791666666653
                    ],
                    [
                        80.13958333333304,
                        9.056249999999842
                    ],
                    [
                        80.13541666666637,
                        9.056249999999842
                    ],
                    [
                        80.13124999999965,
                        9.060416666666548
                    ],
                    [
                        80.12291666666633,
                        9.060416666666548
                    ],
                    [
                        80.11874999999966,
                        9.06458333333321
                    ],
                    [
                        80.10624999999962,
                        9.06458333333321
                    ],
                    [
                        80.10208333333296,
                        9.06874999999986
                    ],
                    [
                        80.0979166666663,
                        9.06874999999986
                    ],
                    [
                        80.09374999999963,
                        9.06458333333321
                    ],
                    [
                        80.08958333333297,
                        9.06874999999986
                    ],
                    [
                        80.08958333333297,
                        9.072916666666522
                    ],
                    [
                        80.08124999999964,
                        9.081249999999876
                    ]
                ]
            }
        },
        {
            "type": "Feature",
            "properties": {
                "HYRIV_ID": 41396422,
                "NEXT_DOWN": 41396421,
                "MAIN_RIV": 41396222,
                "LENGTH_KM": 0.98,
                "DIST_DN_KM": 18.200001,
                "DIST_UP_KM": 5.8,
                "CATCH_SKM": 11.23,
                "UPLAND_SKM": 11.2,
                "ENDORHEIC": 0,
                "DIS_AV_CMS": 0.107,
                "ORD_STRA": 1,
                "ORD_CLAS": 2,
                "ORD_FLOW": 7,
                "HYBAS_L12": 4120049360.0,
                "Shape_Length": 0.008838834764833853
            },
            "geometry": {
                "type": "LineString",
                "coordinates": [
                    [
                        80.21249999999966,
                        9.05416666666651
                    ],
                    [
                        80.20624999999964,
                        9.04791666666653
                    ]
                ]
            }
        },
        {
            "type": "Feature",
            "properties": {
                "HYRIV_ID": 41396423,
                "NEXT_DOWN": 41396465,
                "MAIN_RIV": 41396222,
                "LENGTH_KM": 2.08,
                "DIST_DN_KM": 26.3,
                "DIST_UP_KM": 7.8,
                "CATCH_SKM": 20.77,
                "UPLAND_SKM": 20.8,
                "ENDORHEIC": 0,
                "DIS_AV_CMS": 0.203,
                "ORD_STRA": 1,
                "ORD_CLAS": 2,
                "ORD_FLOW": 7,
                "HYBAS_L12": 4121600340.0,
                "Shape_Length": 0.018898057941329025
            },
            "geometry": {
                "type": "LineString",
                "coordinates": [
                    [
                        80.28333333333299,
                        9.0458333333332
                    ],
                    [
                        80.27708333333302,
                        9.05208333333318
                    ],
                    [
                        80.27291666666636,
                        9.05208333333318
                    ],
                    [
                        80.2687499999997,
                        9.04791666666653
                    ]
                ]
            }
        },
        {
            "type": "Feature",
            "properties": {
                "HYRIV_ID": 41396465,
                "NEXT_DOWN": 41396421,
                "MAIN_RIV": 41396222,
                "LENGTH_KM": 8.0299997,
                "DIST_DN_KM": 18.200001,
                "DIST_UP_KM": 67.099998,
                "CATCH_SKM": 33.490002,
                "UPLAND_SKM": 716.0,
                "ENDORHEIC": 0,
                "DIS_AV_CMS": 6.5500002,
                "ORD_STRA": 3,
                "ORD_CLAS": 1,
                "ORD_FLOW": 6,
                "HYBAS_L12": 4120049360.0,
                "Shape_Length": 0.07285533905933805
            },
            "geometry": {
                "type": "LineString",
                "coordinates": [
                    [
                        80.2687499999997,
                        9.04791666666653
                    ],
                    [
                        80.26041666666632,
                        9.04791666666653
                    ],
                    [
                        80.25624999999965,
                        9.05208333333318
                    ],
                    [
                        80.24791666666633,
                        9.05208333333318
                    ],
                    [
                        80.23541666666628,
                        9.039583333333205
                    ],
                    [
                        80.21458333333297,
                        9.039583333333205
                    ],
                    [
                        80.20624999999964,
                        9.04791666666653
                    ]
                ]
            }
        },
        {
            "type": "Feature",
            "properties": {
                "HYRIV_ID": 41396665,
                "NEXT_DOWN": 41396465,
                "MAIN_RIV": 41396222,
                "LENGTH_KM": 6.8600001,
                "DIST_DN_KM": 26.3,
                "DIST_UP_KM": 59.099998,
                "CATCH_SKM": 33.5,
                "UPLAND_SKM": 661.70001,
                "ENDORHEIC": 0,
                "DIS_AV_CMS": 6.4749999,
                "ORD_STRA": 3,
                "ORD_CLAS": 1,
                "ORD_FLOW": 6,
                "HYBAS_L12": 4121600340.0,
                "Shape_Length": 0.06208122890243114
            },
            "geometry": {
                "type": "LineString",
                "coordinates": [
                    [
                        80.31041666666627,
                        9.010416666666565
                    ],
                    [
                        80.30624999999961,
                        9.01458333333317
                    ],
                    [
                        80.30624999999961,
                        9.02291666666654
                    ],
                    [
                        80.30208333333294,
                        9.027083333333188
                    ],
                    [
                        80.29374999999973,
                        9.027083333333188
                    ],
                    [
                        80.28541666666635,
                        9.035416666666556
                    ],
                    [
                        80.28124999999969,
                        9.035416666666556
                    ],
                    [
                        80.2687499999997,
                        9.04791666666653
                    ]
                ]
            }
        },
        {
            "type": "Feature",
            "properties": {
                "HYRIV_ID": 41396689,
                "NEXT_DOWN": 41396665,
                "MAIN_RIV": 41396222,
                "LENGTH_KM": 4.83,
                "DIST_DN_KM": 32.900002,
                "DIST_UP_KM": 8.9,
                "CATCH_SKM": 24.17,
                "UPLAND_SKM": 24.200001,
                "ENDORHEIC": 0,
                "DIS_AV_CMS": 0.241,
                "ORD_STRA": 1,
                "ORD_CLAS": 2,
                "ORD_FLOW": 7,
                "HYBAS_L12": 4121600340.0,
                "Shape_Length": 0.04389805794151386
            },
            "geometry": {
                "type": "LineString",
                "coordinates": [
                    [
                        80.34999999999971,
                        9.012499999999882
                    ],
                    [
                        80.34374999999963,
                        9.00624999999986
                    ],
                    [
                        80.33958333333297,
                        9.00624999999986
                    ],
                    [
                        80.3354166666663,
                        9.010416666666565
                    ],
                    [
                        80.31041666666627,
                        9.010416666666565
                    ]
                ]
            }
        },
        {
            "type": "Feature",
            "properties": {
                "HYRIV_ID": 41396815,
                "NEXT_DOWN": 41396665,
                "MAIN_RIV": 41396222,
                "LENGTH_KM": 3.53,
                "DIST_DN_KM": 33.099998,
                "DIST_UP_KM": 52.200001,
                "CATCH_SKM": 19.719999,
                "UPLAND_SKM": 604.09998,
                "ENDORHEIC": 0,
                "DIS_AV_CMS": 6.2389998,
                "ORD_STRA": 3,
                "ORD_CLAS": 1,
                "ORD_FLOW": 6,
                "HYBAS_L12": 4121600340.0,
                "Shape_Length": 0.03190355937289193
            },
            "geometry": {
                "type": "LineString",
                "coordinates": [
                    [
                        80.32708333333292,
                        8.98541666666653
                    ],
                    [
                        80.31458333333305,
                        8.997916666666548
                    ],
                    [
                        80.31458333333305,
                        9.00624999999986
                    ],
                    [
                        80.31041666666627,
                        9.010416666666565
                    ]
                ]
            }
        },
        {
            "type": "Feature",
            "properties": {
                "HYRIV_ID": 41396816,
                "NEXT_DOWN": 41396815,
                "MAIN_RIV": 41396222,
                "LENGTH_KM": 2.06,
                "DIST_DN_KM": 36.5,
                "DIST_UP_KM": 8.3,
                "CATCH_SKM": 14.63,
                "UPLAND_SKM": 14.6,
                "ENDORHEIC": 0,
                "DIS_AV_CMS": 0.15,
                "ORD_STRA": 1,
                "ORD_CLAS": 2,
                "ORD_FLOW": 7,
                "HYBAS_L12": 4121600340.0,
                "Shape_Length": 0.018750000000125056
            },
            "geometry": {
                "type": "LineString",
                "coordinates": [
                    [
                        80.34583333333305,
                        8.98541666666653
                    ],
                    [
                        80.32708333333292,
                        8.98541666666653
                    ]
                ]
            }
        },
        {
            "type": "Feature",
            "properties": {
                "HYRIV_ID": 41396993,
                "NEXT_DOWN": 41396815,
                "MAIN_RIV": 41396222,
                "LENGTH_KM": 4.6500001,
                "DIST_DN_KM": 36.5,
                "DIST_UP_KM": 48.900002,
                "CATCH_SKM": 23.540001,
                "UPLAND_SKM": 569.70001,
                "ENDORHEIC": 0,
                "DIS_AV_CMS": 6.0009999,
                "ORD_STRA": 3,
                "ORD_CLAS": 1,
                "ORD_FLOW": 6,
                "HYBAS_L12": 4121600340.0,
                "Shape_Length": 0.0419627825494817
            },
            "geometry": {
                "type": "LineString",
                "coordinates": [
                    [
                        80.3479166666663,
                        8.95208333333317
                    ],
                    [
                        80.34374999999963,
                        8.956249999999876
                    ],
                    [
                        80.34374999999963,
                        8.96041666666654
                    ],
                    [
                        80.32708333333292,
                        8.977083333333205
                    ],
                    [
                        80.32708333333292,
                        8.98541666666653
                    ]
                ]
            }
        },
        {
            "type": "Feature",
            "properties": {
                "HYRIV_ID": 41397027,
                "NEXT_DOWN": 41396993,
                "MAIN_RIV": 41396222,
                "LENGTH_KM": 1.5700001,
                "DIST_DN_KM": 41.3,
                "DIST_UP_KM": 44.0,
                "CATCH_SKM": 5.0900002,
                "UPLAND_SKM": 407.89999,
                "ENDORHEIC": 0,
                "DIS_AV_CMS": 4.4850001,
                "ORD_STRA": 3,
                "ORD_CLAS": 1,
                "ORD_FLOW": 6,
                "HYBAS_L12": 4121154980.0,
                "Shape_Length": 0.01422588984320829
            },
            "geometry": {
                "type": "LineString",
                "coordinates": [
                    [
                        80.36041666666628,
                        8.947916666666508
                    ],
                    [
                        80.35208333333296,
                        8.947916666666508
                    ],
                    [
                        80.3479166666663,
                        8.95208333333317
                    ]
                ]
            }
        },
        {
            "type": "Feature",
            "properties": {
                "HYRIV_ID": 41397028,
                "NEXT_DOWN": 41397027,
                "MAIN_RIV": 41396222,
                "LENGTH_KM": 3.1900001,
                "DIST_DN_KM": 42.900002,
                "DIST_UP_KM": 8.2,
                "CATCH_SKM": 21.84,
                "UPLAND_SKM": 21.8,
                "ENDORHEIC": 0,
                "DIS_AV_CMS": 0.23100001,
                "ORD_STRA": 1,
                "ORD_CLAS": 2,
                "ORD_FLOW": 7,
                "HYBAS_L12": 4121154980.0,
                "Shape_Length": 0.028957281117971478
            },
            "geometry": {
                "type": "LineString",
                "coordinates": [
                    [
                        80.38333333333296,
                        8.962499999999856
                    ],
                    [
                        80.37291666666633,
                        8.95208333333317
                    ],
                    [
                        80.36458333333294,
                        8.95208333333317
                    ],
                    [
                        80.36041666666628,
                        8.947916666666508
                    ]
                ]
            }
        },
        {
            "type": "Feature",
            "properties": {
                "HYRIV_ID": 41397154,
                "NEXT_DOWN": 41397027,
                "MAIN_RIV": 41396222,
                "LENGTH_KM": 5.7399998,
                "DIST_DN_KM": 42.900002,
                "DIST_UP_KM": 42.5,
                "CATCH_SKM": 24.809999,
                "UPLAND_SKM": 380.89999,
                "ENDORHEIC": 0,
                "DIS_AV_CMS": 4.2309999,
                "ORD_STRA": 3,
                "ORD_CLAS": 1,
                "ORD_FLOW": 6,
                "HYBAS_L12": 4121154980.0,
                "Shape_Length": 0.052022005726037164
            },
            "geometry": {
                "type": "LineString",
                "coordinates": [
                    [
                        80.40208333333302,
                        8.922916666666517
                    ],
                    [
                        80.39374999999964,
                        8.931249999999885
                    ],
                    [
                        80.38541666666632,
                        8.931249999999885
                    ],
                    [
                        80.37708333333299,
                        8.939583333333196
                    ],
                    [
                        80.36874999999966,
                        8.939583333333196
                    ],
                    [
                        80.36041666666628,
                        8.947916666666508
                    ]
                ]
            }
        },
        {
            "type": "Feature",
            "properties": {
                "HYRIV_ID": 41397155,
                "NEXT_DOWN": 41397154,
                "MAIN_RIV": 41396222,
                "LENGTH_KM": 2.09,
                "DIST_DN_KM": 48.400002,
                "DIST_UP_KM": 5.9,
                "CATCH_SKM": 13.15,
                "UPLAND_SKM": 13.1,
                "ENDORHEIC": 0,
                "DIS_AV_CMS": 0.144,
                "ORD_STRA": 1,
                "ORD_CLAS": 2,
                "ORD_FLOW": 7,
                "HYBAS_L12": 4121154980.0,
                "Shape_Length": 0.01889805794137927
            },
            "geometry": {
                "type": "LineString",
                "coordinates": [
                    [
                        80.41666666666632,
                        8.933333333333216
                    ],
                    [
                        80.40624999999969,
                        8.922916666666517
                    ],
                    [
                        80.40208333333302,
                        8.922916666666517
                    ]
                ]
            }
        },
        {
            "type": "Feature",
            "properties": {
                "HYRIV_ID": 41397309,
                "NEXT_DOWN": 41397154,
                "MAIN_RIV": 41396222,
                "LENGTH_KM": 3.1600001,
                "DIST_DN_KM": 48.599998,
                "DIST_UP_KM": 36.700001,
                "CATCH_SKM": 13.78,
                "UPLAND_SKM": 343.0,
                "ENDORHEIC": 0,
                "DIS_AV_CMS": 3.914,
                "ORD_STRA": 3,
                "ORD_CLAS": 1,
                "ORD_FLOW": 6,
                "HYBAS_L12": 4121154980.0,
                "Shape_Length": 0.028451779686434954
            },
            "geometry": {
                "type": "LineString",
                "coordinates": [
                    [
                        80.41041666666635,
                        8.897916666666525
                    ],
                    [
                        80.41041666666635,
                        8.914583333333205
                    ],
                    [
                        80.40208333333302,
                        8.922916666666517
                    ]
                ]
            }
        },
        {
            "type": "Feature",
            "properties": {
                "HYRIV_ID": 41397456,
                "NEXT_DOWN": 41397309,
                "MAIN_RIV": 41396222,
                "LENGTH_KM": 10.63,
                "DIST_DN_KM": 51.599998,
                "DIST_UP_KM": 19.700001,
                "CATCH_SKM": 50.689999,
                "UPLAND_SKM": 88.400002,
                "ENDORHEIC": 0,
                "DIS_AV_CMS": 1.016,
                "ORD_STRA": 2,
                "ORD_CLAS": 2,
                "ORD_FLOW": 6,
                "HYBAS_L12": 4121600500.0,
                "Shape_Length": 0.09642556509878465
            },
            "geometry": {
                "type": "LineString",
                "coordinates": [
                    [
                        80.48958333333294,
                        8.872916666666534
                    ],
                    [
                        80.48124999999962,
                        8.88124999999986
                    ],
                    [
                        80.4729166666663,
                        8.88124999999986
                    ],
                    [
                        80.46874999999963,
                        8.88541666666655
                    ],
                    [
                        80.4604166666663,
                        8.88541666666655
                    ],
                    [
                        80.45208333333292,
                        8.893749999999876
                    ],
                    [
                        80.4437499999996,
                        8.893749999999876
                    ],
                    [
                        80.43541666666627,
                        8.902083333333188
                    ],
                    [
                        80.43124999999961,
                        8.897916666666525
                    ],
                    [
                        80.42708333333306,
                        8.897916666666525
                    ],
                    [
                        80.4229166666664,
                        8.902083333333188
                    ],
                    [
                        80.41874999999968,
                        8.902083333333188
                    ],
                    [
                        80.41458333333301,
                        8.897916666666525
                    ],
                    [
                        80.41041666666635,
                        8.897916666666525
                    ]
                ]
            }
        },
        {
            "type": "Feature",
            "properties": {
                "HYRIV_ID": 41397457,
                "NEXT_DOWN": 41397456,
                "MAIN_RIV": 41396222,
                "LENGTH_KM": 1.99,
                "DIST_DN_KM": 62.400002,
                "DIST_UP_KM": 5.2,
                "CATCH_SKM": 11.24,
                "UPLAND_SKM": 11.2,
                "ENDORHEIC": 0,
                "DIS_AV_CMS": 0.137,
                "ORD_STRA": 1,
                "ORD_CLAS": 3,
                "ORD_FLOW": 7,
                "HYBAS_L12": 4121600500.0,
                "Shape_Length": 0.018035113019901496
            },
            "geometry": {
                "type": "LineString",
                "coordinates": [
                    [
                        80.5041666666664,
                        8.88124999999986
                    ],
                    [
                        80.49791666666627,
                        8.88124999999986
                    ],
                    [
                        80.48958333333294,
                        8.872916666666534
                    ]
                ]
            }
        },
        {
            "type": "Feature",
            "properties": {
                "HYRIV_ID": 41397574,
                "NEXT_DOWN": 41397456,
                "MAIN_RIV": 41396222,
                "LENGTH_KM": 4.31,
                "DIST_DN_KM": 62.400002,
                "DIST_UP_KM": 8.9,
                "CATCH_SKM": 26.51,
                "UPLAND_SKM": 26.5,
                "ENDORHEIC": 0,
                "DIS_AV_CMS": 0.32600001,
                "ORD_STRA": 1,
                "ORD_CLAS": 2,
                "ORD_FLOW": 7,
                "HYBAS_L12": 4121600500.0,
                "Shape_Length": 0.039016504294506836
            },
            "geometry": {
                "type": "LineString",
                "coordinates": [
                    [
                        80.51666666666628,
                        8.849999999999874
                    ],
                    [
                        80.50624999999965,
                        8.860416666666517
                    ],
                    [
                        80.49791666666627,
                        8.860416666666517
                    ],
                    [
                        80.49374999999966,
                        8.864583333333222
                    ],
                    [
                        80.49374999999966,
                        8.868749999999885
                    ],
                    [
                        80.48958333333294,
                        8.872916666666534
                    ]
                ]
            }
        },
        {
            "type": "Feature",
            "properties": {
                "HYRIV_ID": 41397597,
                "NEXT_DOWN": 41396993,
                "MAIN_RIV": 41396222,
                "LENGTH_KM": 13.28,
                "DIST_DN_KM": 41.099998,
                "DIST_UP_KM": 29.9,
                "CATCH_SKM": 67.650002,
                "UPLAND_SKM": 138.3,
                "ENDORHEIC": 0,
                "DIS_AV_CMS": 1.386,
                "ORD_STRA": 2,
                "ORD_CLAS": 2,
                "ORD_FLOW": 6,
                "HYBAS_L12": 4121154970.0,
                "Shape_Length": 0.11969967525569271
            },
            "geometry": {
                "type": "LineString",
                "coordinates": [
                    [
                        80.38541666666632,
                        8.8479166666665
                    ],
                    [
                        80.38541666666632,
                        8.856249999999868
                    ],
                    [
                        80.38124999999965,
                        8.860416666666517
                    ],
                    [
                        80.38124999999965,
                        8.868749999999885
                    ],
                    [
                        80.37708333333299,
                        8.872916666666534
                    ],
                    [
                        80.37708333333299,
                        8.877083333333196
                    ],
                    [
                        80.37291666666633,
                        8.88124999999986
                    ],
                    [
                        80.37291666666633,
                        8.902083333333188
                    ],
                    [
                        80.36874999999966,
                        8.906249999999893
                    ],
                    [
                        80.36874999999966,
                        8.910416666666542
                    ],
                    [
                        80.36458333333294,
                        8.914583333333205
                    ],
                    [
                        80.36458333333294,
                        8.918749999999868
                    ],
                    [
                        80.35624999999962,
                        8.92708333333318
                    ],
                    [
                        80.35624999999962,
                        8.931249999999885
                    ],
                    [
                        80.35208333333296,
                        8.935416666666534
                    ],
                    [
                        80.35208333333296,
                        8.939583333333196
                    ],
                    [
                        80.3479166666663,
                        8.94374999999986
                    ],
                    [
                        80.3479166666663,
                        8.95208333333317
                    ]
                ]
            }
        },
        {
            "type": "Feature",
            "properties": {
                "HYRIV_ID": 41397638,
                "NEXT_DOWN": 41397597,
                "MAIN_RIV": 41396222,
                "LENGTH_KM": 1.9,
                "DIST_DN_KM": 54.400002,
                "DIST_UP_KM": 6.2,
                "CATCH_SKM": 13.79,
                "UPLAND_SKM": 13.8,
                "ENDORHEIC": 0,
                "DIS_AV_CMS": 0.141,
                "ORD_STRA": 1,
                "ORD_CLAS": 3,
                "ORD_FLOW": 7,
                "HYBAS_L12": 4121154970.0,
                "Shape_Length": 0.01717216809806673
            },
            "geometry": {
                "type": "LineString",
                "coordinates": [
                    [
                        80.37499999999974,
                        8.837499999999856
                    ],
                    [
                        80.38124999999965,
                        8.84374999999988
                    ],
                    [
                        80.38541666666632,
                        8.84374999999988
                    ],
                    [
                        80.38541666666632,
                        8.8479166666665
                    ]
                ]
            }
        },
        {
            "type": "Feature",
            "properties": {
                "HYRIV_ID": 41397661,
                "NEXT_DOWN": 41397309,
                "MAIN_RIV": 41396222,
                "LENGTH_KM": 8.9099998,
                "DIST_DN_KM": 51.8,
                "DIST_UP_KM": 33.599998,
                "CATCH_SKM": 40.3,
                "UPLAND_SKM": 240.8,
                "ENDORHEIC": 0,
                "DIS_AV_CMS": 2.799,
                "ORD_STRA": 2,
                "ORD_CLAS": 1,
                "ORD_FLOW": 6,
                "HYBAS_L12": 4121600500.0,
                "Shape_Length": 0.08047378541248389
            },
            "geometry": {
                "type": "LineString",
                "coordinates": [
                    [
                        80.44791666666643,
                        8.835416666666525
                    ],
                    [
                        80.4437499999996,
                        8.839583333333188
                    ],
                    [
                        80.43958333333305,
                        8.839583333333188
                    ],
                    [
                        80.43124999999961,
                        8.8479166666665
                    ],
                    [
                        80.43124999999961,
                        8.852083333333205
                    ],
                    [
                        80.4229166666664,
                        8.860416666666517
                    ],
                    [
                        80.4229166666664,
                        8.868749999999885
                    ],
                    [
                        80.41874999999968,
                        8.872916666666534
                    ],
                    [
                        80.41874999999968,
                        8.877083333333196
                    ],
                    [
                        80.41458333333301,
                        8.88124999999986
                    ],
                    [
                        80.41458333333301,
                        8.893749999999876
                    ],
                    [
                        80.41041666666635,
                        8.897916666666525
                    ]
                ]
            }
        },
        {
            "type": "Feature",
            "properties": {
                "HYRIV_ID": 41397706,
                "NEXT_DOWN": 41397661,
                "MAIN_RIV": 41396222,
                "LENGTH_KM": 1.35,
                "DIST_DN_KM": 60.700001,
                "DIST_UP_KM": 5.7,
                "CATCH_SKM": 11.67,
                "UPLAND_SKM": 11.7,
                "ENDORHEIC": 0,
                "DIS_AV_CMS": 0.13,
                "ORD_STRA": 1,
                "ORD_CLAS": 2,
                "ORD_FLOW": 7,
                "HYBAS_L12": 4121600500.0,
                "Shape_Length": 0.012142556510025857
            },
            "geometry": {
                "type": "LineString",
                "coordinates": [
                    [
                        80.4437499999996,
                        8.82499999999984
                    ],
                    [
                        80.4437499999996,
                        8.831249999999862
                    ],
                    [
                        80.44791666666643,
                        8.835416666666525
                    ]
                ]
            }
        },
        {
            "type": "Feature",
            "properties": {
                "HYRIV_ID": 41397790,
                "NEXT_DOWN": 41397661,
                "MAIN_RIV": 41396222,
                "LENGTH_KM": 5.2800002,
                "DIST_DN_KM": 60.5,
                "DIST_UP_KM": 24.9,
                "CATCH_SKM": 32.450001,
                "UPLAND_SKM": 188.8,
                "ENDORHEIC": 0,
                "DIS_AV_CMS": 2.312,
                "ORD_STRA": 2,
                "ORD_CLAS": 1,
                "ORD_FLOW": 6,
                "HYBAS_L12": 4121600500.0,
                "Shape_Length": 0.04785533905916357
            },
            "geometry": {
                "type": "LineString",
                "coordinates": [
                    [
                        80.48541666666628,
                        8.810416666666534
                    ],
                    [
                        80.46874999999963,
                        8.827083333333213
                    ],
                    [
                        80.4604166666663,
                        8.827083333333213
                    ],
                    [
                        80.45208333333292,
                        8.835416666666525
                    ],
                    [
                        80.44791666666643,
                        8.835416666666525
                    ]
                ]
            }
        },
        {
            "type": "Feature",
            "properties": {
                "HYRIV_ID": 41397791,
                "NEXT_DOWN": 41397812,
                "MAIN_RIV": 41396222,
                "LENGTH_KM": 0.69,
                "DIST_DN_KM": 73.5,
                "DIST_UP_KM": 4.5,
                "CATCH_SKM": 8.9099998,
                "UPLAND_SKM": 8.9,
                "ENDORHEIC": 0,
                "DIS_AV_CMS": 0.116,
                "ORD_STRA": 1,
                "ORD_CLAS": 2,
                "ORD_FLOW": 7,
                "HYBAS_L12": 4121600590.0,
                "Shape_Length": 0.006249999999994316
            },
            "geometry": {
                "type": "LineString",
                "coordinates": [
                    [
                        80.55208333333306,
                        8.816666666666528
                    ],
                    [
                        80.55208333333306,
                        8.810416666666534
                    ]
                ]
            }
        },
        {
            "type": "Feature",
            "properties": {
                "HYRIV_ID": 41397811,
                "NEXT_DOWN": 41397790,
                "MAIN_RIV": 41396222,
                "LENGTH_KM": 2.48,
                "DIST_DN_KM": 65.800003,
                "DIST_UP_KM": 19.6,
                "CATCH_SKM": 5.0900002,
                "UPLAND_SKM": 108.8,
                "ENDORHEIC": 0,
                "DIS_AV_CMS": 1.396,
                "ORD_STRA": 2,
                "ORD_CLAS": 1,
                "ORD_FLOW": 6,
                "HYBAS_L12": 4121600590.0,
                "Shape_Length": 0.022559223176607537
            },
            "geometry": {
                "type": "LineString",
                "coordinates": [
                    [
                        80.50624999999965,
                        8.80624999999987
                    ],
                    [
                        80.49791666666627,
                        8.80624999999987
                    ],
                    [
                        80.49374999999966,
                        8.810416666666534
                    ],
                    [
                        80.48541666666628,
                        8.810416666666534
                    ]
                ]
            }
        },
        {
            "type": "Feature",
            "properties": {
                "HYRIV_ID": 41397812,
                "NEXT_DOWN": 41397811,
                "MAIN_RIV": 41396222,
                "LENGTH_KM": 5.23,
                "DIST_DN_KM": 68.400002,
                "DIST_UP_KM": 16.9,
                "CATCH_SKM": 19.940001,
                "UPLAND_SKM": 81.199997,
                "ENDORHEIC": 0,
                "DIS_AV_CMS": 1.06,
                "ORD_STRA": 2,
                "ORD_CLAS": 1,
                "ORD_FLOW": 6,
                "HYBAS_L12": 4121600590.0,
                "Shape_Length": 0.047559223176625
            },
            "geometry": {
                "type": "LineString",
                "coordinates": [
                    [
                        80.55208333333306,
                        8.810416666666534
                    ],
                    [
                        80.51041666666632,
                        8.810416666666534
                    ],
                    [
                        80.50624999999965,
                        8.80624999999987
                    ]
                ]
            }
        },
        {
            "type": "Feature",
            "properties": {
                "HYRIV_ID": 41397813,
                "NEXT_DOWN": 41397812,
                "MAIN_RIV": 41396222,
                "LENGTH_KM": 2.9400001,
                "DIST_DN_KM": 73.5,
                "DIST_UP_KM": 11.9,
                "CATCH_SKM": 7.0,
                "UPLAND_SKM": 52.400002,
                "ENDORHEIC": 0,
                "DIS_AV_CMS": 0.69800001,
                "ORD_STRA": 2,
                "ORD_CLAS": 1,
                "ORD_FLOW": 7,
                "HYBAS_L12": 4121600590.0,
                "Shape_Length": 0.026725889843116534
            },
            "geometry": {
                "type": "LineString",
                "coordinates": [
                    [
                        80.57708333333292,
                        8.80624999999987
                    ],
                    [
                        80.57291666666637,
                        8.810416666666534
                    ],
                    [
                        80.55208333333306,
                        8.810416666666534
                    ]
                ]
            }
        },
        {
            "type": "Feature",
            "properties": {
                "HYRIV_ID": 41397916,
                "NEXT_DOWN": 41397811,
                "MAIN_RIV": 41396222,
                "LENGTH_KM": 3.6600001,
                "DIST_DN_KM": 68.199997,
                "DIST_UP_KM": 8.0,
                "CATCH_SKM": 22.49,
                "UPLAND_SKM": 22.5,
                "ENDORHEIC": 0,
                "DIS_AV_CMS": 0.285,
                "ORD_STRA": 1,
                "ORD_CLAS": 2,
                "ORD_FLOW": 7,
                "HYBAS_L12": 4121600590.0,
                "Shape_Length": 0.0331239477845633
            },
            "geometry": {
                "type": "LineString",
                "coordinates": [
                    [
                        80.52916666666627,
                        8.787499999999874
                    ],
                    [
                        80.51874999999964,
                        8.797916666666517
                    ],
                    [
                        80.51458333333298,
                        8.797916666666517
                    ],
                    [
                        80.51041666666632,
                        8.802083333333222
                    ],
                    [
                        80.51041666666632,
                        8.80624999999987
                    ],
                    [
                        80.50624999999965,
                        8.80624999999987
                    ]
                ]
            }
        },
        {
            "type": "Feature",
            "properties": {
                "HYRIV_ID": 41397971,
                "NEXT_DOWN": 41397597,
                "MAIN_RIV": 41396222,
                "LENGTH_KM": 11.45,
                "DIST_DN_KM": 54.599998,
                "DIST_UP_KM": 16.4,
                "CATCH_SKM": 56.849998,
                "UPLAND_SKM": 56.900002,
                "ENDORHEIC": 0,
                "DIS_AV_CMS": 0.60600001,
                "ORD_STRA": 1,
                "ORD_CLAS": 2,
                "ORD_FLOW": 7,
                "HYBAS_L12": 4121154970.0,
                "Shape_Length": 0.10353851002056107
            },
            "geometry": {
                "type": "LineString",
                "coordinates": [
                    [
                        80.43749999999963,
                        8.779166666666505
                    ],
                    [
                        80.4229166666664,
                        8.793749999999854
                    ],
                    [
                        80.41458333333301,
                        8.793749999999854
                    ],
                    [
                        80.40624999999969,
                        8.802083333333222
                    ],
                    [
                        80.39791666666636,
                        8.802083333333222
                    ],
                    [
                        80.39374999999964,
                        8.80624999999987
                    ],
                    [
                        80.39374999999964,
                        8.818749999999845
                    ],
                    [
                        80.39791666666636,
                        8.822916666666508
                    ],
                    [
                        80.39791666666636,
                        8.827083333333213
                    ],
                    [
                        80.39374999999964,
                        8.831249999999862
                    ],
                    [
                        80.39374999999964,
                        8.839583333333188
                    ],
                    [
                        80.38541666666632,
                        8.8479166666665
                    ]
                ]
            }
        },
        {
            "type": "Feature",
            "properties": {
                "HYRIV_ID": 41397972,
                "NEXT_DOWN": 41397813,
                "MAIN_RIV": 41396222,
                "LENGTH_KM": 4.6799998,
                "DIST_DN_KM": 76.400002,
                "DIST_UP_KM": 8.7,
                "CATCH_SKM": 25.67,
                "UPLAND_SKM": 25.700001,
                "ENDORHEIC": 0,
                "DIS_AV_CMS": 0.347,
                "ORD_STRA": 1,
                "ORD_CLAS": 2,
                "ORD_FLOW": 7,
                "HYBAS_L12": 4121600590.0,
                "Shape_Length": 0.04232022603961845
            },
            "geometry": {
                "type": "LineString",
                "coordinates": [
                    [
                        80.60208333333296,
                        8.779166666666505
                    ],
                    [
                        80.60208333333296,
                        8.785416666666542
                    ],
                    [
                        80.5979166666663,
                        8.789583333333205
                    ],
                    [
                        80.5979166666663,
                        8.793749999999854
                    ],
                    [
                        80.5854166666663,
                        8.80624999999987
                    ],
                    [
                        80.57708333333292,
                        8.80624999999987
                    ]
                ]
            }
        },
        {
            "type": "Feature",
            "properties": {
                "HYRIV_ID": 41398058,
                "NEXT_DOWN": 41397813,
                "MAIN_RIV": 41396222,
                "LENGTH_KM": 5.1500001,
                "DIST_DN_KM": 76.400002,
                "DIST_UP_KM": 8.9,
                "CATCH_SKM": 19.73,
                "UPLAND_SKM": 19.700001,
                "ENDORHEIC": 0,
                "DIS_AV_CMS": 0.262,
                "ORD_STRA": 1,
                "ORD_CLAS": 1,
                "ORD_FLOW": 7,
                "HYBAS_L12": 4121600590.0,
                "Shape_Length": 0.04648689270647915
            },
            "geometry": {
                "type": "LineString",
                "coordinates": [
                    [
                        80.5854166666663,
                        8.76666666666653
                    ],
                    [
                        80.5854166666663,
                        8.772916666666525
                    ],
                    [
                        80.57708333333292,
                        8.78124999999988
                    ],
                    [
                        80.57708333333292,
                        8.793749999999854
                    ],
                    [
                        80.58124999999976,
                        8.797916666666517
                    ],
                    [
                        80.57708333333292,
                        8.802083333333222
                    ],
                    [
                        80.57708333333292,
                        8.80624999999987
                    ]
                ]
            }
        },
        {
            "type": "Feature",
            "properties": {
                "HYRIV_ID": 41398166,
                "NEXT_DOWN": 41397790,
                "MAIN_RIV": 41396222,
                "LENGTH_KM": 10.88,
                "DIST_DN_KM": 65.800003,
                "DIST_UP_KM": 14.6,
                "CATCH_SKM": 47.52,
                "UPLAND_SKM": 47.5,
                "ENDORHEIC": 0,
                "DIS_AV_CMS": 0.57700002,
                "ORD_STRA": 1,
                "ORD_CLAS": 2,
                "ORD_FLOW": 7,
                "HYBAS_L12": 4121600590.0,
                "Shape_Length": 0.09836084049081337
            },
            "geometry": {
                "type": "LineString",
                "coordinates": [
                    [
                        80.5374999999996,
                        8.745833333333202
                    ],
                    [
                        80.53124999999969,
                        8.752083333333196
                    ],
                    [
                        80.5229166666663,
                        8.752083333333196
                    ],
                    [
                        80.51874999999964,
                        8.756249999999845
                    ],
                    [
                        80.51041666666632,
                        8.756249999999845
                    ],
                    [
                        80.49791666666627,
                        8.768749999999862
                    ],
                    [
                        80.49374999999966,
                        8.768749999999862
                    ],
                    [
                        80.48958333333294,
                        8.772916666666525
                    ],
                    [
                        80.48958333333294,
                        8.789583333333205
                    ],
                    [
                        80.48541666666628,
                        8.793749999999854
                    ],
                    [
                        80.48541666666628,
                        8.810416666666534
                    ]
                ]
            }
        }
    ]
}