{
    "type": "FeatureCollection",
    "features": [
        {
            "type": "Feature",
            "properties": {
                "HYRIV_ID": 41397730,
                "NEXT_DOWN": 0,
                "MAIN_RIV": 41397730,
                "LENGTH_KM": 8.54,
                "DIST_DN_KM": 0.0,
                "DIST_UP_KM": 13.7,
                "CATCH_SKM": 48.779999,
                "UPLAND_SKM": 48.400002,
                "ENDORHEIC": 0,
                "DIS_AV_CMS": 0.466,
                "ORD_STRA": 1,
                "ORD_CLAS": 1,
                "ORD_FLOW": 7,
                "HYBAS_L12": 4120049310.0,
                "Shape_Length": 0.0773794492162472
            },
            "geometry": {
                "type": "LineString",
                "coordinates": [
                    [
                        79.97083333333305,
                        8.852083333333205
                    ],
                    [
                        79.95624999999964,
                        8.852083333333205
                    ],
                    [
                        79.95208333333298,
                        8.856249999999868
                    ],
                    [
                        79.94791666666632,
                        8.856249999999868
                    ],
                    [
                        79.93958333333299,
                        8.8479166666665
                    ],
                    [
                        79.93958333333299,
                        8.831249999999862
                    ],
                    [
                        79.93124999999978,
                        8.822916666666508
                    ],
                    [
                        79.91874999999962,
                        8.822916666666508
                    ]
                ]
            }
        }
    ]
}