{
    "type": "FeatureCollection",
    "features": [
        {
            "type": "Feature",
            "properties": {
                "HYRIV_ID": 41399030,
                "NEXT_DOWN": 0,
                "MAIN_RIV": 41399030,
                "LENGTH_KM": 11.98,
                "DIST_DN_KM": 0.0,
                "DIST_UP_KM": 18.5,
                "CATCH_SKM": 52.639999,
                "UPLAND_SKM": 52.400002,
                "ENDORHEIC": 0,
                "DIS_AV_CMS": 0.519,
                "ORD_STRA": 1,
                "ORD_CLAS": 1,
                "ORD_FLOW": 7,
                "HYBAS_L12": 4120049270.0,
                "Shape_Length": 0.10856812160858284
            },
            "geometry": {
                "type": "LineString",
                "coordinates": [
                    [
                        80.02083333333294,
                        8.59374999999988
                    ],
                    [
                        80.01041666666637,
                        8.59374999999988
                    ],
                    [
                        80.00624999999971,
                        8.597916666666528
                    ],
                    [
                        80.00208333333299,
                        8.597916666666528
                    ],
                    [
                        79.99791666666633,
                        8.60208333333319
                    ],
                    [
                        79.98541666666634,
                        8.589583333333216
                    ],
                    [
                        79.98124999999968,
                        8.589583333333216
                    ],
                    [
                        79.97708333333296,
                        8.59374999999988
                    ],
                    [
                        79.95624999999964,
                        8.59374999999988
                    ],
                    [
                        79.95208333333298,
                        8.589583333333216
                    ],
                    [
                        79.9437499999996,
                        8.597916666666528
                    ],
                    [
                        79.93958333333299,
                        8.597916666666528
                    ],
                    [
                        79.93124999999978,
                        8.606249999999896
                    ]
                ]
            }
        }
    ]
}