{
    "type": "FeatureCollection",
    "features": [
        {
            "type": "Feature",
            "properties": {
                "HYRIV_ID": 41396974,
                "NEXT_DOWN": 0,
                "MAIN_RIV": 41396974,
                "LENGTH_KM": 6.0100002,
                "DIST_DN_KM": 0.0,
                "DIST_UP_KM": 39.700001,
                "CATCH_SKM": 11.66,
                "UPLAND_SKM": 237.10001,
                "ENDORHEIC": 0,
                "DIS_AV_CMS": 2.075,
                "ORD_STRA": 2,
                "ORD_CLAS": 1,
                "ORD_FLOW": 6,
                "HYBAS_L12": 4120049320.0,
                "Shape_Length": 0.054462782549480386
            },
            "geometry": {
                "type": "LineString",
                "coordinates": [
                    [
                        80.03124999999974,
                        8.956249999999876
                    ],
                    [
                        80.03124999999974,
                        8.96041666666654
                    ],
                    [
                        80.02708333333302,
                        8.964583333333188
                    ],
                    [
                        80.02291666666636,
                        8.964583333333188
                    ],
                    [
                        80.0187499999997,
                        8.96874999999985
                    ],
                    [
                        80.01041666666637,
                        8.96874999999985
                    ],
                    [
                        80.00208333333299,
                        8.977083333333205
                    ],
                    [
                        79.99791666666633,
                        8.977083333333205
                    ],
                    [
                        79.99374999999966,
                        8.981249999999868
                    ],
                    [
                        79.989583333333,
                        8.981249999999868
                    ]
                ]
            }
        },
        {
            "type": "Feature",
            "properties": {
                "HYRIV_ID": 41397026,
                "NEXT_DOWN": 41396974,
                "MAIN_RIV": 41396974,
                "LENGTH_KM": 3.85,
                "DIST_DN_KM": 6.2,
                "DIST_UP_KM": 9.4,
                "CATCH_SKM": 16.75,
                "UPLAND_SKM": 16.8,
                "ENDORHEIC": 0,
                "DIS_AV_CMS": 0.15700001,
                "ORD_STRA": 1,
                "ORD_CLAS": 2,
                "ORD_FLOW": 7,
                "HYBAS_L12": 4120049320.0,
                "Shape_Length": 0.03484983762776388
            },
            "geometry": {
                "type": "LineString",
                "coordinates": [
                    [
                        80.05833333333302,
                        8.94583333333319
                    ],
                    [
                        80.05208333333294,
                        8.95208333333317
                    ],
                    [
                        80.0479166666664,
                        8.95208333333317
                    ],
                    [
                        80.03958333333296,
                        8.96041666666654
                    ],
                    [
                        80.0354166666664,
                        8.956249999999876
                    ],
                    [
                        80.03124999999974,
                        8.956249999999876
                    ]
                ]
            }
        },
        {
            "type": "Feature",
            "properties": {
                "HYRIV_ID": 41397153,
                "NEXT_DOWN": 41396974,
                "MAIN_RIV": 41396974,
                "LENGTH_KM": 3.71,
                "DIST_DN_KM": 6.2,
                "DIST_UP_KM": 33.700001,
                "CATCH_SKM": 16.75,
                "UPLAND_SKM": 208.89999,
                "ENDORHEIC": 0,
                "DIS_AV_CMS": 1.849,
                "ORD_STRA": 2,
                "ORD_CLAS": 1,
                "ORD_FLOW": 6,
                "HYBAS_L12": 4120049320.0,
                "Shape_Length": 0.03333333333335986
            },
            "geometry": {
                "type": "LineString",
                "coordinates": [
                    [
                        80.03124999999974,
                        8.922916666666517
                    ],
                    [
                        80.03124999999974,
                        8.956249999999876
                    ]
                ]
            }
        },
        {
            "type": "Feature",
            "properties": {
                "HYRIV_ID": 41397204,
                "NEXT_DOWN": 41397153,
                "MAIN_RIV": 41396974,
                "LENGTH_KM": 2.22,
                "DIST_DN_KM": 9.9,
                "DIST_UP_KM": 30.0,
                "CATCH_SKM": 5.0900002,
                "UPLAND_SKM": 123.4,
                "ENDORHEIC": 0,
                "DIS_AV_CMS": 1.091,
                "ORD_STRA": 2,
                "ORD_CLAS": 1,
                "ORD_FLOW": 6,
                "HYBAS_L12": 4120049320.0,
                "Shape_Length": 0.020118446353114078
            },
            "geometry": {
                "type": "LineString",
                "coordinates": [
                    [
                        80.0479166666664,
                        8.914583333333205
                    ],
                    [
                        80.04374999999962,
                        8.914583333333205
                    ],
                    [
                        80.0354166666664,
                        8.922916666666517
                    ],
                    [
                        80.03124999999974,
                        8.922916666666517
                    ]
                ]
            }
        },
        {
            "type": "Feature",
            "properties": {
                "HYRIV_ID": 41397333,
                "NEXT_DOWN": 41397204,
                "MAIN_RIV": 41396974,
                "LENGTH_KM": 3.3900001,
                "DIST_DN_KM": 12.2,
                "DIST_UP_KM": 8.6,
                "CATCH_SKM": 18.450001,
                "UPLAND_SKM": 18.5,
                "ENDORHEIC": 0,
                "DIS_AV_CMS": 0.171,
                "ORD_STRA": 1,
                "ORD_CLAS": 2,
                "ORD_FLOW": 7,
                "HYBAS_L12": 4120049320.0,
                "Shape_Length": 0.030683170961124242
            },
            "geometry": {
                "type": "LineString",
                "coordinates": [
                    [
                        80.06666666666635,
                        8.891666666666545
                    ],
                    [
                        80.0479166666664,
                        8.910416666666542
                    ],
                    [
                        80.0479166666664,
                        8.914583333333205
                    ]
                ]
            }
        },
        {
            "type": "Feature",
            "properties": {
                "HYRIV_ID": 41397618,
                "NEXT_DOWN": 41397153,
                "MAIN_RIV": 41396974,
                "LENGTH_KM": 11.37,
                "DIST_DN_KM": 10.1,
                "DIST_UP_KM": 18.8,
                "CATCH_SKM": 68.720001,
                "UPLAND_SKM": 68.699997,
                "ENDORHEIC": 0,
                "DIS_AV_CMS": 0.62800002,
                "ORD_STRA": 1,
                "ORD_CLAS": 2,
                "ORD_FLOW": 7,
                "HYBAS_L12": 4120049320.0,
                "Shape_Length": 0.10267556509861822
            },
            "geometry": {
                "type": "LineString",
                "coordinates": [
                    [
                        80.06249999999969,
                        8.84374999999988
                    ],
                    [
                        80.05624999999978,
                        8.84374999999988
                    ],
                    [
                        80.05624999999978,
                        8.852083333333205
                    ],
                    [
                        80.06041666666627,
                        8.856249999999868
                    ],
                    [
                        80.03124999999974,
                        8.88541666666655
                    ],
                    [
                        80.03124999999974,
                        8.893749999999876
                    ],
                    [
                        80.02708333333302,
                        8.897916666666525
                    ],
                    [
                        80.02708333333302,
                        8.918749999999868
                    ],
                    [
                        80.03124999999974,
                        8.922916666666517
                    ]
                ]
            }
        },
        {
            "type": "Feature",
            "properties": {
                "HYRIV_ID": 41397681,
                "NEXT_DOWN": 41397204,
                "MAIN_RIV": 41396974,
                "LENGTH_KM": 21.98,
                "DIST_DN_KM": 12.2,
                "DIST_UP_KM": 27.8,
                "CATCH_SKM": 99.889999,
                "UPLAND_SKM": 99.900002,
                "ENDORHEIC": 0,
                "DIS_AV_CMS": 0.88099998,
                "ORD_STRA": 1,
                "ORD_CLAS": 1,
                "ORD_FLOW": 7,
                "HYBAS_L12": 4120049320.0,
                "Shape_Length": 0.19895307225632852
            },
            "geometry": {
                "type": "LineString",
                "coordinates": [
                    [
                        80.17499999999964,
                        8.84583333333321
                    ],
                    [
                        80.16874999999962,
                        8.839583333333188
                    ],
                    [
                        80.16874999999962,
                        8.831249999999862
                    ],
                    [
                        80.16041666666635,
                        8.831249999999862
                    ],
                    [
                        80.15624999999969,
                        8.835416666666525
                    ],
                    [
                        80.15624999999969,
                        8.84374999999988
                    ],
                    [
                        80.15208333333302,
                        8.8479166666665
                    ],
                    [
                        80.15208333333302,
                        8.860416666666517
                    ],
                    [
                        80.14791666666636,
                        8.864583333333222
                    ],
                    [
                        80.14791666666636,
                        8.872916666666534
                    ],
                    [
                        80.13958333333304,
                        8.88124999999986
                    ],
                    [
                        80.13541666666637,
                        8.88124999999986
                    ],
                    [
                        80.13541666666637,
                        8.88541666666655
                    ],
                    [
                        80.13124999999965,
                        8.88958333333317
                    ],
                    [
                        80.12291666666633,
                        8.88958333333317
                    ],
                    [
                        80.11874999999966,
                        8.893749999999876
                    ],
                    [
                        80.114583333333,
                        8.893749999999876
                    ],
                    [
                        80.0979166666663,
                        8.910416666666542
                    ],
                    [
                        80.09374999999963,
                        8.910416666666542
                    ],
                    [
                        80.08958333333297,
                        8.914583333333205
                    ],
                    [
                        80.08124999999964,
                        8.914583333333205
                    ],
                    [
                        80.07708333333298,
                        8.910416666666542
                    ],
                    [
                        80.07291666666632,
                        8.910416666666542
                    ],
                    [
                        80.06458333333299,
                        8.918749999999868
                    ],
                    [
                        80.06041666666627,
                        8.918749999999868
                    ],
                    [
                        80.05624999999978,
                        8.914583333333205
                    ],
                    [
                        80.0479166666664,
                        8.914583333333205
                    ]
                ]
            }
        }
    ]
}