{
    "type": "FeatureCollection",
    "features": [
        {
            "type": "Feature",
            "properties": {
                "HYRIV_ID": 41391490,
                "NEXT_DOWN": 41391491,
                "MAIN_RIV": 41392322,
                "LENGTH_KM": 4.4899998,
                "DIST_DN_KM": 25.200001,
                "DIST_UP_KM": 9.0,
                "CATCH_SKM": 18.610001,
                "UPLAND_SKM": 18.6,
                "ENDORHEIC": 0,
                "DIS_AV_CMS": 0.27900001,
                "ORD_STRA": 1,
                "ORD_CLAS": 2,
                "ORD_FLOW": 7,
                "HYBAS_L12": 4121599360.0,
                "Shape_Length": 0.040594336196352006
            },
            "geometry": {
                "type": "LineString",
                "coordinates": [
                    [
                        80.13124999999965,
                        9.80416666666651
                    ],
                    [
                        80.13124999999965,
                        9.7854166666665
                    ],
                    [
                        80.13958333333304,
                        9.777083333333188
                    ],
                    [
                        80.1437499999997,
                        9.777083333333188
                    ],
                    [
                        80.14791666666636,
                        9.772916666666525
                    ]
                ]
            }
        },
        {
            "type": "Feature",
            "properties": {
                "HYRIV_ID": 41391491,
                "NEXT_DOWN": 41391550,
                "MAIN_RIV": 41392322,
                "LENGTH_KM": 1.83,
                "DIST_DN_KM": 23.200001,
                "DIST_UP_KM": 11.1,
                "CATCH_SKM": 2.75,
                "UPLAND_SKM": 40.0,
                "ENDORHEIC": 0,
                "DIS_AV_CMS": 0.59899998,
                "ORD_STRA": 2,
                "ORD_CLAS": 2,
                "ORD_FLOW": 7,
                "HYBAS_L12": 4121599360.0,
                "Shape_Length": 0.016666666666708352
            },
            "geometry": {
                "type": "LineString",
                "coordinates": [
                    [
                        80.14791666666636,
                        9.772916666666525
                    ],
                    [
                        80.16458333333307,
                        9.772916666666525
                    ]
                ]
            }
        },
        {
            "type": "Feature",
            "properties": {
                "HYRIV_ID": 41391492,
                "NEXT_DOWN": 41391550,
                "MAIN_RIV": 41392322,
                "LENGTH_KM": 1.4400001,
                "DIST_DN_KM": 23.200001,
                "DIST_UP_KM": 5.3,
                "CATCH_SKM": 10.15,
                "UPLAND_SKM": 10.2,
                "ENDORHEIC": 0,
                "DIS_AV_CMS": 0.152,
                "ORD_STRA": 1,
                "ORD_CLAS": 3,
                "ORD_FLOW": 7,
                "HYBAS_L12": 4121599360.0,
                "Shape_Length": 0.013005501431536925
            },
            "geometry": {
                "type": "LineString",
                "coordinates": [
                    [
                        80.15833333333299,
                        9.783333333333168
                    ],
                    [
                        80.16458333333307,
                        9.777083333333188
                    ],
                    [
                        80.16458333333307,
                        9.772916666666525
                    ]
                ]
            }
        },
        {
            "type": "Feature",
            "properties": {
                "HYRIV_ID": 41391526,
                "NEXT_DOWN": 41391527,
                "MAIN_RIV": 41392322,
                "LENGTH_KM": 0.69,
                "DIST_DN_KM": 26.6,
                "DIST_UP_KM": 4.6,
                "CATCH_SKM": 8.8800001,
                "UPLAND_SKM": 8.9,
                "ENDORHEIC": 0,
                "DIS_AV_CMS": 0.132,
                "ORD_STRA": 1,
                "ORD_CLAS": 4,
                "ORD_FLOW": 7,
                "HYBAS_L12": 4121599360.0,
                "Shape_Length": 0.006250000000079581
            },
            "geometry": {
                "type": "LineString",
                "coordinates": [
                    [
                        80.1291666666663,
                        9.768749999999876
                    ],
                    [
                        80.13541666666637,
                        9.768749999999876
                    ]
                ]
            }
        },
        {
            "type": "Feature",
            "properties": {
                "HYRIV_ID": 41391527,
                "NEXT_DOWN": 41391491,
                "MAIN_RIV": 41392322,
                "LENGTH_KM": 1.56,
                "DIST_DN_KM": 25.200001,
                "DIST_UP_KM": 8.6,
                "CATCH_SKM": 1.27,
                "UPLAND_SKM": 18.6,
                "ENDORHEIC": 0,
                "DIS_AV_CMS": 0.27700001,
                "ORD_STRA": 2,
                "ORD_CLAS": 3,
                "ORD_FLOW": 7,
                "HYBAS_L12": 4121599360.0,
                "Shape_Length": 0.014225889843198242
            },
            "geometry": {
                "type": "LineString",
                "coordinates": [
                    [
                        80.13541666666637,
                        9.768749999999876
                    ],
                    [
                        80.1437499999997,
                        9.768749999999876
                    ],
                    [
                        80.14791666666636,
                        9.772916666666525
                    ]
                ]
            }
        },
        {
            "type": "Feature",
            "properties": {
                "HYRIV_ID": 41391550,
                "NEXT_DOWN": 41391606,
                "MAIN_RIV": 41392322,
                "LENGTH_KM": 2.03,
                "DIST_DN_KM": 21.1,
                "DIST_UP_KM": 13.1,
                "CATCH_SKM": 9.9399996,
                "UPLAND_SKM": 60.099998,
                "ENDORHEIC": 0,
                "DIS_AV_CMS": 0.90100002,
                "ORD_STRA": 2,
                "ORD_CLAS": 2,
                "ORD_FLOW": 7,
                "HYBAS_L12": 4121599360.0,
                "Shape_Length": 0.01839255650975677
            },
            "geometry": {
                "type": "LineString",
                "coordinates": [
                    [
                        80.16458333333307,
                        9.772916666666525
                    ],
                    [
                        80.16874999999962,
                        9.772916666666525
                    ],
                    [
                        80.1729166666664,
                        9.768749999999876
                    ],
                    [
                        80.1729166666664,
                        9.76458333333317
                    ],
                    [
                        80.17708333333294,
                        9.76458333333317
                    ]
                ]
            }
        },
        {
            "type": "Feature",
            "properties": {
                "HYRIV_ID": 41391551,
                "NEXT_DOWN": 41391606,
                "MAIN_RIV": 41392322,
                "LENGTH_KM": 2.09,
                "DIST_DN_KM": 21.3,
                "DIST_UP_KM": 6.0,
                "CATCH_SKM": 11.63,
                "UPLAND_SKM": 11.6,
                "ENDORHEIC": 0,
                "DIS_AV_CMS": 0.175,
                "ORD_STRA": 1,
                "ORD_CLAS": 3,
                "ORD_FLOW": 7,
                "HYBAS_L12": 4121599360.0,
                "Shape_Length": 0.018898057941445445
            },
            "geometry": {
                "type": "LineString",
                "coordinates": [
                    [
                        80.18749999999969,
                        9.77916666666652
                    ],
                    [
                        80.18124999999972,
                        9.772916666666525
                    ],
                    [
                        80.18124999999972,
                        9.768749999999876
                    ],
                    [
                        80.17708333333294,
                        9.76458333333317
                    ]
                ]
            }
        },
        {
            "type": "Feature",
            "properties": {
                "HYRIV_ID": 41391606,
                "NEXT_DOWN": 41391649,
                "MAIN_RIV": 41392322,
                "LENGTH_KM": 1.3,
                "DIST_DN_KM": 20.0,
                "DIST_UP_KM": 14.2,
                "CATCH_SKM": 1.48,
                "UPLAND_SKM": 73.199997,
                "ENDORHEIC": 0,
                "DIS_AV_CMS": 1.1,
                "ORD_STRA": 2,
                "ORD_CLAS": 2,
                "ORD_FLOW": 6,
                "HYBAS_L12": 4121599360.0,
                "Shape_Length": 0.011785113019765073
            },
            "geometry": {
                "type": "LineString",
                "coordinates": [
                    [
                        80.17708333333294,
                        9.76458333333317
                    ],
                    [
                        80.18541666666627,
                        9.756249999999845
                    ]
                ]
            }
        },
        {
            "type": "Feature",
            "properties": {
                "HYRIV_ID": 41391607,
                "NEXT_DOWN": 41391649,
                "MAIN_RIV": 41392322,
                "LENGTH_KM": 3.3900001,
                "DIST_DN_KM": 20.0,
                "DIST_UP_KM": 7.7,
                "CATCH_SKM": 11.63,
                "UPLAND_SKM": 11.6,
                "ENDORHEIC": 0,
                "DIS_AV_CMS": 0.175,
                "ORD_STRA": 1,
                "ORD_CLAS": 3,
                "ORD_FLOW": 7,
                "HYBAS_L12": 4121599360.0,
                "Shape_Length": 0.030683170961210517
            },
            "geometry": {
                "type": "LineString",
                "coordinates": [
                    [
                        80.20416666666634,
                        9.77916666666652
                    ],
                    [
                        80.19791666666632,
                        9.772916666666525
                    ],
                    [
                        80.19791666666632,
                        9.768749999999876
                    ],
                    [
                        80.18541666666627,
                        9.756249999999845
                    ]
                ]
            }
        },
        {
            "type": "Feature",
            "properties": {
                "HYRIV_ID": 41391648,
                "NEXT_DOWN": 41391527,
                "MAIN_RIV": 41392322,
                "LENGTH_KM": 2.08,
                "DIST_DN_KM": 26.6,
                "DIST_UP_KM": 7.2,
                "CATCH_SKM": 8.46,
                "UPLAND_SKM": 8.5,
                "ENDORHEIC": 0,
                "DIS_AV_CMS": 0.125,
                "ORD_STRA": 1,
                "ORD_CLAS": 3,
                "ORD_FLOW": 7,
                "HYBAS_L12": 4121599360.0,
                "Shape_Length": 0.018750000000054
            },
            "geometry": {
                "type": "LineString",
                "coordinates": [
                    [
                        80.13541666666637,
                        9.749999999999822
                    ],
                    [
                        80.13541666666637,
                        9.768749999999876
                    ]
                ]
            }
        },
        {
            "type": "Feature",
            "properties": {
                "HYRIV_ID": 41391649,
                "NEXT_DOWN": 41391724,
                "MAIN_RIV": 41392322,
                "LENGTH_KM": 0.46,
                "DIST_DN_KM": 19.4,
                "DIST_UP_KM": 14.8,
                "CATCH_SKM": 0.42,
                "UPLAND_SKM": 85.300003,
                "ENDORHEIC": 0,
                "DIS_AV_CMS": 1.2819999,
                "ORD_STRA": 2,
                "ORD_CLAS": 2,
                "ORD_FLOW": 6,
                "HYBAS_L12": 4121599360.0,
                "Shape_Length": 0.004166666666648666
            },
            "geometry": {
                "type": "LineString",
                "coordinates": [
                    [
                        80.18541666666627,
                        9.756249999999845
                    ],
                    [
                        80.18541666666627,
                        9.752083333333196
                    ]
                ]
            }
        },
        {
            "type": "Feature",
            "properties": {
                "HYRIV_ID": 41391650,
                "NEXT_DOWN": 41391724,
                "MAIN_RIV": 41392322,
                "LENGTH_KM": 2.74,
                "DIST_DN_KM": 19.4,
                "DIST_UP_KM": 39.900002,
                "CATCH_SKM": 9.3100004,
                "UPLAND_SKM": 222.0,
                "ENDORHEIC": 0,
                "DIS_AV_CMS": 3.257,
                "ORD_STRA": 2,
                "ORD_CLAS": 1,
                "ORD_FLOW": 6,
                "HYBAS_L12": 4121599360.0,
                "Shape_Length": 0.025000000000034106
            },
            "geometry": {
                "type": "LineString",
                "coordinates": [
                    [
                        80.2104166666663,
                        9.752083333333196
                    ],
                    [
                        80.18541666666627,
                        9.752083333333196
                    ]
                ]
            }
        },
        {
            "type": "Feature",
            "properties": {
                "HYRIV_ID": 41391651,
                "NEXT_DOWN": 41391650,
                "MAIN_RIV": 41392322,
                "LENGTH_KM": 3.2,
                "DIST_DN_KM": 22.1,
                "DIST_UP_KM": 6.6,
                "CATCH_SKM": 18.620001,
                "UPLAND_SKM": 18.6,
                "ENDORHEIC": 0,
                "DIS_AV_CMS": 0.27900001,
                "ORD_STRA": 1,
                "ORD_CLAS": 2,
                "ORD_FLOW": 7,
                "HYBAS_L12": 4121599360.0,
                "Shape_Length": 0.02895728111798081
            },
            "geometry": {
                "type": "LineString",
                "coordinates": [
                    [
                        80.22916666666637,
                        9.770833333333194
                    ],
                    [
                        80.21874999999963,
                        9.760416666666508
                    ],
                    [
                        80.21458333333297,
                        9.760416666666508
                    ],
                    [
                        80.2104166666663,
                        9.756249999999845
                    ],
                    [
                        80.2104166666663,
                        9.752083333333196
                    ]
                ]
            }
        },
        {
            "type": "Feature",
            "properties": {
                "HYRIV_ID": 41391682,
                "NEXT_DOWN": 41391776,
                "MAIN_RIV": 41392322,
                "LENGTH_KM": 0.98,
                "DIST_DN_KM": 19.6,
                "DIST_UP_KM": 4.4,
                "CATCH_SKM": 14.81,
                "UPLAND_SKM": 14.8,
                "ENDORHEIC": 0,
                "DIS_AV_CMS": 0.219,
                "ORD_STRA": 1,
                "ORD_CLAS": 3,
                "ORD_FLOW": 7,
                "HYBAS_L12": 4121599440.0,
                "Shape_Length": 0.008838834764803707
            },
            "geometry": {
                "type": "LineString",
                "coordinates": [
                    [
                        80.0541666666663,
                        9.754166666666528
                    ],
                    [
                        80.06041666666627,
                        9.747916666666534
                    ]
                ]
            }
        },
        {
            "type": "Feature",
            "properties": {
                "HYRIV_ID": 41391724,
                "NEXT_DOWN": 41391957,
                "MAIN_RIV": 41392322,
                "LENGTH_KM": 2.4100001,
                "DIST_DN_KM": 17.200001,
                "DIST_UP_KM": 42.099998,
                "CATCH_SKM": 3.6,
                "UPLAND_SKM": 310.79999,
                "ENDORHEIC": 0,
                "DIS_AV_CMS": 4.6069999,
                "ORD_STRA": 3,
                "ORD_CLAS": 1,
                "ORD_FLOW": 6,
                "HYBAS_L12": 4121599440.0,
                "Shape_Length": 0.021844336196363882
            },
            "geometry": {
                "type": "LineString",
                "coordinates": [
                    [
                        80.18541666666627,
                        9.752083333333196
                    ],
                    [
                        80.18124999999972,
                        9.747916666666534
                    ],
                    [
                        80.17708333333294,
                        9.747916666666534
                    ],
                    [
                        80.16874999999962,
                        9.73958333333318
                    ]
                ]
            }
        },
        {
            "type": "Feature",
            "properties": {
                "HYRIV_ID": 41391747,
                "NEXT_DOWN": 41391776,
                "MAIN_RIV": 41392322,
                "LENGTH_KM": 3.1900001,
                "DIST_DN_KM": 19.5,
                "DIST_UP_KM": 6.9,
                "CATCH_SKM": 16.5,
                "UPLAND_SKM": 16.5,
                "ENDORHEIC": 0,
                "DIS_AV_CMS": 0.241,
                "ORD_STRA": 1,
                "ORD_CLAS": 2,
                "ORD_FLOW": 7,
                "HYBAS_L12": 4121599440.0,
                "Shape_Length": 0.02895728111783139
            },
            "geometry": {
                "type": "LineString",
                "coordinates": [
                    [
                        80.03749999999965,
                        9.733333333333185
                    ],
                    [
                        80.0479166666664,
                        9.743749999999828
                    ],
                    [
                        80.05208333333294,
                        9.743749999999828
                    ],
                    [
                        80.05624999999978,
                        9.747916666666534
                    ],
                    [
                        80.06041666666627,
                        9.747916666666534
                    ]
                ]
            }
        },
        {
            "type": "Feature",
            "properties": {
                "HYRIV_ID": 41391776,
                "NEXT_DOWN": 41391956,
                "MAIN_RIV": 41392322,
                "LENGTH_KM": 5.8,
                "DIST_DN_KM": 13.8,
                "DIST_UP_KM": 12.5,
                "CATCH_SKM": 16.709999,
                "UPLAND_SKM": 48.0,
                "ENDORHEIC": 0,
                "DIS_AV_CMS": 0.709,
                "ORD_STRA": 2,
                "ORD_CLAS": 2,
                "ORD_FLOW": 7,
                "HYBAS_L12": 4121599440.0,
                "Shape_Length": 0.05273689270624723
            },
            "geometry": {
                "type": "LineString",
                "coordinates": [
                    [
                        80.06041666666627,
                        9.747916666666534
                    ],
                    [
                        80.06458333333299,
                        9.747916666666534
                    ],
                    [
                        80.07291666666632,
                        9.73958333333318
                    ],
                    [
                        80.0979166666663,
                        9.73958333333318
                    ],
                    [
                        80.10624999999962,
                        9.731249999999854
                    ]
                ]
            }
        },
        {
            "type": "Feature",
            "properties": {
                "HYRIV_ID": 41391777,
                "NEXT_DOWN": 41391956,
                "MAIN_RIV": 41392322,
                "LENGTH_KM": 3.2,
                "DIST_DN_KM": 13.7,
                "DIST_UP_KM": 7.5,
                "CATCH_SKM": 8.46,
                "UPLAND_SKM": 8.5,
                "ENDORHEIC": 0,
                "DIS_AV_CMS": 0.126,
                "ORD_STRA": 1,
                "ORD_CLAS": 3,
                "ORD_FLOW": 7,
                "HYBAS_L12": 4121599440.0,
                "Shape_Length": 0.028957281118047705
            },
            "geometry": {
                "type": "LineString",
                "coordinates": [
                    [
                        80.0999999999996,
                        9.754166666666528
                    ],
                    [
                        80.10624999999962,
                        9.747916666666534
                    ],
                    [
                        80.10624999999962,
                        9.743749999999828
                    ],
                    [
                        80.11041666666634,
                        9.73958333333318
                    ],
                    [
                        80.10624999999962,
                        9.735416666666517
                    ],
                    [
                        80.10624999999962,
                        9.731249999999854
                    ]
                ]
            }
        },
        {
            "type": "Feature",
            "properties": {
                "HYRIV_ID": 41391829,
                "NEXT_DOWN": 41391650,
                "MAIN_RIV": 41392322,
                "LENGTH_KM": 6.8400002,
                "DIST_DN_KM": 22.1,
                "DIST_UP_KM": 37.200001,
                "CATCH_SKM": 25.389999,
                "UPLAND_SKM": 194.10001,
                "ENDORHEIC": 0,
                "DIS_AV_CMS": 2.8239999,
                "ORD_STRA": 2,
                "ORD_CLAS": 1,
                "ORD_FLOW": 6,
                "HYBAS_L12": 4121599360.0,
                "Shape_Length": 0.06208122890257253
            },
            "geometry": {
                "type": "LineString",
                "coordinates": [
                    [
                        80.26041666666632,
                        9.7229166666665
                    ],
                    [
                        80.23124999999962,
                        9.752083333333196
                    ],
                    [
                        80.2104166666663,
                        9.752083333333196
                    ]
                ]
            }
        },
        {
            "type": "Feature",
            "properties": {
                "HYRIV_ID": 41391857,
                "NEXT_DOWN": 41391957,
                "MAIN_RIV": 41392322,
                "LENGTH_KM": 3.71,
                "DIST_DN_KM": 17.0,
                "DIST_UP_KM": 11.9,
                "CATCH_SKM": 9.9399996,
                "UPLAND_SKM": 46.5,
                "ENDORHEIC": 0,
                "DIS_AV_CMS": 0.681,
                "ORD_STRA": 2,
                "ORD_CLAS": 2,
                "ORD_FLOW": 7,
                "HYBAS_L12": 4121599440.0,
                "Shape_Length": 0.033629449216128954
            },
            "geometry": {
                "type": "LineString",
                "coordinates": [
                    [
                        80.1937499999996,
                        9.718749999999837
                    ],
                    [
                        80.1729166666664,
                        9.73958333333318
                    ],
                    [
                        80.16874999999962,
                        9.73958333333318
                    ]
                ]
            }
        },
        {
            "type": "Feature",
            "properties": {
                "HYRIV_ID": 41391956,
                "NEXT_DOWN": 41391976,
                "MAIN_RIV": 41392322,
                "LENGTH_KM": 3.53,
                "DIST_DN_KM": 10.3,
                "DIST_UP_KM": 16.0,
                "CATCH_SKM": 7.4099998,
                "UPLAND_SKM": 63.900002,
                "ENDORHEIC": 0,
                "DIS_AV_CMS": 0.94800001,
                "ORD_STRA": 2,
                "ORD_CLAS": 2,
                "ORD_FLOW": 7,
                "HYBAS_L12": 4121599440.0,
                "Shape_Length": 0.03190355937291863
            },
            "geometry": {
                "type": "LineString",
                "coordinates": [
                    [
                        80.10624999999962,
                        9.731249999999854
                    ],
                    [
                        80.11041666666634,
                        9.727083333333205
                    ],
                    [
                        80.11041666666634,
                        9.718749999999837
                    ],
                    [
                        80.12291666666633,
                        9.706249999999862
                    ]
                ]
            }
        },
        {
            "type": "Feature",
            "properties": {
                "HYRIV_ID": 41391957,
                "NEXT_DOWN": 41391976,
                "MAIN_RIV": 41392322,
                "LENGTH_KM": 6.8400002,
                "DIST_DN_KM": 10.3,
                "DIST_UP_KM": 49.0,
                "CATCH_SKM": 22.43,
                "UPLAND_SKM": 379.79999,
                "ENDORHEIC": 0,
                "DIS_AV_CMS": 5.6719999,
                "ORD_STRA": 3,
                "ORD_CLAS": 1,
                "ORD_FLOW": 6,
                "HYBAS_L12": 4121599440.0,
                "Shape_Length": 0.06208122890248138
            },
            "geometry": {
                "type": "LineString",
                "coordinates": [
                    [
                        80.16874999999962,
                        9.73958333333318
                    ],
                    [
                        80.16458333333307,
                        9.73958333333318
                    ],
                    [
                        80.15624999999969,
                        9.731249999999854
                    ],
                    [
                        80.15624999999969,
                        9.727083333333205
                    ],
                    [
                        80.14791666666636,
                        9.718749999999837
                    ],
                    [
                        80.13958333333304,
                        9.718749999999837
                    ],
                    [
                        80.13541666666637,
                        9.714583333333188
                    ],
                    [
                        80.13124999999965,
                        9.714583333333188
                    ],
                    [
                        80.12291666666633,
                        9.706249999999862
                    ]
                ]
            }
        },
        {
            "type": "Feature",
            "properties": {
                "HYRIV_ID": 41391976,
                "NEXT_DOWN": 41392182,
                "MAIN_RIV": 41392322,
                "LENGTH_KM": 1.11,
                "DIST_DN_KM": 9.0,
                "DIST_UP_KM": 50.3,
                "CATCH_SKM": 3.1700001,
                "UPLAND_SKM": 446.89999,
                "ENDORHEIC": 0,
                "DIS_AV_CMS": 6.677,
                "ORD_STRA": 3,
                "ORD_CLAS": 1,
                "ORD_FLOW": 6,
                "HYBAS_L12": 4120050160.0,
                "Shape_Length": 0.010059223176535365
            },
            "geometry": {
                "type": "LineString",
                "coordinates": [
                    [
                        80.12291666666633,
                        9.706249999999862
                    ],
                    [
                        80.11874999999966,
                        9.702083333333213
                    ],
                    [
                        80.114583333333,
                        9.702083333333213
                    ]
                ]
            }
        },
        {
            "type": "Feature",
            "properties": {
                "HYRIV_ID": 41391977,
                "NEXT_DOWN": 41391857,
                "MAIN_RIV": 41392322,
                "LENGTH_KM": 2.9300001,
                "DIST_DN_KM": 20.9,
                "DIST_UP_KM": 7.3,
                "CATCH_SKM": 15.23,
                "UPLAND_SKM": 15.2,
                "ENDORHEIC": 0,
                "DIS_AV_CMS": 0.221,
                "ORD_STRA": 1,
                "ORD_CLAS": 3,
                "ORD_FLOW": 7,
                "HYBAS_L12": 4121599440.0,
                "Shape_Length": 0.026516504294461365
            },
            "geometry": {
                "type": "LineString",
                "coordinates": [
                    [
                        80.17499999999964,
                        9.69999999999984
                    ],
                    [
                        80.1937499999996,
                        9.718749999999837
                    ]
                ]
            }
        },
        {
            "type": "Feature",
            "properties": {
                "HYRIV_ID": 41391978,
                "NEXT_DOWN": 41391857,
                "MAIN_RIV": 41392322,
                "LENGTH_KM": 3.56,
                "DIST_DN_KM": 20.700001,
                "DIST_UP_KM": 8.2,
                "CATCH_SKM": 21.370001,
                "UPLAND_SKM": 21.4,
                "ENDORHEIC": 0,
                "DIS_AV_CMS": 0.311,
                "ORD_STRA": 1,
                "ORD_CLAS": 2,
                "ORD_FLOW": 7,
                "HYBAS_L12": 4121599440.0,
                "Shape_Length": 0.0322610028630429
            },
            "geometry": {
                "type": "LineString",
                "coordinates": [
                    [
                        80.21458333333297,
                        9.69999999999984
                    ],
                    [
                        80.21458333333297,
                        9.706249999999862
                    ],
                    [
                        80.2104166666663,
                        9.710416666666525
                    ],
                    [
                        80.20624999999964,
                        9.710416666666525
                    ],
                    [
                        80.19791666666632,
                        9.718749999999837
                    ],
                    [
                        80.1937499999996,
                        9.718749999999837
                    ]
                ]
            }
        },
        {
            "type": "Feature",
            "properties": {
                "HYRIV_ID": 41391979,
                "NEXT_DOWN": 41391829,
                "MAIN_RIV": 41392322,
                "LENGTH_KM": 3.11,
                "DIST_DN_KM": 29.0,
                "DIST_UP_KM": 7.1,
                "CATCH_SKM": 16.5,
                "UPLAND_SKM": 16.5,
                "ENDORHEIC": 0,
                "DIS_AV_CMS": 0.241,
                "ORD_STRA": 1,
                "ORD_CLAS": 2,
                "ORD_FLOW": 7,
                "HYBAS_L12": 4121599360.0,
                "Shape_Length": 0.028094336196323177
            },
            "geometry": {
                "type": "LineString",
                "coordinates": [
                    [
                        80.24791666666633,
                        9.69999999999984
                    ],
                    [
                        80.24791666666633,
                        9.706249999999862
                    ],
                    [
                        80.26041666666632,
                        9.718749999999837
                    ],
                    [
                        80.26041666666632,
                        9.7229166666665
                    ]
                ]
            }
        },
        {
            "type": "Feature",
            "properties": {
                "HYRIV_ID": 41392181,
                "NEXT_DOWN": 41392268,
                "MAIN_RIV": 41392322,
                "LENGTH_KM": 1.4400001,
                "DIST_DN_KM": 3.0,
                "DIST_UP_KM": 6.4,
                "CATCH_SKM": 7.62,
                "UPLAND_SKM": 7.6,
                "ENDORHEIC": 0,
                "DIS_AV_CMS": 0.11,
                "ORD_STRA": 1,
                "ORD_CLAS": 2,
                "ORD_FLOW": 7,
                "HYBAS_L12": 4120050160.0,
                "Shape_Length": 0.013005501431469023
            },
            "geometry": {
                "type": "LineString",
                "coordinates": [
                    [
                        80.07083333333301,
                        9.68333333333316
                    ],
                    [
                        80.07708333333298,
                        9.677083333333222
                    ],
                    [
                        80.07708333333298,
                        9.672916666666517
                    ]
                ]
            }
        },
        {
            "type": "Feature",
            "properties": {
                "HYRIV_ID": 41392182,
                "NEXT_DOWN": 41392268,
                "MAIN_RIV": 41392322,
                "LENGTH_KM": 6.0100002,
                "DIST_DN_KM": 3.2,
                "DIST_UP_KM": 56.099998,
                "CATCH_SKM": 25.6,
                "UPLAND_SKM": 506.29999,
                "ENDORHEIC": 0,
                "DIS_AV_CMS": 7.599,
                "ORD_STRA": 3,
                "ORD_CLAS": 1,
                "ORD_FLOW": 6,
                "HYBAS_L12": 4120050160.0,
                "Shape_Length": 0.05446278254948282
            },
            "geometry": {
                "type": "LineString",
                "coordinates": [
                    [
                        80.114583333333,
                        9.702083333333213
                    ],
                    [
                        80.0979166666663,
                        9.702083333333213
                    ],
                    [
                        80.08958333333297,
                        9.693749999999845
                    ],
                    [
                        80.08958333333297,
                        9.685416666666534
                    ],
                    [
                        80.07708333333298,
                        9.672916666666517
                    ]
                ]
            }
        },
        {
            "type": "Feature",
            "properties": {
                "HYRIV_ID": 41392267,
                "NEXT_DOWN": 41392322,
                "MAIN_RIV": 41392322,
                "LENGTH_KM": 1.63,
                "DIST_DN_KM": 1.6,
                "DIST_UP_KM": 5.7,
                "CATCH_SKM": 16.290001,
                "UPLAND_SKM": 16.3,
                "ENDORHEIC": 0,
                "DIS_AV_CMS": 0.233,
                "ORD_STRA": 1,
                "ORD_CLAS": 2,
                "ORD_FLOW": 7,
                "HYBAS_L12": 4120050160.0,
                "Shape_Length": 0.014731391274676197
            },
            "geometry": {
                "type": "LineString",
                "coordinates": [
                    [
                        80.06249999999969,
                        9.670833333333185
                    ],
                    [
                        80.07291666666632,
                        9.660416666666542
                    ]
                ]
            }
        },
        {
            "type": "Feature",
            "properties": {
                "HYRIV_ID": 41392268,
                "NEXT_DOWN": 41392322,
                "MAIN_RIV": 41392322,
                "LENGTH_KM": 1.58,
                "DIST_DN_KM": 1.4,
                "DIST_UP_KM": 57.8,
                "CATCH_SKM": 2.12,
                "UPLAND_SKM": 516.09998,
                "ENDORHEIC": 0,
                "DIS_AV_CMS": 7.7589998,
                "ORD_STRA": 3,
                "ORD_CLAS": 1,
                "ORD_FLOW": 6,
                "HYBAS_L12": 4120050160.0,
                "Shape_Length": 0.014225889843194079
            },
            "geometry": {
                "type": "LineString",
                "coordinates": [
                    [
                        80.07708333333298,
                        9.672916666666517
                    ],
                    [
                        80.07291666666632,
                        9.668749999999854
                    ],
                    [
                        80.07291666666632,
                        9.660416666666542
                    ]
                ]
            }
        },
        {
            "type": "Feature",
            "properties": {
                "HYRIV_ID": 41392290,
                "NEXT_DOWN": 41392182,
                "MAIN_RIV": 41392322,
                "LENGTH_KM": 6.54,
                "DIST_DN_KM": 9.0,
                "DIST_UP_KM": 10.0,
                "CATCH_SKM": 33.860001,
                "UPLAND_SKM": 33.900002,
                "ENDORHEIC": 0,
                "DIS_AV_CMS": 0.486,
                "ORD_STRA": 1,
                "ORD_CLAS": 2,
                "ORD_FLOW": 7,
                "HYBAS_L12": 4120050160.0,
                "Shape_Length": 0.059134950647624376
            },
            "geometry": {
                "type": "LineString",
                "coordinates": [
                    [
                        80.12499999999963,
                        9.654166666666505
                    ],
                    [
                        80.11041666666634,
                        9.668749999999854
                    ],
                    [
                        80.11041666666634,
                        9.677083333333222
                    ],
                    [
                        80.114583333333,
                        9.681249999999828
                    ],
                    [
                        80.114583333333,
                        9.685416666666534
                    ],
                    [
                        80.11874999999966,
                        9.689583333333196
                    ],
                    [
                        80.11874999999966,
                        9.693749999999845
                    ],
                    [
                        80.114583333333,
                        9.697916666666508
                    ],
                    [
                        80.114583333333,
                        9.702083333333213
                    ]
                ]
            }
        },
        {
            "type": "Feature",
            "properties": {
                "HYRIV_ID": 41392322,
                "NEXT_DOWN": 0,
                "MAIN_RIV": 41392322,
                "LENGTH_KM": 1.3,
                "DIST_DN_KM": 0.0,
                "DIST_UP_KM": 58.900002,
                "CATCH_SKM": 3.81,
                "UPLAND_SKM": 534.90002,
                "ENDORHEIC": 0,
                "DIS_AV_CMS": 8.0410004,
                "ORD_STRA": 3,
                "ORD_CLAS": 1,
                "ORD_FLOW": 6,
                "HYBAS_L12": 4120050160.0,
                "Shape_Length": 0.011785113019795219
            },
            "geometry": {
                "type": "LineString",
                "coordinates": [
                    [
                        80.07291666666632,
                        9.660416666666542
                    ],
                    [
                        80.08124999999964,
                        9.652083333333174
                    ]
                ]
            }
        },
        {
            "type": "Feature",
            "properties": {
                "HYRIV_ID": 41392586,
                "NEXT_DOWN": 41391829,
                "MAIN_RIV": 41392322,
                "LENGTH_KM": 16.91,
                "DIST_DN_KM": 29.1,
                "DIST_UP_KM": 30.1,
                "CATCH_SKM": 94.379997,
                "UPLAND_SKM": 152.2,
                "ENDORHEIC": 0,
                "DIS_AV_CMS": 2.181,
                "ORD_STRA": 2,
                "ORD_CLAS": 1,
                "ORD_FLOW": 6,
                "HYBAS_L12": 4121599360.0,
                "Shape_Length": 0.1532064692570967
            },
            "geometry": {
                "type": "LineString",
                "coordinates": [
                    [
                        80.36874999999966,
                        9.614583333333165
                    ],
                    [
                        80.26041666666632,
                        9.7229166666665
                    ]
                ]
            }
        },
        {
            "type": "Feature",
            "properties": {
                "HYRIV_ID": 41392666,
                "NEXT_DOWN": 41392586,
                "MAIN_RIV": 41392322,
                "LENGTH_KM": 2.28,
                "DIST_DN_KM": 46.099998,
                "DIST_UP_KM": 5.9,
                "CATCH_SKM": 13.33,
                "UPLAND_SKM": 13.3,
                "ENDORHEIC": 0,
                "DIS_AV_CMS": 0.185,
                "ORD_STRA": 1,
                "ORD_CLAS": 2,
                "ORD_FLOW": 7,
                "HYBAS_L12": 4121599470.0,
                "Shape_Length": 0.02062394778471951
            },
            "geometry": {
                "type": "LineString",
                "coordinates": [
                    [
                        80.37499999999974,
                        9.59999999999986
                    ],
                    [
                        80.36458333333294,
                        9.610416666666517
                    ],
                    [
                        80.36874999999966,
                        9.614583333333165
                    ]
                ]
            }
        },
        {
            "type": "Feature",
            "properties": {
                "HYRIV_ID": 41392777,
                "NEXT_DOWN": 41392586,
                "MAIN_RIV": 41392322,
                "LENGTH_KM": 9.0900002,
                "DIST_DN_KM": 45.900002,
                "DIST_UP_KM": 13.4,
                "CATCH_SKM": 44.450001,
                "UPLAND_SKM": 44.400002,
                "ENDORHEIC": 0,
                "DIS_AV_CMS": 0.616,
                "ORD_STRA": 1,
                "ORD_CLAS": 1,
                "ORD_FLOW": 7,
                "HYBAS_L12": 4121599470.0,
                "Shape_Length": 0.08255711874572316
            },
            "geometry": {
                "type": "LineString",
                "coordinates": [
                    [
                        80.43749999999963,
                        9.581249999999862
                    ],
                    [
                        80.43124999999961,
                        9.581249999999862
                    ],
                    [
                        80.42708333333306,
                        9.585416666666525
                    ],
                    [
                        80.4229166666664,
                        9.585416666666525
                    ],
                    [
                        80.41458333333301,
                        9.593749999999837
                    ],
                    [
                        80.41041666666635,
                        9.593749999999837
                    ],
                    [
                        80.40624999999969,
                        9.597916666666542
                    ],
                    [
                        80.40208333333302,
                        9.597916666666542
                    ],
                    [
                        80.39374999999964,
                        9.606249999999854
                    ],
                    [
                        80.38541666666632,
                        9.606249999999854
                    ],
                    [
                        80.38124999999965,
                        9.610416666666517
                    ],
                    [
                        80.37708333333299,
                        9.610416666666517
                    ],
                    [
                        80.37291666666633,
                        9.614583333333165
                    ],
                    [
                        80.36874999999966,
                        9.614583333333165
                    ]
                ]
            }
        }
    ]
}