{
    "type": "FeatureCollection",
    "features": [
        {
            "type": "Feature",
            "properties": {
                "HYRIV_ID": 41399264,
                "NEXT_DOWN": 0,
                "MAIN_RIV": 41399264,
                "LENGTH_KM": 2.28,
                "DIST_DN_KM": 0.0,
                "DIST_UP_KM": 6.2,
                "CATCH_SKM": 21.860001,
                "UPLAND_SKM": 20.4,
                "ENDORHEIC": 0,
                "DIS_AV_CMS": 0.332,
                "ORD_STRA": 1,
                "ORD_CLAS": 1,
                "ORD_FLOW": 7,
                "HYBAS_L12": 4120049630.0,
                "Shape_Length": 0.02062394778458888
            },
            "geometry": {
                "type": "LineString",
                "coordinates": [
                    [
                        81.14166666666634,
                        8.558333333333188
                    ],
                    [
                        81.15624999999963,
                        8.54374999999984
                    ]
                ]
            }
        }
    ]
}