{
    "type": "FeatureCollection",
    "features": [
        {
            "type": "Feature",
            "properties": {
                "HYRIV_ID": 41399342,
                "NEXT_DOWN": 0,
                "MAIN_RIV": 41399342,
                "LENGTH_KM": 14.43,
                "DIST_DN_KM": 0.0,
                "DIST_UP_KM": 78.699997,
                "CATCH_SKM": 63.049999,
                "UPLAND_SKM": 998.40002,
                "ENDORHEIC": 0,
                "DIS_AV_CMS": 10.805,
                "ORD_STRA": 4,
                "ORD_CLAS": 1,
                "ORD_FLOW": 5,
                "HYBAS_L12": 4120049260.0,
                "Shape_Length": 0.13076990129524424
            },
            "geometry": {
                "type": "LineString",
                "coordinates": [
                    [
                        80.03124999999974,
                        8.527083333333216
                    ],
                    [
                        80.02708333333302,
                        8.527083333333216
                    ],
                    [
                        80.02291666666636,
                        8.531249999999865
                    ],
                    [
                        80.0187499999997,
                        8.531249999999865
                    ],
                    [
                        80.01458333333304,
                        8.535416666666528
                    ],
                    [
                        80.01041666666637,
                        8.535416666666528
                    ],
                    [
                        79.99791666666633,
                        8.547916666666545
                    ],
                    [
                        79.99374999999966,
                        8.54374999999984
                    ],
                    [
                        79.989583333333,
                        8.54374999999984
                    ],
                    [
                        79.98124999999968,
                        8.552083333333208
                    ],
                    [
                        79.96458333333297,
                        8.552083333333208
                    ],
                    [
                        79.9604166666663,
                        8.55624999999987
                    ],
                    [
                        79.95624999999964,
                        8.55624999999987
                    ],
                    [
                        79.95208333333298,
                        8.56041666666652
                    ],
                    [
                        79.9437499999996,
                        8.56041666666652
                    ],
                    [
                        79.93958333333299,
                        8.55624999999987
                    ],
                    [
                        79.93541666666627,
                        8.55624999999987
                    ],
                    [
                        79.92708333333294,
                        8.564583333333182
                    ],
                    [
                        79.9229166666664,
                        8.564583333333182
                    ]
                ]
            }
        },
        {
            "type": "Feature",
            "properties": {
                "HYRIV_ID": 41399343,
                "NEXT_DOWN": 41399342,
                "MAIN_RIV": 41399342,
                "LENGTH_KM": 3.0,
                "DIST_DN_KM": 14.8,
                "DIST_UP_KM": 7.9,
                "CATCH_SKM": 19.1,
                "UPLAND_SKM": 19.1,
                "ENDORHEIC": 0,
                "DIS_AV_CMS": 0.193,
                "ORD_STRA": 1,
                "ORD_CLAS": 2,
                "ORD_FLOW": 7,
                "HYBAS_L12": 4120049260.0,
                "Shape_Length": 0.027231391274624633
            },
            "geometry": {
                "type": "LineString",
                "coordinates": [
                    [
                        80.0541666666663,
                        8.53749999999986
                    ],
                    [
                        80.0479166666664,
                        8.531249999999865
                    ],
                    [
                        80.0354166666664,
                        8.531249999999865
                    ],
                    [
                        80.03124999999974,
                        8.527083333333216
                    ]
                ]
            }
        },
        {
            "type": "Feature",
            "properties": {
                "HYRIV_ID": 41399344,
                "NEXT_DOWN": 41399479,
                "MAIN_RIV": 41399342,
                "LENGTH_KM": 5.3400002,
                "DIST_DN_KM": 29.8,
                "DIST_UP_KM": 8.5,
                "CATCH_SKM": 23.99,
                "UPLAND_SKM": 24.0,
                "ENDORHEIC": 0,
                "DIS_AV_CMS": 0.243,
                "ORD_STRA": 1,
                "ORD_CLAS": 2,
                "ORD_FLOW": 7,
                "HYBAS_L12": 4121600900.0,
                "Shape_Length": 0.048212782549474295
            },
            "geometry": {
                "type": "LineString",
                "coordinates": [
                    [
                        80.12291666666633,
                        8.566666666666556
                    ],
                    [
                        80.12291666666633,
                        8.547916666666545
                    ],
                    [
                        80.11874999999966,
                        8.54374999999984
                    ],
                    [
                        80.13541666666637,
                        8.527083333333216
                    ]
                ]
            }
        },
        {
            "type": "Feature",
            "properties": {
                "HYRIV_ID": 41399345,
                "NEXT_DOWN": 41399479,
                "MAIN_RIV": 41399342,
                "LENGTH_KM": 2.09,
                "DIST_DN_KM": 29.6,
                "DIST_UP_KM": 8.4,
                "CATCH_SKM": 19.110001,
                "UPLAND_SKM": 19.1,
                "ENDORHEIC": 0,
                "DIS_AV_CMS": 0.197,
                "ORD_STRA": 1,
                "ORD_CLAS": 3,
                "ORD_FLOW": 7,
                "HYBAS_L12": 4121600900.0,
                "Shape_Length": 0.018898057941339072
            },
            "geometry": {
                "type": "LineString",
                "coordinates": [
                    [
                        80.14999999999966,
                        8.53749999999986
                    ],
                    [
                        80.13958333333304,
                        8.527083333333216
                    ],
                    [
                        80.13541666666637,
                        8.527083333333216
                    ]
                ]
            }
        },
        {
            "type": "Feature",
            "properties": {
                "HYRIV_ID": 41399405,
                "NEXT_DOWN": 41399342,
                "MAIN_RIV": 41399342,
                "LENGTH_KM": 3.79,
                "DIST_DN_KM": 14.8,
                "DIST_UP_KM": 64.099998,
                "CATCH_SKM": 16.35,
                "UPLAND_SKM": 916.70001,
                "ENDORHEIC": 0,
                "DIS_AV_CMS": 10.255,
                "ORD_STRA": 4,
                "ORD_CLAS": 1,
                "ORD_FLOW": 5,
                "HYBAS_L12": 4120049260.0,
                "Shape_Length": 0.03434433619622218
            },
            "geometry": {
                "type": "LineString",
                "coordinates": [
                    [
                        80.06041666666627,
                        8.5145833333332
                    ],
                    [
                        80.05624999999978,
                        8.518749999999848
                    ],
                    [
                        80.0479166666664,
                        8.518749999999848
                    ],
                    [
                        80.04374999999962,
                        8.52291666666651
                    ],
                    [
                        80.0354166666664,
                        8.52291666666651
                    ],
                    [
                        80.03124999999974,
                        8.527083333333216
                    ]
                ]
            }
        },
        {
            "type": "Feature",
            "properties": {
                "HYRIV_ID": 41399406,
                "NEXT_DOWN": 41399405,
                "MAIN_RIV": 41399342,
                "LENGTH_KM": 6.9200001,
                "DIST_DN_KM": 18.4,
                "DIST_UP_KM": 10.2,
                "CATCH_SKM": 33.330002,
                "UPLAND_SKM": 33.3,
                "ENDORHEIC": 0,
                "DIS_AV_CMS": 0.33500001,
                "ORD_STRA": 1,
                "ORD_CLAS": 2,
                "ORD_FLOW": 7,
                "HYBAS_L12": 4120049260.0,
                "Shape_Length": 0.062438672392685024
            },
            "geometry": {
                "type": "LineString",
                "coordinates": [
                    [
                        80.08958333333297,
                        8.56249999999985
                    ],
                    [
                        80.08958333333297,
                        8.547916666666545
                    ],
                    [
                        80.0854166666663,
                        8.54374999999984
                    ],
                    [
                        80.0854166666663,
                        8.53958333333319
                    ],
                    [
                        80.07291666666632,
                        8.527083333333216
                    ],
                    [
                        80.07291666666632,
                        8.52291666666651
                    ],
                    [
                        80.06458333333299,
                        8.5145833333332
                    ],
                    [
                        80.06041666666627,
                        8.5145833333332
                    ]
                ]
            }
        },
        {
            "type": "Feature",
            "properties": {
                "HYRIV_ID": 41399479,
                "NEXT_DOWN": 41399500,
                "MAIN_RIV": 41399342,
                "LENGTH_KM": 3.35,
                "DIST_DN_KM": 26.5,
                "DIST_UP_KM": 11.9,
                "CATCH_SKM": 7.0100002,
                "UPLAND_SKM": 50.099998,
                "ENDORHEIC": 0,
                "DIS_AV_CMS": 0.50800002,
                "ORD_STRA": 2,
                "ORD_CLAS": 2,
                "ORD_FLOW": 7,
                "HYBAS_L12": 4121600900.0,
                "Shape_Length": 0.03017766952969481
            },
            "geometry": {
                "type": "LineString",
                "coordinates": [
                    [
                        80.13541666666637,
                        8.527083333333216
                    ],
                    [
                        80.13541666666637,
                        8.5145833333332
                    ],
                    [
                        80.12291666666633,
                        8.502083333333225
                    ]
                ]
            }
        },
        {
            "type": "Feature",
            "properties": {
                "HYRIV_ID": 41399480,
                "NEXT_DOWN": 41399518,
                "MAIN_RIV": 41399342,
                "LENGTH_KM": 2.37,
                "DIST_DN_KM": 36.099998,
                "DIST_UP_KM": 7.1,
                "CATCH_SKM": 19.530001,
                "UPLAND_SKM": 19.5,
                "ENDORHEIC": 0,
                "DIS_AV_CMS": 0.206,
                "ORD_STRA": 1,
                "ORD_CLAS": 3,
                "ORD_FLOW": 7,
                "HYBAS_L12": 4121155910.0,
                "Shape_Length": 0.021338834764808273
            },
            "geometry": {
                "type": "LineString",
                "coordinates": [
                    [
                        80.208333333333,
                        8.52083333333318
                    ],
                    [
                        80.20208333333298,
                        8.5145833333332
                    ],
                    [
                        80.20208333333298,
                        8.502083333333225
                    ]
                ]
            }
        },
        {
            "type": "Feature",
            "properties": {
                "HYRIV_ID": 41399481,
                "NEXT_DOWN": 41399518,
                "MAIN_RIV": 41399342,
                "LENGTH_KM": 4.02,
                "DIST_DN_KM": 36.099998,
                "DIST_UP_KM": 8.9,
                "CATCH_SKM": 28.66,
                "UPLAND_SKM": 28.700001,
                "ENDORHEIC": 0,
                "DIS_AV_CMS": 0.31200001,
                "ORD_STRA": 1,
                "ORD_CLAS": 2,
                "ORD_FLOW": 7,
                "HYBAS_L12": 4121155910.0,
                "Shape_Length": 0.036427669529705775
            },
            "geometry": {
                "type": "LineString",
                "coordinates": [
                    [
                        80.23333333333304,
                        8.5145833333332
                    ],
                    [
                        80.2229166666663,
                        8.5145833333332
                    ],
                    [
                        80.21458333333297,
                        8.506249999999874
                    ],
                    [
                        80.2104166666663,
                        8.506249999999874
                    ],
                    [
                        80.20624999999964,
                        8.502083333333225
                    ],
                    [
                        80.20208333333298,
                        8.502083333333225
                    ]
                ]
            }
        },
        {
            "type": "Feature",
            "properties": {
                "HYRIV_ID": 41399498,
                "NEXT_DOWN": 41399405,
                "MAIN_RIV": 41399342,
                "LENGTH_KM": 3.52,
                "DIST_DN_KM": 18.6,
                "DIST_UP_KM": 60.3,
                "CATCH_SKM": 12.95,
                "UPLAND_SKM": 867.0,
                "ENDORHEIC": 0,
                "DIS_AV_CMS": 9.9060001,
                "ORD_STRA": 4,
                "ORD_CLAS": 1,
                "ORD_FLOW": 6,
                "HYBAS_L12": 4120049260.0,
                "Shape_Length": 0.03190355937291619
            },
            "geometry": {
                "type": "LineString",
                "coordinates": [
                    [
                        80.0854166666663,
                        8.49791666666652
                    ],
                    [
                        80.07291666666632,
                        8.510416666666536
                    ],
                    [
                        80.06458333333299,
                        8.510416666666536
                    ],
                    [
                        80.06041666666627,
                        8.5145833333332
                    ]
                ]
            }
        },
        {
            "type": "Feature",
            "properties": {
                "HYRIV_ID": 41399499,
                "NEXT_DOWN": 41399498,
                "MAIN_RIV": 41399342,
                "LENGTH_KM": 2.29,
                "DIST_DN_KM": 22.0,
                "DIST_UP_KM": 57.0,
                "CATCH_SKM": 5.0900002,
                "UPLAND_SKM": 770.0,
                "ENDORHEIC": 0,
                "DIS_AV_CMS": 8.9639997,
                "ORD_STRA": 4,
                "ORD_CLAS": 1,
                "ORD_FLOW": 6,
                "HYBAS_L12": 4121600900.0,
                "Shape_Length": 0.020833333333314386
            },
            "geometry": {
                "type": "LineString",
                "coordinates": [
                    [
                        80.10624999999962,
                        8.49791666666652
                    ],
                    [
                        80.0854166666663,
                        8.49791666666652
                    ]
                ]
            }
        },
        {
            "type": "Feature",
            "properties": {
                "HYRIV_ID": 41399500,
                "NEXT_DOWN": 41399499,
                "MAIN_RIV": 41399342,
                "LENGTH_KM": 2.03,
                "DIST_DN_KM": 24.3,
                "DIST_UP_KM": 54.700001,
                "CATCH_SKM": 9.5500002,
                "UPLAND_SKM": 751.09998,
                "ENDORHEIC": 0,
                "DIS_AV_CMS": 8.7989998,
                "ORD_STRA": 4,
                "ORD_CLAS": 1,
                "ORD_FLOW": 6,
                "HYBAS_L12": 4121600900.0,
                "Shape_Length": 0.018392556509958156
            },
            "geometry": {
                "type": "LineString",
                "coordinates": [
                    [
                        80.12291666666633,
                        8.502083333333225
                    ],
                    [
                        80.114583333333,
                        8.502083333333225
                    ],
                    [
                        80.11041666666634,
                        8.49791666666652
                    ],
                    [
                        80.10624999999962,
                        8.49791666666652
                    ]
                ]
            }
        },
        {
            "type": "Feature",
            "properties": {
                "HYRIV_ID": 41399501,
                "NEXT_DOWN": 41399500,
                "MAIN_RIV": 41399342,
                "LENGTH_KM": 1.11,
                "DIST_DN_KM": 26.5,
                "DIST_UP_KM": 52.5,
                "CATCH_SKM": 1.27,
                "UPLAND_SKM": 691.5,
                "ENDORHEIC": 0,
                "DIS_AV_CMS": 8.2530003,
                "ORD_STRA": 4,
                "ORD_CLAS": 1,
                "ORD_FLOW": 6,
                "HYBAS_L12": 4121600900.0,
                "Shape_Length": 0.010059223176575559
            },
            "geometry": {
                "type": "LineString",
                "coordinates": [
                    [
                        80.13124999999965,
                        8.49791666666652
                    ],
                    [
                        80.12708333333299,
                        8.49791666666652
                    ],
                    [
                        80.12291666666633,
                        8.502083333333225
                    ]
                ]
            }
        },
        {
            "type": "Feature",
            "properties": {
                "HYRIV_ID": 41399502,
                "NEXT_DOWN": 41399501,
                "MAIN_RIV": 41399342,
                "LENGTH_KM": 2.29,
                "DIST_DN_KM": 27.4,
                "DIST_UP_KM": 51.5,
                "CATCH_SKM": 5.0900002,
                "UPLAND_SKM": 487.0,
                "ENDORHEIC": 0,
                "DIS_AV_CMS": 5.8870001,
                "ORD_STRA": 3,
                "ORD_CLAS": 1,
                "ORD_FLOW": 6,
                "HYBAS_L12": 4121155910.0,
                "Shape_Length": 0.02083333333337123
            },
            "geometry": {
                "type": "LineString",
                "coordinates": [
                    [
                        80.15208333333302,
                        8.49791666666652
                    ],
                    [
                        80.13124999999965,
                        8.49791666666652
                    ]
                ]
            }
        },
        {
            "type": "Feature",
            "properties": {
                "HYRIV_ID": 41399503,
                "NEXT_DOWN": 41399502,
                "MAIN_RIV": 41399342,
                "LENGTH_KM": 1.63,
                "DIST_DN_KM": 29.9,
                "DIST_UP_KM": 8.3,
                "CATCH_SKM": 14.86,
                "UPLAND_SKM": 14.9,
                "ENDORHEIC": 0,
                "DIS_AV_CMS": 0.15700001,
                "ORD_STRA": 1,
                "ORD_CLAS": 2,
                "ORD_FLOW": 7,
                "HYBAS_L12": 4121155910.0,
                "Shape_Length": 0.014731391274706343
            },
            "geometry": {
                "type": "LineString",
                "coordinates": [
                    [
                        80.16249999999965,
                        8.508333333333205
                    ],
                    [
                        80.15208333333302,
                        8.49791666666652
                    ]
                ]
            }
        },
        {
            "type": "Feature",
            "properties": {
                "HYRIV_ID": 41399517,
                "NEXT_DOWN": 41399502,
                "MAIN_RIV": 41399342,
                "LENGTH_KM": 2.03,
                "DIST_DN_KM": 29.9,
                "DIST_UP_KM": 49.099998,
                "CATCH_SKM": 3.61,
                "UPLAND_SKM": 467.0,
                "ENDORHEIC": 0,
                "DIS_AV_CMS": 5.7010002,
                "ORD_STRA": 3,
                "ORD_CLAS": 1,
                "ORD_FLOW": 6,
                "HYBAS_L12": 4121155910.0,
                "Shape_Length": 0.018392556509814324
            },
            "geometry": {
                "type": "LineString",
                "coordinates": [
                    [
                        80.16874999999962,
                        8.493749999999856
                    ],
                    [
                        80.15624999999969,
                        8.493749999999856
                    ],
                    [
                        80.15208333333302,
                        8.49791666666652
                    ]
                ]
            }
        },
        {
            "type": "Feature",
            "properties": {
                "HYRIV_ID": 41399518,
                "NEXT_DOWN": 41399517,
                "MAIN_RIV": 41399342,
                "LENGTH_KM": 4.4400001,
                "DIST_DN_KM": 31.700001,
                "DIST_UP_KM": 13.3,
                "CATCH_SKM": 9.5500002,
                "UPLAND_SKM": 57.700001,
                "ENDORHEIC": 0,
                "DIS_AV_CMS": 0.616,
                "ORD_STRA": 2,
                "ORD_CLAS": 2,
                "ORD_FLOW": 7,
                "HYBAS_L12": 4121155910.0,
                "Shape_Length": 0.04023689270639553
            },
            "geometry": {
                "type": "LineString",
                "coordinates": [
                    [
                        80.20208333333298,
                        8.502083333333225
                    ],
                    [
                        80.1937499999996,
                        8.502083333333225
                    ],
                    [
                        80.1895833333331,
                        8.49791666666652
                    ],
                    [
                        80.18541666666627,
                        8.502083333333225
                    ],
                    [
                        80.18124999999972,
                        8.49791666666652
                    ],
                    [
                        80.17708333333294,
                        8.49791666666652
                    ],
                    [
                        80.1729166666664,
                        8.493749999999856
                    ],
                    [
                        80.16874999999962,
                        8.493749999999856
                    ]
                ]
            }
        },
        {
            "type": "Feature",
            "properties": {
                "HYRIV_ID": 41399588,
                "NEXT_DOWN": 41399498,
                "MAIN_RIV": 41399342,
                "LENGTH_KM": 3.11,
                "DIST_DN_KM": 22.200001,
                "DIST_UP_KM": 9.2,
                "CATCH_SKM": 23.99,
                "UPLAND_SKM": 24.0,
                "ENDORHEIC": 0,
                "DIS_AV_CMS": 0.258,
                "ORD_STRA": 1,
                "ORD_CLAS": 3,
                "ORD_FLOW": 7,
                "HYBAS_L12": 4121600900.0,
                "Shape_Length": 0.028094336196323177
            },
            "geometry": {
                "type": "LineString",
                "coordinates": [
                    [
                        80.07291666666632,
                        8.47499999999986
                    ],
                    [
                        80.07291666666632,
                        8.481249999999882
                    ],
                    [
                        80.07708333333298,
                        8.485416666666545
                    ],
                    [
                        80.07708333333298,
                        8.489583333333208
                    ],
                    [
                        80.0854166666663,
                        8.49791666666652
                    ]
                ]
            }
        },
        {
            "type": "Feature",
            "properties": {
                "HYRIV_ID": 41399589,
                "NEXT_DOWN": 41399499,
                "MAIN_RIV": 41399342,
                "LENGTH_KM": 3.21,
                "DIST_DN_KM": 24.3,
                "DIST_UP_KM": 7.7,
                "CATCH_SKM": 13.8,
                "UPLAND_SKM": 13.8,
                "ENDORHEIC": 0,
                "DIS_AV_CMS": 0.151,
                "ORD_STRA": 1,
                "ORD_CLAS": 2,
                "ORD_FLOW": 7,
                "HYBAS_L12": 4121600900.0,
                "Shape_Length": 0.028957281118025167
            },
            "geometry": {
                "type": "LineString",
                "coordinates": [
                    [
                        80.11249999999976,
                        8.47499999999986
                    ],
                    [
                        80.10624999999962,
                        8.481249999999882
                    ],
                    [
                        80.10624999999962,
                        8.485416666666545
                    ],
                    [
                        80.10208333333296,
                        8.489583333333208
                    ],
                    [
                        80.10624999999962,
                        8.493749999999856
                    ],
                    [
                        80.10624999999962,
                        8.49791666666652
                    ]
                ]
            }
        },
        {
            "type": "Feature",
            "properties": {
                "HYRIV_ID": 41399626,
                "NEXT_DOWN": 41399498,
                "MAIN_RIV": 41399342,
                "LENGTH_KM": 4.08,
                "DIST_DN_KM": 22.0,
                "DIST_UP_KM": 16.9,
                "CATCH_SKM": 6.79,
                "UPLAND_SKM": 60.099998,
                "ENDORHEIC": 0,
                "DIS_AV_CMS": 0.662,
                "ORD_STRA": 2,
                "ORD_CLAS": 2,
                "ORD_FLOW": 7,
                "HYBAS_L12": 4121600900.0,
                "Shape_Length": 0.036785113019756545
            },
            "geometry": {
                "type": "LineString",
                "coordinates": [
                    [
                        80.0979166666663,
                        8.468749999999865
                    ],
                    [
                        80.0979166666663,
                        8.472916666666528
                    ],
                    [
                        80.09374999999963,
                        8.47708333333319
                    ],
                    [
                        80.08958333333297,
                        8.47708333333319
                    ],
                    [
                        80.08958333333297,
                        8.485416666666545
                    ],
                    [
                        80.0854166666663,
                        8.489583333333208
                    ],
                    [
                        80.0854166666663,
                        8.49791666666652
                    ]
                ]
            }
        },
        {
            "type": "Feature",
            "properties": {
                "HYRIV_ID": 41399640,
                "NEXT_DOWN": 41399517,
                "MAIN_RIV": 41399342,
                "LENGTH_KM": 4.83,
                "DIST_DN_KM": 31.9,
                "DIST_UP_KM": 47.0,
                "CATCH_SKM": 17.83,
                "UPLAND_SKM": 405.60001,
                "ENDORHEIC": 0,
                "DIS_AV_CMS": 5.066,
                "ORD_STRA": 3,
                "ORD_CLAS": 1,
                "ORD_FLOW": 6,
                "HYBAS_L12": 4121155910.0,
                "Shape_Length": 0.043688672392673655
            },
            "geometry": {
                "type": "LineString",
                "coordinates": [
                    [
                        80.19791666666632,
                        8.464583333333216
                    ],
                    [
                        80.19791666666632,
                        8.468749999999865
                    ],
                    [
                        80.1937499999996,
                        8.468749999999865
                    ],
                    [
                        80.16874999999962,
                        8.493749999999856
                    ]
                ]
            }
        },
        {
            "type": "Feature",
            "properties": {
                "HYRIV_ID": 41399641,
                "NEXT_DOWN": 41399640,
                "MAIN_RIV": 41399342,
                "LENGTH_KM": 4.8400002,
                "DIST_DN_KM": 36.5,
                "DIST_UP_KM": 8.8,
                "CATCH_SKM": 21.440001,
                "UPLAND_SKM": 21.4,
                "ENDORHEIC": 0,
                "DIS_AV_CMS": 0.245,
                "ORD_STRA": 1,
                "ORD_CLAS": 2,
                "ORD_FLOW": 7,
                "HYBAS_L12": 4121155910.0,
                "Shape_Length": 0.04389805794139673
            },
            "geometry": {
                "type": "LineString",
                "coordinates": [
                    [
                        80.2374999999997,
                        8.47499999999986
                    ],
                    [
                        80.23124999999962,
                        8.468749999999865
                    ],
                    [
                        80.20624999999964,
                        8.468749999999865
                    ],
                    [
                        80.20208333333298,
                        8.464583333333216
                    ],
                    [
                        80.19791666666632,
                        8.464583333333216
                    ]
                ]
            }
        },
        {
            "type": "Feature",
            "properties": {
                "HYRIV_ID": 41399792,
                "NEXT_DOWN": 41399501,
                "MAIN_RIV": 41399342,
                "LENGTH_KM": 8.6400003,
                "DIST_DN_KM": 27.4,
                "DIST_UP_KM": 27.4,
                "CATCH_SKM": 30.57,
                "UPLAND_SKM": 203.2,
                "ENDORHEIC": 0,
                "DIS_AV_CMS": 2.3659999,
                "ORD_STRA": 3,
                "ORD_CLAS": 2,
                "ORD_FLOW": 6,
                "HYBAS_L12": 4121155930.0,
                "Shape_Length": 0.0780330085890088
            },
            "geometry": {
                "type": "LineString",
                "coordinates": [
                    [
                        80.15208333333302,
                        8.43541666666652
                    ],
                    [
                        80.15624999999969,
                        8.43958333333321
                    ],
                    [
                        80.15624999999969,
                        8.443749999999874
                    ],
                    [
                        80.16041666666635,
                        8.447916666666536
                    ],
                    [
                        80.15624999999969,
                        8.4520833333332
                    ],
                    [
                        80.15624999999969,
                        8.464583333333216
                    ],
                    [
                        80.13958333333304,
                        8.481249999999882
                    ],
                    [
                        80.13958333333304,
                        8.485416666666545
                    ],
                    [
                        80.13124999999965,
                        8.493749999999856
                    ],
                    [
                        80.13124999999965,
                        8.49791666666652
                    ]
                ]
            }
        },
        {
            "type": "Feature",
            "properties": {
                "HYRIV_ID": 41399793,
                "NEXT_DOWN": 41399640,
                "MAIN_RIV": 41399342,
                "LENGTH_KM": 4.37,
                "DIST_DN_KM": 36.700001,
                "DIST_UP_KM": 42.200001,
                "CATCH_SKM": 18.26,
                "UPLAND_SKM": 366.39999,
                "ENDORHEIC": 0,
                "DIS_AV_CMS": 4.6560001,
                "ORD_STRA": 3,
                "ORD_CLAS": 1,
                "ORD_FLOW": 6,
                "HYBAS_L12": 4121155910.0,
                "Shape_Length": 0.03952200572599829
            },
            "geometry": {
                "type": "LineString",
                "coordinates": [
                    [
                        80.2229166666663,
                        8.43541666666652
                    ],
                    [
                        80.21874999999963,
                        8.43958333333321
                    ],
                    [
                        80.21874999999963,
                        8.443749999999874
                    ],
                    [
                        80.19791666666632,
                        8.464583333333216
                    ]
                ]
            }
        },
        {
            "type": "Feature",
            "properties": {
                "HYRIV_ID": 41399794,
                "NEXT_DOWN": 41399793,
                "MAIN_RIV": 41399342,
                "LENGTH_KM": 0.46,
                "DIST_DN_KM": 40.900002,
                "DIST_UP_KM": 38.0,
                "CATCH_SKM": 1.06,
                "UPLAND_SKM": 337.89999,
                "ENDORHEIC": 0,
                "DIS_AV_CMS": 4.349,
                "ORD_STRA": 3,
                "ORD_CLAS": 1,
                "ORD_FLOW": 6,
                "HYBAS_L12": 4121155910.0,
                "Shape_Length": 0.004166666666662877
            },
            "geometry": {
                "type": "LineString",
                "coordinates": [
                    [
                        80.22708333333296,
                        8.43541666666652
                    ],
                    [
                        80.2229166666663,
                        8.43541666666652
                    ]
                ]
            }
        },
        {
            "type": "Feature",
            "properties": {
                "HYRIV_ID": 41399795,
                "NEXT_DOWN": 41399794,
                "MAIN_RIV": 41399342,
                "LENGTH_KM": 4.48,
                "DIST_DN_KM": 41.599998,
                "DIST_UP_KM": 7.6,
                "CATCH_SKM": 16.99,
                "UPLAND_SKM": 17.0,
                "ENDORHEIC": 0,
                "DIS_AV_CMS": 0.20100001,
                "ORD_STRA": 1,
                "ORD_CLAS": 2,
                "ORD_FLOW": 7,
                "HYBAS_L12": 4121155910.0,
                "Shape_Length": 0.04059433619634195
            },
            "geometry": {
                "type": "LineString",
                "coordinates": [
                    [
                        80.26249999999962,
                        8.43958333333321
                    ],
                    [
                        80.24791666666633,
                        8.43958333333321
                    ],
                    [
                        80.24374999999966,
                        8.443749999999874
                    ],
                    [
                        80.23958333333294,
                        8.443749999999874
                    ],
                    [
                        80.23541666666628,
                        8.43958333333321
                    ],
                    [
                        80.23124999999962,
                        8.43958333333321
                    ],
                    [
                        80.22708333333296,
                        8.43541666666652
                    ]
                ]
            }
        },
        {
            "type": "Feature",
            "properties": {
                "HYRIV_ID": 41399817,
                "NEXT_DOWN": 41399626,
                "MAIN_RIV": 41399342,
                "LENGTH_KM": 6.27,
                "DIST_DN_KM": 26.200001,
                "DIST_UP_KM": 9.6,
                "CATCH_SKM": 19.540001,
                "UPLAND_SKM": 19.5,
                "ENDORHEIC": 0,
                "DIS_AV_CMS": 0.215,
                "ORD_STRA": 1,
                "ORD_CLAS": 3,
                "ORD_FLOW": 7,
                "HYBAS_L12": 4121600900.0,
                "Shape_Length": 0.05669417382412603
            },
            "geometry": {
                "type": "LineString",
                "coordinates": [
                    [
                        80.06249999999969,
                        8.429166666666525
                    ],
                    [
                        80.0687499999996,
                        8.43541666666652
                    ],
                    [
                        80.0687499999996,
                        8.43958333333321
                    ],
                    [
                        80.07291666666632,
                        8.443749999999874
                    ],
                    [
                        80.07708333333298,
                        8.443749999999874
                    ],
                    [
                        80.09374999999963,
                        8.460416666666553
                    ],
                    [
                        80.09374999999963,
                        8.464583333333216
                    ],
                    [
                        80.0979166666663,
                        8.468749999999865
                    ]
                ]
            }
        },
        {
            "type": "Feature",
            "properties": {
                "HYRIV_ID": 41399845,
                "NEXT_DOWN": 41399793,
                "MAIN_RIV": 41399342,
                "LENGTH_KM": 1.16,
                "DIST_DN_KM": 40.900002,
                "DIST_UP_KM": 6.4,
                "CATCH_SKM": 10.19,
                "UPLAND_SKM": 10.2,
                "ENDORHEIC": 0,
                "DIS_AV_CMS": 0.122,
                "ORD_STRA": 1,
                "ORD_CLAS": 2,
                "ORD_FLOW": 7,
                "HYBAS_L12": 4121155910.0,
                "Shape_Length": 0.010416666666642982
            },
            "geometry": {
                "type": "LineString",
                "coordinates": [
                    [
                        80.2229166666663,
                        8.424999999999876
                    ],
                    [
                        80.2229166666663,
                        8.43541666666652
                    ]
                ]
            }
        },
        {
            "type": "Feature",
            "properties": {
                "HYRIV_ID": 41399863,
                "NEXT_DOWN": 41399794,
                "MAIN_RIV": 41399342,
                "LENGTH_KM": 1.96,
                "DIST_DN_KM": 41.599998,
                "DIST_UP_KM": 37.400002,
                "CATCH_SKM": 4.6700001,
                "UPLAND_SKM": 319.89999,
                "ENDORHEIC": 0,
                "DIS_AV_CMS": 4.1389999,
                "ORD_STRA": 3,
                "ORD_CLAS": 1,
                "ORD_FLOW": 6,
                "HYBAS_L12": 4121155910.0,
                "Shape_Length": 0.017677669529637563
            },
            "geometry": {
                "type": "LineString",
                "coordinates": [
                    [
                        80.23958333333294,
                        8.422916666666545
                    ],
                    [
                        80.22708333333296,
                        8.43541666666652
                    ]
                ]
            }
        },
        {
            "type": "Feature",
            "properties": {
                "HYRIV_ID": 41399879,
                "NEXT_DOWN": 41399626,
                "MAIN_RIV": 41399342,
                "LENGTH_KM": 6.64,
                "DIST_DN_KM": 26.0,
                "DIST_UP_KM": 12.8,
                "CATCH_SKM": 33.759998,
                "UPLAND_SKM": 33.8,
                "ENDORHEIC": 0,
                "DIS_AV_CMS": 0.378,
                "ORD_STRA": 1,
                "ORD_CLAS": 2,
                "ORD_FLOW": 7,
                "HYBAS_L12": 4121600900.0,
                "Shape_Length": 0.05984983762778276
            },
            "geometry": {
                "type": "LineString",
                "coordinates": [
                    [
                        80.0999999999996,
                        8.41666666666655
                    ],
                    [
                        80.09374999999963,
                        8.422916666666545
                    ],
                    [
                        80.09374999999963,
                        8.427083333333194
                    ],
                    [
                        80.10208333333296,
                        8.43541666666652
                    ],
                    [
                        80.10208333333296,
                        8.447916666666536
                    ],
                    [
                        80.0979166666663,
                        8.4520833333332
                    ],
                    [
                        80.0979166666663,
                        8.468749999999865
                    ]
                ]
            }
        },
        {
            "type": "Feature",
            "properties": {
                "HYRIV_ID": 41399921,
                "NEXT_DOWN": 41399792,
                "MAIN_RIV": 41399342,
                "LENGTH_KM": 3.35,
                "DIST_DN_KM": 36.200001,
                "DIST_UP_KM": 18.6,
                "CATCH_SKM": 11.47,
                "UPLAND_SKM": 108.3,
                "ENDORHEIC": 0,
                "DIS_AV_CMS": 1.3049999,
                "ORD_STRA": 2,
                "ORD_CLAS": 2,
                "ORD_FLOW": 6,
                "HYBAS_L12": 4121155930.0,
                "Shape_Length": 0.03017766952969481
            },
            "geometry": {
                "type": "LineString",
                "coordinates": [
                    [
                        80.16458333333307,
                        8.410416666666528
                    ],
                    [
                        80.15624999999969,
                        8.41874999999984
                    ],
                    [
                        80.15624999999969,
                        8.431249999999856
                    ],
                    [
                        80.15208333333302,
                        8.43541666666652
                    ]
                ]
            }
        },
        {
            "type": "Feature",
            "properties": {
                "HYRIV_ID": 41399922,
                "NEXT_DOWN": 41399863,
                "MAIN_RIV": 41399342,
                "LENGTH_KM": 1.96,
                "DIST_DN_KM": 43.5,
                "DIST_UP_KM": 35.400002,
                "CATCH_SKM": 4.46,
                "UPLAND_SKM": 295.0,
                "ENDORHEIC": 0,
                "DIS_AV_CMS": 3.846,
                "ORD_STRA": 3,
                "ORD_CLAS": 1,
                "ORD_FLOW": 6,
                "HYBAS_L12": 4121155910.0,
                "Shape_Length": 0.017677669529707903
            },
            "geometry": {
                "type": "LineString",
                "coordinates": [
                    [
                        80.25208333333299,
                        8.410416666666528
                    ],
                    [
                        80.23958333333294,
                        8.422916666666545
                    ]
                ]
            }
        },
        {
            "type": "Feature",
            "properties": {
                "HYRIV_ID": 41399943,
                "NEXT_DOWN": 41399792,
                "MAIN_RIV": 41399342,
                "LENGTH_KM": 5.9099998,
                "DIST_DN_KM": 36.0,
                "DIST_UP_KM": 16.9,
                "CATCH_SKM": 14.02,
                "UPLAND_SKM": 64.300003,
                "ENDORHEIC": 0,
                "DIS_AV_CMS": 0.745,
                "ORD_STRA": 2,
                "ORD_CLAS": 3,
                "ORD_FLOW": 7,
                "HYBAS_L12": 4121155930.0,
                "Shape_Length": 0.05345177968646906
            },
            "geometry": {
                "type": "LineString",
                "coordinates": [
                    [
                        80.12291666666633,
                        8.406249999999865
                    ],
                    [
                        80.12291666666633,
                        8.422916666666545
                    ],
                    [
                        80.12708333333299,
                        8.427083333333194
                    ],
                    [
                        80.12708333333299,
                        8.431249999999856
                    ],
                    [
                        80.13124999999965,
                        8.43541666666652
                    ],
                    [
                        80.15208333333302,
                        8.43541666666652
                    ]
                ]
            }
        },
        {
            "type": "Feature",
            "properties": {
                "HYRIV_ID": 41399944,
                "NEXT_DOWN": 41399922,
                "MAIN_RIV": 41399342,
                "LENGTH_KM": 2.03,
                "DIST_DN_KM": 45.3,
                "DIST_UP_KM": 17.700001,
                "CATCH_SKM": 6.1599998,
                "UPLAND_SKM": 100.0,
                "ENDORHEIC": 0,
                "DIS_AV_CMS": 1.271,
                "ORD_STRA": 2,
                "ORD_CLAS": 2,
                "ORD_FLOW": 6,
                "HYBAS_L12": 4121156060.0,
                "Shape_Length": 0.01839255650992801
            },
            "geometry": {
                "type": "LineString",
                "coordinates": [
                    [
                        80.2687499999997,
                        8.406249999999865
                    ],
                    [
                        80.26041666666632,
                        8.406249999999865
                    ],
                    [
                        80.25624999999965,
                        8.410416666666528
                    ],
                    [
                        80.25208333333299,
                        8.410416666666528
                    ]
                ]
            }
        },
        {
            "type": "Feature",
            "properties": {
                "HYRIV_ID": 41399945,
                "NEXT_DOWN": 41399944,
                "MAIN_RIV": 41399342,
                "LENGTH_KM": 4.4899998,
                "DIST_DN_KM": 47.3,
                "DIST_UP_KM": 7.6,
                "CATCH_SKM": 15.71,
                "UPLAND_SKM": 15.7,
                "ENDORHEIC": 0,
                "DIS_AV_CMS": 0.192,
                "ORD_STRA": 1,
                "ORD_CLAS": 3,
                "ORD_FLOW": 7,
                "HYBAS_L12": 4121156060.0,
                "Shape_Length": 0.04059433619626257
            },
            "geometry": {
                "type": "LineString",
                "coordinates": [
                    [
                        80.29166666666632,
                        8.431249999999856
                    ],
                    [
                        80.28541666666635,
                        8.431249999999856
                    ],
                    [
                        80.28541666666635,
                        8.427083333333194
                    ],
                    [
                        80.28124999999969,
                        8.427083333333194
                    ],
                    [
                        80.27291666666636,
                        8.41874999999984
                    ],
                    [
                        80.27291666666636,
                        8.41458333333322
                    ],
                    [
                        80.2687499999997,
                        8.410416666666528
                    ],
                    [
                        80.2687499999997,
                        8.406249999999865
                    ]
                ]
            }
        },
        {
            "type": "Feature",
            "properties": {
                "HYRIV_ID": 41399965,
                "NEXT_DOWN": 41399943,
                "MAIN_RIV": 41399342,
                "LENGTH_KM": 1.8,
                "DIST_DN_KM": 41.900002,
                "DIST_UP_KM": 6.7,
                "CATCH_SKM": 10.62,
                "UPLAND_SKM": 10.6,
                "ENDORHEIC": 0,
                "DIS_AV_CMS": 0.122,
                "ORD_STRA": 1,
                "ORD_CLAS": 4,
                "ORD_FLOW": 7,
                "HYBAS_L12": 4121155930.0,
                "Shape_Length": 0.016309223176454463
            },
            "geometry": {
                "type": "LineString",
                "coordinates": [
                    [
                        80.10833333333309,
                        8.402083333333202
                    ],
                    [
                        80.114583333333,
                        8.402083333333202
                    ],
                    [
                        80.11874999999966,
                        8.406249999999865
                    ],
                    [
                        80.12291666666633,
                        8.406249999999865
                    ]
                ]
            }
        },
        {
            "type": "Feature",
            "properties": {
                "HYRIV_ID": 41400051,
                "NEXT_DOWN": 41399863,
                "MAIN_RIV": 41399342,
                "LENGTH_KM": 4.9699998,
                "DIST_DN_KM": 43.5,
                "DIST_UP_KM": 9.7,
                "CATCH_SKM": 20.18,
                "UPLAND_SKM": 20.200001,
                "ENDORHEIC": 0,
                "DIS_AV_CMS": 0.248,
                "ORD_STRA": 1,
                "ORD_CLAS": 2,
                "ORD_FLOW": 7,
                "HYBAS_L12": 4121155910.0,
                "Shape_Length": 0.04476100286301416
            },
            "geometry": {
                "type": "LineString",
                "coordinates": [
                    [
                        80.24374999999966,
                        8.383333333333205
                    ],
                    [
                        80.24374999999966,
                        8.389583333333185
                    ],
                    [
                        80.23541666666628,
                        8.397916666666553
                    ],
                    [
                        80.23541666666628,
                        8.41874999999984
                    ],
                    [
                        80.23958333333294,
                        8.422916666666545
                    ]
                ]
            }
        },
        {
            "type": "Feature",
            "properties": {
                "HYRIV_ID": 41400052,
                "NEXT_DOWN": 41399944,
                "MAIN_RIV": 41399342,
                "LENGTH_KM": 3.99,
                "DIST_DN_KM": 47.5,
                "DIST_UP_KM": 15.5,
                "CATCH_SKM": 8.0699997,
                "UPLAND_SKM": 78.199997,
                "ENDORHEIC": 0,
                "DIS_AV_CMS": 1.007,
                "ORD_STRA": 2,
                "ORD_CLAS": 2,
                "ORD_FLOW": 6,
                "HYBAS_L12": 4121156060.0,
                "Shape_Length": 0.03607022603956902
            },
            "geometry": {
                "type": "LineString",
                "coordinates": [
                    [
                        80.29374999999973,
                        8.385416666666536
                    ],
                    [
                        80.28958333333301,
                        8.389583333333185
                    ],
                    [
                        80.28541666666635,
                        8.389583333333185
                    ],
                    [
                        80.28541666666635,
                        8.393749999999848
                    ],
                    [
                        80.28124999999969,
                        8.397916666666553
                    ],
                    [
                        80.27708333333302,
                        8.397916666666553
                    ],
                    [
                        80.2687499999997,
                        8.406249999999865
                    ]
                ]
            }
        },
        {
            "type": "Feature",
            "properties": {
                "HYRIV_ID": 41400053,
                "NEXT_DOWN": 41400052,
                "MAIN_RIV": 41399342,
                "LENGTH_KM": 2.74,
                "DIST_DN_KM": 51.5,
                "DIST_UP_KM": 5.8,
                "CATCH_SKM": 15.08,
                "UPLAND_SKM": 15.1,
                "ENDORHEIC": 0,
                "DIS_AV_CMS": 0.191,
                "ORD_STRA": 1,
                "ORD_CLAS": 3,
                "ORD_FLOW": 7,
                "HYBAS_L12": 4121156060.0,
                "Shape_Length": 0.024790614451168213
            },
            "geometry": {
                "type": "LineString",
                "coordinates": [
                    [
                        80.31249999999963,
                        8.39999999999987
                    ],
                    [
                        80.30208333333294,
                        8.389583333333185
                    ],
                    [
                        80.2979166666664,
                        8.389583333333185
                    ],
                    [
                        80.29374999999973,
                        8.385416666666536
                    ]
                ]
            }
        },
        {
            "type": "Feature",
            "properties": {
                "HYRIV_ID": 41400073,
                "NEXT_DOWN": 41399921,
                "MAIN_RIV": 41399342,
                "LENGTH_KM": 3.62,
                "DIST_DN_KM": 39.599998,
                "DIST_UP_KM": 15.2,
                "CATCH_SKM": 15.71,
                "UPLAND_SKM": 77.699997,
                "ENDORHEIC": 0,
                "DIS_AV_CMS": 0.95200002,
                "ORD_STRA": 2,
                "ORD_CLAS": 2,
                "ORD_FLOW": 7,
                "HYBAS_L12": 4121155930.0,
                "Shape_Length": 0.03261844635309367
            },
            "geometry": {
                "type": "LineString",
                "coordinates": [
                    [
                        80.1729166666664,
                        8.381249999999874
                    ],
                    [
                        80.1729166666664,
                        8.402083333333202
                    ],
                    [
                        80.16458333333307,
                        8.410416666666528
                    ]
                ]
            }
        },
        {
            "type": "Feature",
            "properties": {
                "HYRIV_ID": 41400094,
                "NEXT_DOWN": 41399921,
                "MAIN_RIV": 41399342,
                "LENGTH_KM": 4.3200002,
                "DIST_DN_KM": 39.400002,
                "DIST_UP_KM": 8.4,
                "CATCH_SKM": 19.110001,
                "UPLAND_SKM": 19.1,
                "ENDORHEIC": 0,
                "DIS_AV_CMS": 0.227,
                "ORD_STRA": 1,
                "ORD_CLAS": 3,
                "ORD_FLOW": 7,
                "HYBAS_L12": 4121155930.0,
                "Shape_Length": 0.03886844635312818
            },
            "geometry": {
                "type": "LineString",
                "coordinates": [
                    [
                        80.15624999999969,
                        8.37499999999988
                    ],
                    [
                        80.15624999999969,
                        8.389583333333185
                    ],
                    [
                        80.16041666666635,
                        8.393749999999848
                    ],
                    [
                        80.16041666666635,
                        8.402083333333202
                    ],
                    [
                        80.16458333333307,
                        8.406249999999865
                    ],
                    [
                        80.16458333333307,
                        8.410416666666528
                    ]
                ]
            }
        },
        {
            "type": "Feature",
            "properties": {
                "HYRIV_ID": 41400095,
                "NEXT_DOWN": 41400073,
                "MAIN_RIV": 41399342,
                "LENGTH_KM": 0.98,
                "DIST_DN_KM": 43.200001,
                "DIST_UP_KM": 5.7,
                "CATCH_SKM": 9.5600004,
                "UPLAND_SKM": 9.6,
                "ENDORHEIC": 0,
                "DIS_AV_CMS": 0.117,
                "ORD_STRA": 1,
                "ORD_CLAS": 3,
                "ORD_FLOW": 7,
                "HYBAS_L12": 4121155930.0,
                "Shape_Length": 0.008838834764884097
            },
            "geometry": {
                "type": "LineString",
                "coordinates": [
                    [
                        80.16666666666632,
                        8.37499999999988
                    ],
                    [
                        80.1729166666664,
                        8.381249999999874
                    ]
                ]
            }
        },
        {
            "type": "Feature",
            "properties": {
                "HYRIV_ID": 41400117,
                "NEXT_DOWN": 41400052,
                "MAIN_RIV": 41399342,
                "LENGTH_KM": 1.96,
                "DIST_DN_KM": 51.5,
                "DIST_UP_KM": 11.5,
                "CATCH_SKM": 4.46,
                "UPLAND_SKM": 55.0,
                "ENDORHEIC": 0,
                "DIS_AV_CMS": 0.72,
                "ORD_STRA": 2,
                "ORD_CLAS": 2,
                "ORD_FLOW": 7,
                "HYBAS_L12": 4121156060.0,
                "Shape_Length": 0.017677669529557172
            },
            "geometry": {
                "type": "LineString",
                "coordinates": [
                    [
                        80.30624999999961,
                        8.372916666666562
                    ],
                    [
                        80.29374999999973,
                        8.385416666666536
                    ]
                ]
            }
        },
        {
            "type": "Feature",
            "properties": {
                "HYRIV_ID": 41400118,
                "NEXT_DOWN": 41400117,
                "MAIN_RIV": 41399342,
                "LENGTH_KM": 3.46,
                "DIST_DN_KM": 53.200001,
                "DIST_UP_KM": 6.9,
                "CATCH_SKM": 17.629999,
                "UPLAND_SKM": 17.6,
                "ENDORHEIC": 0,
                "DIS_AV_CMS": 0.229,
                "ORD_STRA": 1,
                "ORD_CLAS": 3,
                "ORD_FLOW": 7,
                "HYBAS_L12": 4121156060.0,
                "Shape_Length": 0.03139805794135815
            },
            "geometry": {
                "type": "LineString",
                "coordinates": [
                    [
                        80.333333333333,
                        8.383333333333205
                    ],
                    [
                        80.32708333333292,
                        8.37708333333321
                    ],
                    [
                        80.32291666666643,
                        8.37708333333321
                    ],
                    [
                        80.3187499999996,
                        8.372916666666562
                    ],
                    [
                        80.30624999999961,
                        8.372916666666562
                    ]
                ]
            }
        },
        {
            "type": "Feature",
            "properties": {
                "HYRIV_ID": 41400137,
                "NEXT_DOWN": 41399943,
                "MAIN_RIV": 41399342,
                "LENGTH_KM": 4.3600001,
                "DIST_DN_KM": 41.900002,
                "DIST_UP_KM": 11.0,
                "CATCH_SKM": 12.95,
                "UPLAND_SKM": 39.700001,
                "ENDORHEIC": 0,
                "DIS_AV_CMS": 0.46900001,
                "ORD_STRA": 2,
                "ORD_CLAS": 3,
                "ORD_FLOW": 7,
                "HYBAS_L12": 4121155930.0,
                "Shape_Length": 0.039225889843232345
            },
            "geometry": {
                "type": "LineString",
                "coordinates": [
                    [
                        80.11874999999966,
                        8.368749999999856
                    ],
                    [
                        80.11874999999966,
                        8.372916666666562
                    ],
                    [
                        80.12291666666633,
                        8.37708333333321
                    ],
                    [
                        80.12291666666633,
                        8.406249999999865
                    ]
                ]
            }
        },
        {
            "type": "Feature",
            "properties": {
                "HYRIV_ID": 41400160,
                "NEXT_DOWN": 41400137,
                "MAIN_RIV": 41399342,
                "LENGTH_KM": 0.98,
                "DIST_DN_KM": 46.5,
                "DIST_UP_KM": 6.3,
                "CATCH_SKM": 13.38,
                "UPLAND_SKM": 13.4,
                "ENDORHEIC": 0,
                "DIS_AV_CMS": 0.159,
                "ORD_STRA": 1,
                "ORD_CLAS": 4,
                "ORD_FLOW": 7,
                "HYBAS_L12": 4121155930.0,
                "Shape_Length": 0.008838834764763513
            },
            "geometry": {
                "type": "LineString",
                "coordinates": [
                    [
                        80.11249999999976,
                        8.362499999999862
                    ],
                    [
                        80.11874999999966,
                        8.368749999999856
                    ]
                ]
            }
        },
        {
            "type": "Feature",
            "properties": {
                "HYRIV_ID": 41400186,
                "NEXT_DOWN": 41400073,
                "MAIN_RIV": 41399342,
                "LENGTH_KM": 3.72,
                "DIST_DN_KM": 43.0,
                "DIST_UP_KM": 11.8,
                "CATCH_SKM": 15.5,
                "UPLAND_SKM": 52.5,
                "ENDORHEIC": 0,
                "DIS_AV_CMS": 0.653,
                "ORD_STRA": 2,
                "ORD_CLAS": 2,
                "ORD_FLOW": 7,
                "HYBAS_L12": 4121155930.0,
                "Shape_Length": 0.03362944921601212
            },
            "geometry": {
                "type": "LineString",
                "coordinates": [
                    [
                        80.19791666666632,
                        8.360416666666545
                    ],
                    [
                        80.17708333333294,
                        8.381249999999874
                    ],
                    [
                        80.1729166666664,
                        8.381249999999874
                    ]
                ]
            }
        },
        {
            "type": "Feature",
            "properties": {
                "HYRIV_ID": 41400187,
                "NEXT_DOWN": 41400186,
                "MAIN_RIV": 41399342,
                "LENGTH_KM": 0.69,
                "DIST_DN_KM": 46.700001,
                "DIST_UP_KM": 4.6,
                "CATCH_SKM": 10.19,
                "UPLAND_SKM": 10.2,
                "ENDORHEIC": 0,
                "DIS_AV_CMS": 0.127,
                "ORD_STRA": 1,
                "ORD_CLAS": 3,
                "ORD_FLOW": 7,
                "HYBAS_L12": 4121155930.0,
                "Shape_Length": 0.006250000000022737
            },
            "geometry": {
                "type": "LineString",
                "coordinates": [
                    [
                        80.20416666666634,
                        8.360416666666545
                    ],
                    [
                        80.19791666666632,
                        8.360416666666545
                    ]
                ]
            }
        },
        {
            "type": "Feature",
            "properties": {
                "HYRIV_ID": 41400188,
                "NEXT_DOWN": 41400117,
                "MAIN_RIV": 41399342,
                "LENGTH_KM": 1.77,
                "DIST_DN_KM": 53.200001,
                "DIST_UP_KM": 9.8,
                "CATCH_SKM": 3.82,
                "UPLAND_SKM": 32.900002,
                "ENDORHEIC": 0,
                "DIS_AV_CMS": 0.436,
                "ORD_STRA": 2,
                "ORD_CLAS": 2,
                "ORD_FLOW": 7,
                "HYBAS_L12": 4121156060.0,
                "Shape_Length": 0.01595177968654092
            },
            "geometry": {
                "type": "LineString",
                "coordinates": [
                    [
                        80.31458333333305,
                        8.360416666666545
                    ],
                    [
                        80.30624999999961,
                        8.368749999999856
                    ],
                    [
                        80.30624999999961,
                        8.372916666666562
                    ]
                ]
            }
        },
        {
            "type": "Feature",
            "properties": {
                "HYRIV_ID": 41400189,
                "NEXT_DOWN": 41400188,
                "MAIN_RIV": 41399342,
                "LENGTH_KM": 1.15,
                "DIST_DN_KM": 55.0,
                "DIST_UP_KM": 5.6,
                "CATCH_SKM": 12.32,
                "UPLAND_SKM": 12.3,
                "ENDORHEIC": 0,
                "DIS_AV_CMS": 0.163,
                "ORD_STRA": 1,
                "ORD_CLAS": 3,
                "ORD_FLOW": 7,
                "HYBAS_L12": 4121156060.0,
                "Shape_Length": 0.010416666666628771
            },
            "geometry": {
                "type": "LineString",
                "coordinates": [
                    [
                        80.32499999999968,
                        8.360416666666545
                    ],
                    [
                        80.31458333333305,
                        8.360416666666545
                    ]
                ]
            }
        },
        {
            "type": "Feature",
            "properties": {
                "HYRIV_ID": 41400212,
                "NEXT_DOWN": 41399922,
                "MAIN_RIV": 41399342,
                "LENGTH_KM": 7.1500001,
                "DIST_DN_KM": 45.3,
                "DIST_UP_KM": 33.599998,
                "CATCH_SKM": 21.66,
                "UPLAND_SKM": 190.5,
                "ENDORHEIC": 0,
                "DIS_AV_CMS": 2.5320001,
                "ORD_STRA": 3,
                "ORD_CLAS": 1,
                "ORD_FLOW": 6,
                "HYBAS_L12": 4121156070.0,
                "Shape_Length": 0.06452200572599148
            },
            "geometry": {
                "type": "LineString",
                "coordinates": [
                    [
                        80.2687499999997,
                        8.356249999999882
                    ],
                    [
                        80.27291666666636,
                        8.360416666666545
                    ],
                    [
                        80.27291666666636,
                        8.364583333333194
                    ],
                    [
                        80.2687499999997,
                        8.368749999999856
                    ],
                    [
                        80.2687499999997,
                        8.37708333333321
                    ],
                    [
                        80.26041666666632,
                        8.385416666666536
                    ],
                    [
                        80.26041666666632,
                        8.389583333333185
                    ],
                    [
                        80.25208333333299,
                        8.397916666666553
                    ],
                    [
                        80.25208333333299,
                        8.410416666666528
                    ]
                ]
            }
        },
        {
            "type": "Feature",
            "properties": {
                "HYRIV_ID": 41400237,
                "NEXT_DOWN": 41400137,
                "MAIN_RIV": 41399342,
                "LENGTH_KM": 2.46,
                "DIST_DN_KM": 46.5,
                "DIST_UP_KM": 6.5,
                "CATCH_SKM": 13.38,
                "UPLAND_SKM": 13.4,
                "ENDORHEIC": 0,
                "DIS_AV_CMS": 0.162,
                "ORD_STRA": 1,
                "ORD_CLAS": 3,
                "ORD_FLOW": 7,
                "HYBAS_L12": 4121155930.0,
                "Shape_Length": 0.02220177968645485
            },
            "geometry": {
                "type": "LineString",
                "coordinates": [
                    [
                        80.12708333333299,
                        8.349999999999845
                    ],
                    [
                        80.12708333333299,
                        8.360416666666545
                    ],
                    [
                        80.11874999999966,
                        8.368749999999856
                    ]
                ]
            }
        },
        {
            "type": "Feature",
            "properties": {
                "HYRIV_ID": 41400238,
                "NEXT_DOWN": 41400212,
                "MAIN_RIV": 41399342,
                "LENGTH_KM": 1.8,
                "DIST_DN_KM": 52.400002,
                "DIST_UP_KM": 7.1,
                "CATCH_SKM": 9.9799995,
                "UPLAND_SKM": 10.0,
                "ENDORHEIC": 0,
                "DIS_AV_CMS": 0.13,
                "ORD_STRA": 1,
                "ORD_CLAS": 2,
                "ORD_FLOW": 7,
                "HYBAS_L12": 4121156070.0,
                "Shape_Length": 0.016309223176541453
            },
            "geometry": {
                "type": "LineString",
                "coordinates": [
                    [
                        80.28333333333299,
                        8.352083333333177
                    ],
                    [
                        80.27708333333302,
                        8.352083333333177
                    ],
                    [
                        80.27291666666636,
                        8.356249999999882
                    ],
                    [
                        80.2687499999997,
                        8.356249999999882
                    ]
                ]
            }
        },
        {
            "type": "Feature",
            "properties": {
                "HYRIV_ID": 41400301,
                "NEXT_DOWN": 41400188,
                "MAIN_RIV": 41399342,
                "LENGTH_KM": 3.6700001,
                "DIST_DN_KM": 55.0,
                "DIST_UP_KM": 8.0,
                "CATCH_SKM": 16.780001,
                "UPLAND_SKM": 16.8,
                "ENDORHEIC": 0,
                "DIS_AV_CMS": 0.22400001,
                "ORD_STRA": 1,
                "ORD_CLAS": 2,
                "ORD_FLOW": 7,
                "HYBAS_L12": 4121156060.0,
                "Shape_Length": 0.033123947784563304
            },
            "geometry": {
                "type": "LineString",
                "coordinates": [
                    [
                        80.32916666666634,
                        8.333333333333222
                    ],
                    [
                        80.3187499999996,
                        8.343749999999865
                    ],
                    [
                        80.3187499999996,
                        8.352083333333177
                    ],
                    [
                        80.31458333333305,
                        8.356249999999882
                    ],
                    [
                        80.31458333333305,
                        8.360416666666545
                    ]
                ]
            }
        },
        {
            "type": "Feature",
            "properties": {
                "HYRIV_ID": 41400318,
                "NEXT_DOWN": 41400186,
                "MAIN_RIV": 41399342,
                "LENGTH_KM": 3.95,
                "DIST_DN_KM": 46.700001,
                "DIST_UP_KM": 8.1,
                "CATCH_SKM": 26.76,
                "UPLAND_SKM": 26.8,
                "ENDORHEIC": 0,
                "DIS_AV_CMS": 0.339,
                "ORD_STRA": 1,
                "ORD_CLAS": 2,
                "ORD_FLOW": 7,
                "HYBAS_L12": 4121155930.0,
                "Shape_Length": 0.03556472460808934
            },
            "geometry": {
                "type": "LineString",
                "coordinates": [
                    [
                        80.208333333333,
                        8.329166666666517
                    ],
                    [
                        80.19791666666632,
                        8.339583333333202
                    ],
                    [
                        80.19791666666632,
                        8.360416666666545
                    ]
                ]
            }
        },
        {
            "type": "Feature",
            "properties": {
                "HYRIV_ID": 41400346,
                "NEXT_DOWN": 41400212,
                "MAIN_RIV": 41399342,
                "LENGTH_KM": 3.81,
                "DIST_DN_KM": 52.400002,
                "DIST_UP_KM": 26.5,
                "CATCH_SKM": 15.29,
                "UPLAND_SKM": 158.89999,
                "ENDORHEIC": 0,
                "DIS_AV_CMS": 2.1559999,
                "ORD_STRA": 3,
                "ORD_CLAS": 1,
                "ORD_FLOW": 6,
                "HYBAS_L12": 4121156070.0,
                "Shape_Length": 0.034344336196347636
            },
            "geometry": {
                "type": "LineString",
                "coordinates": [
                    [
                        80.28124999999969,
                        8.327083333333185
                    ],
                    [
                        80.27291666666636,
                        8.33541666666654
                    ],
                    [
                        80.27291666666636,
                        8.339583333333202
                    ],
                    [
                        80.2687499999997,
                        8.343749999999865
                    ],
                    [
                        80.2687499999997,
                        8.356249999999882
                    ]
                ]
            }
        },
        {
            "type": "Feature",
            "properties": {
                "HYRIV_ID": 41400448,
                "NEXT_DOWN": 41400346,
                "MAIN_RIV": 41399342,
                "LENGTH_KM": 3.07,
                "DIST_DN_KM": 56.400002,
                "DIST_UP_KM": 9.6,
                "CATCH_SKM": 8.9200001,
                "UPLAND_SKM": 39.099998,
                "ENDORHEIC": 0,
                "DIS_AV_CMS": 0.51800001,
                "ORD_STRA": 2,
                "ORD_CLAS": 2,
                "ORD_FLOW": 7,
                "HYBAS_L12": 4121156070.0,
                "Shape_Length": 0.027736892706251595
            },
            "geometry": {
                "type": "LineString",
                "coordinates": [
                    [
                        80.26458333333298,
                        8.306249999999856
                    ],
                    [
                        80.26458333333298,
                        8.310416666666548
                    ],
                    [
                        80.28124999999969,
                        8.327083333333185
                    ]
                ]
            }
        },
        {
            "type": "Feature",
            "properties": {
                "HYRIV_ID": 41400465,
                "NEXT_DOWN": 41400346,
                "MAIN_RIV": 41399342,
                "LENGTH_KM": 3.53,
                "DIST_DN_KM": 56.400002,
                "DIST_UP_KM": 22.5,
                "CATCH_SKM": 8.9200001,
                "UPLAND_SKM": 104.5,
                "ENDORHEIC": 0,
                "DIS_AV_CMS": 1.452,
                "ORD_STRA": 2,
                "ORD_CLAS": 1,
                "ORD_FLOW": 6,
                "HYBAS_L12": 4121156070.0,
                "Shape_Length": 0.03190355937290615
            },
            "geometry": {
                "type": "LineString",
                "coordinates": [
                    [
                        80.2979166666664,
                        8.302083333333194
                    ],
                    [
                        80.2979166666664,
                        8.306249999999856
                    ],
                    [
                        80.29374999999973,
                        8.310416666666548
                    ],
                    [
                        80.29374999999973,
                        8.31458333333321
                    ],
                    [
                        80.28124999999969,
                        8.327083333333185
                    ]
                ]
            }
        },
        {
            "type": "Feature",
            "properties": {
                "HYRIV_ID": 41400503,
                "NEXT_DOWN": 41400448,
                "MAIN_RIV": 41399342,
                "LENGTH_KM": 2.09,
                "DIST_DN_KM": 59.5,
                "DIST_UP_KM": 5.6,
                "CATCH_SKM": 16.57,
                "UPLAND_SKM": 16.6,
                "ENDORHEIC": 0,
                "DIS_AV_CMS": 0.22,
                "ORD_STRA": 1,
                "ORD_CLAS": 3,
                "ORD_FLOW": 7,
                "HYBAS_L12": 4121156070.0,
                "Shape_Length": 0.018898057941379266
            },
            "geometry": {
                "type": "LineString",
                "coordinates": [
                    [
                        80.2541666666663,
                        8.29166666666655
                    ],
                    [
                        80.26041666666632,
                        8.29791666666653
                    ],
                    [
                        80.26041666666632,
                        8.302083333333194
                    ],
                    [
                        80.26458333333298,
                        8.306249999999856
                    ]
                ]
            }
        },
        {
            "type": "Feature",
            "properties": {
                "HYRIV_ID": 41400504,
                "NEXT_DOWN": 41400465,
                "MAIN_RIV": 41399342,
                "LENGTH_KM": 5.2,
                "DIST_DN_KM": 59.8,
                "DIST_UP_KM": 7.8,
                "CATCH_SKM": 21.030001,
                "UPLAND_SKM": 21.0,
                "ENDORHEIC": 0,
                "DIS_AV_CMS": 0.288,
                "ORD_STRA": 1,
                "ORD_CLAS": 2,
                "ORD_FLOW": 7,
                "HYBAS_L12": 4121156070.0,
                "Shape_Length": 0.047201779686411004
            },
            "geometry": {
                "type": "LineString",
                "coordinates": [
                    [
                        80.34166666666633,
                        8.293749999999882
                    ],
                    [
                        80.32708333333292,
                        8.293749999999882
                    ],
                    [
                        80.32291666666643,
                        8.29791666666653
                    ],
                    [
                        80.31041666666627,
                        8.29791666666653
                    ],
                    [
                        80.30624999999961,
                        8.302083333333194
                    ],
                    [
                        80.2979166666664,
                        8.302083333333194
                    ]
                ]
            }
        },
        {
            "type": "Feature",
            "properties": {
                "HYRIV_ID": 41400548,
                "NEXT_DOWN": 41400448,
                "MAIN_RIV": 41399342,
                "LENGTH_KM": 3.1900001,
                "DIST_DN_KM": 59.3,
                "DIST_UP_KM": 6.8,
                "CATCH_SKM": 13.6,
                "UPLAND_SKM": 13.6,
                "ENDORHEIC": 0,
                "DIS_AV_CMS": 0.183,
                "ORD_STRA": 1,
                "ORD_CLAS": 2,
                "ORD_FLOW": 7,
                "HYBAS_L12": 4121156070.0,
                "Shape_Length": 0.028809223176613625
            },
            "geometry": {
                "type": "LineString",
                "coordinates": [
                    [
                        80.27291666666636,
                        8.283333333333182
                    ],
                    [
                        80.27291666666636,
                        8.302083333333194
                    ],
                    [
                        80.2687499999997,
                        8.306249999999856
                    ],
                    [
                        80.26458333333298,
                        8.306249999999856
                    ]
                ]
            }
        },
        {
            "type": "Feature",
            "properties": {
                "HYRIV_ID": 41400562,
                "NEXT_DOWN": 41400465,
                "MAIN_RIV": 41399342,
                "LENGTH_KM": 2.8800001,
                "DIST_DN_KM": 59.8,
                "DIST_UP_KM": 19.1,
                "CATCH_SKM": 8.9200001,
                "UPLAND_SKM": 74.599998,
                "ENDORHEIC": 0,
                "DIS_AV_CMS": 1.052,
                "ORD_STRA": 2,
                "ORD_CLAS": 1,
                "ORD_FLOW": 6,
                "HYBAS_L12": 4121156070.0,
                "Shape_Length": 0.026011002862898862
            },
            "geometry": {
                "type": "LineString",
                "coordinates": [
                    [
                        80.31041666666627,
                        8.281249999999865
                    ],
                    [
                        80.2979166666664,
                        8.293749999999882
                    ],
                    [
                        80.2979166666664,
                        8.302083333333194
                    ]
                ]
            }
        },
        {
            "type": "Feature",
            "properties": {
                "HYRIV_ID": 41400574,
                "NEXT_DOWN": 41400562,
                "MAIN_RIV": 41399342,
                "LENGTH_KM": 1.15,
                "DIST_DN_KM": 62.700001,
                "DIST_UP_KM": 4.9,
                "CATCH_SKM": 8.29,
                "UPLAND_SKM": 8.3,
                "ENDORHEIC": 0,
                "DIS_AV_CMS": 0.114,
                "ORD_STRA": 1,
                "ORD_CLAS": 2,
                "ORD_FLOW": 7,
                "HYBAS_L12": 4121156070.0,
                "Shape_Length": 0.010416666666628771
            },
            "geometry": {
                "type": "LineString",
                "coordinates": [
                    [
                        80.3041666666663,
                        8.277083333333202
                    ],
                    [
                        80.31041666666627,
                        8.277083333333202
                    ],
                    [
                        80.31041666666627,
                        8.281249999999865
                    ]
                ]
            }
        },
        {
            "type": "Feature",
            "properties": {
                "HYRIV_ID": 41400606,
                "NEXT_DOWN": 41400562,
                "MAIN_RIV": 41399342,
                "LENGTH_KM": 1.96,
                "DIST_DN_KM": 62.900002,
                "DIST_UP_KM": 16.1,
                "CATCH_SKM": 5.7399998,
                "UPLAND_SKM": 57.400002,
                "ENDORHEIC": 0,
                "DIS_AV_CMS": 0.82,
                "ORD_STRA": 2,
                "ORD_CLAS": 1,
                "ORD_FLOW": 7,
                "HYBAS_L12": 4121156070.0,
                "Shape_Length": 0.017677669529758144
            },
            "geometry": {
                "type": "LineString",
                "coordinates": [
                    [
                        80.32291666666643,
                        8.26874999999989
                    ],
                    [
                        80.31041666666627,
                        8.281249999999865
                    ]
                ]
            }
        },
        {
            "type": "Feature",
            "properties": {
                "HYRIV_ID": 41400627,
                "NEXT_DOWN": 41400606,
                "MAIN_RIV": 41399342,
                "LENGTH_KM": 0.69,
                "DIST_DN_KM": 64.599998,
                "DIST_UP_KM": 5.0,
                "CATCH_SKM": 9.1300001,
                "UPLAND_SKM": 9.1,
                "ENDORHEIC": 0,
                "DIS_AV_CMS": 0.129,
                "ORD_STRA": 1,
                "ORD_CLAS": 2,
                "ORD_FLOW": 7,
                "HYBAS_L12": 4121156070.0,
                "Shape_Length": 0.006250000000036948
            },
            "geometry": {
                "type": "LineString",
                "coordinates": [
                    [
                        80.32291666666643,
                        8.262499999999854
                    ],
                    [
                        80.32291666666643,
                        8.26874999999989
                    ]
                ]
            }
        },
        {
            "type": "Feature",
            "properties": {
                "HYRIV_ID": 41400835,
                "NEXT_DOWN": 41400606,
                "MAIN_RIV": 41399342,
                "LENGTH_KM": 9.7,
                "DIST_DN_KM": 64.800003,
                "DIST_UP_KM": 14.1,
                "CATCH_SKM": 42.490002,
                "UPLAND_SKM": 42.5,
                "ENDORHEIC": 0,
                "DIS_AV_CMS": 0.61299998,
                "ORD_STRA": 1,
                "ORD_CLAS": 1,
                "ORD_FLOW": 7,
                "HYBAS_L12": 4121156070.0,
                "Shape_Length": 0.08773478827536205
            },
            "geometry": {
                "type": "LineString",
                "coordinates": [
                    [
                        80.38749999999962,
                        8.21874999999985
                    ],
                    [
                        80.38124999999965,
                        8.21874999999985
                    ],
                    [
                        80.36874999999966,
                        8.231249999999868
                    ],
                    [
                        80.36041666666628,
                        8.231249999999868
                    ],
                    [
                        80.35208333333296,
                        8.239583333333194
                    ],
                    [
                        80.3479166666663,
                        8.239583333333194
                    ],
                    [
                        80.3354166666663,
                        8.25208333333321
                    ],
                    [
                        80.3354166666663,
                        8.256249999999874
                    ],
                    [
                        80.32291666666643,
                        8.26874999999989
                    ]
                ]
            }
        }
    ]
}