{
    "type": "FeatureCollection",
    "features": [
        {
            "type": "Feature",
            "properties": {
                "HYRIV_ID": 41394319,
                "NEXT_DOWN": 0,
                "MAIN_RIV": 41394319,
                "LENGTH_KM": 12.71,
                "DIST_DN_KM": 0.0,
                "DIST_UP_KM": 51.200001,
                "CATCH_SKM": 52.310001,
                "UPLAND_SKM": 375.0,
                "ENDORHEIC": 0,
                "DIS_AV_CMS": 3.2679999,
                "ORD_STRA": 3,
                "ORD_CLAS": 1,
                "ORD_FLOW": 6,
                "HYBAS_L12": 4120049400.0,
                "Shape_Length": 0.114818121608721
            },
            "geometry": {
                "type": "LineString",
                "coordinates": [
                    [
                        80.2104166666663,
                        9.360416666666545
                    ],
                    [
                        80.2104166666663,
                        9.364583333333208
                    ],
                    [
                        80.20208333333298,
                        9.37291666666652
                    ],
                    [
                        80.20208333333298,
                        9.385416666666536
                    ],
                    [
                        80.18541666666627,
                        9.402083333333174
                    ],
                    [
                        80.18541666666627,
                        9.41458333333319
                    ],
                    [
                        80.18124999999972,
                        9.41874999999984
                    ],
                    [
                        80.18124999999972,
                        9.427083333333208
                    ],
                    [
                        80.17708333333294,
                        9.431249999999856
                    ],
                    [
                        80.1729166666664,
                        9.431249999999856
                    ],
                    [
                        80.16874999999962,
                        9.43541666666652
                    ],
                    [
                        80.16874999999962,
                        9.439583333333225
                    ],
                    [
                        80.16041666666635,
                        9.447916666666536
                    ],
                    [
                        80.15624999999969,
                        9.447916666666536
                    ]
                ]
            }
        },
        {
            "type": "Feature",
            "properties": {
                "HYRIV_ID": 41394378,
                "NEXT_DOWN": 41394319,
                "MAIN_RIV": 41394319,
                "LENGTH_KM": 2.22,
                "DIST_DN_KM": 12.9,
                "DIST_UP_KM": 17.9,
                "CATCH_SKM": 6.35,
                "UPLAND_SKM": 59.099998,
                "ENDORHEIC": 0,
                "DIS_AV_CMS": 0.61,
                "ORD_STRA": 2,
                "ORD_CLAS": 2,
                "ORD_FLOW": 7,
                "HYBAS_L12": 4120049400.0,
                "Shape_Length": 0.02011844635312097
            },
            "geometry": {
                "type": "LineString",
                "coordinates": [
                    [
                        80.22708333333296,
                        9.352083333333177
                    ],
                    [
                        80.2229166666663,
                        9.35624999999984
                    ],
                    [
                        80.21874999999963,
                        9.35624999999984
                    ],
                    [
                        80.21458333333297,
                        9.360416666666545
                    ],
                    [
                        80.2104166666663,
                        9.360416666666545
                    ]
                ]
            }
        },
        {
            "type": "Feature",
            "properties": {
                "HYRIV_ID": 41394379,
                "NEXT_DOWN": 41394378,
                "MAIN_RIV": 41394319,
                "LENGTH_KM": 1.14,
                "DIST_DN_KM": 15.2,
                "DIST_UP_KM": 6.3,
                "CATCH_SKM": 13.77,
                "UPLAND_SKM": 13.8,
                "ENDORHEIC": 0,
                "DIS_AV_CMS": 0.149,
                "ORD_STRA": 1,
                "ORD_CLAS": 3,
                "ORD_FLOW": 7,
                "HYBAS_L12": 4120049400.0,
                "Shape_Length": 0.010416666666742458
            },
            "geometry": {
                "type": "LineString",
                "coordinates": [
                    [
                        80.2374999999997,
                        9.352083333333177
                    ],
                    [
                        80.22708333333296,
                        9.352083333333177
                    ]
                ]
            }
        },
        {
            "type": "Feature",
            "properties": {
                "HYRIV_ID": 41394490,
                "NEXT_DOWN": 41394319,
                "MAIN_RIV": 41394319,
                "LENGTH_KM": 2.97,
                "DIST_DN_KM": 13.1,
                "DIST_UP_KM": 38.3,
                "CATCH_SKM": 10.59,
                "UPLAND_SKM": 264.0,
                "ENDORHEIC": 0,
                "DIS_AV_CMS": 2.395,
                "ORD_STRA": 2,
                "ORD_CLAS": 1,
                "ORD_FLOW": 6,
                "HYBAS_L12": 4120049400.0,
                "Shape_Length": 0.026725889843241278
            },
            "geometry": {
                "type": "LineString",
                "coordinates": [
                    [
                        80.20624999999964,
                        9.33541666666651
                    ],
                    [
                        80.20624999999964,
                        9.35624999999984
                    ],
                    [
                        80.2104166666663,
                        9.360416666666545
                    ]
                ]
            }
        },
        {
            "type": "Feature",
            "properties": {
                "HYRIV_ID": 41394563,
                "NEXT_DOWN": 41394564,
                "MAIN_RIV": 41394319,
                "LENGTH_KM": 4.6700001,
                "DIST_DN_KM": 17.4,
                "DIST_UP_KM": 8.3,
                "CATCH_SKM": 20.76,
                "UPLAND_SKM": 20.8,
                "ENDORHEIC": 0,
                "DIS_AV_CMS": 0.22,
                "ORD_STRA": 1,
                "ORD_CLAS": 2,
                "ORD_FLOW": 7,
                "HYBAS_L12": 4121599990.0,
                "Shape_Length": 0.04232022603960668
            },
            "geometry": {
                "type": "LineString",
                "coordinates": [
                    [
                        80.16874999999962,
                        9.34999999999986
                    ],
                    [
                        80.16874999999962,
                        9.343749999999865
                    ],
                    [
                        80.17708333333294,
                        9.33541666666651
                    ],
                    [
                        80.18124999999972,
                        9.33541666666651
                    ],
                    [
                        80.18541666666627,
                        9.331249999999848
                    ],
                    [
                        80.1937499999996,
                        9.331249999999848
                    ],
                    [
                        80.19791666666632,
                        9.327083333333185
                    ]
                ]
            }
        },
        {
            "type": "Feature",
            "properties": {
                "HYRIV_ID": 41394564,
                "NEXT_DOWN": 41394490,
                "MAIN_RIV": 41394319,
                "LENGTH_KM": 1.3,
                "DIST_DN_KM": 16.1,
                "DIST_UP_KM": 35.3,
                "CATCH_SKM": 2.33,
                "UPLAND_SKM": 239.39999,
                "ENDORHEIC": 0,
                "DIS_AV_CMS": 2.1960001,
                "ORD_STRA": 2,
                "ORD_CLAS": 1,
                "ORD_FLOW": 6,
                "HYBAS_L12": 4121599990.0,
                "Shape_Length": 0.011785113019765073
            },
            "geometry": {
                "type": "LineString",
                "coordinates": [
                    [
                        80.19791666666632,
                        9.327083333333185
                    ],
                    [
                        80.20624999999964,
                        9.33541666666651
                    ]
                ]
            }
        },
        {
            "type": "Feature",
            "properties": {
                "HYRIV_ID": 41394565,
                "NEXT_DOWN": 41394490,
                "MAIN_RIV": 41394319,
                "LENGTH_KM": 2.08,
                "DIST_DN_KM": 15.9,
                "DIST_UP_KM": 7.1,
                "CATCH_SKM": 13.98,
                "UPLAND_SKM": 14.0,
                "ENDORHEIC": 0,
                "DIS_AV_CMS": 0.146,
                "ORD_STRA": 1,
                "ORD_CLAS": 2,
                "ORD_FLOW": 7,
                "HYBAS_L12": 4121599990.0,
                "Shape_Length": 0.018898057941419463
            },
            "geometry": {
                "type": "LineString",
                "coordinates": [
                    [
                        80.22083333333305,
                        9.324999999999868
                    ],
                    [
                        80.2104166666663,
                        9.33541666666651
                    ],
                    [
                        80.20624999999964,
                        9.33541666666651
                    ]
                ]
            }
        },
        {
            "type": "Feature",
            "properties": {
                "HYRIV_ID": 41394828,
                "NEXT_DOWN": 41394378,
                "MAIN_RIV": 41394319,
                "LENGTH_KM": 9.4200001,
                "DIST_DN_KM": 15.2,
                "DIST_UP_KM": 15.7,
                "CATCH_SKM": 38.98,
                "UPLAND_SKM": 39.0,
                "ENDORHEIC": 0,
                "DIS_AV_CMS": 0.4,
                "ORD_STRA": 1,
                "ORD_CLAS": 2,
                "ORD_FLOW": 7,
                "HYBAS_L12": 4120049400.0,
                "Shape_Length": 0.08514595351060118
            },
            "geometry": {
                "type": "LineString",
                "coordinates": [
                    [
                        80.26249999999962,
                        9.287499999999845
                    ],
                    [
                        80.25208333333299,
                        9.297916666666545
                    ],
                    [
                        80.25208333333299,
                        9.306249999999856
                    ],
                    [
                        80.25624999999965,
                        9.31041666666652
                    ],
                    [
                        80.25208333333299,
                        9.314583333333168
                    ],
                    [
                        80.25208333333299,
                        9.318749999999831
                    ],
                    [
                        80.24374999999966,
                        9.327083333333185
                    ],
                    [
                        80.23958333333294,
                        9.327083333333185
                    ],
                    [
                        80.23541666666628,
                        9.331249999999848
                    ],
                    [
                        80.23541666666628,
                        9.339583333333202
                    ],
                    [
                        80.22708333333296,
                        9.347916666666528
                    ],
                    [
                        80.22708333333296,
                        9.352083333333177
                    ]
                ]
            }
        },
        {
            "type": "Feature",
            "properties": {
                "HYRIV_ID": 41394915,
                "NEXT_DOWN": 41394564,
                "MAIN_RIV": 41394319,
                "LENGTH_KM": 9.08,
                "DIST_DN_KM": 17.200001,
                "DIST_UP_KM": 34.200001,
                "CATCH_SKM": 27.33,
                "UPLAND_SKM": 216.3,
                "ENDORHEIC": 0,
                "DIS_AV_CMS": 1.97,
                "ORD_STRA": 2,
                "ORD_CLAS": 1,
                "ORD_FLOW": 6,
                "HYBAS_L12": 4121599990.0,
                "Shape_Length": 0.08219967525544888
            },
            "geometry": {
                "type": "LineString",
                "coordinates": [
                    [
                        80.2229166666663,
                        9.272916666666553
                    ],
                    [
                        80.21874999999963,
                        9.27708333333316
                    ],
                    [
                        80.21458333333297,
                        9.27708333333316
                    ],
                    [
                        80.2104166666663,
                        9.281249999999865
                    ],
                    [
                        80.20208333333298,
                        9.281249999999865
                    ],
                    [
                        80.1895833333331,
                        9.29374999999984
                    ],
                    [
                        80.1895833333331,
                        9.297916666666545
                    ],
                    [
                        80.20208333333298,
                        9.31041666666652
                    ],
                    [
                        80.20208333333298,
                        9.314583333333168
                    ],
                    [
                        80.19791666666632,
                        9.318749999999831
                    ],
                    [
                        80.19791666666632,
                        9.327083333333185
                    ]
                ]
            }
        },
        {
            "type": "Feature",
            "properties": {
                "HYRIV_ID": 41395069,
                "NEXT_DOWN": 41394915,
                "MAIN_RIV": 41394319,
                "LENGTH_KM": 6.46,
                "DIST_DN_KM": 26.3,
                "DIST_UP_KM": 25.200001,
                "CATCH_SKM": 14.62,
                "UPLAND_SKM": 103.0,
                "ENDORHEIC": 0,
                "DIS_AV_CMS": 0.991,
                "ORD_STRA": 2,
                "ORD_CLAS": 1,
                "ORD_FLOW": 7,
                "HYBAS_L12": 4121600070.0,
                "Shape_Length": 0.05862944921620011
            },
            "geometry": {
                "type": "LineString",
                "coordinates": [
                    [
                        80.27291666666636,
                        9.252083333333168
                    ],
                    [
                        80.2687499999997,
                        9.252083333333168
                    ],
                    [
                        80.25208333333299,
                        9.268749999999848
                    ],
                    [
                        80.23541666666628,
                        9.268749999999848
                    ],
                    [
                        80.23124999999962,
                        9.272916666666553
                    ],
                    [
                        80.2229166666663,
                        9.272916666666553
                    ]
                ]
            }
        },
        {
            "type": "Feature",
            "properties": {
                "HYRIV_ID": 41395232,
                "NEXT_DOWN": 41395069,
                "MAIN_RIV": 41394319,
                "LENGTH_KM": 4.4499998,
                "DIST_DN_KM": 32.700001,
                "DIST_UP_KM": 11.8,
                "CATCH_SKM": 9.75,
                "UPLAND_SKM": 33.5,
                "ENDORHEIC": 0,
                "DIS_AV_CMS": 0.336,
                "ORD_STRA": 2,
                "ORD_CLAS": 2,
                "ORD_FLOW": 7,
                "HYBAS_L12": 4121600070.0,
                "Shape_Length": 0.040236892706231896
            },
            "geometry": {
                "type": "LineString",
                "coordinates": [
                    [
                        80.2979166666664,
                        9.227083333333177
                    ],
                    [
                        80.29374999999973,
                        9.231249999999882
                    ],
                    [
                        80.28958333333301,
                        9.231249999999882
                    ],
                    [
                        80.28958333333301,
                        9.23541666666653
                    ],
                    [
                        80.28541666666635,
                        9.239583333333194
                    ],
                    [
                        80.28124999999969,
                        9.239583333333194
                    ],
                    [
                        80.27291666666636,
                        9.247916666666548
                    ],
                    [
                        80.27291666666636,
                        9.252083333333168
                    ]
                ]
            }
        },
        {
            "type": "Feature",
            "properties": {
                "HYRIV_ID": 41395233,
                "NEXT_DOWN": 41395232,
                "MAIN_RIV": 41394319,
                "LENGTH_KM": 1.14,
                "DIST_DN_KM": 37.200001,
                "DIST_UP_KM": 7.4,
                "CATCH_SKM": 11.44,
                "UPLAND_SKM": 11.4,
                "ENDORHEIC": 0,
                "DIS_AV_CMS": 0.118,
                "ORD_STRA": 1,
                "ORD_CLAS": 2,
                "ORD_FLOW": 7,
                "HYBAS_L12": 4121600070.0,
                "Shape_Length": 0.010416666666571928
            },
            "geometry": {
                "type": "LineString",
                "coordinates": [
                    [
                        80.30833333333297,
                        9.227083333333177
                    ],
                    [
                        80.2979166666664,
                        9.227083333333177
                    ]
                ]
            }
        },
        {
            "type": "Feature",
            "properties": {
                "HYRIV_ID": 41395260,
                "NEXT_DOWN": 41395232,
                "MAIN_RIV": 41394319,
                "LENGTH_KM": 0.98,
                "DIST_DN_KM": 37.400002,
                "DIST_UP_KM": 5.5,
                "CATCH_SKM": 12.29,
                "UPLAND_SKM": 12.3,
                "ENDORHEIC": 0,
                "DIS_AV_CMS": 0.126,
                "ORD_STRA": 1,
                "ORD_CLAS": 3,
                "ORD_FLOW": 7,
                "HYBAS_L12": 4121600070.0,
                "Shape_Length": 0.008838834764874048
            },
            "geometry": {
                "type": "LineString",
                "coordinates": [
                    [
                        80.29166666666632,
                        9.220833333333196
                    ],
                    [
                        80.2979166666664,
                        9.227083333333177
                    ]
                ]
            }
        },
        {
            "type": "Feature",
            "properties": {
                "HYRIV_ID": 41395556,
                "NEXT_DOWN": 41395069,
                "MAIN_RIV": 41394319,
                "LENGTH_KM": 14.57,
                "DIST_DN_KM": 32.700001,
                "DIST_UP_KM": 18.700001,
                "CATCH_SKM": 54.880001,
                "UPLAND_SKM": 54.900002,
                "ENDORHEIC": 0,
                "DIS_AV_CMS": 0.54799998,
                "ORD_STRA": 1,
                "ORD_CLAS": 1,
                "ORD_FLOW": 7,
                "HYBAS_L12": 4121600070.0,
                "Shape_Length": 0.13199028970691074
            },
            "geometry": {
                "type": "LineString",
                "coordinates": [
                    [
                        80.3624999999997,
                        9.179166666666525
                    ],
                    [
                        80.35208333333296,
                        9.189583333333168
                    ],
                    [
                        80.35208333333296,
                        9.193749999999874
                    ],
                    [
                        80.3354166666663,
                        9.210416666666497
                    ],
                    [
                        80.3354166666663,
                        9.218749999999865
                    ],
                    [
                        80.33124999999964,
                        9.222916666666514
                    ],
                    [
                        80.33124999999964,
                        9.227083333333177
                    ],
                    [
                        80.32291666666643,
                        9.23541666666653
                    ],
                    [
                        80.32291666666643,
                        9.239583333333194
                    ],
                    [
                        80.3187499999996,
                        9.243749999999856
                    ],
                    [
                        80.31458333333305,
                        9.243749999999856
                    ],
                    [
                        80.31041666666627,
                        9.247916666666548
                    ],
                    [
                        80.30208333333294,
                        9.247916666666548
                    ],
                    [
                        80.2979166666664,
                        9.252083333333168
                    ],
                    [
                        80.27291666666636,
                        9.252083333333168
                    ]
                ]
            }
        },
        {
            "type": "Feature",
            "properties": {
                "HYRIV_ID": 41395619,
                "NEXT_DOWN": 41394915,
                "MAIN_RIV": 41394319,
                "LENGTH_KM": 19.49,
                "DIST_DN_KM": 26.3,
                "DIST_UP_KM": 22.9,
                "CATCH_SKM": 86.029999,
                "UPLAND_SKM": 86.0,
                "ENDORHEIC": 0,
                "DIS_AV_CMS": 0.81900001,
                "ORD_STRA": 1,
                "ORD_CLAS": 2,
                "ORD_FLOW": 7,
                "HYBAS_L12": 4121600070.0,
                "Shape_Length": 0.17639384907991235
            },
            "geometry": {
                "type": "LineString",
                "coordinates": [
                    [
                        80.32916666666634,
                        9.1708333333332
                    ],
                    [
                        80.32291666666643,
                        9.177083333333194
                    ],
                    [
                        80.31041666666627,
                        9.177083333333194
                    ],
                    [
                        80.30624999999961,
                        9.17291666666653
                    ],
                    [
                        80.28958333333301,
                        9.17291666666653
                    ],
                    [
                        80.28124999999969,
                        9.181249999999856
                    ],
                    [
                        80.28124999999969,
                        9.185416666666505
                    ],
                    [
                        80.27708333333302,
                        9.185416666666505
                    ],
                    [
                        80.2687499999997,
                        9.193749999999874
                    ],
                    [
                        80.26458333333298,
                        9.193749999999874
                    ],
                    [
                        80.26041666666632,
                        9.197916666666522
                    ],
                    [
                        80.26041666666632,
                        9.202083333333185
                    ],
                    [
                        80.25208333333299,
                        9.210416666666497
                    ],
                    [
                        80.25208333333299,
                        9.218749999999865
                    ],
                    [
                        80.24791666666633,
                        9.222916666666514
                    ],
                    [
                        80.24791666666633,
                        9.23541666666653
                    ],
                    [
                        80.24374999999966,
                        9.239583333333194
                    ],
                    [
                        80.24374999999966,
                        9.243749999999856
                    ],
                    [
                        80.22708333333296,
                        9.260416666666536
                    ],
                    [
                        80.22708333333296,
                        9.264583333333185
                    ],
                    [
                        80.2229166666663,
                        9.268749999999848
                    ],
                    [
                        80.2229166666663,
                        9.272916666666553
                    ]
                ]
            }
        }
    ]
}