{
    "type": "FeatureCollection",
    "features": [
        {
            "type": "Feature",
            "properties": {
                "HYRIV_ID": 41393139,
                "NEXT_DOWN": 0,
                "MAIN_RIV": 41393139,
                "LENGTH_KM": 3.1,
                "DIST_DN_KM": 0.0,
                "DIST_UP_KM": 7.0,
                "CATCH_SKM": 19.049999,
                "UPLAND_SKM": 17.8,
                "ENDORHEIC": 0,
                "DIS_AV_CMS": 0.242,
                "ORD_STRA": 1,
                "ORD_CLAS": 1,
                "ORD_FLOW": 7,
                "HYBAS_L12": 4120050150.0,
                "Shape_Length": 0.02809433619632074
            },
            "geometry": {
                "type": "LineString",
                "coordinates": [
                    [
                        80.39374999999964,
                        9.549999999999834
                    ],
                    [
                        80.39374999999964,
                        9.543749999999854
                    ],
                    [
                        80.40624999999969,
                        9.53124999999988
                    ],
                    [
                        80.41041666666635,
                        9.53124999999988
                    ]
                ]
            }
        }
    ]
}