{
    "type": "FeatureCollection",
    "features": [
        {
            "type": "Feature",
            "properties": {
                "HYRIV_ID": 41397288,
                "NEXT_DOWN": 0,
                "MAIN_RIV": 41397288,
                "LENGTH_KM": 7.14,
                "DIST_DN_KM": 0.0,
                "DIST_UP_KM": 21.200001,
                "CATCH_SKM": 26.93,
                "UPLAND_SKM": 89.900002,
                "ENDORHEIC": 0,
                "DIS_AV_CMS": 1.341,
                "ORD_STRA": 2,
                "ORD_CLAS": 1,
                "ORD_FLOW": 6,
                "HYBAS_L12": 4120049550.0,
                "Shape_Length": 0.06452200572598044
            },
            "geometry": {
                "type": "LineString",
                "coordinates": [
                    [
                        80.87708333333299,
                        8.902083333333188
                    ],
                    [
                        80.88541666666632,
                        8.910416666666542
                    ],
                    [
                        80.88541666666632,
                        8.931249999999885
                    ],
                    [
                        80.88958333333292,
                        8.935416666666534
                    ],
                    [
                        80.89374999999964,
                        8.935416666666534
                    ],
                    [
                        80.90208333333297,
                        8.94374999999986
                    ],
                    [
                        80.90624999999963,
                        8.94374999999986
                    ],
                    [
                        80.9104166666663,
                        8.947916666666508
                    ]
                ]
            }
        },
        {
            "type": "Feature",
            "properties": {
                "HYRIV_ID": 41397370,
                "NEXT_DOWN": 41397288,
                "MAIN_RIV": 41397288,
                "LENGTH_KM": 4.4400001,
                "DIST_DN_KM": 7.3,
                "DIST_UP_KM": 14.3,
                "CATCH_SKM": 10.6,
                "UPLAND_SKM": 48.8,
                "ENDORHEIC": 0,
                "DIS_AV_CMS": 0.73,
                "ORD_STRA": 2,
                "ORD_CLAS": 1,
                "ORD_FLOW": 7,
                "HYBAS_L12": 4120049550.0,
                "Shape_Length": 0.04023689270633137
            },
            "geometry": {
                "type": "LineString",
                "coordinates": [
                    [
                        80.8479166666663,
                        8.88958333333317
                    ],
                    [
                        80.8479166666663,
                        8.893749999999876
                    ],
                    [
                        80.86041666666628,
                        8.906249999999893
                    ],
                    [
                        80.86874999999961,
                        8.906249999999893
                    ],
                    [
                        80.87291666666627,
                        8.902083333333188
                    ],
                    [
                        80.87708333333299,
                        8.902083333333188
                    ]
                ]
            }
        },
        {
            "type": "Feature",
            "properties": {
                "HYRIV_ID": 41397391,
                "NEXT_DOWN": 41397288,
                "MAIN_RIV": 41397288,
                "LENGTH_KM": 2.46,
                "DIST_DN_KM": 7.3,
                "DIST_UP_KM": 6.5,
                "CATCH_SKM": 14.42,
                "UPLAND_SKM": 14.4,
                "ENDORHEIC": 0,
                "DIS_AV_CMS": 0.218,
                "ORD_STRA": 1,
                "ORD_CLAS": 2,
                "ORD_FLOW": 7,
                "HYBAS_L12": 4120049550.0,
                "Shape_Length": 0.022201779686482556
            },
            "geometry": {
                "type": "LineString",
                "coordinates": [
                    [
                        80.86874999999961,
                        8.883333333333177
                    ],
                    [
                        80.86874999999961,
                        8.88958333333317
                    ],
                    [
                        80.87708333333299,
                        8.897916666666525
                    ],
                    [
                        80.87708333333299,
                        8.902083333333188
                    ]
                ]
            }
        },
        {
            "type": "Feature",
            "properties": {
                "HYRIV_ID": 41397479,
                "NEXT_DOWN": 41397370,
                "MAIN_RIV": 41397288,
                "LENGTH_KM": 5.5900002,
                "DIST_DN_KM": 11.7,
                "DIST_UP_KM": 9.8,
                "CATCH_SKM": 19.940001,
                "UPLAND_SKM": 19.9,
                "ENDORHEIC": 0,
                "DIS_AV_CMS": 0.29800001,
                "ORD_STRA": 1,
                "ORD_CLAS": 1,
                "ORD_FLOW": 7,
                "HYBAS_L12": 4120049550.0,
                "Shape_Length": 0.05065355937283124
            },
            "geometry": {
                "type": "LineString",
                "coordinates": [
                    [
                        80.81041666666633,
                        8.866666666666553
                    ],
                    [
                        80.81041666666633,
                        8.872916666666534
                    ],
                    [
                        80.81458333333305,
                        8.877083333333196
                    ],
                    [
                        80.81874999999971,
                        8.877083333333196
                    ],
                    [
                        80.82708333333292,
                        8.88541666666655
                    ],
                    [
                        80.83958333333308,
                        8.88541666666655
                    ],
                    [
                        80.84374999999974,
                        8.88958333333317
                    ],
                    [
                        80.8479166666663,
                        8.88958333333317
                    ]
                ]
            }
        },
        {
            "type": "Feature",
            "properties": {
                "HYRIV_ID": 41397528,
                "NEXT_DOWN": 41397370,
                "MAIN_RIV": 41397288,
                "LENGTH_KM": 4.5900002,
                "DIST_DN_KM": 11.7,
                "DIST_UP_KM": 7.8,
                "CATCH_SKM": 18.24,
                "UPLAND_SKM": 18.200001,
                "ENDORHEIC": 0,
                "DIS_AV_CMS": 0.27500001,
                "ORD_STRA": 1,
                "ORD_CLAS": 2,
                "ORD_FLOW": 7,
                "HYBAS_L12": 4120049550.0,
                "Shape_Length": 0.041457281117979194
            },
            "geometry": {
                "type": "LineString",
                "coordinates": [
                    [
                        80.82916666666628,
                        8.858333333333185
                    ],
                    [
                        80.83541666666625,
                        8.864583333333222
                    ],
                    [
                        80.83958333333308,
                        8.864583333333222
                    ],
                    [
                        80.8479166666663,
                        8.872916666666534
                    ],
                    [
                        80.8479166666663,
                        8.88958333333317
                    ]
                ]
            }
        }
    ]
}