{
    "type": "FeatureCollection",
    "features": [
        {
            "type": "Feature",
            "properties": {
                "HYRIV_ID": 41396934,
                "NEXT_DOWN": 0,
                "MAIN_RIV": 41396934,
                "LENGTH_KM": 1.35,
                "DIST_DN_KM": 0.0,
                "DIST_UP_KM": 5.3,
                "CATCH_SKM": 12.72,
                "UPLAND_SKM": 12.3,
                "ENDORHEIC": 0,
                "DIS_AV_CMS": 0.12,
                "ORD_STRA": 1,
                "ORD_CLAS": 1,
                "ORD_FLOW": 7,
                "HYBAS_L12": 4120049310.0,
                "Shape_Length": 0.012142556509876851
            },
            "geometry": {
                "type": "LineString",
                "coordinates": [
                    [
                        79.98541666666634,
                        8.962499999999856
                    ],
                    [
                        79.98541666666634,
                        8.96874999999985
                    ],
                    [
                        79.98124999999968,
                        8.972916666666514
                    ]
                ]
            }
        }
    ]
}