{
    "type": "FeatureCollection",
    "features": [
        {
            "type": "Feature",
            "properties": {
                "HYRIV_ID": 41398717,
                "NEXT_DOWN": 41398744,
                "MAIN_RIV": 41398769,
                "LENGTH_KM": 5.5500002,
                "DIST_DN_KM": 18.700001,
                "DIST_UP_KM": 20.8,
                "CATCH_SKM": 14.01,
                "UPLAND_SKM": 96.099998,
                "ENDORHEIC": 0,
                "DIS_AV_CMS": 0.91399997,
                "ORD_STRA": 2,
                "ORD_CLAS": 1,
                "ORD_FLOW": 7,
                "HYBAS_L12": 4120049280.0,
                "Shape_Length": 0.050296115882857706
            },
            "geometry": {
                "type": "LineString",
                "coordinates": [
                    [
                        80.11874999999966,
                        8.64791666666651
                    ],
                    [
                        80.114583333333,
                        8.652083333333216
                    ],
                    [
                        80.11041666666634,
                        8.64791666666651
                    ],
                    [
                        80.10624999999962,
                        8.652083333333216
                    ],
                    [
                        80.09374999999963,
                        8.652083333333216
                    ],
                    [
                        80.08958333333297,
                        8.65624999999988
                    ],
                    [
                        80.08124999999964,
                        8.65624999999988
                    ],
                    [
                        80.07708333333298,
                        8.652083333333216
                    ]
                ]
            }
        },
        {
            "type": "Feature",
            "properties": {
                "HYRIV_ID": 41398744,
                "NEXT_DOWN": 41398769,
                "MAIN_RIV": 41398769,
                "LENGTH_KM": 12.79,
                "DIST_DN_KM": 6.0,
                "DIST_UP_KM": 33.599998,
                "CATCH_SKM": 40.959999,
                "UPLAND_SKM": 161.10001,
                "ENDORHEIC": 0,
                "DIS_AV_CMS": 1.488,
                "ORD_STRA": 2,
                "ORD_CLAS": 1,
                "ORD_FLOW": 6,
                "HYBAS_L12": 4120049280.0,
                "Shape_Length": 0.11582912447190255
            },
            "geometry": {
                "type": "LineString",
                "coordinates": [
                    [
                        80.07708333333298,
                        8.652083333333216
                    ],
                    [
                        80.07291666666632,
                        8.65624999999988
                    ],
                    [
                        80.0687499999996,
                        8.65624999999988
                    ],
                    [
                        80.06458333333299,
                        8.660416666666542
                    ],
                    [
                        80.06041666666627,
                        8.660416666666542
                    ],
                    [
                        80.0479166666664,
                        8.67291666666656
                    ],
                    [
                        80.03958333333296,
                        8.67291666666656
                    ],
                    [
                        80.0354166666664,
                        8.668749999999854
                    ],
                    [
                        80.03124999999974,
                        8.67291666666656
                    ],
                    [
                        80.02708333333302,
                        8.67291666666656
                    ],
                    [
                        80.0187499999997,
                        8.66458333333319
                    ],
                    [
                        80.00624999999971,
                        8.66458333333319
                    ],
                    [
                        79.98541666666634,
                        8.643749999999862
                    ]
                ]
            }
        },
        {
            "type": "Feature",
            "properties": {
                "HYRIV_ID": 41398769,
                "NEXT_DOWN": 0,
                "MAIN_RIV": 41398769,
                "LENGTH_KM": 5.5500002,
                "DIST_DN_KM": 0.0,
                "DIST_UP_KM": 39.400002,
                "CATCH_SKM": 16.549999,
                "UPLAND_SKM": 218.60001,
                "ENDORHEIC": 0,
                "DIS_AV_CMS": 2.036,
                "ORD_STRA": 2,
                "ORD_CLAS": 1,
                "ORD_FLOW": 6,
                "HYBAS_L12": 4120049280.0,
                "Shape_Length": 0.0502961158828442
            },
            "geometry": {
                "type": "LineString",
                "coordinates": [
                    [
                        79.98541666666634,
                        8.643749999999862
                    ],
                    [
                        79.98124999999968,
                        8.643749999999862
                    ],
                    [
                        79.97708333333296,
                        8.6395833333332
                    ],
                    [
                        79.96458333333297,
                        8.6395833333332
                    ],
                    [
                        79.94791666666632,
                        8.65624999999988
                    ],
                    [
                        79.9437499999996,
                        8.65624999999988
                    ]
                ]
            }
        },
        {
            "type": "Feature",
            "properties": {
                "HYRIV_ID": 41398797,
                "NEXT_DOWN": 41398744,
                "MAIN_RIV": 41398769,
                "LENGTH_KM": 2.9200001,
                "DIST_DN_KM": 18.6,
                "DIST_UP_KM": 8.4,
                "CATCH_SKM": 23.98,
                "UPLAND_SKM": 24.0,
                "ENDORHEIC": 0,
                "DIS_AV_CMS": 0.233,
                "ORD_STRA": 1,
                "ORD_CLAS": 2,
                "ORD_FLOW": 7,
                "HYBAS_L12": 4120049280.0,
                "Shape_Length": 0.02636844635308514
            },
            "geometry": {
                "type": "LineString",
                "coordinates": [
                    [
                        80.09166666666627,
                        8.635416666666536
                    ],
                    [
                        80.0854166666663,
                        8.635416666666536
                    ],
                    [
                        80.07708333333298,
                        8.643749999999862
                    ],
                    [
                        80.07708333333298,
                        8.652083333333216
                    ]
                ]
            }
        },
        {
            "type": "Feature",
            "properties": {
                "HYRIV_ID": 41398844,
                "NEXT_DOWN": 41398717,
                "MAIN_RIV": 41398769,
                "LENGTH_KM": 3.21,
                "DIST_DN_KM": 24.1,
                "DIST_UP_KM": 7.2,
                "CATCH_SKM": 16.77,
                "UPLAND_SKM": 16.8,
                "ENDORHEIC": 0,
                "DIS_AV_CMS": 0.164,
                "ORD_STRA": 1,
                "ORD_CLAS": 2,
                "ORD_FLOW": 7,
                "HYBAS_L12": 4120049280.0,
                "Shape_Length": 0.028957281117900423
            },
            "geometry": {
                "type": "LineString",
                "coordinates": [
                    [
                        80.13333333333296,
                        8.62499999999985
                    ],
                    [
                        80.11874999999966,
                        8.6395833333332
                    ],
                    [
                        80.11874999999966,
                        8.64791666666651
                    ]
                ]
            }
        },
        {
            "type": "Feature",
            "properties": {
                "HYRIV_ID": 41398845,
                "NEXT_DOWN": 41398717,
                "MAIN_RIV": 41398769,
                "LENGTH_KM": 5.5500002,
                "DIST_DN_KM": 24.1,
                "DIST_UP_KM": 15.5,
                "CATCH_SKM": 26.1,
                "UPLAND_SKM": 65.400002,
                "ENDORHEIC": 0,
                "DIS_AV_CMS": 0.634,
                "ORD_STRA": 2,
                "ORD_CLAS": 1,
                "ORD_FLOW": 7,
                "HYBAS_L12": 4120049280.0,
                "Shape_Length": 0.050296115882793965
            },
            "geometry": {
                "type": "LineString",
                "coordinates": [
                    [
                        80.16041666666635,
                        8.627083333333182
                    ],
                    [
                        80.1437499999997,
                        8.643749999999862
                    ],
                    [
                        80.13124999999965,
                        8.643749999999862
                    ],
                    [
                        80.12708333333299,
                        8.64791666666651
                    ],
                    [
                        80.11874999999966,
                        8.64791666666651
                    ]
                ]
            }
        },
        {
            "type": "Feature",
            "properties": {
                "HYRIV_ID": 41398870,
                "NEXT_DOWN": 41398769,
                "MAIN_RIV": 41398769,
                "LENGTH_KM": 8.5299997,
                "DIST_DN_KM": 5.8,
                "DIST_UP_KM": 14.1,
                "CATCH_SKM": 41.169998,
                "UPLAND_SKM": 41.200001,
                "ENDORHEIC": 0,
                "DIS_AV_CMS": 0.396,
                "ORD_STRA": 1,
                "ORD_CLAS": 2,
                "ORD_FLOW": 7,
                "HYBAS_L12": 4120049280.0,
                "Shape_Length": 0.07737944921606764
            },
            "geometry": {
                "type": "LineString",
                "coordinates": [
                    [
                        80.04999999999964,
                        8.627083333333182
                    ],
                    [
                        80.03124999999974,
                        8.627083333333182
                    ],
                    [
                        80.02708333333302,
                        8.62291666666652
                    ],
                    [
                        80.02291666666636,
                        8.62291666666652
                    ],
                    [
                        80.0187499999997,
                        8.627083333333182
                    ],
                    [
                        80.01458333333304,
                        8.627083333333182
                    ],
                    [
                        80.01041666666637,
                        8.631249999999888
                    ],
                    [
                        79.99791666666633,
                        8.631249999999888
                    ],
                    [
                        79.99374999999966,
                        8.635416666666536
                    ],
                    [
                        79.99374999999966,
                        8.6395833333332
                    ],
                    [
                        79.989583333333,
                        8.643749999999862
                    ],
                    [
                        79.98541666666634,
                        8.643749999999862
                    ]
                ]
            }
        },
        {
            "type": "Feature",
            "properties": {
                "HYRIV_ID": 41398918,
                "NEXT_DOWN": 41398845,
                "MAIN_RIV": 41398769,
                "LENGTH_KM": 2.56,
                "DIST_DN_KM": 29.8,
                "DIST_UP_KM": 6.9,
                "CATCH_SKM": 17.620001,
                "UPLAND_SKM": 17.6,
                "ENDORHEIC": 0,
                "DIS_AV_CMS": 0.175,
                "ORD_STRA": 1,
                "ORD_CLAS": 2,
                "ORD_FLOW": 7,
                "HYBAS_L12": 4120049280.0,
                "Shape_Length": 0.023064724607997786
            },
            "geometry": {
                "type": "LineString",
                "coordinates": [
                    [
                        80.16249999999965,
                        8.608333333333213
                    ],
                    [
                        80.15624999999969,
                        8.614583333333208
                    ],
                    [
                        80.15624999999969,
                        8.62291666666652
                    ],
                    [
                        80.16041666666635,
                        8.627083333333182
                    ]
                ]
            }
        },
        {
            "type": "Feature",
            "properties": {
                "HYRIV_ID": 41399013,
                "NEXT_DOWN": 41398845,
                "MAIN_RIV": 41398769,
                "LENGTH_KM": 5.0700002,
                "DIST_DN_KM": 29.8,
                "DIST_UP_KM": 9.8,
                "CATCH_SKM": 21.65,
                "UPLAND_SKM": 21.6,
                "ENDORHEIC": 0,
                "DIS_AV_CMS": 0.217,
                "ORD_STRA": 1,
                "ORD_CLAS": 1,
                "ORD_FLOW": 7,
                "HYBAS_L12": 4120049280.0,
                "Shape_Length": 0.04577200572592054
            },
            "geometry": {
                "type": "LineString",
                "coordinates": [
                    [
                        80.18541666666627,
                        8.591666666666548
                    ],
                    [
                        80.18541666666627,
                        8.597916666666528
                    ],
                    [
                        80.18124999999972,
                        8.60208333333319
                    ],
                    [
                        80.18124999999972,
                        8.606249999999896
                    ],
                    [
                        80.16041666666635,
                        8.627083333333182
                    ]
                ]
            }
        }
    ]
}