{
    "type": "FeatureCollection",
    "features": [
        {
            "type": "Feature",
            "properties": {
                "HYRIV_ID": 41394650,
                "NEXT_DOWN": 0,
                "MAIN_RIV": 41394650,
                "LENGTH_KM": 13.04,
                "DIST_DN_KM": 0.0,
                "DIST_UP_KM": 17.6,
                "CATCH_SKM": 49.139999,
                "UPLAND_SKM": 48.900002,
                "ENDORHEIC": 0,
                "DIS_AV_CMS": 0.65399998,
                "ORD_STRA": 1,
                "ORD_CLAS": 1,
                "ORD_FLOW": 7,
                "HYBAS_L12": 4120049470.0,
                "Shape_Length": 0.11791245780514557
            },
            "geometry": {
                "type": "LineString",
                "coordinates": [
                    [
                        80.61041666666628,
                        9.31249999999985
                    ],
                    [
                        80.61041666666628,
                        9.322916666666536
                    ],
                    [
                        80.62291666666627,
                        9.33541666666651
                    ],
                    [
                        80.62291666666627,
                        9.343749999999865
                    ],
                    [
                        80.63541666666632,
                        9.35624999999984
                    ],
                    [
                        80.63541666666632,
                        9.360416666666545
                    ],
                    [
                        80.63958333333298,
                        9.360416666666545
                    ],
                    [
                        80.64374999999964,
                        9.364583333333208
                    ],
                    [
                        80.64374999999964,
                        9.368749999999856
                    ],
                    [
                        80.65208333333297,
                        9.377083333333182
                    ],
                    [
                        80.65624999999963,
                        9.377083333333182
                    ],
                    [
                        80.677083333333,
                        9.39791666666651
                    ]
                ]
            }
        }
    ]
}