{
    "type": "FeatureCollection",
    "features": [
        {
            "type": "Feature",
            "properties": {
                "HYRIV_ID": 41398524,
                "NEXT_DOWN": 0,
                "MAIN_RIV": 41398524,
                "LENGTH_KM": 20.09,
                "DIST_DN_KM": 0.0,
                "DIST_UP_KM": 24.4,
                "CATCH_SKM": 94.419998,
                "UPLAND_SKM": 90.199997,
                "ENDORHEIC": 0,
                "DIS_AV_CMS": 0.83,
                "ORD_STRA": 1,
                "ORD_CLAS": 1,
                "ORD_FLOW": 7,
                "HYBAS_L12": 4120049290.0,
                "Shape_Length": 0.18213834764847792
            },
            "geometry": {
                "type": "LineString",
                "coordinates": [
                    [
                        80.10833333333309,
                        8.7020833333332
                    ],
                    [
                        80.10208333333296,
                        8.7020833333332
                    ],
                    [
                        80.0979166666663,
                        8.69791666666655
                    ],
                    [
                        80.0979166666663,
                        8.693749999999888
                    ],
                    [
                        80.09374999999963,
                        8.689583333333182
                    ],
                    [
                        80.08124999999964,
                        8.689583333333182
                    ],
                    [
                        80.07291666666632,
                        8.69791666666655
                    ],
                    [
                        80.0687499999996,
                        8.69791666666655
                    ],
                    [
                        80.06458333333299,
                        8.7020833333332
                    ],
                    [
                        80.05208333333294,
                        8.7020833333332
                    ],
                    [
                        80.0479166666664,
                        8.69791666666655
                    ],
                    [
                        80.03124999999974,
                        8.69791666666655
                    ],
                    [
                        80.02708333333302,
                        8.693749999999888
                    ],
                    [
                        80.0187499999997,
                        8.693749999999888
                    ],
                    [
                        80.01458333333304,
                        8.69791666666655
                    ],
                    [
                        80.00624999999971,
                        8.69791666666655
                    ],
                    [
                        80.00208333333299,
                        8.7020833333332
                    ],
                    [
                        79.99791666666633,
                        8.7020833333332
                    ],
                    [
                        79.989583333333,
                        8.710416666666525
                    ],
                    [
                        79.97708333333296,
                        8.710416666666525
                    ],
                    [
                        79.9729166666663,
                        8.706249999999862
                    ],
                    [
                        79.96458333333297,
                        8.714583333333174
                    ],
                    [
                        79.96458333333297,
                        8.71874999999988
                    ],
                    [
                        79.9604166666663,
                        8.722916666666542
                    ]
                ]
            }
        }
    ]
}