{
    "type": "FeatureCollection",
    "features": [
        {
            "type": "Feature",
            "properties": {
                "HYRIV_ID": 41394027,
                "NEXT_DOWN": 0,
                "MAIN_RIV": 41394027,
                "LENGTH_KM": 4.4899998,
                "DIST_DN_KM": 0.0,
                "DIST_UP_KM": 10.7,
                "CATCH_SKM": 18.209999,
                "UPLAND_SKM": 18.0,
                "ENDORHEIC": 0,
                "DIS_AV_CMS": 0.195,
                "ORD_STRA": 1,
                "ORD_CLAS": 1,
                "ORD_FLOW": 7,
                "HYBAS_L12": 4120049390.0,
                "Shape_Length": 0.04059433619635373
            },
            "geometry": {
                "type": "LineString",
                "coordinates": [
                    [
                        80.14999999999966,
                        9.402083333333174
                    ],
                    [
                        80.13958333333304,
                        9.402083333333174
                    ],
                    [
                        80.13124999999965,
                        9.410416666666528
                    ],
                    [
                        80.13124999999965,
                        9.41874999999984
                    ],
                    [
                        80.12708333333299,
                        9.422916666666502
                    ],
                    [
                        80.12708333333299,
                        9.427083333333208
                    ]
                ]
            }
        }
    ]
}