{
    "type": "FeatureCollection",
    "features": [
        {
            "type": "Feature",
            "properties": {
                "HYRIV_ID": 41396012,
                "NEXT_DOWN": 0,
                "MAIN_RIV": 41396012,
                "LENGTH_KM": 9.3400002,
                "DIST_DN_KM": 0.0,
                "DIST_UP_KM": 19.5,
                "CATCH_SKM": 27.98,
                "UPLAND_SKM": 75.0,
                "ENDORHEIC": 0,
                "DIS_AV_CMS": 0.67500001,
                "ORD_STRA": 2,
                "ORD_CLAS": 1,
                "ORD_FLOW": 7,
                "HYBAS_L12": 4120049370.0,
                "Shape_Length": 0.08464045207912911
            },
            "geometry": {
                "type": "LineString",
                "coordinates": [
                    [
                        80.14791666666636,
                        9.106249999999868
                    ],
                    [
                        80.1437499999997,
                        9.11041666666653
                    ],
                    [
                        80.13958333333304,
                        9.11041666666653
                    ],
                    [
                        80.13541666666637,
                        9.114583333333194
                    ],
                    [
                        80.13541666666637,
                        9.118749999999842
                    ],
                    [
                        80.12708333333299,
                        9.12708333333321
                    ],
                    [
                        80.114583333333,
                        9.12708333333321
                    ],
                    [
                        80.11041666666634,
                        9.122916666666548
                    ],
                    [
                        80.0979166666663,
                        9.122916666666548
                    ],
                    [
                        80.08958333333297,
                        9.13124999999986
                    ],
                    [
                        80.08958333333297,
                        9.135416666666522
                    ],
                    [
                        80.0854166666663,
                        9.139583333333185
                    ]
                ]
            }
        },
        {
            "type": "Feature",
            "properties": {
                "HYRIV_ID": 41396035,
                "NEXT_DOWN": 41396012,
                "MAIN_RIV": 41396012,
                "LENGTH_KM": 4.6599998,
                "DIST_DN_KM": 9.5,
                "DIST_UP_KM": 10.4,
                "CATCH_SKM": 24.59,
                "UPLAND_SKM": 24.6,
                "ENDORHEIC": 0,
                "DIS_AV_CMS": 0.232,
                "ORD_STRA": 1,
                "ORD_CLAS": 1,
                "ORD_FLOW": 7,
                "HYBAS_L12": 4120049370.0,
                "Shape_Length": 0.04232022603953117
            },
            "geometry": {
                "type": "LineString",
                "coordinates": [
                    [
                        80.18333333333297,
                        9.114583333333194
                    ],
                    [
                        80.17708333333294,
                        9.114583333333194
                    ],
                    [
                        80.1729166666664,
                        9.11041666666653
                    ],
                    [
                        80.16874999999962,
                        9.11041666666653
                    ],
                    [
                        80.16458333333307,
                        9.106249999999868
                    ],
                    [
                        80.16041666666635,
                        9.106249999999868
                    ],
                    [
                        80.15624999999969,
                        9.10208333333322
                    ],
                    [
                        80.15208333333302,
                        9.106249999999868
                    ],
                    [
                        80.14791666666636,
                        9.106249999999868
                    ]
                ]
            }
        },
        {
            "type": "Feature",
            "properties": {
                "HYRIV_ID": 41396145,
                "NEXT_DOWN": 41396012,
                "MAIN_RIV": 41396012,
                "LENGTH_KM": 3.02,
                "DIST_DN_KM": 9.5,
                "DIST_UP_KM": 10.1,
                "CATCH_SKM": 22.68,
                "UPLAND_SKM": 22.700001,
                "ENDORHEIC": 0,
                "DIS_AV_CMS": 0.213,
                "ORD_STRA": 1,
                "ORD_CLAS": 2,
                "ORD_FLOW": 7,
                "HYBAS_L12": 4120049370.0,
                "Shape_Length": 0.02723139127471923
            },
            "geometry": {
                "type": "LineString",
                "coordinates": [
                    [
                        80.15833333333299,
                        9.083333333333165
                    ],
                    [
                        80.15208333333302,
                        9.089583333333202
                    ],
                    [
                        80.15208333333302,
                        9.09374999999985
                    ],
                    [
                        80.14791666666636,
                        9.097916666666514
                    ],
                    [
                        80.14791666666636,
                        9.106249999999868
                    ]
                ]
            }
        }
    ]
}