{
    "type": "FeatureCollection",
    "features": [
        {
            "type": "Feature",
            "properties": {
                "HYRIV_ID": 41395814,
                "NEXT_DOWN": 0,
                "MAIN_RIV": 41395814,
                "LENGTH_KM": 16.379999,
                "DIST_DN_KM": 0.0,
                "DIST_UP_KM": 65.699997,
                "CATCH_SKM": 61.25,
                "UPLAND_SKM": 466.10001,
                "ENDORHEIC": 0,
                "DIS_AV_CMS": 3.698,
                "ORD_STRA": 2,
                "ORD_CLAS": 1,
                "ORD_FLOW": 6,
                "HYBAS_L12": 4120049380.0,
                "Shape_Length": 0.14886634192230616
            },
            "geometry": {
                "type": "LineString",
                "coordinates": [
                    [
                        80.22708333333296,
                        9.139583333333185
                    ],
                    [
                        80.2229166666663,
                        9.143749999999834
                    ],
                    [
                        80.2104166666663,
                        9.143749999999834
                    ],
                    [
                        80.20624999999964,
                        9.14791666666654
                    ],
                    [
                        80.16458333333307,
                        9.14791666666654
                    ],
                    [
                        80.16041666666635,
                        9.152083333333202
                    ],
                    [
                        80.15624999999969,
                        9.152083333333202
                    ],
                    [
                        80.15208333333302,
                        9.156249999999865
                    ],
                    [
                        80.14791666666636,
                        9.152083333333202
                    ],
                    [
                        80.1437499999997,
                        9.152083333333202
                    ],
                    [
                        80.13958333333304,
                        9.156249999999865
                    ],
                    [
                        80.13124999999965,
                        9.156249999999865
                    ],
                    [
                        80.12291666666633,
                        9.14791666666654
                    ],
                    [
                        80.0979166666663,
                        9.14791666666654
                    ],
                    [
                        80.09374999999963,
                        9.152083333333202
                    ]
                ]
            }
        },
        {
            "type": "Feature",
            "properties": {
                "HYRIV_ID": 41395815,
                "NEXT_DOWN": 41395814,
                "MAIN_RIV": 41395814,
                "LENGTH_KM": 1.9,
                "DIST_DN_KM": 16.5,
                "DIST_UP_KM": 6.2,
                "CATCH_SKM": 14.62,
                "UPLAND_SKM": 14.6,
                "ENDORHEIC": 0,
                "DIS_AV_CMS": 0.14300001,
                "ORD_STRA": 1,
                "ORD_CLAS": 2,
                "ORD_FLOW": 7,
                "HYBAS_L12": 4120049380.0,
                "Shape_Length": 0.017172168098225787
            },
            "geometry": {
                "type": "LineString",
                "coordinates": [
                    [
                        80.2374999999997,
                        9.14999999999987
                    ],
                    [
                        80.23124999999962,
                        9.143749999999834
                    ],
                    [
                        80.23124999999962,
                        9.139583333333185
                    ],
                    [
                        80.22708333333296,
                        9.139583333333185
                    ]
                ]
            }
        },
        {
            "type": "Feature",
            "properties": {
                "HYRIV_ID": 41395866,
                "NEXT_DOWN": 41395814,
                "MAIN_RIV": 41395814,
                "LENGTH_KM": 1.76,
                "DIST_DN_KM": 16.700001,
                "DIST_UP_KM": 49.400002,
                "CATCH_SKM": 4.2399998,
                "UPLAND_SKM": 390.5,
                "ENDORHEIC": 0,
                "DIS_AV_CMS": 3.5320001,
                "ORD_STRA": 2,
                "ORD_CLAS": 1,
                "ORD_FLOW": 6,
                "HYBAS_L12": 4120049380.0,
                "Shape_Length": 0.01595177968642795
            },
            "geometry": {
                "type": "LineString",
                "coordinates": [
                    [
                        80.23958333333294,
                        9.13124999999986
                    ],
                    [
                        80.23541666666628,
                        9.13124999999986
                    ],
                    [
                        80.22708333333296,
                        9.139583333333185
                    ]
                ]
            }
        },
        {
            "type": "Feature",
            "properties": {
                "HYRIV_ID": 41395923,
                "NEXT_DOWN": 41395866,
                "MAIN_RIV": 41395814,
                "LENGTH_KM": 3.98,
                "DIST_DN_KM": 18.5,
                "DIST_UP_KM": 47.599998,
                "CATCH_SKM": 16.110001,
                "UPLAND_SKM": 362.29999,
                "ENDORHEIC": 0,
                "DIS_AV_CMS": 3.31,
                "ORD_STRA": 2,
                "ORD_CLAS": 1,
                "ORD_FLOW": 6,
                "HYBAS_L12": 4120049380.0,
                "Shape_Length": 0.03607022603958912
            },
            "geometry": {
                "type": "LineString",
                "coordinates": [
                    [
                        80.2687499999997,
                        9.122916666666548
                    ],
                    [
                        80.26041666666632,
                        9.13124999999986
                    ],
                    [
                        80.25624999999965,
                        9.13124999999986
                    ],
                    [
                        80.25208333333299,
                        9.135416666666522
                    ],
                    [
                        80.24374999999966,
                        9.135416666666522
                    ],
                    [
                        80.23958333333294,
                        9.13124999999986
                    ]
                ]
            }
        },
        {
            "type": "Feature",
            "properties": {
                "HYRIV_ID": 41395924,
                "NEXT_DOWN": 41395923,
                "MAIN_RIV": 41395814,
                "LENGTH_KM": 3.57,
                "DIST_DN_KM": 22.4,
                "DIST_UP_KM": 7.6,
                "CATCH_SKM": 15.05,
                "UPLAND_SKM": 15.0,
                "ENDORHEIC": 0,
                "DIS_AV_CMS": 0.149,
                "ORD_STRA": 1,
                "ORD_CLAS": 2,
                "ORD_FLOW": 7,
                "HYBAS_L12": 4120049380.0,
                "Shape_Length": 0.032261002862986055
            },
            "geometry": {
                "type": "LineString",
                "coordinates": [
                    [
                        80.28541666666635,
                        9.145833333333208
                    ],
                    [
                        80.28541666666635,
                        9.139583333333185
                    ],
                    [
                        80.28124999999969,
                        9.135416666666522
                    ],
                    [
                        80.28124999999969,
                        9.13124999999986
                    ],
                    [
                        80.27708333333302,
                        9.12708333333321
                    ],
                    [
                        80.27291666666636,
                        9.12708333333321
                    ],
                    [
                        80.2687499999997,
                        9.122916666666548
                    ]
                ]
            }
        },
        {
            "type": "Feature",
            "properties": {
                "HYRIV_ID": 41396013,
                "NEXT_DOWN": 41395923,
                "MAIN_RIV": 41395814,
                "LENGTH_KM": 2.87,
                "DIST_DN_KM": 22.4,
                "DIST_UP_KM": 43.599998,
                "CATCH_SKM": 11.66,
                "UPLAND_SKM": 331.10001,
                "ENDORHEIC": 0,
                "DIS_AV_CMS": 3.1040001,
                "ORD_STRA": 2,
                "ORD_CLAS": 1,
                "ORD_FLOW": 6,
                "HYBAS_L12": 4120049380.0,
                "Shape_Length": 0.02601100286299346
            },
            "geometry": {
                "type": "LineString",
                "coordinates": [
                    [
                        80.28541666666635,
                        9.106249999999868
                    ],
                    [
                        80.28541666666635,
                        9.11041666666653
                    ],
                    [
                        80.28124999999969,
                        9.114583333333194
                    ],
                    [
                        80.27708333333302,
                        9.114583333333194
                    ],
                    [
                        80.2687499999997,
                        9.122916666666548
                    ]
                ]
            }
        },
        {
            "type": "Feature",
            "properties": {
                "HYRIV_ID": 41396014,
                "NEXT_DOWN": 41396013,
                "MAIN_RIV": 41395814,
                "LENGTH_KM": 3.46,
                "DIST_DN_KM": 25.1,
                "DIST_UP_KM": 8.2,
                "CATCH_SKM": 15.68,
                "UPLAND_SKM": 15.7,
                "ENDORHEIC": 0,
                "DIS_AV_CMS": 0.15700001,
                "ORD_STRA": 1,
                "ORD_CLAS": 2,
                "ORD_FLOW": 7,
                "HYBAS_L12": 4121600220.0,
                "Shape_Length": 0.03139805794130445
            },
            "geometry": {
                "type": "LineString",
                "coordinates": [
                    [
                        80.31249999999963,
                        9.116666666666525
                    ],
                    [
                        80.30624999999961,
                        9.11041666666653
                    ],
                    [
                        80.29374999999973,
                        9.11041666666653
                    ],
                    [
                        80.28958333333301,
                        9.106249999999868
                    ],
                    [
                        80.28541666666635,
                        9.106249999999868
                    ]
                ]
            }
        },
        {
            "type": "Feature",
            "properties": {
                "HYRIV_ID": 41396036,
                "NEXT_DOWN": 41395866,
                "MAIN_RIV": 41395814,
                "LENGTH_KM": 4.3200002,
                "DIST_DN_KM": 18.3,
                "DIST_UP_KM": 7.8,
                "CATCH_SKM": 23.950001,
                "UPLAND_SKM": 24.0,
                "ENDORHEIC": 0,
                "DIS_AV_CMS": 0.229,
                "ORD_STRA": 1,
                "ORD_CLAS": 2,
                "ORD_FLOW": 7,
                "HYBAS_L12": 4120049380.0,
                "Shape_Length": 0.039016504294471815
            },
            "geometry": {
                "type": "LineString",
                "coordinates": [
                    [
                        80.2374999999997,
                        9.099999999999888
                    ],
                    [
                        80.24374999999966,
                        9.106249999999868
                    ],
                    [
                        80.24374999999966,
                        9.11041666666653
                    ],
                    [
                        80.24791666666633,
                        9.114583333333194
                    ],
                    [
                        80.24791666666633,
                        9.118749999999842
                    ],
                    [
                        80.23958333333294,
                        9.12708333333321
                    ],
                    [
                        80.23958333333294,
                        9.13124999999986
                    ]
                ]
            }
        },
        {
            "type": "Feature",
            "properties": {
                "HYRIV_ID": 41396146,
                "NEXT_DOWN": 41396013,
                "MAIN_RIV": 41395814,
                "LENGTH_KM": 4.1700001,
                "DIST_DN_KM": 25.3,
                "DIST_UP_KM": 40.8,
                "CATCH_SKM": 14.2,
                "UPLAND_SKM": 303.79999,
                "ENDORHEIC": 0,
                "DIS_AV_CMS": 2.8989999,
                "ORD_STRA": 2,
                "ORD_CLAS": 1,
                "ORD_FLOW": 6,
                "HYBAS_L12": 4121600220.0,
                "Shape_Length": 0.037796115882835477
            },
            "geometry": {
                "type": "LineString",
                "coordinates": [
                    [
                        80.31458333333305,
                        9.085416666666497
                    ],
                    [
                        80.30624999999961,
                        9.09374999999985
                    ],
                    [
                        80.30208333333294,
                        9.09374999999985
                    ],
                    [
                        80.29374999999973,
                        9.10208333333322
                    ],
                    [
                        80.28958333333301,
                        9.10208333333322
                    ],
                    [
                        80.28541666666635,
                        9.106249999999868
                    ]
                ]
            }
        },
        {
            "type": "Feature",
            "properties": {
                "HYRIV_ID": 41396147,
                "NEXT_DOWN": 41396146,
                "MAIN_RIV": 41395814,
                "LENGTH_KM": 4.04,
                "DIST_DN_KM": 29.5,
                "DIST_UP_KM": 9.3,
                "CATCH_SKM": 16.74,
                "UPLAND_SKM": 16.700001,
                "ENDORHEIC": 0,
                "DIS_AV_CMS": 0.17,
                "ORD_STRA": 1,
                "ORD_CLAS": 2,
                "ORD_FLOW": 7,
                "HYBAS_L12": 4121600220.0,
                "Shape_Length": 0.03657572747104941
            },
            "geometry": {
                "type": "LineString",
                "coordinates": [
                    [
                        80.33749999999966,
                        9.112499999999862
                    ],
                    [
                        80.32708333333292,
                        9.10208333333322
                    ],
                    [
                        80.32708333333292,
                        9.097916666666514
                    ],
                    [
                        80.31458333333305,
                        9.085416666666497
                    ]
                ]
            }
        },
        {
            "type": "Feature",
            "properties": {
                "HYRIV_ID": 41396148,
                "NEXT_DOWN": 41396186,
                "MAIN_RIV": 41395814,
                "LENGTH_KM": 5.4200001,
                "DIST_DN_KM": 36.900002,
                "DIST_UP_KM": 8.6,
                "CATCH_SKM": 24.8,
                "UPLAND_SKM": 24.8,
                "ENDORHEIC": 0,
                "DIS_AV_CMS": 0.26,
                "ORD_STRA": 1,
                "ORD_CLAS": 2,
                "ORD_FLOW": 7,
                "HYBAS_L12": 4121600220.0,
                "Shape_Length": 0.048927669529653495
            },
            "geometry": {
                "type": "LineString",
                "coordinates": [
                    [
                        80.38958333333298,
                        9.124999999999837
                    ],
                    [
                        80.38958333333298,
                        9.11041666666653
                    ],
                    [
                        80.38541666666632,
                        9.106249999999868
                    ],
                    [
                        80.38541666666632,
                        9.09374999999985
                    ],
                    [
                        80.37708333333299,
                        9.085416666666497
                    ],
                    [
                        80.37291666666633,
                        9.085416666666497
                    ]
                ]
            }
        },
        {
            "type": "Feature",
            "properties": {
                "HYRIV_ID": 41396185,
                "NEXT_DOWN": 41396146,
                "MAIN_RIV": 41395814,
                "LENGTH_KM": 1.11,
                "DIST_DN_KM": 29.5,
                "DIST_UP_KM": 36.599998,
                "CATCH_SKM": 3.3900001,
                "UPLAND_SKM": 272.79999,
                "ENDORHEIC": 0,
                "DIS_AV_CMS": 2.674,
                "ORD_STRA": 2,
                "ORD_CLAS": 1,
                "ORD_FLOW": 6,
                "HYBAS_L12": 4121600220.0,
                "Shape_Length": 0.01005922317660541
            },
            "geometry": {
                "type": "LineString",
                "coordinates": [
                    [
                        80.32291666666643,
                        9.081249999999876
                    ],
                    [
                        80.3187499999996,
                        9.081249999999876
                    ],
                    [
                        80.31458333333305,
                        9.085416666666497
                    ]
                ]
            }
        },
        {
            "type": "Feature",
            "properties": {
                "HYRIV_ID": 41396186,
                "NEXT_DOWN": 41396185,
                "MAIN_RIV": 41395814,
                "LENGTH_KM": 6.46,
                "DIST_DN_KM": 30.6,
                "DIST_UP_KM": 35.5,
                "CATCH_SKM": 25.860001,
                "UPLAND_SKM": 246.60001,
                "ENDORHEIC": 0,
                "DIS_AV_CMS": 2.4319999,
                "ORD_STRA": 2,
                "ORD_CLAS": 1,
                "ORD_FLOW": 6,
                "HYBAS_L12": 4121600220.0,
                "Shape_Length": 0.05862944921603932
            },
            "geometry": {
                "type": "LineString",
                "coordinates": [
                    [
                        80.37291666666633,
                        9.085416666666497
                    ],
                    [
                        80.36458333333294,
                        9.09374999999985
                    ],
                    [
                        80.35208333333296,
                        9.09374999999985
                    ],
                    [
                        80.3479166666663,
                        9.089583333333202
                    ],
                    [
                        80.34374999999963,
                        9.089583333333202
                    ],
                    [
                        80.33958333333297,
                        9.085416666666497
                    ],
                    [
                        80.32708333333292,
                        9.085416666666497
                    ],
                    [
                        80.32291666666643,
                        9.081249999999876
                    ]
                ]
            }
        },
        {
            "type": "Feature",
            "properties": {
                "HYRIV_ID": 41396223,
                "NEXT_DOWN": 41396186,
                "MAIN_RIV": 41395814,
                "LENGTH_KM": 3.59,
                "DIST_DN_KM": 37.0,
                "DIST_UP_KM": 29.0,
                "CATCH_SKM": 17.379999,
                "UPLAND_SKM": 195.89999,
                "ENDORHEIC": 0,
                "DIS_AV_CMS": 2.0239999,
                "ORD_STRA": 2,
                "ORD_CLAS": 1,
                "ORD_FLOW": 6,
                "HYBAS_L12": 4121600220.0,
                "Shape_Length": 0.03261844635312625
            },
            "geometry": {
                "type": "LineString",
                "coordinates": [
                    [
                        80.40208333333302,
                        9.077083333333185
                    ],
                    [
                        80.38958333333298,
                        9.077083333333185
                    ],
                    [
                        80.38541666666632,
                        9.081249999999876
                    ],
                    [
                        80.37708333333299,
                        9.081249999999876
                    ],
                    [
                        80.37291666666633,
                        9.085416666666497
                    ]
                ]
            }
        },
        {
            "type": "Feature",
            "properties": {
                "HYRIV_ID": 41396260,
                "NEXT_DOWN": 41396223,
                "MAIN_RIV": 41395814,
                "LENGTH_KM": 0.65,
                "DIST_DN_KM": 40.599998,
                "DIST_UP_KM": 25.4,
                "CATCH_SKM": 1.7,
                "UPLAND_SKM": 159.89999,
                "ENDORHEIC": 0,
                "DIS_AV_CMS": 1.699,
                "ORD_STRA": 2,
                "ORD_CLAS": 1,
                "ORD_FLOW": 6,
                "HYBAS_L12": 4121600310.0,
                "Shape_Length": 0.0058925565098825365
            },
            "geometry": {
                "type": "LineString",
                "coordinates": [
                    [
                        80.40624999999969,
                        9.072916666666522
                    ],
                    [
                        80.40208333333302,
                        9.077083333333185
                    ]
                ]
            }
        },
        {
            "type": "Feature",
            "properties": {
                "HYRIV_ID": 41396261,
                "NEXT_DOWN": 41396260,
                "MAIN_RIV": 41395814,
                "LENGTH_KM": 0.98,
                "DIST_DN_KM": 41.3,
                "DIST_UP_KM": 4.9,
                "CATCH_SKM": 10.17,
                "UPLAND_SKM": 10.2,
                "ENDORHEIC": 0,
                "DIS_AV_CMS": 0.112,
                "ORD_STRA": 1,
                "ORD_CLAS": 2,
                "ORD_FLOW": 7,
                "HYBAS_L12": 4121600310.0,
                "Shape_Length": 0.008838834764753466
            },
            "geometry": {
                "type": "LineString",
                "coordinates": [
                    [
                        80.4124999999996,
                        9.079166666666502
                    ],
                    [
                        80.40624999999969,
                        9.072916666666522
                    ]
                ]
            }
        },
        {
            "type": "Feature",
            "properties": {
                "HYRIV_ID": 41396344,
                "NEXT_DOWN": 41396185,
                "MAIN_RIV": 41395814,
                "LENGTH_KM": 4.48,
                "DIST_DN_KM": 30.4,
                "DIST_UP_KM": 8.8,
                "CATCH_SKM": 22.889999,
                "UPLAND_SKM": 22.9,
                "ENDORHEIC": 0,
                "DIS_AV_CMS": 0.23100001,
                "ORD_STRA": 1,
                "ORD_CLAS": 2,
                "ORD_FLOW": 7,
                "HYBAS_L12": 4121600220.0,
                "Shape_Length": 0.0405943361962241
            },
            "geometry": {
                "type": "LineString",
                "coordinates": [
                    [
                        80.3479166666663,
                        9.058333333333174
                    ],
                    [
                        80.3479166666663,
                        9.06458333333321
                    ],
                    [
                        80.34374999999963,
                        9.06874999999986
                    ],
                    [
                        80.33958333333297,
                        9.06874999999986
                    ],
                    [
                        80.3354166666663,
                        9.072916666666522
                    ],
                    [
                        80.33124999999964,
                        9.072916666666522
                    ],
                    [
                        80.32708333333292,
                        9.077083333333185
                    ],
                    [
                        80.32708333333292,
                        9.081249999999876
                    ],
                    [
                        80.32291666666643,
                        9.081249999999876
                    ]
                ]
            }
        },
        {
            "type": "Feature",
            "properties": {
                "HYRIV_ID": 41396345,
                "NEXT_DOWN": 41396260,
                "MAIN_RIV": 41395814,
                "LENGTH_KM": 3.33,
                "DIST_DN_KM": 41.3,
                "DIST_UP_KM": 24.8,
                "CATCH_SKM": 7.4200001,
                "UPLAND_SKM": 148.0,
                "ENDORHEIC": 0,
                "DIS_AV_CMS": 1.575,
                "ORD_STRA": 2,
                "ORD_CLAS": 1,
                "ORD_FLOW": 6,
                "HYBAS_L12": 4121600310.0,
                "Shape_Length": 0.030177669529552698
            },
            "geometry": {
                "type": "LineString",
                "coordinates": [
                    [
                        80.43124999999961,
                        9.060416666666548
                    ],
                    [
                        80.4229166666664,
                        9.060416666666548
                    ],
                    [
                        80.41874999999968,
                        9.06458333333321
                    ],
                    [
                        80.41458333333301,
                        9.06458333333321
                    ],
                    [
                        80.40624999999969,
                        9.072916666666522
                    ]
                ]
            }
        },
        {
            "type": "Feature",
            "properties": {
                "HYRIV_ID": 41396346,
                "NEXT_DOWN": 41396345,
                "MAIN_RIV": 41395814,
                "LENGTH_KM": 0.69,
                "DIST_DN_KM": 44.400002,
                "DIST_UP_KM": 4.4,
                "CATCH_SKM": 10.6,
                "UPLAND_SKM": 10.6,
                "ENDORHEIC": 0,
                "DIS_AV_CMS": 0.119,
                "ORD_STRA": 1,
                "ORD_CLAS": 2,
                "ORD_FLOW": 7,
                "HYBAS_L12": 4121600310.0,
                "Shape_Length": 0.006250000000022737
            },
            "geometry": {
                "type": "LineString",
                "coordinates": [
                    [
                        80.43749999999963,
                        9.060416666666548
                    ],
                    [
                        80.43124999999961,
                        9.060416666666548
                    ]
                ]
            }
        },
        {
            "type": "Feature",
            "properties": {
                "HYRIV_ID": 41396397,
                "NEXT_DOWN": 41396223,
                "MAIN_RIV": 41395814,
                "LENGTH_KM": 3.2,
                "DIST_DN_KM": 40.400002,
                "DIST_UP_KM": 8.7,
                "CATCH_SKM": 18.66,
                "UPLAND_SKM": 18.700001,
                "ENDORHEIC": 0,
                "DIS_AV_CMS": 0.195,
                "ORD_STRA": 1,
                "ORD_CLAS": 2,
                "ORD_FLOW": 7,
                "HYBAS_L12": 4121600220.0,
                "Shape_Length": 0.02880922317654257
            },
            "geometry": {
                "type": "LineString",
                "coordinates": [
                    [
                        80.39791666666636,
                        9.049999999999862
                    ],
                    [
                        80.39791666666636,
                        9.06874999999986
                    ],
                    [
                        80.40208333333302,
                        9.072916666666522
                    ],
                    [
                        80.40208333333302,
                        9.077083333333185
                    ]
                ]
            }
        },
        {
            "type": "Feature",
            "properties": {
                "HYRIV_ID": 41396398,
                "NEXT_DOWN": 41396345,
                "MAIN_RIV": 41395814,
                "LENGTH_KM": 1.11,
                "DIST_DN_KM": 44.599998,
                "DIST_UP_KM": 21.5,
                "CATCH_SKM": 1.06,
                "UPLAND_SKM": 130.0,
                "ENDORHEIC": 0,
                "DIS_AV_CMS": 1.4119999,
                "ORD_STRA": 2,
                "ORD_CLAS": 1,
                "ORD_FLOW": 6,
                "HYBAS_L12": 4121600310.0,
                "Shape_Length": 0.010059223176575559
            },
            "geometry": {
                "type": "LineString",
                "coordinates": [
                    [
                        80.43541666666627,
                        9.05208333333318
                    ],
                    [
                        80.43541666666627,
                        9.056249999999842
                    ],
                    [
                        80.43124999999961,
                        9.060416666666548
                    ]
                ]
            }
        },
        {
            "type": "Feature",
            "properties": {
                "HYRIV_ID": 41396446,
                "NEXT_DOWN": 41396398,
                "MAIN_RIV": 41395814,
                "LENGTH_KM": 1.8,
                "DIST_DN_KM": 45.5,
                "DIST_UP_KM": 6.0,
                "CATCH_SKM": 12.08,
                "UPLAND_SKM": 12.1,
                "ENDORHEIC": 0,
                "DIS_AV_CMS": 0.13600001,
                "ORD_STRA": 1,
                "ORD_CLAS": 2,
                "ORD_FLOW": 7,
                "HYBAS_L12": 4121600310.0,
                "Shape_Length": 0.016309223176520643
            },
            "geometry": {
                "type": "LineString",
                "coordinates": [
                    [
                        80.44583333333296,
                        9.043749999999868
                    ],
                    [
                        80.43958333333305,
                        9.043749999999868
                    ],
                    [
                        80.43541666666627,
                        9.04791666666653
                    ],
                    [
                        80.43541666666627,
                        9.05208333333318
                    ]
                ]
            }
        },
        {
            "type": "Feature",
            "properties": {
                "HYRIV_ID": 41396614,
                "NEXT_DOWN": 41396398,
                "MAIN_RIV": 41395814,
                "LENGTH_KM": 4.83,
                "DIST_DN_KM": 45.700001,
                "DIST_UP_KM": 20.3,
                "CATCH_SKM": 18.02,
                "UPLAND_SKM": 116.8,
                "ENDORHEIC": 0,
                "DIS_AV_CMS": 1.275,
                "ORD_STRA": 2,
                "ORD_CLAS": 1,
                "ORD_FLOW": 6,
                "HYBAS_L12": 4121600310.0,
                "Shape_Length": 0.04368867239246853
            },
            "geometry": {
                "type": "LineString",
                "coordinates": [
                    [
                        80.4437499999996,
                        9.018749999999876
                    ],
                    [
                        80.43958333333305,
                        9.02291666666654
                    ],
                    [
                        80.43958333333305,
                        9.027083333333188
                    ],
                    [
                        80.43541666666627,
                        9.03124999999985
                    ],
                    [
                        80.43541666666627,
                        9.035416666666556
                    ],
                    [
                        80.42708333333306,
                        9.043749999999868
                    ],
                    [
                        80.43541666666627,
                        9.05208333333318
                    ]
                ]
            }
        },
        {
            "type": "Feature",
            "properties": {
                "HYRIV_ID": 41396666,
                "NEXT_DOWN": 41396614,
                "MAIN_RIV": 41395814,
                "LENGTH_KM": 1.3,
                "DIST_DN_KM": 50.599998,
                "DIST_UP_KM": 15.5,
                "CATCH_SKM": 1.48,
                "UPLAND_SKM": 84.599998,
                "ENDORHEIC": 0,
                "DIS_AV_CMS": 0.96,
                "ORD_STRA": 2,
                "ORD_CLAS": 1,
                "ORD_FLOW": 7,
                "HYBAS_L12": 4121600310.0,
                "Shape_Length": 0.011785113019755026
            },
            "geometry": {
                "type": "LineString",
                "coordinates": [
                    [
                        80.45208333333292,
                        9.010416666666565
                    ],
                    [
                        80.4437499999996,
                        9.018749999999876
                    ]
                ]
            }
        },
        {
            "type": "Feature",
            "properties": {
                "HYRIV_ID": 41396667,
                "NEXT_DOWN": 41396666,
                "MAIN_RIV": 41395814,
                "LENGTH_KM": 2.06,
                "DIST_DN_KM": 51.700001,
                "DIST_UP_KM": 5.3,
                "CATCH_SKM": 13.99,
                "UPLAND_SKM": 14.0,
                "ENDORHEIC": 0,
                "DIS_AV_CMS": 0.161,
                "ORD_STRA": 1,
                "ORD_CLAS": 2,
                "ORD_FLOW": 7,
                "HYBAS_L12": 4121600310.0,
                "Shape_Length": 0.018750000000068212
            },
            "geometry": {
                "type": "LineString",
                "coordinates": [
                    [
                        80.47083333333299,
                        9.010416666666565
                    ],
                    [
                        80.45208333333292,
                        9.010416666666565
                    ]
                ]
            }
        },
        {
            "type": "Feature",
            "properties": {
                "HYRIV_ID": 41396690,
                "NEXT_DOWN": 41396614,
                "MAIN_RIV": 41395814,
                "LENGTH_KM": 2.55,
                "DIST_DN_KM": 50.400002,
                "DIST_UP_KM": 7.1,
                "CATCH_SKM": 14.21,
                "UPLAND_SKM": 14.2,
                "ENDORHEIC": 0,
                "DIS_AV_CMS": 0.155,
                "ORD_STRA": 1,
                "ORD_CLAS": 2,
                "ORD_FLOW": 7,
                "HYBAS_L12": 4121600310.0,
                "Shape_Length": 0.02306472460807788
            },
            "geometry": {
                "type": "LineString",
                "coordinates": [
                    [
                        80.4291666666663,
                        9.004166666666528
                    ],
                    [
                        80.43541666666627,
                        9.010416666666565
                    ],
                    [
                        80.43958333333305,
                        9.010416666666565
                    ],
                    [
                        80.4437499999996,
                        9.01458333333317
                    ],
                    [
                        80.4437499999996,
                        9.018749999999876
                    ]
                ]
            }
        },
        {
            "type": "Feature",
            "properties": {
                "HYRIV_ID": 41396785,
                "NEXT_DOWN": 41396666,
                "MAIN_RIV": 41395814,
                "LENGTH_KM": 2.6900001,
                "DIST_DN_KM": 51.700001,
                "DIST_UP_KM": 14.4,
                "CATCH_SKM": 7.4200001,
                "UPLAND_SKM": 69.099998,
                "ENDORHEIC": 0,
                "DIS_AV_CMS": 0.79,
                "ORD_STRA": 2,
                "ORD_CLAS": 1,
                "ORD_FLOW": 7,
                "HYBAS_L12": 4121600310.0,
                "Shape_Length": 0.024285113019852464
            },
            "geometry": {
                "type": "LineString",
                "coordinates": [
                    [
                        80.4604166666663,
                        8.98958333333318
                    ],
                    [
                        80.4604166666663,
                        8.993749999999842
                    ],
                    [
                        80.45624999999964,
                        8.997916666666548
                    ],
                    [
                        80.45624999999964,
                        9.002083333333196
                    ],
                    [
                        80.45208333333292,
                        9.00624999999986
                    ],
                    [
                        80.45208333333292,
                        9.010416666666565
                    ]
                ]
            }
        },
        {
            "type": "Feature",
            "properties": {
                "HYRIV_ID": 41397054,
                "NEXT_DOWN": 41396785,
                "MAIN_RIV": 41395814,
                "LENGTH_KM": 5.9899998,
                "DIST_DN_KM": 54.400002,
                "DIST_UP_KM": 10.9,
                "CATCH_SKM": 23.959999,
                "UPLAND_SKM": 24.0,
                "ENDORHEIC": 0,
                "DIS_AV_CMS": 0.27200001,
                "ORD_STRA": 1,
                "ORD_CLAS": 2,
                "ORD_FLOW": 7,
                "HYBAS_L12": 4121600310.0,
                "Shape_Length": 0.05395728111794874
            },
            "geometry": {
                "type": "LineString",
                "coordinates": [
                    [
                        80.46666666666633,
                        8.941666666666528
                    ],
                    [
                        80.4604166666663,
                        8.947916666666508
                    ],
                    [
                        80.4604166666663,
                        8.956249999999876
                    ],
                    [
                        80.45624999999964,
                        8.96041666666654
                    ],
                    [
                        80.4604166666663,
                        8.964583333333188
                    ],
                    [
                        80.4604166666663,
                        8.98958333333318
                    ]
                ]
            }
        },
        {
            "type": "Feature",
            "properties": {
                "HYRIV_ID": 41397055,
                "NEXT_DOWN": 41396785,
                "MAIN_RIV": 41395814,
                "LENGTH_KM": 7.5700002,
                "DIST_DN_KM": 54.400002,
                "DIST_UP_KM": 11.7,
                "CATCH_SKM": 37.740002,
                "UPLAND_SKM": 37.700001,
                "ENDORHEIC": 0,
                "DIS_AV_CMS": 0.44400001,
                "ORD_STRA": 1,
                "ORD_CLAS": 1,
                "ORD_FLOW": 7,
                "HYBAS_L12": 4121600310.0,
                "Shape_Length": 0.06847928684400165
            },
            "geometry": {
                "type": "LineString",
                "coordinates": [
                    [
                        80.5041666666664,
                        8.941666666666528
                    ],
                    [
                        80.47708333333296,
                        8.96874999999985
                    ],
                    [
                        80.47708333333296,
                        8.977083333333205
                    ],
                    [
                        80.46458333333297,
                        8.98958333333318
                    ],
                    [
                        80.4604166666663,
                        8.98958333333318
                    ]
                ]
            }
        }
    ]
}