{
    "type": "FeatureCollection",
    "features": [
        {
            "type": "Feature",
            "properties": {
                "HYRIV_ID": 41394829,
                "NEXT_DOWN": 41394830,
                "MAIN_RIV": 41394878,
                "LENGTH_KM": 1.16,
                "DIST_DN_KM": 9.0,
                "DIST_UP_KM": 5.8,
                "CATCH_SKM": 9.3199997,
                "UPLAND_SKM": 9.3,
                "ENDORHEIC": 0,
                "DIS_AV_CMS": 0.131,
                "ORD_STRA": 1,
                "ORD_CLAS": 2,
                "ORD_FLOW": 7,
                "HYBAS_L12": 4121154240.0,
                "Shape_Length": 0.010416666666685614
            },
            "geometry": {
                "type": "LineString",
                "coordinates": [
                    [
                        80.73958333333294,
                        9.299999999999862
                    ],
                    [
                        80.73958333333294,
                        9.289583333333177
                    ]
                ]
            }
        },
        {
            "type": "Feature",
            "properties": {
                "HYRIV_ID": 41394830,
                "NEXT_DOWN": 41394877,
                "MAIN_RIV": 41394878,
                "LENGTH_KM": 4.12,
                "DIST_DN_KM": 4.9,
                "DIST_UP_KM": 54.5,
                "CATCH_SKM": 14.19,
                "UPLAND_SKM": 425.29999,
                "ENDORHEIC": 0,
                "DIS_AV_CMS": 5.3660002,
                "ORD_STRA": 3,
                "ORD_CLAS": 1,
                "ORD_FLOW": 6,
                "HYBAS_L12": 4121154240.0,
                "Shape_Length": 0.03750000000002274
            },
            "geometry": {
                "type": "LineString",
                "coordinates": [
                    [
                        80.73958333333294,
                        9.289583333333177
                    ],
                    [
                        80.77708333333297,
                        9.289583333333177
                    ]
                ]
            }
        },
        {
            "type": "Feature",
            "properties": {
                "HYRIV_ID": 41394831,
                "NEXT_DOWN": 41394877,
                "MAIN_RIV": 41394878,
                "LENGTH_KM": 2.74,
                "DIST_DN_KM": 4.9,
                "DIST_UP_KM": 6.7,
                "CATCH_SKM": 14.4,
                "UPLAND_SKM": 14.4,
                "ENDORHEIC": 0,
                "DIS_AV_CMS": 0.204,
                "ORD_STRA": 1,
                "ORD_CLAS": 2,
                "ORD_FLOW": 7,
                "HYBAS_L12": 4121154240.0,
                "Shape_Length": 0.02479061445121156
            },
            "geometry": {
                "type": "LineString",
                "coordinates": [
                    [
                        80.76249999999973,
                        9.308333333333188
                    ],
                    [
                        80.77708333333297,
                        9.29374999999984
                    ],
                    [
                        80.77708333333297,
                        9.289583333333177
                    ]
                ]
            }
        },
        {
            "type": "Feature",
            "properties": {
                "HYRIV_ID": 41394877,
                "NEXT_DOWN": 41394878,
                "MAIN_RIV": 41394878,
                "LENGTH_KM": 3.1300001,
                "DIST_DN_KM": 1.8,
                "DIST_UP_KM": 57.599998,
                "CATCH_SKM": 7.4200001,
                "UPLAND_SKM": 447.10001,
                "ENDORHEIC": 0,
                "DIS_AV_CMS": 5.6290002,
                "ORD_STRA": 3,
                "ORD_CLAS": 1,
                "ORD_FLOW": 6,
                "HYBAS_L12": 4121154240.0,
                "Shape_Length": 0.028451779686463376
            },
            "geometry": {
                "type": "LineString",
                "coordinates": [
                    [
                        80.77708333333297,
                        9.289583333333177
                    ],
                    [
                        80.78958333333301,
                        9.289583333333177
                    ],
                    [
                        80.79791666666634,
                        9.281249999999865
                    ],
                    [
                        80.802083333333,
                        9.281249999999865
                    ]
                ]
            }
        },
        {
            "type": "Feature",
            "properties": {
                "HYRIV_ID": 41394878,
                "NEXT_DOWN": 0,
                "MAIN_RIV": 41394878,
                "LENGTH_KM": 1.56,
                "DIST_DN_KM": 0.0,
                "DIST_UP_KM": 59.200001,
                "CATCH_SKM": 1.7,
                "UPLAND_SKM": 599.90002,
                "ENDORHEIC": 0,
                "DIS_AV_CMS": 7.7160001,
                "ORD_STRA": 3,
                "ORD_CLAS": 1,
                "ORD_FLOW": 6,
                "HYBAS_L12": 4120049500.0,
                "Shape_Length": 0.014225889843265133
            },
            "geometry": {
                "type": "LineString",
                "coordinates": [
                    [
                        80.802083333333,
                        9.281249999999865
                    ],
                    [
                        80.80624999999966,
                        9.281249999999865
                    ],
                    [
                        80.81041666666633,
                        9.285416666666528
                    ],
                    [
                        80.81458333333305,
                        9.285416666666528
                    ]
                ]
            }
        },
        {
            "type": "Feature",
            "properties": {
                "HYRIV_ID": 41395043,
                "NEXT_DOWN": 41394878,
                "MAIN_RIV": 41394878,
                "LENGTH_KM": 3.1500001,
                "DIST_DN_KM": 2.0,
                "DIST_UP_KM": 25.9,
                "CATCH_SKM": 9.7399998,
                "UPLAND_SKM": 151.3,
                "ENDORHEIC": 0,
                "DIS_AV_CMS": 2.099,
                "ORD_STRA": 2,
                "ORD_CLAS": 2,
                "ORD_FLOW": 6,
                "HYBAS_L12": 4121154260.0,
                "Shape_Length": 0.028451779686405818
            },
            "geometry": {
                "type": "LineString",
                "coordinates": [
                    [
                        80.802083333333,
                        9.256249999999874
                    ],
                    [
                        80.802083333333,
                        9.268749999999848
                    ],
                    [
                        80.79791666666634,
                        9.272916666666553
                    ],
                    [
                        80.79791666666634,
                        9.27708333333316
                    ],
                    [
                        80.802083333333,
                        9.281249999999865
                    ]
                ]
            }
        },
        {
            "type": "Feature",
            "properties": {
                "HYRIV_ID": 41395071,
                "NEXT_DOWN": 41395043,
                "MAIN_RIV": 41394878,
                "LENGTH_KM": 0.65,
                "DIST_DN_KM": 5.1,
                "DIST_UP_KM": 10.8,
                "CATCH_SKM": 0.21,
                "UPLAND_SKM": 46.8,
                "ENDORHEIC": 0,
                "DIS_AV_CMS": 0.66100001,
                "ORD_STRA": 2,
                "ORD_CLAS": 3,
                "ORD_FLOW": 7,
                "HYBAS_L12": 4121154260.0,
                "Shape_Length": 0.005892556509912683
            },
            "geometry": {
                "type": "LineString",
                "coordinates": [
                    [
                        80.79791666666634,
                        9.252083333333168
                    ],
                    [
                        80.802083333333,
                        9.256249999999874
                    ]
                ]
            }
        },
        {
            "type": "Feature",
            "properties": {
                "HYRIV_ID": 41395096,
                "NEXT_DOWN": 41395071,
                "MAIN_RIV": 41394878,
                "LENGTH_KM": 4.4699998,
                "DIST_DN_KM": 5.6,
                "DIST_UP_KM": 8.0,
                "CATCH_SKM": 14.83,
                "UPLAND_SKM": 14.8,
                "ENDORHEIC": 0,
                "DIS_AV_CMS": 0.21,
                "ORD_STRA": 1,
                "ORD_CLAS": 4,
                "ORD_FLOW": 7,
                "HYBAS_L12": 4121154260.0,
                "Shape_Length": 0.04059433619623486
            },
            "geometry": {
                "type": "LineString",
                "coordinates": [
                    [
                        80.76249999999973,
                        9.256249999999874
                    ],
                    [
                        80.76874999999964,
                        9.256249999999874
                    ],
                    [
                        80.7729166666663,
                        9.252083333333168
                    ],
                    [
                        80.77708333333297,
                        9.252083333333168
                    ],
                    [
                        80.78124999999963,
                        9.247916666666548
                    ],
                    [
                        80.78958333333301,
                        9.247916666666548
                    ],
                    [
                        80.79374999999968,
                        9.252083333333168
                    ],
                    [
                        80.79791666666634,
                        9.252083333333168
                    ]
                ]
            }
        },
        {
            "type": "Feature",
            "properties": {
                "HYRIV_ID": 41395153,
                "NEXT_DOWN": 41394830,
                "MAIN_RIV": 41394878,
                "LENGTH_KM": 8.0600004,
                "DIST_DN_KM": 9.2,
                "DIST_UP_KM": 50.200001,
                "CATCH_SKM": 38.349998,
                "UPLAND_SKM": 401.79999,
                "ENDORHEIC": 0,
                "DIS_AV_CMS": 5.1009998,
                "ORD_STRA": 3,
                "ORD_CLAS": 1,
                "ORD_FLOW": 6,
                "HYBAS_L12": 4121154240.0,
                "Shape_Length": 0.07285533905934222
            },
            "geometry": {
                "type": "LineString",
                "coordinates": [
                    [
                        80.70208333333292,
                        9.239583333333194
                    ],
                    [
                        80.70208333333292,
                        9.260416666666536
                    ],
                    [
                        80.71041666666642,
                        9.268749999999848
                    ],
                    [
                        80.71458333333308,
                        9.268749999999848
                    ],
                    [
                        80.71458333333308,
                        9.272916666666553
                    ],
                    [
                        80.72708333333296,
                        9.285416666666528
                    ],
                    [
                        80.73541666666628,
                        9.285416666666528
                    ],
                    [
                        80.73958333333294,
                        9.289583333333177
                    ]
                ]
            }
        },
        {
            "type": "Feature",
            "properties": {
                "HYRIV_ID": 41395154,
                "NEXT_DOWN": 41395153,
                "MAIN_RIV": 41394878,
                "LENGTH_KM": 1.14,
                "DIST_DN_KM": 17.1,
                "DIST_UP_KM": 5.6,
                "CATCH_SKM": 10.17,
                "UPLAND_SKM": 10.2,
                "ENDORHEIC": 0,
                "DIS_AV_CMS": 0.142,
                "ORD_STRA": 1,
                "ORD_CLAS": 2,
                "ORD_FLOW": 7,
                "HYBAS_L12": 4121154240.0,
                "Shape_Length": 0.010416666666742458
            },
            "geometry": {
                "type": "LineString",
                "coordinates": [
                    [
                        80.71249999999966,
                        9.239583333333194
                    ],
                    [
                        80.70208333333292,
                        9.239583333333194
                    ]
                ]
            }
        },
        {
            "type": "Feature",
            "properties": {
                "HYRIV_ID": 41395210,
                "NEXT_DOWN": 41395071,
                "MAIN_RIV": 41394878,
                "LENGTH_KM": 4.25,
                "DIST_DN_KM": 5.6,
                "DIST_UP_KM": 10.3,
                "CATCH_SKM": 8.4700003,
                "UPLAND_SKM": 31.8,
                "ENDORHEIC": 0,
                "DIS_AV_CMS": 0.449,
                "ORD_STRA": 2,
                "ORD_CLAS": 3,
                "ORD_FLOW": 7,
                "HYBAS_L12": 4121154260.0,
                "Shape_Length": 0.03851100286299458
            },
            "geometry": {
                "type": "LineString",
                "coordinates": [
                    [
                        80.7729166666663,
                        9.231249999999882
                    ],
                    [
                        80.77708333333297,
                        9.231249999999882
                    ],
                    [
                        80.78124999999963,
                        9.23541666666653
                    ],
                    [
                        80.78958333333301,
                        9.23541666666653
                    ],
                    [
                        80.79791666666634,
                        9.243749999999856
                    ],
                    [
                        80.79791666666634,
                        9.252083333333168
                    ]
                ]
            }
        },
        {
            "type": "Feature",
            "properties": {
                "HYRIV_ID": 41395234,
                "NEXT_DOWN": 41395210,
                "MAIN_RIV": 41394878,
                "LENGTH_KM": 1.79,
                "DIST_DN_KM": 9.9,
                "DIST_UP_KM": 4.9,
                "CATCH_SKM": 12.08,
                "UPLAND_SKM": 12.1,
                "ENDORHEIC": 0,
                "DIS_AV_CMS": 0.171,
                "ORD_STRA": 1,
                "ORD_CLAS": 4,
                "ORD_FLOW": 7,
                "HYBAS_L12": 4121154260.0,
                "Shape_Length": 0.016309223176541453
            },
            "geometry": {
                "type": "LineString",
                "coordinates": [
                    [
                        80.75833333333301,
                        9.227083333333177
                    ],
                    [
                        80.76458333333298,
                        9.227083333333177
                    ],
                    [
                        80.76874999999964,
                        9.231249999999882
                    ],
                    [
                        80.7729166666663,
                        9.231249999999882
                    ]
                ]
            }
        },
        {
            "type": "Feature",
            "properties": {
                "HYRIV_ID": 41395325,
                "NEXT_DOWN": 41395210,
                "MAIN_RIV": 41394878,
                "LENGTH_KM": 2.27,
                "DIST_DN_KM": 9.9,
                "DIST_UP_KM": 6.1,
                "CATCH_SKM": 11.23,
                "UPLAND_SKM": 11.2,
                "ENDORHEIC": 0,
                "DIS_AV_CMS": 0.16,
                "ORD_STRA": 1,
                "ORD_CLAS": 3,
                "ORD_FLOW": 7,
                "HYBAS_L12": 4121154260.0,
                "Shape_Length": 0.020475889843231027
            },
            "geometry": {
                "type": "LineString",
                "coordinates": [
                    [
                        80.76874999999964,
                        9.21249999999987
                    ],
                    [
                        80.76874999999964,
                        9.222916666666514
                    ],
                    [
                        80.7729166666663,
                        9.227083333333177
                    ],
                    [
                        80.7729166666663,
                        9.231249999999882
                    ]
                ]
            }
        },
        {
            "type": "Feature",
            "properties": {
                "HYRIV_ID": 41395356,
                "NEXT_DOWN": 41395153,
                "MAIN_RIV": 41394878,
                "LENGTH_KM": 4.4499998,
                "DIST_DN_KM": 17.3,
                "DIST_UP_KM": 42.099998,
                "CATCH_SKM": 22.040001,
                "UPLAND_SKM": 353.29999,
                "ENDORHEIC": 0,
                "DIS_AV_CMS": 4.5229998,
                "ORD_STRA": 3,
                "ORD_CLAS": 1,
                "ORD_FLOW": 6,
                "HYBAS_L12": 4121154240.0,
                "Shape_Length": 0.040236892706022306
            },
            "geometry": {
                "type": "LineString",
                "coordinates": [
                    [
                        80.68958333333305,
                        9.210416666666497
                    ],
                    [
                        80.6937499999996,
                        9.214583333333202
                    ],
                    [
                        80.6937499999996,
                        9.222916666666514
                    ],
                    [
                        80.68958333333305,
                        9.227083333333177
                    ],
                    [
                        80.68958333333305,
                        9.231249999999882
                    ],
                    [
                        80.6937499999996,
                        9.23541666666653
                    ],
                    [
                        80.69791666666637,
                        9.23541666666653
                    ],
                    [
                        80.70208333333292,
                        9.239583333333194
                    ]
                ]
            }
        },
        {
            "type": "Feature",
            "properties": {
                "HYRIV_ID": 41395357,
                "NEXT_DOWN": 41395356,
                "MAIN_RIV": 41394878,
                "LENGTH_KM": 0.69,
                "DIST_DN_KM": 21.5,
                "DIST_UP_KM": 6.1,
                "CATCH_SKM": 7.4200001,
                "UPLAND_SKM": 7.4,
                "ENDORHEIC": 0,
                "DIS_AV_CMS": 0.104,
                "ORD_STRA": 1,
                "ORD_CLAS": 2,
                "ORD_FLOW": 7,
                "HYBAS_L12": 4121154240.0,
                "Shape_Length": 0.0062499999999090505
            },
            "geometry": {
                "type": "LineString",
                "coordinates": [
                    [
                        80.69583333333296,
                        9.210416666666497
                    ],
                    [
                        80.68958333333305,
                        9.210416666666497
                    ]
                ]
            }
        },
        {
            "type": "Feature",
            "properties": {
                "HYRIV_ID": 41395385,
                "NEXT_DOWN": 41395356,
                "MAIN_RIV": 41394878,
                "LENGTH_KM": 0.46,
                "DIST_DN_KM": 21.5,
                "DIST_UP_KM": 37.900002,
                "CATCH_SKM": 7.21,
                "UPLAND_SKM": 323.79999,
                "ENDORHEIC": 0,
                "DIS_AV_CMS": 4.1620002,
                "ORD_STRA": 3,
                "ORD_CLAS": 1,
                "ORD_FLOW": 6,
                "HYBAS_L12": 4121154240.0,
                "Shape_Length": 0.004166666666606034
            },
            "geometry": {
                "type": "LineString",
                "coordinates": [
                    [
                        80.68958333333305,
                        9.20624999999989
                    ],
                    [
                        80.68958333333305,
                        9.210416666666497
                    ]
                ]
            }
        },
        {
            "type": "Feature",
            "properties": {
                "HYRIV_ID": 41395683,
                "NEXT_DOWN": 41395385,
                "MAIN_RIV": 41394878,
                "LENGTH_KM": 6.6799998,
                "DIST_DN_KM": 22.0,
                "DIST_UP_KM": 24.8,
                "CATCH_SKM": 20.77,
                "UPLAND_SKM": 117.2,
                "ENDORHEIC": 0,
                "DIS_AV_CMS": 1.557,
                "ORD_STRA": 2,
                "ORD_CLAS": 2,
                "ORD_FLOW": 6,
                "HYBAS_L12": 4121154410.0,
                "Shape_Length": 0.060355339059406266
            },
            "geometry": {
                "type": "LineString",
                "coordinates": [
                    [
                        80.66874999999968,
                        9.160416666666514
                    ],
                    [
                        80.66874999999968,
                        9.16458333333322
                    ],
                    [
                        80.677083333333,
                        9.17291666666653
                    ],
                    [
                        80.67291666666634,
                        9.177083333333194
                    ],
                    [
                        80.67291666666634,
                        9.185416666666505
                    ],
                    [
                        80.68124999999966,
                        9.193749999999874
                    ],
                    [
                        80.68124999999966,
                        9.197916666666522
                    ],
                    [
                        80.68541666666638,
                        9.197916666666522
                    ],
                    [
                        80.68958333333305,
                        9.202083333333185
                    ],
                    [
                        80.68958333333305,
                        9.20624999999989
                    ]
                ]
            }
        },
        {
            "type": "Feature",
            "properties": {
                "HYRIV_ID": 41395701,
                "NEXT_DOWN": 41395385,
                "MAIN_RIV": 41394878,
                "LENGTH_KM": 16.98,
                "DIST_DN_KM": 22.0,
                "DIST_UP_KM": 37.400002,
                "CATCH_SKM": 105.31,
                "UPLAND_SKM": 199.39999,
                "ENDORHEIC": 0,
                "DIS_AV_CMS": 2.5109999,
                "ORD_STRA": 2,
                "ORD_CLAS": 1,
                "ORD_FLOW": 6,
                "HYBAS_L12": 4121154380.0,
                "Shape_Length": 0.15404401145212002
            },
            "geometry": {
                "type": "LineString",
                "coordinates": [
                    [
                        80.57291666666637,
                        9.156249999999865
                    ],
                    [
                        80.57291666666637,
                        9.16458333333322
                    ],
                    [
                        80.57708333333292,
                        9.168749999999882
                    ],
                    [
                        80.57708333333292,
                        9.177083333333194
                    ],
                    [
                        80.59374999999963,
                        9.193749999999874
                    ],
                    [
                        80.61458333333294,
                        9.193749999999874
                    ],
                    [
                        80.62708333333299,
                        9.20624999999989
                    ],
                    [
                        80.6479166666663,
                        9.20624999999989
                    ],
                    [
                        80.65208333333297,
                        9.202083333333185
                    ],
                    [
                        80.65624999999963,
                        9.202083333333185
                    ],
                    [
                        80.66041666666635,
                        9.20624999999989
                    ],
                    [
                        80.66458333333301,
                        9.20624999999989
                    ],
                    [
                        80.66874999999968,
                        9.202083333333185
                    ],
                    [
                        80.67291666666634,
                        9.20624999999989
                    ],
                    [
                        80.68958333333305,
                        9.20624999999989
                    ]
                ]
            }
        },
        {
            "type": "Feature",
            "properties": {
                "HYRIV_ID": 41395702,
                "NEXT_DOWN": 41395683,
                "MAIN_RIV": 41394878,
                "LENGTH_KM": 2.25,
                "DIST_DN_KM": 28.9,
                "DIST_UP_KM": 7.1,
                "CATCH_SKM": 16.950001,
                "UPLAND_SKM": 17.0,
                "ENDORHEIC": 0,
                "DIS_AV_CMS": 0.228,
                "ORD_STRA": 1,
                "ORD_CLAS": 3,
                "ORD_FLOW": 7,
                "HYBAS_L12": 4121154410.0,
                "Shape_Length": 0.020475889843277823
            },
            "geometry": {
                "type": "LineString",
                "coordinates": [
                    [
                        80.64999999999961,
                        9.156249999999865
                    ],
                    [
                        80.66458333333301,
                        9.156249999999865
                    ],
                    [
                        80.66874999999968,
                        9.160416666666514
                    ]
                ]
            }
        },
        {
            "type": "Feature",
            "properties": {
                "HYRIV_ID": 41395722,
                "NEXT_DOWN": 41395043,
                "MAIN_RIV": 41394878,
                "LENGTH_KM": 19.18,
                "DIST_DN_KM": 5.1,
                "DIST_UP_KM": 22.8,
                "CATCH_SKM": 94.720001,
                "UPLAND_SKM": 94.699997,
                "ENDORHEIC": 0,
                "DIS_AV_CMS": 1.3150001,
                "ORD_STRA": 1,
                "ORD_CLAS": 2,
                "ORD_FLOW": 6,
                "HYBAS_L12": 4121154260.0,
                "Shape_Length": 0.17350889843218095
            },
            "geometry": {
                "type": "LineString",
                "coordinates": [
                    [
                        80.71666666666633,
                        9.152083333333202
                    ],
                    [
                        80.72708333333296,
                        9.152083333333202
                    ],
                    [
                        80.73124999999962,
                        9.156249999999865
                    ],
                    [
                        80.76874999999964,
                        9.156249999999865
                    ],
                    [
                        80.77708333333297,
                        9.16458333333322
                    ],
                    [
                        80.78124999999963,
                        9.16458333333322
                    ],
                    [
                        80.7854166666663,
                        9.168749999999882
                    ],
                    [
                        80.7854166666663,
                        9.17291666666653
                    ],
                    [
                        80.79791666666634,
                        9.185416666666505
                    ],
                    [
                        80.79791666666634,
                        9.189583333333168
                    ],
                    [
                        80.802083333333,
                        9.193749999999874
                    ],
                    [
                        80.802083333333,
                        9.210416666666497
                    ],
                    [
                        80.80624999999966,
                        9.214583333333202
                    ],
                    [
                        80.80624999999966,
                        9.252083333333168
                    ],
                    [
                        80.802083333333,
                        9.256249999999874
                    ]
                ]
            }
        },
        {
            "type": "Feature",
            "properties": {
                "HYRIV_ID": 41395782,
                "NEXT_DOWN": 41395701,
                "MAIN_RIV": 41394878,
                "LENGTH_KM": 2.28,
                "DIST_DN_KM": 39.200001,
                "DIST_UP_KM": 6.6,
                "CATCH_SKM": 15.26,
                "UPLAND_SKM": 15.3,
                "ENDORHEIC": 0,
                "DIS_AV_CMS": 0.192,
                "ORD_STRA": 1,
                "ORD_CLAS": 2,
                "ORD_FLOW": 7,
                "HYBAS_L12": 4121154380.0,
                "Shape_Length": 0.020623947784669267
            },
            "geometry": {
                "type": "LineString",
                "coordinates": [
                    [
                        80.55833333333297,
                        9.141666666666517
                    ],
                    [
                        80.57291666666637,
                        9.156249999999865
                    ]
                ]
            }
        },
        {
            "type": "Feature",
            "properties": {
                "HYRIV_ID": 41395898,
                "NEXT_DOWN": 41395683,
                "MAIN_RIV": 41394878,
                "LENGTH_KM": 4.64,
                "DIST_DN_KM": 28.9,
                "DIST_UP_KM": 17.9,
                "CATCH_SKM": 18.01,
                "UPLAND_SKM": 79.5,
                "ENDORHEIC": 0,
                "DIS_AV_CMS": 1.064,
                "ORD_STRA": 2,
                "ORD_CLAS": 2,
                "ORD_FLOW": 6,
                "HYBAS_L12": 4121154410.0,
                "Shape_Length": 0.0419627825494138
            },
            "geometry": {
                "type": "LineString",
                "coordinates": [
                    [
                        80.66458333333301,
                        9.12708333333321
                    ],
                    [
                        80.67291666666634,
                        9.135416666666522
                    ],
                    [
                        80.67291666666634,
                        9.139583333333185
                    ],
                    [
                        80.677083333333,
                        9.143749999999834
                    ],
                    [
                        80.677083333333,
                        9.152083333333202
                    ],
                    [
                        80.66874999999968,
                        9.160416666666514
                    ]
                ]
            }
        },
        {
            "type": "Feature",
            "properties": {
                "HYRIV_ID": 41395971,
                "NEXT_DOWN": 41395898,
                "MAIN_RIV": 41394878,
                "LENGTH_KM": 4.0100002,
                "DIST_DN_KM": 33.3,
                "DIST_UP_KM": 8.4,
                "CATCH_SKM": 31.16,
                "UPLAND_SKM": 31.200001,
                "ENDORHEIC": 0,
                "DIS_AV_CMS": 0.41600001,
                "ORD_STRA": 1,
                "ORD_CLAS": 3,
                "ORD_FLOW": 7,
                "HYBAS_L12": 4121154410.0,
                "Shape_Length": 0.03642766952962223
            },
            "geometry": {
                "type": "LineString",
                "coordinates": [
                    [
                        80.63333333333307,
                        9.114583333333194
                    ],
                    [
                        80.63958333333298,
                        9.114583333333194
                    ],
                    [
                        80.64374999999964,
                        9.118749999999842
                    ],
                    [
                        80.6479166666663,
                        9.118749999999842
                    ],
                    [
                        80.65624999999963,
                        9.12708333333321
                    ],
                    [
                        80.66458333333301,
                        9.12708333333321
                    ]
                ]
            }
        },
        {
            "type": "Feature",
            "properties": {
                "HYRIV_ID": 41396037,
                "NEXT_DOWN": 41395701,
                "MAIN_RIV": 41394878,
                "LENGTH_KM": 7.3400002,
                "DIST_DN_KM": 39.200001,
                "DIST_UP_KM": 20.200001,
                "CATCH_SKM": 29.67,
                "UPLAND_SKM": 78.900002,
                "ENDORHEIC": 0,
                "DIS_AV_CMS": 1.01,
                "ORD_STRA": 2,
                "ORD_CLAS": 1,
                "ORD_FLOW": 6,
                "HYBAS_L12": 4121154380.0,
                "Shape_Length": 0.06624789556913491
            },
            "geometry": {
                "type": "LineString",
                "coordinates": [
                    [
                        80.5854166666663,
                        9.10208333333322
                    ],
                    [
                        80.5854166666663,
                        9.106249999999868
                    ],
                    [
                        80.58958333333297,
                        9.11041666666653
                    ],
                    [
                        80.5854166666663,
                        9.114583333333194
                    ],
                    [
                        80.58958333333297,
                        9.118749999999842
                    ],
                    [
                        80.5854166666663,
                        9.122916666666548
                    ],
                    [
                        80.5854166666663,
                        9.135416666666522
                    ],
                    [
                        80.58124999999976,
                        9.139583333333185
                    ],
                    [
                        80.58124999999976,
                        9.14791666666654
                    ],
                    [
                        80.57291666666637,
                        9.156249999999865
                    ]
                ]
            }
        },
        {
            "type": "Feature",
            "properties": {
                "HYRIV_ID": 41396086,
                "NEXT_DOWN": 41396037,
                "MAIN_RIV": 41394878,
                "LENGTH_KM": 1.63,
                "DIST_DN_KM": 46.5,
                "DIST_UP_KM": 6.7,
                "CATCH_SKM": 14.41,
                "UPLAND_SKM": 14.4,
                "ENDORHEIC": 0,
                "DIS_AV_CMS": 0.189,
                "ORD_STRA": 1,
                "ORD_CLAS": 2,
                "ORD_FLOW": 7,
                "HYBAS_L12": 4121154380.0,
                "Shape_Length": 0.014731391274756585
            },
            "geometry": {
                "type": "LineString",
                "coordinates": [
                    [
                        80.59583333333299,
                        9.09166666666652
                    ],
                    [
                        80.5854166666663,
                        9.10208333333322
                    ]
                ]
            }
        },
        {
            "type": "Feature",
            "properties": {
                "HYRIV_ID": 41396262,
                "NEXT_DOWN": 41395898,
                "MAIN_RIV": 41394878,
                "LENGTH_KM": 8.21,
                "DIST_DN_KM": 33.5,
                "DIST_UP_KM": 13.3,
                "CATCH_SKM": 30.309999,
                "UPLAND_SKM": 30.3,
                "ENDORHEIC": 0,
                "DIS_AV_CMS": 0.408,
                "ORD_STRA": 1,
                "ORD_CLAS": 2,
                "ORD_FLOW": 7,
                "HYBAS_L12": 4121154410.0,
                "Shape_Length": 0.0742237854124511
            },
            "geometry": {
                "type": "LineString",
                "coordinates": [
                    [
                        80.64374999999964,
                        9.07083333333319
                    ],
                    [
                        80.64374999999964,
                        9.077083333333185
                    ],
                    [
                        80.6479166666663,
                        9.081249999999876
                    ],
                    [
                        80.65208333333297,
                        9.081249999999876
                    ],
                    [
                        80.66041666666635,
                        9.089583333333202
                    ],
                    [
                        80.66041666666635,
                        9.09374999999985
                    ],
                    [
                        80.67291666666634,
                        9.106249999999868
                    ],
                    [
                        80.67291666666634,
                        9.118749999999842
                    ],
                    [
                        80.66458333333301,
                        9.12708333333321
                    ]
                ]
            }
        },
        {
            "type": "Feature",
            "properties": {
                "HYRIV_ID": 41396571,
                "NEXT_DOWN": 41396037,
                "MAIN_RIV": 41394878,
                "LENGTH_KM": 10.26,
                "DIST_DN_KM": 46.5,
                "DIST_UP_KM": 12.9,
                "CATCH_SKM": 34.77,
                "UPLAND_SKM": 34.8,
                "ENDORHEIC": 0,
                "DIS_AV_CMS": 0.449,
                "ORD_STRA": 1,
                "ORD_CLAS": 1,
                "ORD_FLOW": 7,
                "HYBAS_L12": 4121154380.0,
                "Shape_Length": 0.09261634192261785
            },
            "geometry": {
                "type": "LineString",
                "coordinates": [
                    [
                        80.5979166666663,
                        9.02499999999987
                    ],
                    [
                        80.5979166666663,
                        9.03124999999985
                    ],
                    [
                        80.58958333333297,
                        9.039583333333205
                    ],
                    [
                        80.58958333333297,
                        9.043749999999868
                    ],
                    [
                        80.5854166666663,
                        9.04791666666653
                    ],
                    [
                        80.5854166666663,
                        9.056249999999842
                    ],
                    [
                        80.58124999999976,
                        9.060416666666548
                    ],
                    [
                        80.58124999999976,
                        9.072916666666522
                    ],
                    [
                        80.57708333333292,
                        9.077083333333185
                    ],
                    [
                        80.57708333333292,
                        9.081249999999876
                    ],
                    [
                        80.58124999999976,
                        9.085416666666497
                    ],
                    [
                        80.57708333333292,
                        9.089583333333202
                    ],
                    [
                        80.58124999999976,
                        9.09374999999985
                    ],
                    [
                        80.58124999999976,
                        9.097916666666514
                    ],
                    [
                        80.5854166666663,
                        9.10208333333322
                    ]
                ]
            }
        }
    ]
}