{
    "type": "FeatureCollection",
    "features": [
        {
            "type": "Feature",
            "properties": {
                "HYRIV_ID": 41407049,
                "NEXT_DOWN": 41407172,
                "MAIN_RIV": 41407432,
                "LENGTH_KM": 2.26,
                "DIST_DN_KM": 12.1,
                "DIST_UP_KM": 5.8,
                "CATCH_SKM": 10.45,
                "UPLAND_SKM": 10.4,
                "ENDORHEIC": 0,
                "DIS_AV_CMS": 0.155,
                "ORD_STRA": 1,
                "ORD_CLAS": 1,
                "ORD_FLOW": 7,
                "HYBAS_L12": 4120049970.0,
                "Shape_Length": 0.020475889843174184
            },
            "geometry": {
                "type": "LineString",
                "coordinates": [
                    [
                        81.66666666666632,
                        6.664583333333233
                    ],
                    [
                        81.68124999999961,
                        6.664583333333233
                    ],
                    [
                        81.68541666666627,
                        6.660416666666571
                    ]
                ]
            }
        },
        {
            "type": "Feature",
            "properties": {
                "HYRIV_ID": 41407050,
                "NEXT_DOWN": 41407172,
                "MAIN_RIV": 41407432,
                "LENGTH_KM": 2.27,
                "DIST_DN_KM": 11.9,
                "DIST_UP_KM": 5.7,
                "CATCH_SKM": 13.22,
                "UPLAND_SKM": 13.2,
                "ENDORHEIC": 0,
                "DIS_AV_CMS": 0.195,
                "ORD_STRA": 1,
                "ORD_CLAS": 2,
                "ORD_FLOW": 7,
                "HYBAS_L12": 4120049970.0,
                "Shape_Length": 0.020475889843216816
            },
            "geometry": {
                "type": "LineString",
                "coordinates": [
                    [
                        81.68124999999961,
                        6.679166666666568
                    ],
                    [
                        81.68124999999961,
                        6.672916666666545
                    ],
                    [
                        81.68541666666627,
                        6.668749999999882
                    ],
                    [
                        81.68541666666627,
                        6.660416666666571
                    ]
                ]
            }
        },
        {
            "type": "Feature",
            "properties": {
                "HYRIV_ID": 41407171,
                "NEXT_DOWN": 41407432,
                "MAIN_RIV": 41407432,
                "LENGTH_KM": 3.6400001,
                "DIST_DN_KM": 8.5,
                "DIST_UP_KM": 7.4,
                "CATCH_SKM": 25.370001,
                "UPLAND_SKM": 25.4,
                "ENDORHEIC": 0,
                "DIS_AV_CMS": 0.364,
                "ORD_STRA": 1,
                "ORD_CLAS": 2,
                "ORD_FLOW": 7,
                "HYBAS_L12": 4120049970.0,
                "Shape_Length": 0.03297588984320961
            },
            "geometry": {
                "type": "LineString",
                "coordinates": [
                    [
                        81.66666666666632,
                        6.639583333333228
                    ],
                    [
                        81.67291666666628,
                        6.639583333333228
                    ],
                    [
                        81.67708333333294,
                        6.635416666666579
                    ],
                    [
                        81.69791666666632,
                        6.635416666666579
                    ]
                ]
            }
        },
        {
            "type": "Feature",
            "properties": {
                "HYRIV_ID": 41407172,
                "NEXT_DOWN": 41407432,
                "MAIN_RIV": 41407432,
                "LENGTH_KM": 3.35,
                "DIST_DN_KM": 8.5,
                "DIST_UP_KM": 9.3,
                "CATCH_SKM": 13.01,
                "UPLAND_SKM": 36.700001,
                "ENDORHEIC": 0,
                "DIS_AV_CMS": 0.52899998,
                "ORD_STRA": 2,
                "ORD_CLAS": 1,
                "ORD_FLOW": 7,
                "HYBAS_L12": 4120049970.0,
                "Shape_Length": 0.030177669529690643
            },
            "geometry": {
                "type": "LineString",
                "coordinates": [
                    [
                        81.68541666666627,
                        6.660416666666571
                    ],
                    [
                        81.68958333333293,
                        6.65625
                    ],
                    [
                        81.68958333333293,
                        6.647916666666553
                    ],
                    [
                        81.69791666666632,
                        6.639583333333228
                    ],
                    [
                        81.69791666666632,
                        6.635416666666579
                    ]
                ]
            }
        },
        {
            "type": "Feature",
            "properties": {
                "HYRIV_ID": 41407432,
                "NEXT_DOWN": 0,
                "MAIN_RIV": 41407432,
                "LENGTH_KM": 8.3800001,
                "DIST_DN_KM": 0.0,
                "DIST_UP_KM": 17.5,
                "CATCH_SKM": 32.84,
                "UPLAND_SKM": 94.699997,
                "ENDORHEIC": 0,
                "DIS_AV_CMS": 1.295,
                "ORD_STRA": 2,
                "ORD_CLAS": 1,
                "ORD_FLOW": 6,
                "HYBAS_L12": 4120049970.0,
                "Shape_Length": 0.07559223176552886
            },
            "geometry": {
                "type": "LineString",
                "coordinates": [
                    [
                        81.69791666666632,
                        6.635416666666579
                    ],
                    [
                        81.70624999999964,
                        6.627083333333211
                    ],
                    [
                        81.70624999999964,
                        6.622916666666562
                    ],
                    [
                        81.7104166666663,
                        6.618749999999899
                    ],
                    [
                        81.71458333333297,
                        6.618749999999899
                    ],
                    [
                        81.73124999999968,
                        6.602083333333219
                    ],
                    [
                        81.73124999999968,
                        6.597916666666571
                    ],
                    [
                        81.73541666666634,
                        6.59375
                    ],
                    [
                        81.739583333333,
                        6.59375
                    ],
                    [
                        81.74791666666633,
                        6.585416666666596
                    ]
                ]
            }
        }
    ]
}