{
    "type": "FeatureCollection",
    "features": [
        {
            "type": "Feature",
            "properties": {
                "HYRIV_ID": 41403138,
                "NEXT_DOWN": 0,
                "MAIN_RIV": 41403138,
                "LENGTH_KM": 1.12,
                "DIST_DN_KM": 0.0,
                "DIST_UP_KM": 20.4,
                "CATCH_SKM": 4.25,
                "UPLAND_SKM": 89.800003,
                "ENDORHEIC": 0,
                "DIS_AV_CMS": 2.0829999,
                "ORD_STRA": 2,
                "ORD_CLAS": 1,
                "ORD_FLOW": 6,
                "HYBAS_L12": 4120049790.0,
                "Shape_Length": 0.010059223176565511
            },
            "geometry": {
                "type": "LineString",
                "coordinates": [
                    [
                        81.70208333333298,
                        7.610416666666545
                    ],
                    [
                        81.70208333333298,
                        7.614583333333208
                    ],
                    [
                        81.69791666666632,
                        7.618749999999899
                    ]
                ]
            }
        },
        {
            "type": "Feature",
            "properties": {
                "HYRIV_ID": 41403184,
                "NEXT_DOWN": 41403185,
                "MAIN_RIV": 41403138,
                "LENGTH_KM": 1.8,
                "DIST_DN_KM": 2.8,
                "DIST_UP_KM": 4.0,
                "CATCH_SKM": 6.81,
                "UPLAND_SKM": 6.8,
                "ENDORHEIC": 0,
                "DIS_AV_CMS": 0.161,
                "ORD_STRA": 1,
                "ORD_CLAS": 2,
                "ORD_FLOW": 7,
                "HYBAS_L12": 4120049790.0,
                "Shape_Length": 0.016309223176541453
            },
            "geometry": {
                "type": "LineString",
                "coordinates": [
                    [
                        81.68333333333302,
                        7.602083333333233
                    ],
                    [
                        81.68958333333293,
                        7.602083333333233
                    ],
                    [
                        81.6937499999996,
                        7.597916666666528
                    ],
                    [
                        81.69791666666632,
                        7.597916666666528
                    ]
                ]
            }
        },
        {
            "type": "Feature",
            "properties": {
                "HYRIV_ID": 41403185,
                "NEXT_DOWN": 41403138,
                "MAIN_RIV": 41403138,
                "LENGTH_KM": 1.58,
                "DIST_DN_KM": 1.3,
                "DIST_UP_KM": 19.5,
                "CATCH_SKM": 3.62,
                "UPLAND_SKM": 78.900002,
                "ENDORHEIC": 0,
                "DIS_AV_CMS": 1.831,
                "ORD_STRA": 2,
                "ORD_CLAS": 1,
                "ORD_FLOW": 6,
                "HYBAS_L12": 4120049790.0,
                "Shape_Length": 0.014225889843224225
            },
            "geometry": {
                "type": "LineString",
                "coordinates": [
                    [
                        81.69791666666632,
                        7.597916666666528
                    ],
                    [
                        81.70208333333298,
                        7.602083333333233
                    ],
                    [
                        81.70208333333298,
                        7.610416666666545
                    ]
                ]
            }
        },
        {
            "type": "Feature",
            "properties": {
                "HYRIV_ID": 41403221,
                "NEXT_DOWN": 41403138,
                "MAIN_RIV": 41403138,
                "LENGTH_KM": 3.58,
                "DIST_DN_KM": 1.2,
                "DIST_UP_KM": 6.4,
                "CATCH_SKM": 8.3,
                "UPLAND_SKM": 8.3,
                "ENDORHEIC": 0,
                "DIS_AV_CMS": 0.196,
                "ORD_STRA": 1,
                "ORD_CLAS": 2,
                "ORD_FLOW": 7,
                "HYBAS_L12": 4120049790.0,
                "Shape_Length": 0.032261002862973565
            },
            "geometry": {
                "type": "LineString",
                "coordinates": [
                    [
                        81.71874999999963,
                        7.587499999999885
                    ],
                    [
                        81.71874999999963,
                        7.597916666666528
                    ],
                    [
                        81.70624999999964,
                        7.610416666666545
                    ],
                    [
                        81.70208333333298,
                        7.610416666666545
                    ]
                ]
            }
        },
        {
            "type": "Feature",
            "properties": {
                "HYRIV_ID": 41403293,
                "NEXT_DOWN": 41403185,
                "MAIN_RIV": 41403138,
                "LENGTH_KM": 4.0,
                "DIST_DN_KM": 3.0,
                "DIST_UP_KM": 17.700001,
                "CATCH_SKM": 12.34,
                "UPLAND_SKM": 68.5,
                "ENDORHEIC": 0,
                "DIS_AV_CMS": 1.59,
                "ORD_STRA": 2,
                "ORD_CLAS": 1,
                "ORD_FLOW": 6,
                "HYBAS_L12": 4120049790.0,
                "Shape_Length": 0.036070226039577345
            },
            "geometry": {
                "type": "LineString",
                "coordinates": [
                    [
                        81.68124999999961,
                        7.568749999999874
                    ],
                    [
                        81.68541666666627,
                        7.572916666666536
                    ],
                    [
                        81.68541666666627,
                        7.577083333333242
                    ],
                    [
                        81.68958333333293,
                        7.581249999999891
                    ],
                    [
                        81.68958333333293,
                        7.585416666666553
                    ],
                    [
                        81.6937499999996,
                        7.589583333333216
                    ],
                    [
                        81.6937499999996,
                        7.593749999999865
                    ],
                    [
                        81.69791666666632,
                        7.597916666666528
                    ]
                ]
            }
        },
        {
            "type": "Feature",
            "properties": {
                "HYRIV_ID": 41403310,
                "NEXT_DOWN": 41403293,
                "MAIN_RIV": 41403138,
                "LENGTH_KM": 0.69,
                "DIST_DN_KM": 6.8,
                "DIST_UP_KM": 3.5,
                "CATCH_SKM": 6.1700001,
                "UPLAND_SKM": 6.2,
                "ENDORHEIC": 0,
                "DIS_AV_CMS": 0.146,
                "ORD_STRA": 1,
                "ORD_CLAS": 2,
                "ORD_FLOW": 7,
                "HYBAS_L12": 4120049790.0,
                "Shape_Length": 0.006249999999980105
            },
            "geometry": {
                "type": "LineString",
                "coordinates": [
                    [
                        81.68124999999961,
                        7.562499999999893
                    ],
                    [
                        81.68124999999961,
                        7.568749999999874
                    ]
                ]
            }
        },
        {
            "type": "Feature",
            "properties": {
                "HYRIV_ID": 41403366,
                "NEXT_DOWN": 41403367,
                "MAIN_RIV": 41403138,
                "LENGTH_KM": 0.69,
                "DIST_DN_KM": 11.4,
                "DIST_UP_KM": 3.6,
                "CATCH_SKM": 4.89,
                "UPLAND_SKM": 4.9,
                "ENDORHEIC": 0,
                "DIS_AV_CMS": 0.115,
                "ORD_STRA": 1,
                "ORD_CLAS": 2,
                "ORD_FLOW": 7,
                "HYBAS_L12": 4120049790.0,
                "Shape_Length": 0.006250000000136424
            },
            "geometry": {
                "type": "LineString",
                "coordinates": [
                    [
                        81.64583333333294,
                        7.552083333333208
                    ],
                    [
                        81.65208333333308,
                        7.552083333333208
                    ]
                ]
            }
        },
        {
            "type": "Feature",
            "properties": {
                "HYRIV_ID": 41403367,
                "NEXT_DOWN": 41403293,
                "MAIN_RIV": 41403138,
                "LENGTH_KM": 4.5300002,
                "DIST_DN_KM": 6.8,
                "DIST_UP_KM": 13.9,
                "CATCH_SKM": 12.34,
                "UPLAND_SKM": 50.0,
                "ENDORHEIC": 0,
                "DIS_AV_CMS": 1.163,
                "ORD_STRA": 2,
                "ORD_CLAS": 1,
                "ORD_FLOW": 6,
                "HYBAS_L12": 4120049790.0,
                "Shape_Length": 0.04095177968634736
            },
            "geometry": {
                "type": "LineString",
                "coordinates": [
                    [
                        81.65208333333308,
                        7.552083333333208
                    ],
                    [
                        81.65208333333308,
                        7.560416666666519
                    ],
                    [
                        81.65624999999957,
                        7.564583333333225
                    ],
                    [
                        81.66874999999962,
                        7.564583333333225
                    ],
                    [
                        81.67291666666628,
                        7.568749999999874
                    ],
                    [
                        81.68124999999961,
                        7.568749999999874
                    ]
                ]
            }
        },
        {
            "type": "Feature",
            "properties": {
                "HYRIV_ID": 41403436,
                "NEXT_DOWN": 41403437,
                "MAIN_RIV": 41403138,
                "LENGTH_KM": 0.69,
                "DIST_DN_KM": 16.9,
                "DIST_UP_KM": 3.3,
                "CATCH_SKM": 5.96,
                "UPLAND_SKM": 6.0,
                "ENDORHEIC": 0,
                "DIS_AV_CMS": 0.14,
                "ORD_STRA": 1,
                "ORD_CLAS": 2,
                "ORD_FLOW": 7,
                "HYBAS_L12": 4120049790.0,
                "Shape_Length": 0.006250000000079581
            },
            "geometry": {
                "type": "LineString",
                "coordinates": [
                    [
                        81.60833333333292,
                        7.535416666666571
                    ],
                    [
                        81.614583333333,
                        7.535416666666571
                    ]
                ]
            }
        },
        {
            "type": "Feature",
            "properties": {
                "HYRIV_ID": 41403437,
                "NEXT_DOWN": 41403367,
                "MAIN_RIV": 41403138,
                "LENGTH_KM": 5.56,
                "DIST_DN_KM": 11.4,
                "DIST_UP_KM": 9.4,
                "CATCH_SKM": 16.809999,
                "UPLAND_SKM": 32.8,
                "ENDORHEIC": 0,
                "DIS_AV_CMS": 0.76599997,
                "ORD_STRA": 2,
                "ORD_CLAS": 1,
                "ORD_FLOW": 7,
                "HYBAS_L12": 4120049790.0,
                "Shape_Length": 0.050296115882764114
            },
            "geometry": {
                "type": "LineString",
                "coordinates": [
                    [
                        81.614583333333,
                        7.535416666666571
                    ],
                    [
                        81.61874999999966,
                        7.535416666666571
                    ],
                    [
                        81.62708333333305,
                        7.543749999999882
                    ],
                    [
                        81.63958333333292,
                        7.543749999999882
                    ],
                    [
                        81.6437499999997,
                        7.539583333333219
                    ],
                    [
                        81.65208333333308,
                        7.547916666666545
                    ],
                    [
                        81.65208333333308,
                        7.552083333333208
                    ]
                ]
            }
        },
        {
            "type": "Feature",
            "properties": {
                "HYRIV_ID": 41403464,
                "NEXT_DOWN": 41403437,
                "MAIN_RIV": 41403138,
                "LENGTH_KM": 1.4400001,
                "DIST_DN_KM": 16.9,
                "DIST_UP_KM": 3.8,
                "CATCH_SKM": 10.0,
                "UPLAND_SKM": 10.0,
                "ENDORHEIC": 0,
                "DIS_AV_CMS": 0.235,
                "ORD_STRA": 1,
                "ORD_CLAS": 1,
                "ORD_FLOW": 7,
                "HYBAS_L12": 4120049790.0,
                "Shape_Length": 0.013005501431579558
            },
            "geometry": {
                "type": "LineString",
                "coordinates": [
                    [
                        81.60833333333292,
                        7.524999999999885
                    ],
                    [
                        81.614583333333,
                        7.531249999999865
                    ],
                    [
                        81.614583333333,
                        7.535416666666571
                    ]
                ]
            }
        }
    ]
}