{
    "type": "FeatureCollection",
    "features": [
        {
            "type": "Feature",
            "properties": {
                "HYRIV_ID": 41409731,
                "NEXT_DOWN": 41409791,
                "MAIN_RIV": 41409791,
                "LENGTH_KM": 1.16,
                "DIST_DN_KM": 1.3,
                "DIST_UP_KM": 3.3,
                "CATCH_SKM": 3.2,
                "UPLAND_SKM": 3.2,
                "ENDORHEIC": 0,
                "DIS_AV_CMS": 0.147,
                "ORD_STRA": 1,
                "ORD_CLAS": 2,
                "ORD_FLOW": 7,
                "HYBAS_L12": 4120048960.0,
                "Shape_Length": 0.010416666666699825
            },
            "geometry": {
                "type": "LineString",
                "coordinates": [
                    [
                        80.13541666666637,
                        6.116666666666596
                    ],
                    [
                        80.13541666666637,
                        6.106249999999896
                    ]
                ]
            }
        },
        {
            "type": "Feature",
            "properties": {
                "HYRIV_ID": 41409732,
                "NEXT_DOWN": 41409791,
                "MAIN_RIV": 41409791,
                "LENGTH_KM": 1.35,
                "DIST_DN_KM": 1.4,
                "DIST_UP_KM": 3.3,
                "CATCH_SKM": 3.6300001,
                "UPLAND_SKM": 3.6,
                "ENDORHEIC": 0,
                "DIS_AV_CMS": 0.167,
                "ORD_STRA": 1,
                "ORD_CLAS": 1,
                "ORD_FLOW": 7,
                "HYBAS_L12": 4120048960.0,
                "Shape_Length": 0.012142556509919484
            },
            "geometry": {
                "type": "LineString",
                "coordinates": [
                    [
                        80.13958333333304,
                        6.116666666666596
                    ],
                    [
                        80.13958333333304,
                        6.110416666666559
                    ],
                    [
                        80.13541666666637,
                        6.106249999999896
                    ]
                ]
            }
        },
        {
            "type": "Feature",
            "properties": {
                "HYRIV_ID": 41409791,
                "NEXT_DOWN": 0,
                "MAIN_RIV": 41409791,
                "LENGTH_KM": 1.12,
                "DIST_DN_KM": 0.0,
                "DIST_UP_KM": 4.5,
                "CATCH_SKM": 2.99,
                "UPLAND_SKM": 9.6,
                "ENDORHEIC": 0,
                "DIS_AV_CMS": 0.443,
                "ORD_STRA": 2,
                "ORD_CLAS": 1,
                "ORD_FLOW": 7,
                "HYBAS_L12": 4120048960.0,
                "Shape_Length": 0.010059223176571397
            },
            "geometry": {
                "type": "LineString",
                "coordinates": [
                    [
                        80.13541666666637,
                        6.106249999999896
                    ],
                    [
                        80.13541666666637,
                        6.102083333333248
                    ],
                    [
                        80.13124999999965,
                        6.097916666666585
                    ]
                ]
            }
        }
    ]
}