{
    "type": "FeatureCollection",
    "features": [
        {
            "type": "Feature",
            "properties": {
                "HYRIV_ID": 41407858,
                "NEXT_DOWN": 41407859,
                "MAIN_RIV": 41407859,
                "LENGTH_KM": 2.0,
                "DIST_DN_KM": 2.1,
                "DIST_UP_KM": 6.6,
                "CATCH_SKM": 9.3800001,
                "UPLAND_SKM": 9.4,
                "ENDORHEIC": 0,
                "DIS_AV_CMS": 0.126,
                "ORD_STRA": 1,
                "ORD_CLAS": 2,
                "ORD_FLOW": 7,
                "HYBAS_L12": 4120049990.0,
                "Shape_Length": 0.018035113019791972
            },
            "geometry": {
                "type": "LineString",
                "coordinates": [
                    [
                        81.67291666666628,
                        6.504166666666585
                    ],
                    [
                        81.67291666666628,
                        6.497916666666548
                    ],
                    [
                        81.68124999999961,
                        6.489583333333236
                    ]
                ]
            }
        },
        {
            "type": "Feature",
            "properties": {
                "HYRIV_ID": 41407859,
                "NEXT_DOWN": 0,
                "MAIN_RIV": 41407859,
                "LENGTH_KM": 1.77,
                "DIST_DN_KM": 0.0,
                "DIST_UP_KM": 16.1,
                "CATCH_SKM": 1.49,
                "UPLAND_SKM": 51.200001,
                "ENDORHEIC": 0,
                "DIS_AV_CMS": 0.64300001,
                "ORD_STRA": 2,
                "ORD_CLAS": 1,
                "ORD_FLOW": 7,
                "HYBAS_L12": 4120049990.0,
                "Shape_Length": 0.01595177968642795
            },
            "geometry": {
                "type": "LineString",
                "coordinates": [
                    [
                        81.68124999999961,
                        6.489583333333236
                    ],
                    [
                        81.68541666666627,
                        6.493749999999899
                    ],
                    [
                        81.68958333333293,
                        6.493749999999899
                    ],
                    [
                        81.6937499999996,
                        6.489583333333236
                    ]
                ]
            }
        },
        {
            "type": "Feature",
            "properties": {
                "HYRIV_ID": 41407892,
                "NEXT_DOWN": 41407859,
                "MAIN_RIV": 41407859,
                "LENGTH_KM": 10.65,
                "DIST_DN_KM": 2.1,
                "DIST_UP_KM": 14.3,
                "CATCH_SKM": 40.52,
                "UPLAND_SKM": 40.5,
                "ENDORHEIC": 0,
                "DIS_AV_CMS": 0.519,
                "ORD_STRA": 1,
                "ORD_CLAS": 1,
                "ORD_FLOW": 7,
                "HYBAS_L12": 4120049990.0,
                "Shape_Length": 0.09606812160859766
            },
            "geometry": {
                "type": "LineString",
                "coordinates": [
                    [
                        81.62291666666638,
                        6.537499999999888
                    ],
                    [
                        81.62291666666638,
                        6.53125
                    ],
                    [
                        81.6437499999997,
                        6.510416666666565
                    ],
                    [
                        81.64791666666625,
                        6.510416666666565
                    ],
                    [
                        81.65624999999957,
                        6.502083333333211
                    ],
                    [
                        81.65624999999957,
                        6.493749999999899
                    ],
                    [
                        81.6604166666663,
                        6.489583333333236
                    ],
                    [
                        81.6604166666663,
                        6.485416666666573
                    ],
                    [
                        81.66458333333296,
                        6.48125
                    ],
                    [
                        81.66874999999962,
                        6.48125
                    ],
                    [
                        81.67291666666628,
                        6.485416666666573
                    ],
                    [
                        81.67708333333294,
                        6.485416666666573
                    ],
                    [
                        81.68124999999961,
                        6.489583333333236
                    ]
                ]
            }
        }
    ]
}