{
    "type": "FeatureCollection",
    "features": [
        {
            "type": "Feature",
            "properties": {
                "HYRIV_ID": 41401801,
                "NEXT_DOWN": 0,
                "MAIN_RIV": 41401801,
                "LENGTH_KM": 1.11,
                "DIST_DN_KM": 0.0,
                "DIST_UP_KM": 22.700001,
                "CATCH_SKM": 1.28,
                "UPLAND_SKM": 157.8,
                "ENDORHEIC": 0,
                "DIS_AV_CMS": 2.414,
                "ORD_STRA": 2,
                "ORD_CLAS": 1,
                "ORD_FLOW": 6,
                "HYBAS_L12": 4120049180.0,
                "Shape_Length": 0.010059223176531202
            },
            "geometry": {
                "type": "LineString",
                "coordinates": [
                    [
                        79.82291666666632,
                        7.968749999999893
                    ],
                    [
                        79.82291666666632,
                        7.972916666666542
                    ],
                    [
                        79.81874999999965,
                        7.977083333333205
                    ]
                ]
            }
        },
        {
            "type": "Feature",
            "properties": {
                "HYRIV_ID": 41401813,
                "NEXT_DOWN": 41401801,
                "MAIN_RIV": 41401801,
                "LENGTH_KM": 0.46,
                "DIST_DN_KM": 1.3,
                "DIST_UP_KM": 21.8,
                "CATCH_SKM": 0.42,
                "UPLAND_SKM": 138.8,
                "ENDORHEIC": 0,
                "DIS_AV_CMS": 2.1340001,
                "ORD_STRA": 2,
                "ORD_CLAS": 1,
                "ORD_FLOW": 6,
                "HYBAS_L12": 4120049180.0,
                "Shape_Length": 0.00416666666670551
            },
            "geometry": {
                "type": "LineString",
                "coordinates": [
                    [
                        79.82291666666632,
                        7.964583333333188
                    ],
                    [
                        79.82291666666632,
                        7.968749999999893
                    ]
                ]
            }
        },
        {
            "type": "Feature",
            "properties": {
                "HYRIV_ID": 41401814,
                "NEXT_DOWN": 41401801,
                "MAIN_RIV": 41401801,
                "LENGTH_KM": 5.2,
                "DIST_DN_KM": 1.2,
                "DIST_UP_KM": 10.1,
                "CATCH_SKM": 18.07,
                "UPLAND_SKM": 18.1,
                "ENDORHEIC": 0,
                "DIS_AV_CMS": 0.269,
                "ORD_STRA": 1,
                "ORD_CLAS": 2,
                "ORD_FLOW": 7,
                "HYBAS_L12": 4120049180.0,
                "Shape_Length": 0.04720177968648824
            },
            "geometry": {
                "type": "LineString",
                "coordinates": [
                    [
                        79.8666666666663,
                        7.968749999999893
                    ],
                    [
                        79.86041666666634,
                        7.968749999999893
                    ],
                    [
                        79.85624999999968,
                        7.964583333333188
                    ],
                    [
                        79.8479166666663,
                        7.964583333333188
                    ],
                    [
                        79.84374999999963,
                        7.968749999999893
                    ],
                    [
                        79.82291666666632,
                        7.968749999999893
                    ]
                ]
            }
        },
        {
            "type": "Feature",
            "properties": {
                "HYRIV_ID": 41401857,
                "NEXT_DOWN": 41401813,
                "MAIN_RIV": 41401801,
                "LENGTH_KM": 1.39,
                "DIST_DN_KM": 1.7,
                "DIST_UP_KM": 21.3,
                "CATCH_SKM": 1.91,
                "UPLAND_SKM": 113.7,
                "ENDORHEIC": 0,
                "DIS_AV_CMS": 1.761,
                "ORD_STRA": 2,
                "ORD_CLAS": 1,
                "ORD_FLOW": 6,
                "HYBAS_L12": 4120049180.0,
                "Shape_Length": 0.01249999999997442
            },
            "geometry": {
                "type": "LineString",
                "coordinates": [
                    [
                        79.82291666666632,
                        7.952083333333213
                    ],
                    [
                        79.82291666666632,
                        7.964583333333188
                    ]
                ]
            }
        },
        {
            "type": "Feature",
            "properties": {
                "HYRIV_ID": 41401880,
                "NEXT_DOWN": 41401813,
                "MAIN_RIV": 41401801,
                "LENGTH_KM": 4.58,
                "DIST_DN_KM": 1.7,
                "DIST_UP_KM": 8.4,
                "CATCH_SKM": 24.66,
                "UPLAND_SKM": 24.700001,
                "ENDORHEIC": 0,
                "DIS_AV_CMS": 0.36700001,
                "ORD_STRA": 1,
                "ORD_CLAS": 2,
                "ORD_FLOW": 7,
                "HYBAS_L12": 4120049180.0,
                "Shape_Length": 0.04145728111791331
            },
            "geometry": {
                "type": "LineString",
                "coordinates": [
                    [
                        79.79583333333298,
                        7.954166666666545
                    ],
                    [
                        79.80208333333294,
                        7.947916666666551
                    ],
                    [
                        79.81041666666627,
                        7.947916666666551
                    ],
                    [
                        79.81041666666627,
                        7.956249999999876
                    ],
                    [
                        79.81874999999965,
                        7.964583333333188
                    ],
                    [
                        79.82291666666632,
                        7.964583333333188
                    ]
                ]
            }
        },
        {
            "type": "Feature",
            "properties": {
                "HYRIV_ID": 41401902,
                "NEXT_DOWN": 41401857,
                "MAIN_RIV": 41401801,
                "LENGTH_KM": 4.75,
                "DIST_DN_KM": 3.1,
                "DIST_UP_KM": 9.0,
                "CATCH_SKM": 14.67,
                "UPLAND_SKM": 14.7,
                "ENDORHEIC": 0,
                "DIS_AV_CMS": 0.222,
                "ORD_STRA": 1,
                "ORD_CLAS": 2,
                "ORD_FLOW": 7,
                "HYBAS_L12": 4120049180.0,
                "Shape_Length": 0.04303511301976507
            },
            "geometry": {
                "type": "LineString",
                "coordinates": [
                    [
                        79.86249999999964,
                        7.943749999999888
                    ],
                    [
                        79.85624999999968,
                        7.943749999999888
                    ],
                    [
                        79.85208333333301,
                        7.947916666666551
                    ],
                    [
                        79.83124999999964,
                        7.947916666666551
                    ],
                    [
                        79.82708333333298,
                        7.952083333333213
                    ],
                    [
                        79.82291666666632,
                        7.952083333333213
                    ]
                ]
            }
        },
        {
            "type": "Feature",
            "properties": {
                "HYRIV_ID": 41401950,
                "NEXT_DOWN": 41401857,
                "MAIN_RIV": 41401801,
                "LENGTH_KM": 2.32,
                "DIST_DN_KM": 3.1,
                "DIST_UP_KM": 19.9,
                "CATCH_SKM": 3.61,
                "UPLAND_SKM": 97.199997,
                "ENDORHEIC": 0,
                "DIS_AV_CMS": 1.512,
                "ORD_STRA": 2,
                "ORD_CLAS": 1,
                "ORD_FLOW": 6,
                "HYBAS_L12": 4120049180.0,
                "Shape_Length": 0.020833333333342807
            },
            "geometry": {
                "type": "LineString",
                "coordinates": [
                    [
                        79.82291666666632,
                        7.931249999999871
                    ],
                    [
                        79.82291666666632,
                        7.952083333333213
                    ]
                ]
            }
        },
        {
            "type": "Feature",
            "properties": {
                "HYRIV_ID": 41401983,
                "NEXT_DOWN": 41401950,
                "MAIN_RIV": 41401801,
                "LENGTH_KM": 7.62,
                "DIST_DN_KM": 5.4,
                "DIST_UP_KM": 11.2,
                "CATCH_SKM": 23.809999,
                "UPLAND_SKM": 23.8,
                "ENDORHEIC": 0,
                "DIS_AV_CMS": 0.368,
                "ORD_STRA": 1,
                "ORD_CLAS": 2,
                "ORD_FLOW": 7,
                "HYBAS_L12": 4120049180.0,
                "Shape_Length": 0.06904611588284552
            },
            "geometry": {
                "type": "LineString",
                "coordinates": [
                    [
                        79.88333333333301,
                        7.927083333333222
                    ],
                    [
                        79.87291666666633,
                        7.927083333333222
                    ],
                    [
                        79.86874999999966,
                        7.922916666666517
                    ],
                    [
                        79.864583333333,
                        7.927083333333222
                    ],
                    [
                        79.83958333333297,
                        7.927083333333222
                    ],
                    [
                        79.83124999999964,
                        7.935416666666534
                    ],
                    [
                        79.82708333333298,
                        7.931249999999871
                    ],
                    [
                        79.82291666666632,
                        7.931249999999871
                    ]
                ]
            }
        },
        {
            "type": "Feature",
            "properties": {
                "HYRIV_ID": 41402019,
                "NEXT_DOWN": 41402020,
                "MAIN_RIV": 41401801,
                "LENGTH_KM": 0.98,
                "DIST_DN_KM": 7.8,
                "DIST_UP_KM": 5.3,
                "CATCH_SKM": 8.08,
                "UPLAND_SKM": 8.1,
                "ENDORHEIC": 0,
                "DIS_AV_CMS": 0.123,
                "ORD_STRA": 1,
                "ORD_CLAS": 2,
                "ORD_FLOW": 7,
                "HYBAS_L12": 4120049180.0,
                "Shape_Length": 0.00883883476479366
            },
            "geometry": {
                "type": "LineString",
                "coordinates": [
                    [
                        79.80833333333302,
                        7.920833333333185
                    ],
                    [
                        79.81458333333299,
                        7.914583333333205
                    ]
                ]
            }
        },
        {
            "type": "Feature",
            "properties": {
                "HYRIV_ID": 41402020,
                "NEXT_DOWN": 41401950,
                "MAIN_RIV": 41401801,
                "LENGTH_KM": 2.23,
                "DIST_DN_KM": 5.4,
                "DIST_UP_KM": 17.6,
                "CATCH_SKM": 11.91,
                "UPLAND_SKM": 69.699997,
                "ENDORHEIC": 0,
                "DIS_AV_CMS": 1.092,
                "ORD_STRA": 2,
                "ORD_CLAS": 1,
                "ORD_FLOW": 6,
                "HYBAS_L12": 4120049180.0,
                "Shape_Length": 0.0201184463531092
            },
            "geometry": {
                "type": "LineString",
                "coordinates": [
                    [
                        79.81458333333299,
                        7.914583333333205
                    ],
                    [
                        79.82291666666632,
                        7.922916666666517
                    ],
                    [
                        79.82291666666632,
                        7.931249999999871
                    ]
                ]
            }
        },
        {
            "type": "Feature",
            "properties": {
                "HYRIV_ID": 41402137,
                "NEXT_DOWN": 41402020,
                "MAIN_RIV": 41401801,
                "LENGTH_KM": 10.24,
                "DIST_DN_KM": 7.8,
                "DIST_UP_KM": 15.2,
                "CATCH_SKM": 49.75,
                "UPLAND_SKM": 49.8,
                "ENDORHEIC": 0,
                "DIS_AV_CMS": 0.78500003,
                "ORD_STRA": 1,
                "ORD_CLAS": 1,
                "ORD_FLOW": 7,
                "HYBAS_L12": 4120049180.0,
                "Shape_Length": 0.09261634192241172
            },
            "geometry": {
                "type": "LineString",
                "coordinates": [
                    [
                        79.85208333333301,
                        7.899999999999899
                    ],
                    [
                        79.85208333333301,
                        7.889583333333213
                    ],
                    [
                        79.8479166666663,
                        7.885416666666551
                    ],
                    [
                        79.8354166666663,
                        7.885416666666551
                    ],
                    [
                        79.83124999999964,
                        7.881249999999888
                    ],
                    [
                        79.82708333333298,
                        7.885416666666551
                    ],
                    [
                        79.82291666666632,
                        7.885416666666551
                    ],
                    [
                        79.81874999999965,
                        7.889583333333213
                    ],
                    [
                        79.81041666666627,
                        7.889583333333213
                    ],
                    [
                        79.80624999999966,
                        7.893749999999862
                    ],
                    [
                        79.81458333333299,
                        7.902083333333231
                    ],
                    [
                        79.81458333333299,
                        7.906249999999879
                    ],
                    [
                        79.81041666666627,
                        7.910416666666542
                    ],
                    [
                        79.81458333333299,
                        7.914583333333205
                    ]
                ]
            }
        }
    ]
}