{
    "type": "FeatureCollection",
    "features": [
        {
            "type": "Feature",
            "properties": {
                "HYRIV_ID": 41400034,
                "NEXT_DOWN": 41400077,
                "MAIN_RIV": 41400168,
                "LENGTH_KM": 0.98,
                "DIST_DN_KM": 5.2,
                "DIST_UP_KM": 4.7,
                "CATCH_SKM": 9.1300001,
                "UPLAND_SKM": 9.1,
                "ENDORHEIC": 0,
                "DIS_AV_CMS": 0.171,
                "ORD_STRA": 1,
                "ORD_CLAS": 2,
                "ORD_FLOW": 7,
                "HYBAS_L12": 4120049690.0,
                "Shape_Length": 0.008838834764914243
            },
            "geometry": {
                "type": "LineString",
                "coordinates": [
                    [
                        81.3499999999996,
                        8.395833333333222
                    ],
                    [
                        81.35624999999968,
                        8.389583333333185
                    ]
                ]
            }
        },
        {
            "type": "Feature",
            "properties": {
                "HYRIV_ID": 41400035,
                "NEXT_DOWN": 41400077,
                "MAIN_RIV": 41400168,
                "LENGTH_KM": 3.48,
                "DIST_DN_KM": 5.0,
                "DIST_UP_KM": 7.5,
                "CATCH_SKM": 14.86,
                "UPLAND_SKM": 14.9,
                "ENDORHEIC": 0,
                "DIS_AV_CMS": 0.27700001,
                "ORD_STRA": 1,
                "ORD_CLAS": 1,
                "ORD_FLOW": 7,
                "HYBAS_L12": 4120049690.0,
                "Shape_Length": 0.03125000000002842
            },
            "geometry": {
                "type": "LineString",
                "coordinates": [
                    [
                        81.35624999999968,
                        8.420833333333213
                    ],
                    [
                        81.35624999999968,
                        8.389583333333185
                    ]
                ]
            }
        },
        {
            "type": "Feature",
            "properties": {
                "HYRIV_ID": 41400077,
                "NEXT_DOWN": 41400102,
                "MAIN_RIV": 41400168,
                "LENGTH_KM": 1.11,
                "DIST_DN_KM": 4.0,
                "DIST_UP_KM": 8.4,
                "CATCH_SKM": 2.97,
                "UPLAND_SKM": 27.0,
                "ENDORHEIC": 0,
                "DIS_AV_CMS": 0.50400001,
                "ORD_STRA": 2,
                "ORD_CLAS": 1,
                "ORD_FLOW": 7,
                "HYBAS_L12": 4120049690.0,
                "Shape_Length": 0.010059223176571397
            },
            "geometry": {
                "type": "LineString",
                "coordinates": [
                    [
                        81.35624999999968,
                        8.389583333333185
                    ],
                    [
                        81.35624999999968,
                        8.385416666666536
                    ],
                    [
                        81.3604166666664,
                        8.381249999999874
                    ]
                ]
            }
        },
        {
            "type": "Feature",
            "properties": {
                "HYRIV_ID": 41400102,
                "NEXT_DOWN": 41400167,
                "MAIN_RIV": 41400168,
                "LENGTH_KM": 0.65,
                "DIST_DN_KM": 3.4,
                "DIST_UP_KM": 9.1,
                "CATCH_SKM": 1.06,
                "UPLAND_SKM": 38.900002,
                "ENDORHEIC": 0,
                "DIS_AV_CMS": 0.73,
                "ORD_STRA": 2,
                "ORD_CLAS": 1,
                "ORD_FLOW": 7,
                "HYBAS_L12": 4120049690.0,
                "Shape_Length": 0.0058925565098825365
            },
            "geometry": {
                "type": "LineString",
                "coordinates": [
                    [
                        81.3604166666664,
                        8.381249999999874
                    ],
                    [
                        81.36458333333306,
                        8.37708333333321
                    ]
                ]
            }
        },
        {
            "type": "Feature",
            "properties": {
                "HYRIV_ID": 41400123,
                "NEXT_DOWN": 41400102,
                "MAIN_RIV": 41400168,
                "LENGTH_KM": 2.72,
                "DIST_DN_KM": 4.0,
                "DIST_UP_KM": 6.8,
                "CATCH_SKM": 10.83,
                "UPLAND_SKM": 10.8,
                "ENDORHEIC": 0,
                "DIS_AV_CMS": 0.206,
                "ORD_STRA": 1,
                "ORD_CLAS": 2,
                "ORD_FLOW": 7,
                "HYBAS_L12": 4120049690.0,
                "Shape_Length": 0.024642556510005152
            },
            "geometry": {
                "type": "LineString",
                "coordinates": [
                    [
                        81.34374999999957,
                        8.37083333333323
                    ],
                    [
                        81.34374999999957,
                        8.37708333333321
                    ],
                    [
                        81.35624999999968,
                        8.37708333333321
                    ],
                    [
                        81.3604166666664,
                        8.381249999999874
                    ]
                ]
            }
        },
        {
            "type": "Feature",
            "properties": {
                "HYRIV_ID": 41400141,
                "NEXT_DOWN": 41400167,
                "MAIN_RIV": 41400168,
                "LENGTH_KM": 1.4400001,
                "DIST_DN_KM": 3.2,
                "DIST_UP_KM": 4.8,
                "CATCH_SKM": 5.73,
                "UPLAND_SKM": 5.7,
                "ENDORHEIC": 0,
                "DIS_AV_CMS": 0.11,
                "ORD_STRA": 1,
                "ORD_CLAS": 2,
                "ORD_FLOW": 7,
                "HYBAS_L12": 4120049690.0,
                "Shape_Length": 0.013005501431603103
            },
            "geometry": {
                "type": "LineString",
                "coordinates": [
                    [
                        81.35833333333292,
                        8.366666666666525
                    ],
                    [
                        81.36458333333306,
                        8.372916666666562
                    ],
                    [
                        81.36458333333306,
                        8.37708333333321
                    ]
                ]
            }
        },
        {
            "type": "Feature",
            "properties": {
                "HYRIV_ID": 41400167,
                "NEXT_DOWN": 41400168,
                "MAIN_RIV": 41400168,
                "LENGTH_KM": 1.96,
                "DIST_DN_KM": 1.4,
                "DIST_UP_KM": 11.0,
                "CATCH_SKM": 3.4,
                "UPLAND_SKM": 48.0,
                "ENDORHEIC": 0,
                "DIS_AV_CMS": 0.903,
                "ORD_STRA": 2,
                "ORD_CLAS": 1,
                "ORD_FLOW": 7,
                "HYBAS_L12": 4120049690.0,
                "Shape_Length": 0.01767766952958732
            },
            "geometry": {
                "type": "LineString",
                "coordinates": [
                    [
                        81.36458333333306,
                        8.37708333333321
                    ],
                    [
                        81.37708333333293,
                        8.364583333333194
                    ]
                ]
            }
        },
        {
            "type": "Feature",
            "properties": {
                "HYRIV_ID": 41400168,
                "NEXT_DOWN": 0,
                "MAIN_RIV": 41400168,
                "LENGTH_KM": 1.11,
                "DIST_DN_KM": 0.0,
                "DIST_UP_KM": 12.1,
                "CATCH_SKM": 1.27,
                "UPLAND_SKM": 70.099998,
                "ENDORHEIC": 0,
                "DIS_AV_CMS": 1.33,
                "ORD_STRA": 2,
                "ORD_CLAS": 1,
                "ORD_FLOW": 6,
                "HYBAS_L12": 4120049690.0,
                "Shape_Length": 0.010059223176545413
            },
            "geometry": {
                "type": "LineString",
                "coordinates": [
                    [
                        81.37708333333293,
                        8.364583333333194
                    ],
                    [
                        81.3812499999996,
                        8.364583333333194
                    ],
                    [
                        81.38541666666626,
                        8.368749999999856
                    ]
                ]
            }
        },
        {
            "type": "Feature",
            "properties": {
                "HYRIV_ID": 41400307,
                "NEXT_DOWN": 41400168,
                "MAIN_RIV": 41400168,
                "LENGTH_KM": 4.4,
                "DIST_DN_KM": 1.2,
                "DIST_UP_KM": 8.2,
                "CATCH_SKM": 21.24,
                "UPLAND_SKM": 21.200001,
                "ENDORHEIC": 0,
                "DIS_AV_CMS": 0.41100001,
                "ORD_STRA": 1,
                "ORD_CLAS": 2,
                "ORD_FLOW": 7,
                "HYBAS_L12": 4120049690.0,
                "Shape_Length": 0.039731391274695375
            },
            "geometry": {
                "type": "LineString",
                "coordinates": [
                    [
                        81.37499999999963,
                        8.333333333333222
                    ],
                    [
                        81.36874999999961,
                        8.339583333333202
                    ],
                    [
                        81.36874999999961,
                        8.352083333333177
                    ],
                    [
                        81.37291666666627,
                        8.356249999999882
                    ],
                    [
                        81.37708333333293,
                        8.356249999999882
                    ],
                    [
                        81.37708333333293,
                        8.364583333333194
                    ]
                ]
            }
        }
    ]
}