{
    "type": "FeatureCollection",
    "features": [
        {
            "type": "Feature",
            "properties": {
                "HYRIV_ID": 41403036,
                "NEXT_DOWN": 0,
                "MAIN_RIV": 41403036,
                "LENGTH_KM": 5.33,
                "DIST_DN_KM": 0.0,
                "DIST_UP_KM": 8.4,
                "CATCH_SKM": 13.19,
                "UPLAND_SKM": 13.0,
                "ENDORHEIC": 0,
                "DIS_AV_CMS": 0.262,
                "ORD_STRA": 1,
                "ORD_CLAS": 1,
                "ORD_FLOW": 7,
                "HYBAS_L12": 4120049140.0,
                "Shape_Length": 0.04821278254944415
            },
            "geometry": {
                "type": "LineString",
                "coordinates": [
                    [
                        79.84166666666627,
                        7.635416666666536
                    ],
                    [
                        79.8354166666663,
                        7.635416666666536
                    ],
                    [
                        79.83124999999964,
                        7.639583333333242
                    ],
                    [
                        79.82291666666632,
                        7.639583333333242
                    ],
                    [
                        79.80624999999966,
                        7.656249999999879
                    ],
                    [
                        79.80208333333294,
                        7.656249999999879
                    ]
                ]
            }
        }
    ]
}