{
    "type": "FeatureCollection",
    "features": [
        {
            "type": "Feature",
            "properties": {
                "HYRIV_ID": 41402969,
                "NEXT_DOWN": 0,
                "MAIN_RIV": 41402969,
                "LENGTH_KM": 4.87,
                "DIST_DN_KM": 0.0,
                "DIST_UP_KM": 7.7,
                "CATCH_SKM": 13.83,
                "UPLAND_SKM": 13.6,
                "ENDORHEIC": 0,
                "DIS_AV_CMS": 0.32100001,
                "ORD_STRA": 1,
                "ORD_CLAS": 1,
                "ORD_FLOW": 7,
                "HYBAS_L12": 4120049790.0,
                "Shape_Length": 0.044046115882767065
            },
            "geometry": {
                "type": "LineString",
                "coordinates": [
                    [
                        81.63333333333296,
                        7.660416666666528
                    ],
                    [
                        81.63958333333292,
                        7.660416666666528
                    ],
                    [
                        81.6437499999997,
                        7.664583333333191
                    ],
                    [
                        81.6437499999997,
                        7.668749999999896
                    ],
                    [
                        81.6604166666663,
                        7.685416666666519
                    ],
                    [
                        81.66458333333296,
                        7.685416666666519
                    ]
                ]
            }
        }
    ]
}