{
    "type": "FeatureCollection",
    "features": [
        {
            "type": "Feature",
            "properties": {
                "HYRIV_ID": 41401648,
                "NEXT_DOWN": 41401650,
                "MAIN_RIV": 41401651,
                "LENGTH_KM": 3.37,
                "DIST_DN_KM": 2.8,
                "DIST_UP_KM": 7.1,
                "CATCH_SKM": 12.54,
                "UPLAND_SKM": 12.5,
                "ENDORHEIC": 0,
                "DIS_AV_CMS": 0.27,
                "ORD_STRA": 1,
                "ORD_CLAS": 2,
                "ORD_FLOW": 7,
                "HYBAS_L12": 4120049730.0,
                "Shape_Length": 0.030535113019836732
            },
            "geometry": {
                "type": "LineString",
                "coordinates": [
                    [
                        81.44583333333296,
                        8.014583333333213
                    ],
                    [
                        81.46458333333297,
                        8.014583333333213
                    ],
                    [
                        81.47291666666635,
                        8.00624999999986
                    ]
                ]
            }
        },
        {
            "type": "Feature",
            "properties": {
                "HYRIV_ID": 41401649,
                "NEXT_DOWN": 41401650,
                "MAIN_RIV": 41401651,
                "LENGTH_KM": 2.37,
                "DIST_DN_KM": 2.6,
                "DIST_UP_KM": 5.6,
                "CATCH_SKM": 7.23,
                "UPLAND_SKM": 7.2,
                "ENDORHEIC": 0,
                "DIS_AV_CMS": 0.155,
                "ORD_STRA": 1,
                "ORD_CLAS": 3,
                "ORD_FLOW": 7,
                "HYBAS_L12": 4120049730.0,
                "Shape_Length": 0.021338834764891103
            },
            "geometry": {
                "type": "LineString",
                "coordinates": [
                    [
                        81.46666666666627,
                        8.024999999999856
                    ],
                    [
                        81.47291666666635,
                        8.018749999999876
                    ],
                    [
                        81.47291666666635,
                        8.00624999999986
                    ]
                ]
            }
        },
        {
            "type": "Feature",
            "properties": {
                "HYRIV_ID": 41401650,
                "NEXT_DOWN": 41401651,
                "MAIN_RIV": 41401651,
                "LENGTH_KM": 0.92,
                "DIST_DN_KM": 1.7,
                "DIST_UP_KM": 10.7,
                "CATCH_SKM": 1.7,
                "UPLAND_SKM": 47.8,
                "ENDORHEIC": 0,
                "DIS_AV_CMS": 1.031,
                "ORD_STRA": 2,
                "ORD_CLAS": 1,
                "ORD_FLOW": 6,
                "HYBAS_L12": 4120049730.0,
                "Shape_Length": 0.008333333333325754
            },
            "geometry": {
                "type": "LineString",
                "coordinates": [
                    [
                        81.47291666666635,
                        8.00624999999986
                    ],
                    [
                        81.48124999999968,
                        8.00624999999986
                    ]
                ]
            }
        },
        {
            "type": "Feature",
            "properties": {
                "HYRIV_ID": 41401651,
                "NEXT_DOWN": 0,
                "MAIN_RIV": 41401651,
                "LENGTH_KM": 1.5700001,
                "DIST_DN_KM": 0.0,
                "DIST_UP_KM": 12.1,
                "CATCH_SKM": 1.49,
                "UPLAND_SKM": 74.0,
                "ENDORHEIC": 0,
                "DIS_AV_CMS": 1.599,
                "ORD_STRA": 2,
                "ORD_CLAS": 1,
                "ORD_FLOW": 6,
                "HYBAS_L12": 4120049730.0,
                "Shape_Length": 0.014225889843268582
            },
            "geometry": {
                "type": "LineString",
                "coordinates": [
                    [
                        81.48124999999968,
                        8.00624999999986
                    ],
                    [
                        81.489583333333,
                        8.00624999999986
                    ],
                    [
                        81.49374999999972,
                        8.01041666666655
                    ]
                ]
            }
        },
        {
            "type": "Feature",
            "properties": {
                "HYRIV_ID": 41401803,
                "NEXT_DOWN": 41401650,
                "MAIN_RIV": 41401651,
                "LENGTH_KM": 6.3600001,
                "DIST_DN_KM": 2.6,
                "DIST_UP_KM": 9.8,
                "CATCH_SKM": 26.360001,
                "UPLAND_SKM": 26.4,
                "ENDORHEIC": 0,
                "DIS_AV_CMS": 0.57099998,
                "ORD_STRA": 1,
                "ORD_CLAS": 1,
                "ORD_FLOW": 7,
                "HYBAS_L12": 4120049730.0,
                "Shape_Length": 0.05740906080430279
            },
            "geometry": {
                "type": "LineString",
                "coordinates": [
                    [
                        81.4416666666664,
                        7.966666666666562
                    ],
                    [
                        81.44791666666632,
                        7.972916666666542
                    ],
                    [
                        81.45208333333298,
                        7.972916666666542
                    ],
                    [
                        81.4604166666663,
                        7.981249999999868
                    ],
                    [
                        81.4604166666663,
                        7.989583333333179
                    ],
                    [
                        81.46458333333297,
                        7.993749999999885
                    ],
                    [
                        81.46458333333297,
                        8.002083333333196
                    ],
                    [
                        81.46874999999969,
                        8.00624999999986
                    ],
                    [
                        81.47291666666635,
                        8.00624999999986
                    ]
                ]
            }
        },
        {
            "type": "Feature",
            "properties": {
                "HYRIV_ID": 41401821,
                "NEXT_DOWN": 41401651,
                "MAIN_RIV": 41401651,
                "LENGTH_KM": 7.2,
                "DIST_DN_KM": 1.7,
                "DIST_UP_KM": 10.7,
                "CATCH_SKM": 24.870001,
                "UPLAND_SKM": 24.9,
                "ENDORHEIC": 0,
                "DIS_AV_CMS": 0.54299998,
                "ORD_STRA": 1,
                "ORD_CLAS": 2,
                "ORD_FLOW": 7,
                "HYBAS_L12": 4120049730.0,
                "Shape_Length": 0.06502750715743097
            },
            "geometry": {
                "type": "LineString",
                "coordinates": [
                    [
                        81.49166666666625,
                        7.962499999999856
                    ],
                    [
                        81.49791666666627,
                        7.968749999999893
                    ],
                    [
                        81.50208333333293,
                        7.968749999999893
                    ],
                    [
                        81.5062499999996,
                        7.972916666666542
                    ],
                    [
                        81.5062499999996,
                        7.977083333333205
                    ],
                    [
                        81.49791666666627,
                        7.985416666666559
                    ],
                    [
                        81.49791666666627,
                        7.989583333333179
                    ],
                    [
                        81.489583333333,
                        7.997916666666534
                    ],
                    [
                        81.48541666666634,
                        7.997916666666534
                    ],
                    [
                        81.48124999999968,
                        8.002083333333196
                    ],
                    [
                        81.48124999999968,
                        8.00624999999986
                    ]
                ]
            }
        }
    ]
}