{
    "type": "FeatureCollection",
    "features": [
        {
            "type": "Feature",
            "properties": {
                "HYRIV_ID": 41403039,
                "NEXT_DOWN": 0,
                "MAIN_RIV": 41403039,
                "LENGTH_KM": 1.76,
                "DIST_DN_KM": 0.0,
                "DIST_UP_KM": 19.3,
                "CATCH_SKM": 4.25,
                "UPLAND_SKM": 93.599998,
                "ENDORHEIC": 0,
                "DIS_AV_CMS": 2.174,
                "ORD_STRA": 2,
                "ORD_CLAS": 1,
                "ORD_FLOW": 6,
                "HYBAS_L12": 4120049790.0,
                "Shape_Length": 0.015951779686448047
            },
            "geometry": {
                "type": "LineString",
                "coordinates": [
                    [
                        81.67708333333294,
                        7.635416666666536
                    ],
                    [
                        81.68124999999961,
                        7.639583333333242
                    ],
                    [
                        81.68541666666627,
                        7.639583333333242
                    ],
                    [
                        81.68958333333293,
                        7.643749999999891
                    ]
                ]
            }
        },
        {
            "type": "Feature",
            "properties": {
                "HYRIV_ID": 41403056,
                "NEXT_DOWN": 41403039,
                "MAIN_RIV": 41403039,
                "LENGTH_KM": 7.0700002,
                "DIST_DN_KM": 1.9,
                "DIST_UP_KM": 9.6,
                "CATCH_SKM": 17.02,
                "UPLAND_SKM": 17.0,
                "ENDORHEIC": 0,
                "DIS_AV_CMS": 0.4,
                "ORD_STRA": 1,
                "ORD_CLAS": 2,
                "ORD_FLOW": 7,
                "HYBAS_L12": 4120049790.0,
                "Shape_Length": 0.06401650429459994
            },
            "geometry": {
                "type": "LineString",
                "coordinates": [
                    [
                        81.62499999999963,
                        7.629166666666556
                    ],
                    [
                        81.6312499999996,
                        7.635416666666536
                    ],
                    [
                        81.6437499999997,
                        7.635416666666536
                    ],
                    [
                        81.64791666666625,
                        7.639583333333242
                    ],
                    [
                        81.65208333333308,
                        7.639583333333242
                    ],
                    [
                        81.65624999999957,
                        7.643749999999891
                    ],
                    [
                        81.67291666666628,
                        7.643749999999891
                    ],
                    [
                        81.67708333333294,
                        7.639583333333242
                    ],
                    [
                        81.67708333333294,
                        7.635416666666536
                    ]
                ]
            }
        },
        {
            "type": "Feature",
            "properties": {
                "HYRIV_ID": 41403078,
                "NEXT_DOWN": 41403039,
                "MAIN_RIV": 41403039,
                "LENGTH_KM": 1.76,
                "DIST_DN_KM": 2.1,
                "DIST_UP_KM": 17.6,
                "CATCH_SKM": 3.1900001,
                "UPLAND_SKM": 73.199997,
                "ENDORHEIC": 0,
                "DIS_AV_CMS": 1.701,
                "ORD_STRA": 2,
                "ORD_CLAS": 1,
                "ORD_FLOW": 6,
                "HYBAS_L12": 4120049790.0,
                "Shape_Length": 0.0159517796864179
            },
            "geometry": {
                "type": "LineString",
                "coordinates": [
                    [
                        81.66458333333296,
                        7.627083333333225
                    ],
                    [
                        81.66874999999962,
                        7.627083333333225
                    ],
                    [
                        81.67708333333294,
                        7.635416666666536
                    ]
                ]
            }
        },
        {
            "type": "Feature",
            "properties": {
                "HYRIV_ID": 41403128,
                "NEXT_DOWN": 41403078,
                "MAIN_RIV": 41403039,
                "LENGTH_KM": 4.1799998,
                "DIST_DN_KM": 3.9,
                "DIST_UP_KM": 15.8,
                "CATCH_SKM": 7.6599998,
                "UPLAND_SKM": 61.3,
                "ENDORHEIC": 0,
                "DIS_AV_CMS": 1.424,
                "ORD_STRA": 2,
                "ORD_CLAS": 1,
                "ORD_FLOW": 6,
                "HYBAS_L12": 4120049790.0,
                "Shape_Length": 0.037796115882745326
            },
            "geometry": {
                "type": "LineString",
                "coordinates": [
                    [
                        81.63541666666626,
                        7.614583333333208
                    ],
                    [
                        81.65208333333308,
                        7.631249999999874
                    ],
                    [
                        81.6604166666663,
                        7.631249999999874
                    ],
                    [
                        81.66458333333296,
                        7.627083333333225
                    ]
                ]
            }
        },
        {
            "type": "Feature",
            "properties": {
                "HYRIV_ID": 41403136,
                "NEXT_DOWN": 41403128,
                "MAIN_RIV": 41403039,
                "LENGTH_KM": 1.96,
                "DIST_DN_KM": 8.0,
                "DIST_UP_KM": 11.6,
                "CATCH_SKM": 3.1900001,
                "UPLAND_SKM": 40.0,
                "ENDORHEIC": 0,
                "DIS_AV_CMS": 0.93300003,
                "ORD_STRA": 2,
                "ORD_CLAS": 1,
                "ORD_FLOW": 7,
                "HYBAS_L12": 4120049790.0,
                "Shape_Length": 0.017677669529607417
            },
            "geometry": {
                "type": "LineString",
                "coordinates": [
                    [
                        81.62291666666638,
                        7.610416666666545
                    ],
                    [
                        81.6312499999996,
                        7.618749999999899
                    ],
                    [
                        81.63541666666626,
                        7.614583333333208
                    ]
                ]
            }
        },
        {
            "type": "Feature",
            "properties": {
                "HYRIV_ID": 41403137,
                "NEXT_DOWN": 41403078,
                "MAIN_RIV": 41403039,
                "LENGTH_KM": 2.27,
                "DIST_DN_KM": 3.9,
                "DIST_UP_KM": 5.5,
                "CATCH_SKM": 8.7200003,
                "UPLAND_SKM": 8.7,
                "ENDORHEIC": 0,
                "DIS_AV_CMS": 0.206,
                "ORD_STRA": 1,
                "ORD_CLAS": 2,
                "ORD_FLOW": 7,
                "HYBAS_L12": 4120049790.0,
                "Shape_Length": 0.020475889843231027
            },
            "geometry": {
                "type": "LineString",
                "coordinates": [
                    [
                        81.6604166666663,
                        7.608333333333213
                    ],
                    [
                        81.6604166666663,
                        7.622916666666562
                    ],
                    [
                        81.66458333333296,
                        7.627083333333225
                    ]
                ]
            }
        },
        {
            "type": "Feature",
            "properties": {
                "HYRIV_ID": 41403238,
                "NEXT_DOWN": 41403136,
                "MAIN_RIV": 41403039,
                "LENGTH_KM": 6.98,
                "DIST_DN_KM": 9.8,
                "DIST_UP_KM": 9.0,
                "CATCH_SKM": 18.09,
                "UPLAND_SKM": 18.1,
                "ENDORHEIC": 0,
                "DIS_AV_CMS": 0.422,
                "ORD_STRA": 1,
                "ORD_CLAS": 2,
                "ORD_FLOW": 7,
                "HYBAS_L12": 4120049790.0,
                "Shape_Length": 0.0631535593729304
            },
            "geometry": {
                "type": "LineString",
                "coordinates": [
                    [
                        81.57708333333298,
                        7.583333333333222
                    ],
                    [
                        81.57708333333298,
                        7.593749999999865
                    ],
                    [
                        81.5854166666663,
                        7.602083333333233
                    ],
                    [
                        81.59374999999963,
                        7.602083333333233
                    ],
                    [
                        81.59791666666635,
                        7.606249999999882
                    ],
                    [
                        81.60624999999968,
                        7.606249999999882
                    ],
                    [
                        81.61041666666634,
                        7.610416666666545
                    ],
                    [
                        81.62291666666638,
                        7.610416666666545
                    ]
                ]
            }
        },
        {
            "type": "Feature",
            "properties": {
                "HYRIV_ID": 41403250,
                "NEXT_DOWN": 41403128,
                "MAIN_RIV": 41403039,
                "LENGTH_KM": 4.6,
                "DIST_DN_KM": 7.8,
                "DIST_UP_KM": 7.6,
                "CATCH_SKM": 13.62,
                "UPLAND_SKM": 13.6,
                "ENDORHEIC": 0,
                "DIS_AV_CMS": 0.32,
                "ORD_STRA": 1,
                "ORD_CLAS": 2,
                "ORD_FLOW": 7,
                "HYBAS_L12": 4120049790.0,
                "Shape_Length": 0.041457281117884895
            },
            "geometry": {
                "type": "LineString",
                "coordinates": [
                    [
                        81.62083333333297,
                        7.579166666666559
                    ],
                    [
                        81.6312499999996,
                        7.589583333333216
                    ],
                    [
                        81.6312499999996,
                        7.597916666666528
                    ],
                    [
                        81.63541666666626,
                        7.602083333333233
                    ],
                    [
                        81.63541666666626,
                        7.614583333333208
                    ]
                ]
            }
        },
        {
            "type": "Feature",
            "properties": {
                "HYRIV_ID": 41403309,
                "NEXT_DOWN": 41403136,
                "MAIN_RIV": 41403039,
                "LENGTH_KM": 7.75,
                "DIST_DN_KM": 9.8,
                "DIST_UP_KM": 9.8,
                "CATCH_SKM": 18.73,
                "UPLAND_SKM": 18.700001,
                "ENDORHEIC": 0,
                "DIS_AV_CMS": 0.438,
                "ORD_STRA": 1,
                "ORD_CLAS": 1,
                "ORD_FLOW": 7,
                "HYBAS_L12": 4120049790.0,
                "Shape_Length": 0.06990906080444459
            },
            "geometry": {
                "type": "LineString",
                "coordinates": [
                    [
                        81.58749999999961,
                        7.562499999999893
                    ],
                    [
                        81.59374999999963,
                        7.568749999999874
                    ],
                    [
                        81.59374999999963,
                        7.577083333333242
                    ],
                    [
                        81.60208333333301,
                        7.585416666666553
                    ],
                    [
                        81.60208333333301,
                        7.593749999999865
                    ],
                    [
                        81.60624999999968,
                        7.597916666666528
                    ],
                    [
                        81.61874999999966,
                        7.597916666666528
                    ],
                    [
                        81.62291666666638,
                        7.602083333333233
                    ],
                    [
                        81.62291666666638,
                        7.610416666666545
                    ]
                ]
            }
        }
    ]
}