{
    "type": "FeatureCollection",
    "features": [
        {
            "type": "Feature",
            "properties": {
                "HYRIV_ID": 41406122,
                "NEXT_DOWN": 41406165,
                "MAIN_RIV": 41406571,
                "LENGTH_KM": 1.4400001,
                "DIST_DN_KM": 11.9,
                "DIST_UP_KM": 3.2,
                "CATCH_SKM": 6.6100001,
                "UPLAND_SKM": 6.6,
                "ENDORHEIC": 0,
                "DIS_AV_CMS": 0.255,
                "ORD_STRA": 1,
                "ORD_CLAS": 4,
                "ORD_FLOW": 7,
                "HYBAS_L12": 4120049030.0,
                "Shape_Length": 0.013005501431452373
            },
            "geometry": {
                "type": "LineString",
                "coordinates": [
                    [
                        79.89999999999966,
                        6.854166666666565
                    ],
                    [
                        79.8937499999997,
                        6.847916666666571
                    ],
                    [
                        79.8937499999997,
                        6.84375
                    ]
                ]
            }
        },
        {
            "type": "Feature",
            "properties": {
                "HYRIV_ID": 41406123,
                "NEXT_DOWN": 41406165,
                "MAIN_RIV": 41406571,
                "LENGTH_KM": 1.15,
                "DIST_DN_KM": 11.9,
                "DIST_UP_KM": 3.8,
                "CATCH_SKM": 3.84,
                "UPLAND_SKM": 3.8,
                "ENDORHEIC": 0,
                "DIS_AV_CMS": 0.15,
                "ORD_STRA": 1,
                "ORD_CLAS": 3,
                "ORD_FLOW": 7,
                "HYBAS_L12": 4120049030.0,
                "Shape_Length": 0.010416666666628771
            },
            "geometry": {
                "type": "LineString",
                "coordinates": [
                    [
                        79.90416666666633,
                        6.84375
                    ],
                    [
                        79.8937499999997,
                        6.84375
                    ]
                ]
            }
        },
        {
            "type": "Feature",
            "properties": {
                "HYRIV_ID": 41406164,
                "NEXT_DOWN": 41406189,
                "MAIN_RIV": 41406571,
                "LENGTH_KM": 1.63,
                "DIST_DN_KM": 11.2,
                "DIST_UP_KM": 3.1,
                "CATCH_SKM": 5.54,
                "UPLAND_SKM": 5.5,
                "ENDORHEIC": 0,
                "DIS_AV_CMS": 0.215,
                "ORD_STRA": 1,
                "ORD_CLAS": 4,
                "ORD_FLOW": 7,
                "HYBAS_L12": 4120049030.0,
                "Shape_Length": 0.014731391274756585
            },
            "geometry": {
                "type": "LineString",
                "coordinates": [
                    [
                        79.88333333333301,
                        6.845833333333253
                    ],
                    [
                        79.8937499999997,
                        6.835416666666553
                    ]
                ]
            }
        },
        {
            "type": "Feature",
            "properties": {
                "HYRIV_ID": 41406165,
                "NEXT_DOWN": 41406189,
                "MAIN_RIV": 41406571,
                "LENGTH_KM": 0.93,
                "DIST_DN_KM": 11.0,
                "DIST_UP_KM": 4.7,
                "CATCH_SKM": 1.71,
                "UPLAND_SKM": 12.1,
                "ENDORHEIC": 0,
                "DIS_AV_CMS": 0.471,
                "ORD_STRA": 2,
                "ORD_CLAS": 3,
                "ORD_FLOW": 7,
                "HYBAS_L12": 4120049030.0,
                "Shape_Length": 0.008333333333368387
            },
            "geometry": {
                "type": "LineString",
                "coordinates": [
                    [
                        79.8937499999997,
                        6.84375
                    ],
                    [
                        79.8937499999997,
                        6.835416666666553
                    ]
                ]
            }
        },
        {
            "type": "Feature",
            "properties": {
                "HYRIV_ID": 41406189,
                "NEXT_DOWN": 41406296,
                "MAIN_RIV": 41406571,
                "LENGTH_KM": 0.46,
                "DIST_DN_KM": 10.5,
                "DIST_UP_KM": 5.2,
                "CATCH_SKM": 0.64,
                "UPLAND_SKM": 18.3,
                "ENDORHEIC": 0,
                "DIS_AV_CMS": 0.71100003,
                "ORD_STRA": 2,
                "ORD_CLAS": 3,
                "ORD_FLOW": 7,
                "HYBAS_L12": 4120049030.0,
                "Shape_Length": 0.004166666666648666
            },
            "geometry": {
                "type": "LineString",
                "coordinates": [
                    [
                        79.8937499999997,
                        6.835416666666553
                    ],
                    [
                        79.8937499999997,
                        6.83125
                    ]
                ]
            }
        },
        {
            "type": "Feature",
            "properties": {
                "HYRIV_ID": 41406190,
                "NEXT_DOWN": 41406296,
                "MAIN_RIV": 41406571,
                "LENGTH_KM": 0.69,
                "DIST_DN_KM": 10.5,
                "DIST_UP_KM": 2.7,
                "CATCH_SKM": 3.2,
                "UPLAND_SKM": 3.2,
                "ENDORHEIC": 0,
                "DIS_AV_CMS": 0.126,
                "ORD_STRA": 1,
                "ORD_CLAS": 4,
                "ORD_FLOW": 7,
                "HYBAS_L12": 4120049030.0,
                "Shape_Length": 0.006249999999965894
            },
            "geometry": {
                "type": "LineString",
                "coordinates": [
                    [
                        79.89999999999966,
                        6.83125
                    ],
                    [
                        79.8937499999997,
                        6.83125
                    ]
                ]
            }
        },
        {
            "type": "Feature",
            "properties": {
                "HYRIV_ID": 41406191,
                "NEXT_DOWN": 41406277,
                "MAIN_RIV": 41406571,
                "LENGTH_KM": 0.69,
                "DIST_DN_KM": 22.0,
                "DIST_UP_KM": 2.7,
                "CATCH_SKM": 3.2,
                "UPLAND_SKM": 3.2,
                "ENDORHEIC": 0,
                "DIS_AV_CMS": 0.137,
                "ORD_STRA": 1,
                "ORD_CLAS": 2,
                "ORD_FLOW": 7,
                "HYBAS_L12": 4120049030.0,
                "Shape_Length": 0.0062499999999090505
            },
            "geometry": {
                "type": "LineString",
                "coordinates": [
                    [
                        80.02916666666627,
                        6.83125
                    ],
                    [
                        80.02291666666636,
                        6.83125
                    ]
                ]
            }
        },
        {
            "type": "Feature",
            "properties": {
                "HYRIV_ID": 41406211,
                "NEXT_DOWN": 41406351,
                "MAIN_RIV": 41406571,
                "LENGTH_KM": 2.27,
                "DIST_DN_KM": 19.4,
                "DIST_UP_KM": 4.7,
                "CATCH_SKM": 9.3800001,
                "UPLAND_SKM": 9.4,
                "ENDORHEIC": 0,
                "DIS_AV_CMS": 0.383,
                "ORD_STRA": 1,
                "ORD_CLAS": 2,
                "ORD_FLOW": 7,
                "HYBAS_L12": 4120049030.0,
                "Shape_Length": 0.02047588984327366
            },
            "geometry": {
                "type": "LineString",
                "coordinates": [
                    [
                        79.98124999999968,
                        6.845833333333253
                    ],
                    [
                        79.98124999999968,
                        6.839583333333216
                    ],
                    [
                        79.98541666666634,
                        6.835416666666553
                    ],
                    [
                        79.98541666666634,
                        6.827083333333199
                    ]
                ]
            }
        },
        {
            "type": "Feature",
            "properties": {
                "HYRIV_ID": 41406212,
                "NEXT_DOWN": 41406351,
                "MAIN_RIV": 41406571,
                "LENGTH_KM": 0.69,
                "DIST_DN_KM": 19.4,
                "DIST_UP_KM": 2.4,
                "CATCH_SKM": 3.4100001,
                "UPLAND_SKM": 3.4,
                "ENDORHEIC": 0,
                "DIS_AV_CMS": 0.142,
                "ORD_STRA": 1,
                "ORD_CLAS": 3,
                "ORD_FLOW": 7,
                "HYBAS_L12": 4120049030.0,
                "Shape_Length": 0.006249999999965894
            },
            "geometry": {
                "type": "LineString",
                "coordinates": [
                    [
                        79.9916666666663,
                        6.827083333333199
                    ],
                    [
                        79.98541666666634,
                        6.827083333333199
                    ]
                ]
            }
        },
        {
            "type": "Feature",
            "properties": {
                "HYRIV_ID": 41406253,
                "NEXT_DOWN": 41406297,
                "MAIN_RIV": 41406571,
                "LENGTH_KM": 5.1599998,
                "DIST_DN_KM": 9.3,
                "DIST_UP_KM": 6.7,
                "CATCH_SKM": 14.07,
                "UPLAND_SKM": 14.1,
                "ENDORHEIC": 0,
                "DIS_AV_CMS": 0.56199998,
                "ORD_STRA": 1,
                "ORD_CLAS": 2,
                "ORD_FLOW": 7,
                "HYBAS_L12": 4120049030.0,
                "Shape_Length": 0.04663495064769573
            },
            "geometry": {
                "type": "LineString",
                "coordinates": [
                    [
                        79.94583333333301,
                        6.837499999999885
                    ],
                    [
                        79.93958333333299,
                        6.83125
                    ],
                    [
                        79.93541666666627,
                        6.835416666666553
                    ],
                    [
                        79.93124999999978,
                        6.83125
                    ],
                    [
                        79.92708333333294,
                        6.83125
                    ],
                    [
                        79.9229166666664,
                        6.827083333333199
                    ],
                    [
                        79.91874999999962,
                        6.827083333333199
                    ],
                    [
                        79.9104166666663,
                        6.818749999999888
                    ]
                ]
            }
        },
        {
            "type": "Feature",
            "properties": {
                "HYRIV_ID": 41406254,
                "NEXT_DOWN": 41406277,
                "MAIN_RIV": 41406571,
                "LENGTH_KM": 2.1,
                "DIST_DN_KM": 22.1,
                "DIST_UP_KM": 4.8,
                "CATCH_SKM": 4.9,
                "UPLAND_SKM": 4.9,
                "ENDORHEIC": 0,
                "DIS_AV_CMS": 0.212,
                "ORD_STRA": 1,
                "ORD_CLAS": 1,
                "ORD_FLOW": 7,
                "HYBAS_L12": 4120049030.0,
                "Shape_Length": 0.01889805794135673
            },
            "geometry": {
                "type": "LineString",
                "coordinates": [
                    [
                        80.03333333333299,
                        6.816666666666556
                    ],
                    [
                        80.02708333333302,
                        6.822916666666579
                    ],
                    [
                        80.02708333333302,
                        6.827083333333199
                    ],
                    [
                        80.02291666666636,
                        6.83125
                    ]
                ]
            }
        },
        {
            "type": "Feature",
            "properties": {
                "HYRIV_ID": 41406276,
                "NEXT_DOWN": 41406297,
                "MAIN_RIV": 41406571,
                "LENGTH_KM": 1.4400001,
                "DIST_DN_KM": 9.1,
                "DIST_UP_KM": 3.5,
                "CATCH_SKM": 3.84,
                "UPLAND_SKM": 3.8,
                "ENDORHEIC": 0,
                "DIS_AV_CMS": 0.154,
                "ORD_STRA": 1,
                "ORD_CLAS": 3,
                "ORD_FLOW": 7,
                "HYBAS_L12": 4120049030.0,
                "Shape_Length": 0.01300550143150678
            },
            "geometry": {
                "type": "LineString",
                "coordinates": [
                    [
                        79.92083333333298,
                        6.812499999999893
                    ],
                    [
                        79.91458333333296,
                        6.818749999999888
                    ],
                    [
                        79.9104166666663,
                        6.818749999999888
                    ]
                ]
            }
        },
        {
            "type": "Feature",
            "properties": {
                "HYRIV_ID": 41406277,
                "NEXT_DOWN": 41406353,
                "MAIN_RIV": 41406571,
                "LENGTH_KM": 2.8800001,
                "DIST_DN_KM": 19.3,
                "DIST_UP_KM": 7.7,
                "CATCH_SKM": 7.6700001,
                "UPLAND_SKM": 15.8,
                "ENDORHEIC": 0,
                "DIS_AV_CMS": 0.67799997,
                "ORD_STRA": 2,
                "ORD_CLAS": 1,
                "ORD_FLOW": 7,
                "HYBAS_L12": 4120049030.0,
                "Shape_Length": 0.026011002863001783
            },
            "geometry": {
                "type": "LineString",
                "coordinates": [
                    [
                        80.02291666666636,
                        6.83125
                    ],
                    [
                        80.0187499999997,
                        6.83125
                    ],
                    [
                        80.01041666666637,
                        6.822916666666579
                    ],
                    [
                        80.01041666666637,
                        6.818749999999888
                    ],
                    [
                        80.00624999999971,
                        6.814583333333225
                    ]
                ]
            }
        },
        {
            "type": "Feature",
            "properties": {
                "HYRIV_ID": 41406296,
                "NEXT_DOWN": 41406432,
                "MAIN_RIV": 41406571,
                "LENGTH_KM": 2.7,
                "DIST_DN_KM": 8.0,
                "DIST_UP_KM": 7.7,
                "CATCH_SKM": 6.6100001,
                "UPLAND_SKM": 28.1,
                "ENDORHEIC": 0,
                "DIS_AV_CMS": 1.097,
                "ORD_STRA": 2,
                "ORD_CLAS": 3,
                "ORD_FLOW": 6,
                "HYBAS_L12": 4120049030.0,
                "Shape_Length": 0.024285113019834804
            },
            "geometry": {
                "type": "LineString",
                "coordinates": [
                    [
                        79.8937499999997,
                        6.83125
                    ],
                    [
                        79.8937499999997,
                        6.827083333333199
                    ],
                    [
                        79.89791666666636,
                        6.822916666666579
                    ],
                    [
                        79.89791666666636,
                        6.814583333333225
                    ],
                    [
                        79.90208333333308,
                        6.810416666666562
                    ]
                ]
            }
        },
        {
            "type": "Feature",
            "properties": {
                "HYRIV_ID": 41406297,
                "NEXT_DOWN": 41406432,
                "MAIN_RIV": 41406571,
                "LENGTH_KM": 1.31,
                "DIST_DN_KM": 8.0,
                "DIST_UP_KM": 8.0,
                "CATCH_SKM": 1.28,
                "UPLAND_SKM": 19.200001,
                "ENDORHEIC": 0,
                "DIS_AV_CMS": 0.76700002,
                "ORD_STRA": 2,
                "ORD_CLAS": 2,
                "ORD_FLOW": 7,
                "HYBAS_L12": 4120049030.0,
                "Shape_Length": 0.011785113019684684
            },
            "geometry": {
                "type": "LineString",
                "coordinates": [
                    [
                        79.9104166666663,
                        6.818749999999888
                    ],
                    [
                        79.90208333333308,
                        6.810416666666562
                    ]
                ]
            }
        },
        {
            "type": "Feature",
            "properties": {
                "HYRIV_ID": 41406312,
                "NEXT_DOWN": 41406353,
                "MAIN_RIV": 41406571,
                "LENGTH_KM": 2.09,
                "DIST_DN_KM": 19.1,
                "DIST_UP_KM": 4.6,
                "CATCH_SKM": 7.46,
                "UPLAND_SKM": 7.5,
                "ENDORHEIC": 0,
                "DIS_AV_CMS": 0.32300001,
                "ORD_STRA": 1,
                "ORD_CLAS": 2,
                "ORD_FLOW": 7,
                "HYBAS_L12": 4120049030.0,
                "Shape_Length": 0.01889805794129888
            },
            "geometry": {
                "type": "LineString",
                "coordinates": [
                    [
                        80.02083333333294,
                        6.804166666666582
                    ],
                    [
                        80.01041666666637,
                        6.814583333333225
                    ],
                    [
                        80.00624999999971,
                        6.814583333333225
                    ]
                ]
            }
        },
        {
            "type": "Feature",
            "properties": {
                "HYRIV_ID": 41406349,
                "NEXT_DOWN": 41406503,
                "MAIN_RIV": 41406571,
                "LENGTH_KM": 0.98,
                "DIST_DN_KM": 15.5,
                "DIST_UP_KM": 2.5,
                "CATCH_SKM": 2.77,
                "UPLAND_SKM": 2.8,
                "ENDORHEIC": 0,
                "DIS_AV_CMS": 0.113,
                "ORD_STRA": 1,
                "ORD_CLAS": 4,
                "ORD_FLOW": 7,
                "HYBAS_L12": 4120049030.0,
                "Shape_Length": 0.008838834764833853
            },
            "geometry": {
                "type": "LineString",
                "coordinates": [
                    [
                        79.94999999999968,
                        6.804166666666582
                    ],
                    [
                        79.95624999999964,
                        6.797916666666545
                    ]
                ]
            }
        },
        {
            "type": "Feature",
            "properties": {
                "HYRIV_ID": 41406350,
                "NEXT_DOWN": 41406503,
                "MAIN_RIV": 41406571,
                "LENGTH_KM": 1.81,
                "DIST_DN_KM": 15.3,
                "DIST_UP_KM": 4.3,
                "CATCH_SKM": 8.1,
                "UPLAND_SKM": 8.1,
                "ENDORHEIC": 0,
                "DIS_AV_CMS": 0.33,
                "ORD_STRA": 1,
                "ORD_CLAS": 3,
                "ORD_FLOW": 7,
                "HYBAS_L12": 4120049030.0,
                "Shape_Length": 0.016309223176555664
            },
            "geometry": {
                "type": "LineString",
                "coordinates": [
                    [
                        79.95208333333298,
                        6.812499999999893
                    ],
                    [
                        79.95208333333298,
                        6.80625
                    ],
                    [
                        79.95624999999964,
                        6.802083333333208
                    ],
                    [
                        79.95624999999964,
                        6.797916666666545
                    ]
                ]
            }
        },
        {
            "type": "Feature",
            "properties": {
                "HYRIV_ID": 41406351,
                "NEXT_DOWN": 41406504,
                "MAIN_RIV": 41406571,
                "LENGTH_KM": 3.4300001,
                "DIST_DN_KM": 16.1,
                "DIST_UP_KM": 8.0,
                "CATCH_SKM": 7.46,
                "UPLAND_SKM": 20.200001,
                "ENDORHEIC": 0,
                "DIS_AV_CMS": 0.834,
                "ORD_STRA": 2,
                "ORD_CLAS": 2,
                "ORD_FLOW": 7,
                "HYBAS_L12": 4120049030.0,
                "Shape_Length": 0.03089255650987401
            },
            "geometry": {
                "type": "LineString",
                "coordinates": [
                    [
                        79.98541666666634,
                        6.827083333333199
                    ],
                    [
                        79.98541666666634,
                        6.802083333333208
                    ],
                    [
                        79.989583333333,
                        6.797916666666545
                    ]
                ]
            }
        },
        {
            "type": "Feature",
            "properties": {
                "HYRIV_ID": 41406352,
                "NEXT_DOWN": 41406504,
                "MAIN_RIV": 41406571,
                "LENGTH_KM": 0.92,
                "DIST_DN_KM": 15.9,
                "DIST_UP_KM": 11.1,
                "CATCH_SKM": 2.1300001,
                "UPLAND_SKM": 33.3,
                "ENDORHEIC": 0,
                "DIS_AV_CMS": 1.4349999,
                "ORD_STRA": 2,
                "ORD_CLAS": 1,
                "ORD_FLOW": 6,
                "HYBAS_L12": 4120049030.0,
                "Shape_Length": 0.008333333333325754
            },
            "geometry": {
                "type": "LineString",
                "coordinates": [
                    [
                        79.99791666666633,
                        6.797916666666545
                    ],
                    [
                        79.989583333333,
                        6.797916666666545
                    ]
                ]
            }
        },
        {
            "type": "Feature",
            "properties": {
                "HYRIV_ID": 41406353,
                "NEXT_DOWN": 41406352,
                "MAIN_RIV": 41406571,
                "LENGTH_KM": 2.23,
                "DIST_DN_KM": 17.0,
                "DIST_UP_KM": 10.0,
                "CATCH_SKM": 5.12,
                "UPLAND_SKM": 28.3,
                "ENDORHEIC": 0,
                "DIS_AV_CMS": 1.225,
                "ORD_STRA": 2,
                "ORD_CLAS": 1,
                "ORD_FLOW": 6,
                "HYBAS_L12": 4120049030.0,
                "Shape_Length": 0.020118446353146954
            },
            "geometry": {
                "type": "LineString",
                "coordinates": [
                    [
                        80.00624999999971,
                        6.814583333333225
                    ],
                    [
                        80.00624999999971,
                        6.80625
                    ],
                    [
                        79.99791666666633,
                        6.797916666666545
                    ]
                ]
            }
        },
        {
            "type": "Feature",
            "properties": {
                "HYRIV_ID": 41406354,
                "NEXT_DOWN": 41406352,
                "MAIN_RIV": 41406571,
                "LENGTH_KM": 0.69,
                "DIST_DN_KM": 16.8,
                "DIST_UP_KM": 2.4,
                "CATCH_SKM": 2.77,
                "UPLAND_SKM": 2.8,
                "ENDORHEIC": 0,
                "DIS_AV_CMS": 0.119,
                "ORD_STRA": 1,
                "ORD_CLAS": 2,
                "ORD_FLOW": 7,
                "HYBAS_L12": 4120049030.0,
                "Shape_Length": 0.006249999999965894
            },
            "geometry": {
                "type": "LineString",
                "coordinates": [
                    [
                        80.0041666666663,
                        6.797916666666545
                    ],
                    [
                        79.99791666666633,
                        6.797916666666545
                    ]
                ]
            }
        },
        {
            "type": "Feature",
            "properties": {
                "HYRIV_ID": 41406432,
                "NEXT_DOWN": 41406488,
                "MAIN_RIV": 41406571,
                "LENGTH_KM": 3.4300001,
                "DIST_DN_KM": 4.4,
                "DIST_UP_KM": 11.6,
                "CATCH_SKM": 9.3800001,
                "UPLAND_SKM": 56.700001,
                "ENDORHEIC": 0,
                "DIS_AV_CMS": 2.2390001,
                "ORD_STRA": 3,
                "ORD_CLAS": 2,
                "ORD_FLOW": 6,
                "HYBAS_L12": 4120049030.0,
                "Shape_Length": 0.03089255650990243
            },
            "geometry": {
                "type": "LineString",
                "coordinates": [
                    [
                        79.90208333333308,
                        6.810416666666562
                    ],
                    [
                        79.90208333333308,
                        6.802083333333208
                    ],
                    [
                        79.90624999999974,
                        6.797916666666545
                    ],
                    [
                        79.90624999999974,
                        6.781249999999879
                    ]
                ]
            }
        },
        {
            "type": "Feature",
            "properties": {
                "HYRIV_ID": 41406433,
                "NEXT_DOWN": 41406488,
                "MAIN_RIV": 41406571,
                "LENGTH_KM": 1.15,
                "DIST_DN_KM": 4.4,
                "DIST_UP_KM": 3.2,
                "CATCH_SKM": 5.33,
                "UPLAND_SKM": 5.3,
                "ENDORHEIC": 0,
                "DIS_AV_CMS": 0.21600001,
                "ORD_STRA": 1,
                "ORD_CLAS": 3,
                "ORD_FLOW": 7,
                "HYBAS_L12": 4120049030.0,
                "Shape_Length": 0.010416666666571928
            },
            "geometry": {
                "type": "LineString",
                "coordinates": [
                    [
                        79.91666666666632,
                        6.781249999999879
                    ],
                    [
                        79.90624999999974,
                        6.781249999999879
                    ]
                ]
            }
        },
        {
            "type": "Feature",
            "properties": {
                "HYRIV_ID": 41406487,
                "NEXT_DOWN": 41406502,
                "MAIN_RIV": 41406571,
                "LENGTH_KM": 0.69,
                "DIST_DN_KM": 2.8,
                "DIST_UP_KM": 3.0,
                "CATCH_SKM": 3.2,
                "UPLAND_SKM": 3.2,
                "ENDORHEIC": 0,
                "DIS_AV_CMS": 0.129,
                "ORD_STRA": 1,
                "ORD_CLAS": 3,
                "ORD_FLOW": 7,
                "HYBAS_L12": 4120049030.0,
                "Shape_Length": 0.006249999999980105
            },
            "geometry": {
                "type": "LineString",
                "coordinates": [
                    [
                        79.90208333333308,
                        6.774999999999885
                    ],
                    [
                        79.90208333333308,
                        6.76875
                    ]
                ]
            }
        },
        {
            "type": "Feature",
            "properties": {
                "HYRIV_ID": 41406488,
                "NEXT_DOWN": 41406502,
                "MAIN_RIV": 41406571,
                "LENGTH_KM": 1.58,
                "DIST_DN_KM": 3.0,
                "DIST_UP_KM": 13.0,
                "CATCH_SKM": 2.77,
                "UPLAND_SKM": 64.800003,
                "ENDORHEIC": 0,
                "DIS_AV_CMS": 2.5669999,
                "ORD_STRA": 3,
                "ORD_CLAS": 2,
                "ORD_FLOW": 6,
                "HYBAS_L12": 4120049030.0,
                "Shape_Length": 0.014225889843198242
            },
            "geometry": {
                "type": "LineString",
                "coordinates": [
                    [
                        79.90624999999974,
                        6.781249999999879
                    ],
                    [
                        79.90624999999974,
                        6.772916666666553
                    ],
                    [
                        79.90208333333308,
                        6.76875
                    ]
                ]
            }
        },
        {
            "type": "Feature",
            "properties": {
                "HYRIV_ID": 41406502,
                "NEXT_DOWN": 41406571,
                "MAIN_RIV": 41406571,
                "LENGTH_KM": 0.46,
                "DIST_DN_KM": 2.4,
                "DIST_UP_KM": 13.7,
                "CATCH_SKM": 0.21,
                "UPLAND_SKM": 68.199997,
                "ENDORHEIC": 0,
                "DIS_AV_CMS": 2.704,
                "ORD_STRA": 3,
                "ORD_CLAS": 2,
                "ORD_FLOW": 6,
                "HYBAS_L12": 4120049030.0,
                "Shape_Length": 0.004166666666662877
            },
            "geometry": {
                "type": "LineString",
                "coordinates": [
                    [
                        79.90208333333308,
                        6.76875
                    ],
                    [
                        79.90208333333308,
                        6.764583333333242
                    ]
                ]
            }
        },
        {
            "type": "Feature",
            "properties": {
                "HYRIV_ID": 41406503,
                "NEXT_DOWN": 41406522,
                "MAIN_RIV": 41406571,
                "LENGTH_KM": 4.6599998,
                "DIST_DN_KM": 10.6,
                "DIST_UP_KM": 8.9,
                "CATCH_SKM": 9.8,
                "UPLAND_SKM": 20.700001,
                "ENDORHEIC": 0,
                "DIS_AV_CMS": 0.847,
                "ORD_STRA": 2,
                "ORD_CLAS": 3,
                "ORD_FLOW": 7,
                "HYBAS_L12": 4120049030.0,
                "Shape_Length": 0.04196278254940963
            },
            "geometry": {
                "type": "LineString",
                "coordinates": [
                    [
                        79.95624999999964,
                        6.797916666666545
                    ],
                    [
                        79.96458333333297,
                        6.789583333333233
                    ],
                    [
                        79.96458333333297,
                        6.781249999999879
                    ],
                    [
                        79.95624999999964,
                        6.772916666666553
                    ],
                    [
                        79.9604166666663,
                        6.76875
                    ],
                    [
                        79.9604166666663,
                        6.764583333333242
                    ]
                ]
            }
        },
        {
            "type": "Feature",
            "properties": {
                "HYRIV_ID": 41406504,
                "NEXT_DOWN": 41406522,
                "MAIN_RIV": 41406571,
                "LENGTH_KM": 5.3,
                "DIST_DN_KM": 10.8,
                "DIST_UP_KM": 16.200001,
                "CATCH_SKM": 14.92,
                "UPLAND_SKM": 68.400002,
                "ENDORHEIC": 0,
                "DIS_AV_CMS": 2.8959999,
                "ORD_STRA": 3,
                "ORD_CLAS": 1,
                "ORD_FLOW": 6,
                "HYBAS_L12": 4120049030.0,
                "Shape_Length": 0.04785533905932405
            },
            "geometry": {
                "type": "LineString",
                "coordinates": [
                    [
                        79.989583333333,
                        6.797916666666545
                    ],
                    [
                        79.98541666666634,
                        6.793749999999896
                    ],
                    [
                        79.98541666666634,
                        6.785416666666571
                    ],
                    [
                        79.96874999999963,
                        6.76875
                    ],
                    [
                        79.96458333333297,
                        6.76875
                    ],
                    [
                        79.9604166666663,
                        6.764583333333242
                    ]
                ]
            }
        },
        {
            "type": "Feature",
            "properties": {
                "HYRIV_ID": 41406505,
                "NEXT_DOWN": 41406547,
                "MAIN_RIV": 41406571,
                "LENGTH_KM": 4.9699998,
                "DIST_DN_KM": 17.5,
                "DIST_UP_KM": 5.9,
                "CATCH_SKM": 14.71,
                "UPLAND_SKM": 14.7,
                "ENDORHEIC": 0,
                "DIS_AV_CMS": 0.649,
                "ORD_STRA": 1,
                "ORD_CLAS": 2,
                "ORD_FLOW": 7,
                "HYBAS_L12": 4120049030.0,
                "Shape_Length": 0.04490906080433254
            },
            "geometry": {
                "type": "LineString",
                "coordinates": [
                    [
                        80.04583333333298,
                        6.7875
                    ],
                    [
                        80.0354166666664,
                        6.777083333333216
                    ],
                    [
                        80.03124999999974,
                        6.777083333333216
                    ],
                    [
                        80.02708333333302,
                        6.772916666666553
                    ],
                    [
                        80.02291666666636,
                        6.772916666666553
                    ],
                    [
                        80.0187499999997,
                        6.76875
                    ],
                    [
                        80.01458333333304,
                        6.76875
                    ],
                    [
                        80.01041666666637,
                        6.764583333333242
                    ]
                ]
            }
        },
        {
            "type": "Feature",
            "properties": {
                "HYRIV_ID": 41406521,
                "NEXT_DOWN": 41406591,
                "MAIN_RIV": 41406571,
                "LENGTH_KM": 0.69,
                "DIST_DN_KM": 9.5,
                "DIST_UP_KM": 3.1,
                "CATCH_SKM": 3.4100001,
                "UPLAND_SKM": 3.4,
                "ENDORHEIC": 0,
                "DIS_AV_CMS": 0.14,
                "ORD_STRA": 1,
                "ORD_CLAS": 2,
                "ORD_FLOW": 7,
                "HYBAS_L12": 4120049030.0,
                "Shape_Length": 0.006249999999994316
            },
            "geometry": {
                "type": "LineString",
                "coordinates": [
                    [
                        79.95208333333298,
                        6.766666666666573
                    ],
                    [
                        79.95208333333298,
                        6.760416666666579
                    ]
                ]
            }
        },
        {
            "type": "Feature",
            "properties": {
                "HYRIV_ID": 41406522,
                "NEXT_DOWN": 41406591,
                "MAIN_RIV": 41406571,
                "LENGTH_KM": 1.11,
                "DIST_DN_KM": 9.7,
                "DIST_UP_KM": 17.3,
                "CATCH_SKM": 1.28,
                "UPLAND_SKM": 127.7,
                "ENDORHEIC": 0,
                "DIS_AV_CMS": 5.4250002,
                "ORD_STRA": 3,
                "ORD_CLAS": 1,
                "ORD_FLOW": 6,
                "HYBAS_L12": 4120049030.0,
                "Shape_Length": 0.010059223176545413
            },
            "geometry": {
                "type": "LineString",
                "coordinates": [
                    [
                        79.9604166666663,
                        6.764583333333242
                    ],
                    [
                        79.95624999999964,
                        6.764583333333242
                    ],
                    [
                        79.95208333333298,
                        6.760416666666579
                    ]
                ]
            }
        },
        {
            "type": "Feature",
            "properties": {
                "HYRIV_ID": 41406523,
                "NEXT_DOWN": 41406547,
                "MAIN_RIV": 41406571,
                "LENGTH_KM": 0.98,
                "DIST_DN_KM": 17.5,
                "DIST_UP_KM": 2.9,
                "CATCH_SKM": 4.2600002,
                "UPLAND_SKM": 4.3,
                "ENDORHEIC": 0,
                "DIS_AV_CMS": 0.188,
                "ORD_STRA": 1,
                "ORD_CLAS": 3,
                "ORD_FLOW": 7,
                "HYBAS_L12": 4120049030.0,
                "Shape_Length": 0.008838834764833853
            },
            "geometry": {
                "type": "LineString",
                "coordinates": [
                    [
                        80.01666666666634,
                        6.758333333333205
                    ],
                    [
                        80.01041666666637,
                        6.764583333333242
                    ]
                ]
            }
        },
        {
            "type": "Feature",
            "properties": {
                "HYRIV_ID": 41406544,
                "NEXT_DOWN": 41406571,
                "MAIN_RIV": 41406571,
                "LENGTH_KM": 2.6900001,
                "DIST_DN_KM": 2.4,
                "DIST_UP_KM": 24.6,
                "CATCH_SKM": 5.33,
                "UPLAND_SKM": 165.60001,
                "ENDORHEIC": 0,
                "DIS_AV_CMS": 7.0019999,
                "ORD_STRA": 3,
                "ORD_CLAS": 1,
                "ORD_FLOW": 6,
                "HYBAS_L12": 4120049030.0,
                "Shape_Length": 0.0242851130197738
            },
            "geometry": {
                "type": "LineString",
                "coordinates": [
                    [
                        79.9229166666664,
                        6.756249999999888
                    ],
                    [
                        79.91874999999962,
                        6.756249999999888
                    ],
                    [
                        79.9104166666663,
                        6.764583333333242
                    ],
                    [
                        79.90208333333308,
                        6.764583333333242
                    ]
                ]
            }
        },
        {
            "type": "Feature",
            "properties": {
                "HYRIV_ID": 41406545,
                "NEXT_DOWN": 41406544,
                "MAIN_RIV": 41406571,
                "LENGTH_KM": 0.69,
                "DIST_DN_KM": 5.0,
                "DIST_UP_KM": 2.7,
                "CATCH_SKM": 2.77,
                "UPLAND_SKM": 2.8,
                "ENDORHEIC": 0,
                "DIS_AV_CMS": 0.114,
                "ORD_STRA": 1,
                "ORD_CLAS": 2,
                "ORD_FLOW": 7,
                "HYBAS_L12": 4120049030.0,
                "Shape_Length": 0.006249999999965894
            },
            "geometry": {
                "type": "LineString",
                "coordinates": [
                    [
                        79.92916666666636,
                        6.756249999999888
                    ],
                    [
                        79.9229166666664,
                        6.756249999999888
                    ]
                ]
            }
        },
        {
            "type": "Feature",
            "properties": {
                "HYRIV_ID": 41406546,
                "NEXT_DOWN": 41406522,
                "MAIN_RIV": 41406571,
                "LENGTH_KM": 3.99,
                "DIST_DN_KM": 10.8,
                "DIST_UP_KM": 12.6,
                "CATCH_SKM": 5.9699998,
                "UPLAND_SKM": 37.3,
                "ENDORHEIC": 0,
                "DIS_AV_CMS": 1.6289999,
                "ORD_STRA": 2,
                "ORD_CLAS": 2,
                "ORD_FLOW": 6,
                "HYBAS_L12": 4120049030.0,
                "Shape_Length": 0.03607022603961926
            },
            "geometry": {
                "type": "LineString",
                "coordinates": [
                    [
                        79.989583333333,
                        6.756249999999888
                    ],
                    [
                        79.98124999999968,
                        6.756249999999888
                    ],
                    [
                        79.97708333333296,
                        6.760416666666579
                    ],
                    [
                        79.9729166666663,
                        6.760416666666579
                    ],
                    [
                        79.96874999999963,
                        6.756249999999888
                    ],
                    [
                        79.9604166666663,
                        6.764583333333242
                    ]
                ]
            }
        },
        {
            "type": "Feature",
            "properties": {
                "HYRIV_ID": 41406547,
                "NEXT_DOWN": 41406546,
                "MAIN_RIV": 41406571,
                "LENGTH_KM": 2.6900001,
                "DIST_DN_KM": 14.8,
                "DIST_UP_KM": 8.6,
                "CATCH_SKM": 5.75,
                "UPLAND_SKM": 24.700001,
                "ENDORHEIC": 0,
                "DIS_AV_CMS": 1.089,
                "ORD_STRA": 2,
                "ORD_CLAS": 2,
                "ORD_FLOW": 6,
                "HYBAS_L12": 4120049030.0,
                "Shape_Length": 0.024285113019813995
            },
            "geometry": {
                "type": "LineString",
                "coordinates": [
                    [
                        80.01041666666637,
                        6.764583333333242
                    ],
                    [
                        80.00624999999971,
                        6.764583333333242
                    ],
                    [
                        80.00208333333299,
                        6.760416666666579
                    ],
                    [
                        79.99374999999966,
                        6.760416666666579
                    ],
                    [
                        79.989583333333,
                        6.756249999999888
                    ]
                ]
            }
        },
        {
            "type": "Feature",
            "properties": {
                "HYRIV_ID": 41406571,
                "NEXT_DOWN": 0,
                "MAIN_RIV": 41406571,
                "LENGTH_KM": 2.23,
                "DIST_DN_KM": 0.0,
                "DIST_UP_KM": 26.700001,
                "CATCH_SKM": 3.2,
                "UPLAND_SKM": 236.8,
                "ENDORHEIC": 0,
                "DIS_AV_CMS": 9.8280001,
                "ORD_STRA": 4,
                "ORD_CLAS": 1,
                "ORD_FLOW": 6,
                "HYBAS_L12": 4120049030.0,
                "Shape_Length": 0.02011844635317609
            },
            "geometry": {
                "type": "LineString",
                "coordinates": [
                    [
                        79.90208333333308,
                        6.764583333333242
                    ],
                    [
                        79.89791666666636,
                        6.764583333333242
                    ],
                    [
                        79.8937499999997,
                        6.760416666666579
                    ],
                    [
                        79.8937499999997,
                        6.756249999999888
                    ],
                    [
                        79.88958333333304,
                        6.752083333333225
                    ]
                ]
            }
        },
        {
            "type": "Feature",
            "properties": {
                "HYRIV_ID": 41406572,
                "NEXT_DOWN": 41406544,
                "MAIN_RIV": 41406571,
                "LENGTH_KM": 0.46,
                "DIST_DN_KM": 5.1,
                "DIST_UP_KM": 21.9,
                "CATCH_SKM": 0.85,
                "UPLAND_SKM": 157.5,
                "ENDORHEIC": 0,
                "DIS_AV_CMS": 6.6700001,
                "ORD_STRA": 3,
                "ORD_CLAS": 1,
                "ORD_FLOW": 6,
                "HYBAS_L12": 4120049030.0,
                "Shape_Length": 0.004166666666662877
            },
            "geometry": {
                "type": "LineString",
                "coordinates": [
                    [
                        79.9229166666664,
                        6.752083333333225
                    ],
                    [
                        79.9229166666664,
                        6.756249999999888
                    ]
                ]
            }
        },
        {
            "type": "Feature",
            "properties": {
                "HYRIV_ID": 41406590,
                "NEXT_DOWN": 41406572,
                "MAIN_RIV": 41406571,
                "LENGTH_KM": 2.03,
                "DIST_DN_KM": 5.7,
                "DIST_UP_KM": 21.3,
                "CATCH_SKM": 3.84,
                "UPLAND_SKM": 147.7,
                "ENDORHEIC": 0,
                "DIS_AV_CMS": 6.2620001,
                "ORD_STRA": 3,
                "ORD_CLAS": 1,
                "ORD_FLOW": 6,
                "HYBAS_L12": 4120049030.0,
                "Shape_Length": 0.018392556509847623
            },
            "geometry": {
                "type": "LineString",
                "coordinates": [
                    [
                        79.93958333333299,
                        6.747916666666562
                    ],
                    [
                        79.92708333333294,
                        6.747916666666562
                    ],
                    [
                        79.9229166666664,
                        6.752083333333225
                    ]
                ]
            }
        },
        {
            "type": "Feature",
            "properties": {
                "HYRIV_ID": 41406591,
                "NEXT_DOWN": 41406590,
                "MAIN_RIV": 41406571,
                "LENGTH_KM": 1.96,
                "DIST_DN_KM": 7.7,
                "DIST_UP_KM": 19.3,
                "CATCH_SKM": 3.2,
                "UPLAND_SKM": 134.3,
                "ENDORHEIC": 0,
                "DIS_AV_CMS": 5.698,
                "ORD_STRA": 3,
                "ORD_CLAS": 1,
                "ORD_FLOW": 6,
                "HYBAS_L12": 4120049030.0,
                "Shape_Length": 0.017677669529667706
            },
            "geometry": {
                "type": "LineString",
                "coordinates": [
                    [
                        79.95208333333298,
                        6.760416666666579
                    ],
                    [
                        79.93958333333299,
                        6.747916666666562
                    ]
                ]
            }
        },
        {
            "type": "Feature",
            "properties": {
                "HYRIV_ID": 41406609,
                "NEXT_DOWN": 41406590,
                "MAIN_RIV": 41406571,
                "LENGTH_KM": 1.8,
                "DIST_DN_KM": 7.5,
                "DIST_UP_KM": 4.3,
                "CATCH_SKM": 9.5900002,
                "UPLAND_SKM": 9.6,
                "ENDORHEIC": 0,
                "DIS_AV_CMS": 0.40400001,
                "ORD_STRA": 1,
                "ORD_CLAS": 2,
                "ORD_FLOW": 7,
                "HYBAS_L12": 4120049030.0,
                "Shape_Length": 0.016309223176608344
            },
            "geometry": {
                "type": "LineString",
                "coordinates": [
                    [
                        79.9541666666664,
                        6.743749999999899
                    ],
                    [
                        79.94791666666632,
                        6.743749999999899
                    ],
                    [
                        79.9437499999996,
                        6.747916666666562
                    ],
                    [
                        79.93958333333299,
                        6.747916666666562
                    ]
                ]
            }
        },
        {
            "type": "Feature",
            "properties": {
                "HYRIV_ID": 41406610,
                "NEXT_DOWN": 41406546,
                "MAIN_RIV": 41406571,
                "LENGTH_KM": 2.1,
                "DIST_DN_KM": 14.6,
                "DIST_UP_KM": 4.2,
                "CATCH_SKM": 6.6100001,
                "UPLAND_SKM": 6.6,
                "ENDORHEIC": 0,
                "DIS_AV_CMS": 0.28600001,
                "ORD_STRA": 1,
                "ORD_CLAS": 3,
                "ORD_FLOW": 7,
                "HYBAS_L12": 4120049030.0,
                "Shape_Length": 0.018898057941339072
            },
            "geometry": {
                "type": "LineString",
                "coordinates": [
                    [
                        79.99999999999963,
                        6.741666666666582
                    ],
                    [
                        79.989583333333,
                        6.752083333333225
                    ],
                    [
                        79.989583333333,
                        6.756249999999888
                    ]
                ]
            }
        },
        {
            "type": "Feature",
            "properties": {
                "HYRIV_ID": 41406682,
                "NEXT_DOWN": 41406572,
                "MAIN_RIV": 41406571,
                "LENGTH_KM": 2.9300001,
                "DIST_DN_KM": 5.7,
                "DIST_UP_KM": 4.3,
                "CATCH_SKM": 8.9499998,
                "UPLAND_SKM": 9.0,
                "ENDORHEIC": 0,
                "DIS_AV_CMS": 0.373,
                "ORD_STRA": 1,
                "ORD_CLAS": 2,
                "ORD_FLOW": 7,
                "HYBAS_L12": 4120049030.0,
                "Shape_Length": 0.026368446353264297
            },
            "geometry": {
                "type": "LineString",
                "coordinates": [
                    [
                        79.9229166666664,
                        6.729166666666565
                    ],
                    [
                        79.9229166666664,
                        6.73958333333325
                    ],
                    [
                        79.91874999999962,
                        6.743749999999899
                    ],
                    [
                        79.91874999999962,
                        6.747916666666562
                    ],
                    [
                        79.9229166666664,
                        6.752083333333225
                    ]
                ]
            }
        }
    ]
}