{
    "type": "FeatureCollection",
    "features": [
        {
            "type": "Feature",
            "properties": {
                "HYRIV_ID": 41409328,
                "NEXT_DOWN": 0,
                "MAIN_RIV": 41409328,
                "LENGTH_KM": 5.7199998,
                "DIST_DN_KM": 0.0,
                "DIST_UP_KM": 9.2,
                "CATCH_SKM": 21.129999,
                "UPLAND_SKM": 20.9,
                "ENDORHEIC": 0,
                "DIS_AV_CMS": 0.40400001,
                "ORD_STRA": 1,
                "ORD_CLAS": 1,
                "ORD_FLOW": 7,
                "HYBAS_L12": 4120050050.0,
                "Shape_Length": 0.051516504294637167
            },
            "geometry": {
                "type": "LineString",
                "coordinates": [
                    [
                        81.2541666666663,
                        6.225
                    ],
                    [
                        81.24791666666627,
                        6.21875
                    ],
                    [
                        81.25208333333305,
                        6.214583333333231
                    ],
                    [
                        81.25208333333305,
                        6.20625
                    ],
                    [
                        81.24791666666627,
                        6.202083333333213
                    ],
                    [
                        81.24791666666627,
                        6.189583333333239
                    ],
                    [
                        81.24374999999961,
                        6.185416666666576
                    ],
                    [
                        81.24374999999961,
                        6.18125
                    ]
                ]
            }
        }
    ]
}