{
    "type": "FeatureCollection",
    "features": [
        {
            "type": "Feature",
            "properties": {
                "HYRIV_ID": 41402934,
                "NEXT_DOWN": 41402935,
                "MAIN_RIV": 41402935,
                "LENGTH_KM": 0.69,
                "DIST_DN_KM": 6.5,
                "DIST_UP_KM": 3.5,
                "CATCH_SKM": 5.1100001,
                "UPLAND_SKM": 5.1,
                "ENDORHEIC": 0,
                "DIS_AV_CMS": 0.12,
                "ORD_STRA": 1,
                "ORD_CLAS": 2,
                "ORD_FLOW": 7,
                "HYBAS_L12": 4120049780.0,
                "Shape_Length": 0.006250000000022737
            },
            "geometry": {
                "type": "LineString",
                "coordinates": [
                    [
                        81.57916666666628,
                        7.668749999999896
                    ],
                    [
                        81.5854166666663,
                        7.668749999999896
                    ]
                ]
            }
        },
        {
            "type": "Feature",
            "properties": {
                "HYRIV_ID": 41402935,
                "NEXT_DOWN": 0,
                "MAIN_RIV": 41402935,
                "LENGTH_KM": 6.23,
                "DIST_DN_KM": 0.0,
                "DIST_UP_KM": 55.099998,
                "CATCH_SKM": 24.68,
                "UPLAND_SKM": 302.79999,
                "ENDORHEIC": 0,
                "DIS_AV_CMS": 6.776,
                "ORD_STRA": 3,
                "ORD_CLAS": 1,
                "ORD_FLOW": 6,
                "HYBAS_L12": 4120049780.0,
                "Shape_Length": 0.05618867239269071
            },
            "geometry": {
                "type": "LineString",
                "coordinates": [
                    [
                        81.5854166666663,
                        7.668749999999896
                    ],
                    [
                        81.5854166666663,
                        7.672916666666545
                    ],
                    [
                        81.59791666666635,
                        7.685416666666519
                    ],
                    [
                        81.59791666666635,
                        7.689583333333225
                    ],
                    [
                        81.60624999999968,
                        7.697916666666536
                    ],
                    [
                        81.60624999999968,
                        7.70625
                    ],
                    [
                        81.61041666666634,
                        7.710416666666553
                    ],
                    [
                        81.61041666666634,
                        7.714583333333216
                    ]
                ]
            }
        },
        {
            "type": "Feature",
            "properties": {
                "HYRIV_ID": 41402967,
                "NEXT_DOWN": 41402935,
                "MAIN_RIV": 41402935,
                "LENGTH_KM": 0.93,
                "DIST_DN_KM": 6.5,
                "DIST_UP_KM": 48.900002,
                "CATCH_SKM": 2.98,
                "UPLAND_SKM": 274.29999,
                "ENDORHEIC": 0,
                "DIS_AV_CMS": 6.1890001,
                "ORD_STRA": 3,
                "ORD_CLAS": 1,
                "ORD_FLOW": 6,
                "HYBAS_L12": 4120049780.0,
                "Shape_Length": 0.008333333333368387
            },
            "geometry": {
                "type": "LineString",
                "coordinates": [
                    [
                        81.5854166666663,
                        7.660416666666528
                    ],
                    [
                        81.5854166666663,
                        7.668749999999896
                    ]
                ]
            }
        },
        {
            "type": "Feature",
            "properties": {
                "HYRIV_ID": 41402968,
                "NEXT_DOWN": 41402967,
                "MAIN_RIV": 41402935,
                "LENGTH_KM": 0.69,
                "DIST_DN_KM": 7.4,
                "DIST_UP_KM": 3.5,
                "CATCH_SKM": 4.89,
                "UPLAND_SKM": 4.9,
                "ENDORHEIC": 0,
                "DIS_AV_CMS": 0.115,
                "ORD_STRA": 1,
                "ORD_CLAS": 2,
                "ORD_FLOW": 7,
                "HYBAS_L12": 4120049780.0,
                "Shape_Length": 0.006249999999965894
            },
            "geometry": {
                "type": "LineString",
                "coordinates": [
                    [
                        81.59166666666627,
                        7.660416666666528
                    ],
                    [
                        81.5854166666663,
                        7.660416666666528
                    ]
                ]
            }
        },
        {
            "type": "Feature",
            "properties": {
                "HYRIV_ID": 41403172,
                "NEXT_DOWN": 41403173,
                "MAIN_RIV": 41402935,
                "LENGTH_KM": 1.4400001,
                "DIST_DN_KM": 15.8,
                "DIST_UP_KM": 5.0,
                "CATCH_SKM": 4.89,
                "UPLAND_SKM": 4.9,
                "ENDORHEIC": 0,
                "DIS_AV_CMS": 0.114,
                "ORD_STRA": 1,
                "ORD_CLAS": 3,
                "ORD_FLOW": 7,
                "HYBAS_L12": 4120049780.0,
                "Shape_Length": 0.013005501431482519
            },
            "geometry": {
                "type": "LineString",
                "coordinates": [
                    [
                        81.53749999999965,
                        7.6125
                    ],
                    [
                        81.54374999999962,
                        7.606249999999882
                    ],
                    [
                        81.54374999999962,
                        7.602083333333233
                    ]
                ]
            }
        },
        {
            "type": "Feature",
            "properties": {
                "HYRIV_ID": 41403173,
                "NEXT_DOWN": 41402967,
                "MAIN_RIV": 41402935,
                "LENGTH_KM": 8.3800001,
                "DIST_DN_KM": 7.6,
                "DIST_UP_KM": 47.8,
                "CATCH_SKM": 33.830002,
                "UPLAND_SKM": 266.5,
                "ENDORHEIC": 0,
                "DIS_AV_CMS": 6.0180001,
                "ORD_STRA": 3,
                "ORD_CLAS": 1,
                "ORD_FLOW": 6,
                "HYBAS_L12": 4120049780.0,
                "Shape_Length": 0.07559223176552711
            },
            "geometry": {
                "type": "LineString",
                "coordinates": [
                    [
                        81.54374999999962,
                        7.602083333333233
                    ],
                    [
                        81.57291666666632,
                        7.631249999999874
                    ],
                    [
                        81.57291666666632,
                        7.635416666666536
                    ],
                    [
                        81.58124999999964,
                        7.643749999999891
                    ],
                    [
                        81.58124999999964,
                        7.656249999999879
                    ],
                    [
                        81.5854166666663,
                        7.660416666666528
                    ]
                ]
            }
        },
        {
            "type": "Feature",
            "properties": {
                "HYRIV_ID": 41403236,
                "NEXT_DOWN": 41403237,
                "MAIN_RIV": 41402935,
                "LENGTH_KM": 1.15,
                "DIST_DN_KM": 17.8,
                "DIST_UP_KM": 4.3,
                "CATCH_SKM": 5.5300002,
                "UPLAND_SKM": 5.5,
                "ENDORHEIC": 0,
                "DIS_AV_CMS": 0.129,
                "ORD_STRA": 1,
                "ORD_CLAS": 3,
                "ORD_FLOW": 7,
                "HYBAS_L12": 4120049780.0,
                "Shape_Length": 0.010416666666628771
            },
            "geometry": {
                "type": "LineString",
                "coordinates": [
                    [
                        81.53749999999965,
                        7.585416666666553
                    ],
                    [
                        81.54791666666628,
                        7.585416666666553
                    ]
                ]
            }
        },
        {
            "type": "Feature",
            "properties": {
                "HYRIV_ID": 41403237,
                "NEXT_DOWN": 41403173,
                "MAIN_RIV": 41402935,
                "LENGTH_KM": 2.04,
                "DIST_DN_KM": 16.0,
                "DIST_UP_KM": 7.0,
                "CATCH_SKM": 4.04,
                "UPLAND_SKM": 20.4,
                "ENDORHEIC": 0,
                "DIS_AV_CMS": 0.47600001,
                "ORD_STRA": 2,
                "ORD_CLAS": 2,
                "ORD_FLOW": 7,
                "HYBAS_L12": 4120049780.0,
                "Shape_Length": 0.018392556509887102
            },
            "geometry": {
                "type": "LineString",
                "coordinates": [
                    [
                        81.54791666666628,
                        7.585416666666553
                    ],
                    [
                        81.54791666666628,
                        7.597916666666528
                    ],
                    [
                        81.54374999999962,
                        7.602083333333233
                    ]
                ]
            }
        },
        {
            "type": "Feature",
            "properties": {
                "HYRIV_ID": 41403308,
                "NEXT_DOWN": 41403237,
                "MAIN_RIV": 41402935,
                "LENGTH_KM": 3.02,
                "DIST_DN_KM": 17.8,
                "DIST_UP_KM": 5.1,
                "CATCH_SKM": 10.85,
                "UPLAND_SKM": 10.9,
                "ENDORHEIC": 0,
                "DIS_AV_CMS": 0.25400001,
                "ORD_STRA": 1,
                "ORD_CLAS": 2,
                "ORD_FLOW": 7,
                "HYBAS_L12": 4120049780.0,
                "Shape_Length": 0.027231391274761152
            },
            "geometry": {
                "type": "LineString",
                "coordinates": [
                    [
                        81.55833333333302,
                        7.562499999999893
                    ],
                    [
                        81.55208333333294,
                        7.568749999999874
                    ],
                    [
                        81.55208333333294,
                        7.572916666666536
                    ],
                    [
                        81.54791666666628,
                        7.577083333333242
                    ],
                    [
                        81.54791666666628,
                        7.585416666666553
                    ]
                ]
            }
        },
        {
            "type": "Feature",
            "properties": {
                "HYRIV_ID": 41403328,
                "NEXT_DOWN": 41403329,
                "MAIN_RIV": 41402935,
                "LENGTH_KM": 1.15,
                "DIST_DN_KM": 22.6,
                "DIST_UP_KM": 4.0,
                "CATCH_SKM": 7.4499998,
                "UPLAND_SKM": 7.4,
                "ENDORHEIC": 0,
                "DIS_AV_CMS": 0.173,
                "ORD_STRA": 1,
                "ORD_CLAS": 2,
                "ORD_FLOW": 7,
                "HYBAS_L12": 4120049780.0,
                "Shape_Length": 0.010416666666628771
            },
            "geometry": {
                "type": "LineString",
                "coordinates": [
                    [
                        81.5041666666663,
                        7.560416666666519
                    ],
                    [
                        81.51458333333292,
                        7.560416666666519
                    ]
                ]
            }
        },
        {
            "type": "Feature",
            "properties": {
                "HYRIV_ID": 41403329,
                "NEXT_DOWN": 41403173,
                "MAIN_RIV": 41402935,
                "LENGTH_KM": 6.8800001,
                "DIST_DN_KM": 16.0,
                "DIST_UP_KM": 39.400002,
                "CATCH_SKM": 18.73,
                "UPLAND_SKM": 207.3,
                "ENDORHEIC": 0,
                "DIS_AV_CMS": 4.7270002,
                "ORD_STRA": 3,
                "ORD_CLAS": 1,
                "ORD_FLOW": 6,
                "HYBAS_L12": 4120049780.0,
                "Shape_Length": 0.062081228902613445
            },
            "geometry": {
                "type": "LineString",
                "coordinates": [
                    [
                        81.51458333333292,
                        7.560416666666519
                    ],
                    [
                        81.51458333333292,
                        7.568749999999874
                    ],
                    [
                        81.51041666666626,
                        7.572916666666536
                    ],
                    [
                        81.51041666666626,
                        7.577083333333242
                    ],
                    [
                        81.51458333333292,
                        7.581249999999891
                    ],
                    [
                        81.52291666666625,
                        7.581249999999891
                    ],
                    [
                        81.54374999999962,
                        7.602083333333233
                    ]
                ]
            }
        },
        {
            "type": "Feature",
            "properties": {
                "HYRIV_ID": 41403365,
                "NEXT_DOWN": 41403329,
                "MAIN_RIV": 41402935,
                "LENGTH_KM": 0.93,
                "DIST_DN_KM": 22.6,
                "DIST_UP_KM": 32.700001,
                "CATCH_SKM": 1.49,
                "UPLAND_SKM": 181.10001,
                "ENDORHEIC": 0,
                "DIS_AV_CMS": 4.1789999,
                "ORD_STRA": 3,
                "ORD_CLAS": 1,
                "ORD_FLOW": 6,
                "HYBAS_L12": 4120049780.0,
                "Shape_Length": 0.008333333333311543
            },
            "geometry": {
                "type": "LineString",
                "coordinates": [
                    [
                        81.51458333333292,
                        7.552083333333208
                    ],
                    [
                        81.51458333333292,
                        7.560416666666519
                    ]
                ]
            }
        },
        {
            "type": "Feature",
            "properties": {
                "HYRIV_ID": 41403463,
                "NEXT_DOWN": 41403365,
                "MAIN_RIV": 41402935,
                "LENGTH_KM": 4.04,
                "DIST_DN_KM": 23.6,
                "DIST_UP_KM": 6.2,
                "CATCH_SKM": 17.450001,
                "UPLAND_SKM": 17.4,
                "ENDORHEIC": 0,
                "DIS_AV_CMS": 0.406,
                "ORD_STRA": 1,
                "ORD_CLAS": 2,
                "ORD_FLOW": 7,
                "HYBAS_L12": 4120049780.0,
                "Shape_Length": 0.03642766952969888
            },
            "geometry": {
                "type": "LineString",
                "coordinates": [
                    [
                        81.53124999999957,
                        7.524999999999885
                    ],
                    [
                        81.53124999999957,
                        7.535416666666571
                    ],
                    [
                        81.52291666666625,
                        7.543749999999882
                    ],
                    [
                        81.52291666666625,
                        7.547916666666545
                    ],
                    [
                        81.51874999999976,
                        7.552083333333208
                    ],
                    [
                        81.51458333333292,
                        7.552083333333208
                    ]
                ]
            }
        },
        {
            "type": "Feature",
            "properties": {
                "HYRIV_ID": 41403512,
                "NEXT_DOWN": 41403365,
                "MAIN_RIV": 41402935,
                "LENGTH_KM": 5.12,
                "DIST_DN_KM": 23.6,
                "DIST_UP_KM": 31.8,
                "CATCH_SKM": 17.450001,
                "UPLAND_SKM": 162.2,
                "ENDORHEIC": 0,
                "DIS_AV_CMS": 3.747,
                "ORD_STRA": 3,
                "ORD_CLAS": 1,
                "ORD_FLOW": 6,
                "HYBAS_L12": 4120049780.0,
                "Shape_Length": 0.046129449215989694
            },
            "geometry": {
                "type": "LineString",
                "coordinates": [
                    [
                        81.49374999999972,
                        7.514583333333228
                    ],
                    [
                        81.5062499999996,
                        7.527083333333202
                    ],
                    [
                        81.5062499999996,
                        7.531249999999865
                    ],
                    [
                        81.51041666666626,
                        7.535416666666571
                    ],
                    [
                        81.51041666666626,
                        7.539583333333219
                    ],
                    [
                        81.51458333333292,
                        7.543749999999882
                    ],
                    [
                        81.51458333333292,
                        7.552083333333208
                    ]
                ]
            }
        },
        {
            "type": "Feature",
            "properties": {
                "HYRIV_ID": 41403544,
                "NEXT_DOWN": 41403545,
                "MAIN_RIV": 41402935,
                "LENGTH_KM": 3.48,
                "DIST_DN_KM": 32.3,
                "DIST_UP_KM": 5.6,
                "CATCH_SKM": 10.85,
                "UPLAND_SKM": 10.9,
                "ENDORHEIC": 0,
                "DIS_AV_CMS": 0.252,
                "ORD_STRA": 1,
                "ORD_CLAS": 3,
                "ORD_FLOW": 7,
                "HYBAS_L12": 4121601540.0,
                "Shape_Length": 0.031398057941396315
            },
            "geometry": {
                "type": "LineString",
                "coordinates": [
                    [
                        81.44583333333296,
                        7.5125
                    ],
                    [
                        81.45208333333298,
                        7.518749999999891
                    ],
                    [
                        81.4604166666663,
                        7.518749999999891
                    ],
                    [
                        81.46458333333297,
                        7.514583333333228
                    ],
                    [
                        81.46458333333297,
                        7.506249999999874
                    ]
                ]
            }
        },
        {
            "type": "Feature",
            "properties": {
                "HYRIV_ID": 41403545,
                "NEXT_DOWN": 41403512,
                "MAIN_RIV": 41402935,
                "LENGTH_KM": 3.6,
                "DIST_DN_KM": 28.700001,
                "DIST_UP_KM": 10.0,
                "CATCH_SKM": 8.9399996,
                "UPLAND_SKM": 31.3,
                "ENDORHEIC": 0,
                "DIS_AV_CMS": 0.727,
                "ORD_STRA": 2,
                "ORD_CLAS": 2,
                "ORD_FLOW": 7,
                "HYBAS_L12": 4121601540.0,
                "Shape_Length": 0.032618446353213246
            },
            "geometry": {
                "type": "LineString",
                "coordinates": [
                    [
                        81.46458333333297,
                        7.506249999999874
                    ],
                    [
                        81.46874999999969,
                        7.506249999999874
                    ],
                    [
                        81.47291666666635,
                        7.510416666666579
                    ],
                    [
                        81.48541666666634,
                        7.510416666666579
                    ],
                    [
                        81.489583333333,
                        7.514583333333228
                    ],
                    [
                        81.49374999999972,
                        7.514583333333228
                    ]
                ]
            }
        },
        {
            "type": "Feature",
            "properties": {
                "HYRIV_ID": 41403585,
                "NEXT_DOWN": 41403545,
                "MAIN_RIV": 41402935,
                "LENGTH_KM": 2.74,
                "DIST_DN_KM": 32.3,
                "DIST_UP_KM": 6.4,
                "CATCH_SKM": 11.49,
                "UPLAND_SKM": 11.5,
                "ENDORHEIC": 0,
                "DIS_AV_CMS": 0.26800001,
                "ORD_STRA": 1,
                "ORD_CLAS": 2,
                "ORD_FLOW": 7,
                "HYBAS_L12": 4121601540.0,
                "Shape_Length": 0.02479061445129195
            },
            "geometry": {
                "type": "LineString",
                "coordinates": [
                    [
                        81.44583333333296,
                        7.491666666666525
                    ],
                    [
                        81.4604166666663,
                        7.506249999999874
                    ],
                    [
                        81.46458333333297,
                        7.506249999999874
                    ]
                ]
            }
        },
        {
            "type": "Feature",
            "properties": {
                "HYRIV_ID": 41403600,
                "NEXT_DOWN": 41403512,
                "MAIN_RIV": 41402935,
                "LENGTH_KM": 2.97,
                "DIST_DN_KM": 28.700001,
                "DIST_UP_KM": 26.700001,
                "CATCH_SKM": 5.75,
                "UPLAND_SKM": 113.5,
                "ENDORHEIC": 0,
                "DIS_AV_CMS": 2.645,
                "ORD_STRA": 2,
                "ORD_CLAS": 1,
                "ORD_FLOW": 6,
                "HYBAS_L12": 4121601540.0,
                "Shape_Length": 0.02672588984329812
            },
            "geometry": {
                "type": "LineString",
                "coordinates": [
                    [
                        81.489583333333,
                        7.489583333333194
                    ],
                    [
                        81.489583333333,
                        7.497916666666562
                    ],
                    [
                        81.49374999999972,
                        7.502083333333211
                    ],
                    [
                        81.49374999999972,
                        7.514583333333228
                    ]
                ]
            }
        },
        {
            "type": "Feature",
            "properties": {
                "HYRIV_ID": 41403614,
                "NEXT_DOWN": 41403600,
                "MAIN_RIV": 41402935,
                "LENGTH_KM": 0.69,
                "DIST_DN_KM": 31.700001,
                "DIST_UP_KM": 3.5,
                "CATCH_SKM": 7.6599998,
                "UPLAND_SKM": 7.7,
                "ENDORHEIC": 0,
                "DIS_AV_CMS": 0.17900001,
                "ORD_STRA": 1,
                "ORD_CLAS": 2,
                "ORD_FLOW": 7,
                "HYBAS_L12": 4121601540.0,
                "Shape_Length": 0.006249999999980105
            },
            "geometry": {
                "type": "LineString",
                "coordinates": [
                    [
                        81.489583333333,
                        7.483333333333213
                    ],
                    [
                        81.489583333333,
                        7.489583333333194
                    ]
                ]
            }
        },
        {
            "type": "Feature",
            "properties": {
                "HYRIV_ID": 41403718,
                "NEXT_DOWN": 41403600,
                "MAIN_RIV": 41402935,
                "LENGTH_KM": 4.08,
                "DIST_DN_KM": 31.8,
                "DIST_UP_KM": 23.5,
                "CATCH_SKM": 15.32,
                "UPLAND_SKM": 100.0,
                "ENDORHEIC": 0,
                "DIS_AV_CMS": 2.3340001,
                "ORD_STRA": 2,
                "ORD_CLAS": 1,
                "ORD_FLOW": 6,
                "HYBAS_L12": 4121601540.0,
                "Shape_Length": 0.0367851130197465
            },
            "geometry": {
                "type": "LineString",
                "coordinates": [
                    [
                        81.48124999999968,
                        7.456249999999891
                    ],
                    [
                        81.48124999999968,
                        7.464583333333202
                    ],
                    [
                        81.48541666666634,
                        7.468749999999865
                    ],
                    [
                        81.48541666666634,
                        7.485416666666545
                    ],
                    [
                        81.489583333333,
                        7.489583333333194
                    ]
                ]
            }
        },
        {
            "type": "Feature",
            "properties": {
                "HYRIV_ID": 41403738,
                "NEXT_DOWN": 41403718,
                "MAIN_RIV": 41402935,
                "LENGTH_KM": 1.63,
                "DIST_DN_KM": 35.900002,
                "DIST_UP_KM": 5.6,
                "CATCH_SKM": 6.6,
                "UPLAND_SKM": 6.6,
                "ENDORHEIC": 0,
                "DIS_AV_CMS": 0.154,
                "ORD_STRA": 1,
                "ORD_CLAS": 2,
                "ORD_FLOW": 7,
                "HYBAS_L12": 4121601540.0,
                "Shape_Length": 0.014731391274766633
            },
            "geometry": {
                "type": "LineString",
                "coordinates": [
                    [
                        81.47083333333293,
                        7.458333333333222
                    ],
                    [
                        81.47708333333301,
                        7.452083333333228
                    ],
                    [
                        81.48124999999968,
                        7.456249999999891
                    ]
                ]
            }
        },
        {
            "type": "Feature",
            "properties": {
                "HYRIV_ID": 41403791,
                "NEXT_DOWN": 41403792,
                "MAIN_RIV": 41402935,
                "LENGTH_KM": 2.9100001,
                "DIST_DN_KM": 38.400002,
                "DIST_UP_KM": 6.0,
                "CATCH_SKM": 13.2,
                "UPLAND_SKM": 13.2,
                "ENDORHEIC": 0,
                "DIS_AV_CMS": 0.308,
                "ORD_STRA": 1,
                "ORD_CLAS": 2,
                "ORD_FLOW": 7,
                "HYBAS_L12": 4121601540.0,
                "Shape_Length": 0.026368446353214052
            },
            "geometry": {
                "type": "LineString",
                "coordinates": [
                    [
                        81.44583333333296,
                        7.439583333333211
                    ],
                    [
                        81.45208333333298,
                        7.439583333333211
                    ],
                    [
                        81.45624999999964,
                        7.44375
                    ],
                    [
                        81.46458333333297,
                        7.44375
                    ],
                    [
                        81.46874999999969,
                        7.439583333333211
                    ]
                ]
            }
        },
        {
            "type": "Feature",
            "properties": {
                "HYRIV_ID": 41403792,
                "NEXT_DOWN": 41403718,
                "MAIN_RIV": 41402935,
                "LENGTH_KM": 2.4200001,
                "DIST_DN_KM": 35.700001,
                "DIST_UP_KM": 19.6,
                "CATCH_SKM": 8.0900002,
                "UPLAND_SKM": 78.099998,
                "ENDORHEIC": 0,
                "DIS_AV_CMS": 1.824,
                "ORD_STRA": 2,
                "ORD_CLAS": 1,
                "ORD_FLOW": 6,
                "HYBAS_L12": 4121601540.0,
                "Shape_Length": 0.021844336196330583
            },
            "geometry": {
                "type": "LineString",
                "coordinates": [
                    [
                        81.46874999999969,
                        7.439583333333211
                    ],
                    [
                        81.48124999999968,
                        7.452083333333228
                    ],
                    [
                        81.48124999999968,
                        7.456249999999891
                    ]
                ]
            }
        },
        {
            "type": "Feature",
            "properties": {
                "HYRIV_ID": 41403973,
                "NEXT_DOWN": 41403792,
                "MAIN_RIV": 41402935,
                "LENGTH_KM": 7.1599998,
                "DIST_DN_KM": 38.400002,
                "DIST_UP_KM": 17.0,
                "CATCH_SKM": 21.93,
                "UPLAND_SKM": 56.8,
                "ENDORHEIC": 0,
                "DIS_AV_CMS": 1.327,
                "ORD_STRA": 2,
                "ORD_CLAS": 1,
                "ORD_FLOW": 6,
                "HYBAS_L12": 4121601540.0,
                "Shape_Length": 0.06452200572601646
            },
            "geometry": {
                "type": "LineString",
                "coordinates": [
                    [
                        81.44374999999965,
                        7.385416666666565
                    ],
                    [
                        81.44374999999965,
                        7.393749999999891
                    ],
                    [
                        81.44791666666632,
                        7.397916666666539
                    ],
                    [
                        81.44791666666632,
                        7.402083333333202
                    ],
                    [
                        81.45624999999964,
                        7.410416666666556
                    ],
                    [
                        81.45624999999964,
                        7.41875
                    ],
                    [
                        81.4604166666663,
                        7.422916666666531
                    ],
                    [
                        81.4604166666663,
                        7.427083333333236
                    ],
                    [
                        81.46458333333297,
                        7.431249999999899
                    ],
                    [
                        81.46458333333297,
                        7.435416666666548
                    ],
                    [
                        81.46874999999969,
                        7.439583333333211
                    ]
                ]
            }
        },
        {
            "type": "Feature",
            "properties": {
                "HYRIV_ID": 41403974,
                "NEXT_DOWN": 41403973,
                "MAIN_RIV": 41402935,
                "LENGTH_KM": 1.15,
                "DIST_DN_KM": 45.3,
                "DIST_UP_KM": 3.8,
                "CATCH_SKM": 6.1700001,
                "UPLAND_SKM": 6.2,
                "ENDORHEIC": 0,
                "DIS_AV_CMS": 0.144,
                "ORD_STRA": 1,
                "ORD_CLAS": 2,
                "ORD_FLOW": 7,
                "HYBAS_L12": 4121601540.0,
                "Shape_Length": 0.010416666666628771
            },
            "geometry": {
                "type": "LineString",
                "coordinates": [
                    [
                        81.45416666666628,
                        7.385416666666565
                    ],
                    [
                        81.44374999999965,
                        7.385416666666565
                    ]
                ]
            }
        },
        {
            "type": "Feature",
            "properties": {
                "HYRIV_ID": 41404070,
                "NEXT_DOWN": 41403973,
                "MAIN_RIV": 41402935,
                "LENGTH_KM": 3.54,
                "DIST_DN_KM": 45.5,
                "DIST_UP_KM": 9.8,
                "CATCH_SKM": 6.1700001,
                "UPLAND_SKM": 28.700001,
                "ENDORHEIC": 0,
                "DIS_AV_CMS": 0.672,
                "ORD_STRA": 2,
                "ORD_CLAS": 1,
                "ORD_FLOW": 7,
                "HYBAS_L12": 4121601540.0,
                "Shape_Length": 0.03190355937298481
            },
            "geometry": {
                "type": "LineString",
                "coordinates": [
                    [
                        81.44374999999965,
                        7.360416666666531
                    ],
                    [
                        81.43958333333299,
                        7.364583333333194
                    ],
                    [
                        81.43958333333299,
                        7.372916666666548
                    ],
                    [
                        81.43541666666627,
                        7.377083333333211
                    ],
                    [
                        81.44374999999965,
                        7.385416666666565
                    ]
                ]
            }
        },
        {
            "type": "Feature",
            "properties": {
                "HYRIV_ID": 41404071,
                "NEXT_DOWN": 41404070,
                "MAIN_RIV": 41402935,
                "LENGTH_KM": 3.83,
                "DIST_DN_KM": 49.0,
                "DIST_UP_KM": 6.3,
                "CATCH_SKM": 11.71,
                "UPLAND_SKM": 11.7,
                "ENDORHEIC": 0,
                "DIS_AV_CMS": 0.274,
                "ORD_STRA": 1,
                "ORD_CLAS": 1,
                "ORD_FLOW": 7,
                "HYBAS_L12": 4121601540.0,
                "Shape_Length": 0.034701779686382474
            },
            "geometry": {
                "type": "LineString",
                "coordinates": [
                    [
                        81.4749999999996,
                        7.360416666666531
                    ],
                    [
                        81.46458333333297,
                        7.360416666666531
                    ],
                    [
                        81.4604166666663,
                        7.364583333333194
                    ],
                    [
                        81.44791666666632,
                        7.364583333333194
                    ],
                    [
                        81.44374999999965,
                        7.360416666666531
                    ]
                ]
            }
        },
        {
            "type": "Feature",
            "properties": {
                "HYRIV_ID": 41404115,
                "NEXT_DOWN": 41404070,
                "MAIN_RIV": 41402935,
                "LENGTH_KM": 1.81,
                "DIST_DN_KM": 49.0,
                "DIST_UP_KM": 5.2,
                "CATCH_SKM": 10.86,
                "UPLAND_SKM": 10.9,
                "ENDORHEIC": 0,
                "DIS_AV_CMS": 0.25400001,
                "ORD_STRA": 1,
                "ORD_CLAS": 2,
                "ORD_FLOW": 7,
                "HYBAS_L12": 4121601540.0,
                "Shape_Length": 0.01630922317652968
            },
            "geometry": {
                "type": "LineString",
                "coordinates": [
                    [
                        81.44791666666632,
                        7.345833333333225
                    ],
                    [
                        81.44791666666632,
                        7.356249999999882
                    ],
                    [
                        81.44374999999965,
                        7.360416666666531
                    ]
                ]
            }
        }
    ]
}