{
    "type": "FeatureCollection",
    "features": [
        {
            "type": "Feature",
            "properties": {
                "HYRIV_ID": 41406222,
                "NEXT_DOWN": 41406238,
                "MAIN_RIV": 41406532,
                "LENGTH_KM": 0.98,
                "DIST_DN_KM": 50.599998,
                "DIST_UP_KM": 4.2,
                "CATCH_SKM": 8.1,
                "UPLAND_SKM": 8.1,
                "ENDORHEIC": 0,
                "DIS_AV_CMS": 0.16,
                "ORD_STRA": 1,
                "ORD_CLAS": 2,
                "ORD_FLOW": 7,
                "HYBAS_L12": 4121602050.0,
                "Shape_Length": 0.008838834764874048
            },
            "geometry": {
                "type": "LineString",
                "coordinates": [
                    [
                        81.44999999999962,
                        6.833333333333236
                    ],
                    [
                        81.45624999999964,
                        6.827083333333199
                    ]
                ]
            }
        },
        {
            "type": "Feature",
            "properties": {
                "HYRIV_ID": 41406237,
                "NEXT_DOWN": 41406238,
                "MAIN_RIV": 41406532,
                "LENGTH_KM": 1.8,
                "DIST_DN_KM": 50.599998,
                "DIST_UP_KM": 5.2,
                "CATCH_SKM": 16.84,
                "UPLAND_SKM": 16.8,
                "ENDORHEIC": 0,
                "DIS_AV_CMS": 0.331,
                "ORD_STRA": 1,
                "ORD_CLAS": 1,
                "ORD_FLOW": 7,
                "HYBAS_L12": 4121602050.0,
                "Shape_Length": 0.016309223176424317
            },
            "geometry": {
                "type": "LineString",
                "coordinates": [
                    [
                        81.4416666666664,
                        6.822916666666579
                    ],
                    [
                        81.45208333333298,
                        6.822916666666579
                    ],
                    [
                        81.45624999999964,
                        6.827083333333199
                    ]
                ]
            }
        },
        {
            "type": "Feature",
            "properties": {
                "HYRIV_ID": 41406238,
                "NEXT_DOWN": 41406240,
                "MAIN_RIV": 41406532,
                "LENGTH_KM": 2.03,
                "DIST_DN_KM": 48.400002,
                "DIST_UP_KM": 7.4,
                "CATCH_SKM": 6.1799998,
                "UPLAND_SKM": 31.1,
                "ENDORHEIC": 0,
                "DIS_AV_CMS": 0.60799998,
                "ORD_STRA": 2,
                "ORD_CLAS": 1,
                "ORD_FLOW": 7,
                "HYBAS_L12": 4121602050.0,
                "Shape_Length": 0.018392556509897864
            },
            "geometry": {
                "type": "LineString",
                "coordinates": [
                    [
                        81.45624999999964,
                        6.827083333333199
                    ],
                    [
                        81.4604166666663,
                        6.822916666666579
                    ],
                    [
                        81.47291666666635,
                        6.822916666666579
                    ]
                ]
            }
        },
        {
            "type": "Feature",
            "properties": {
                "HYRIV_ID": 41406239,
                "NEXT_DOWN": 41406240,
                "MAIN_RIV": 41406532,
                "LENGTH_KM": 1.16,
                "DIST_DN_KM": 48.400002,
                "DIST_UP_KM": 4.5,
                "CATCH_SKM": 7.25,
                "UPLAND_SKM": 7.2,
                "ENDORHEIC": 0,
                "DIS_AV_CMS": 0.14,
                "ORD_STRA": 1,
                "ORD_CLAS": 2,
                "ORD_FLOW": 7,
                "HYBAS_L12": 4121602050.0,
                "Shape_Length": 0.010416666666657193
            },
            "geometry": {
                "type": "LineString",
                "coordinates": [
                    [
                        81.47291666666635,
                        6.833333333333236
                    ],
                    [
                        81.47291666666635,
                        6.822916666666579
                    ]
                ]
            }
        },
        {
            "type": "Feature",
            "properties": {
                "HYRIV_ID": 41406240,
                "NEXT_DOWN": 41406374,
                "MAIN_RIV": 41406532,
                "LENGTH_KM": 0.92,
                "DIST_DN_KM": 47.400002,
                "DIST_UP_KM": 8.3,
                "CATCH_SKM": 2.1300001,
                "UPLAND_SKM": 40.5,
                "ENDORHEIC": 0,
                "DIS_AV_CMS": 0.787,
                "ORD_STRA": 2,
                "ORD_CLAS": 1,
                "ORD_FLOW": 7,
                "HYBAS_L12": 4121602050.0,
                "Shape_Length": 0.008333333333325754
            },
            "geometry": {
                "type": "LineString",
                "coordinates": [
                    [
                        81.47291666666635,
                        6.822916666666579
                    ],
                    [
                        81.48124999999968,
                        6.822916666666579
                    ]
                ]
            }
        },
        {
            "type": "Feature",
            "properties": {
                "HYRIV_ID": 41406305,
                "NEXT_DOWN": 41406374,
                "MAIN_RIV": 41406532,
                "LENGTH_KM": 2.1,
                "DIST_DN_KM": 47.400002,
                "DIST_UP_KM": 6.0,
                "CATCH_SKM": 7.0300002,
                "UPLAND_SKM": 7.0,
                "ENDORHEIC": 0,
                "DIS_AV_CMS": 0.133,
                "ORD_STRA": 1,
                "ORD_CLAS": 2,
                "ORD_FLOW": 7,
                "HYBAS_L12": 4121602050.0,
                "Shape_Length": 0.018898057941447884
            },
            "geometry": {
                "type": "LineString",
                "coordinates": [
                    [
                        81.47083333333293,
                        6.808333333333245
                    ],
                    [
                        81.48124999999968,
                        6.818749999999888
                    ],
                    [
                        81.48124999999968,
                        6.822916666666579
                    ]
                ]
            }
        },
        {
            "type": "Feature",
            "properties": {
                "HYRIV_ID": 41406374,
                "NEXT_DOWN": 41406411,
                "MAIN_RIV": 41406532,
                "LENGTH_KM": 10.02,
                "DIST_DN_KM": 37.599998,
                "DIST_UP_KM": 18.200001,
                "CATCH_SKM": 36.869999,
                "UPLAND_SKM": 84.400002,
                "ENDORHEIC": 0,
                "DIS_AV_CMS": 1.53,
                "ORD_STRA": 2,
                "ORD_CLAS": 1,
                "ORD_FLOW": 6,
                "HYBAS_L12": 4121602050.0,
                "Shape_Length": 0.09053300858894162
            },
            "geometry": {
                "type": "LineString",
                "coordinates": [
                    [
                        81.48124999999968,
                        6.822916666666579
                    ],
                    [
                        81.48541666666634,
                        6.822916666666579
                    ],
                    [
                        81.489583333333,
                        6.818749999999888
                    ],
                    [
                        81.49374999999972,
                        6.822916666666579
                    ],
                    [
                        81.49791666666627,
                        6.822916666666579
                    ],
                    [
                        81.50208333333293,
                        6.818749999999888
                    ],
                    [
                        81.5062499999996,
                        6.818749999999888
                    ],
                    [
                        81.5062499999996,
                        6.814583333333225
                    ],
                    [
                        81.51041666666626,
                        6.810416666666562
                    ],
                    [
                        81.52291666666625,
                        6.810416666666562
                    ],
                    [
                        81.52708333333297,
                        6.814583333333225
                    ],
                    [
                        81.53124999999957,
                        6.810416666666562
                    ],
                    [
                        81.53124999999957,
                        6.80625
                    ],
                    [
                        81.5354166666663,
                        6.802083333333208
                    ],
                    [
                        81.53958333333296,
                        6.802083333333208
                    ],
                    [
                        81.54791666666628,
                        6.793749999999896
                    ]
                ]
            }
        },
        {
            "type": "Feature",
            "properties": {
                "HYRIV_ID": 41406375,
                "NEXT_DOWN": 41406478,
                "MAIN_RIV": 41406532,
                "LENGTH_KM": 2.46,
                "DIST_DN_KM": 28.200001,
                "DIST_UP_KM": 5.7,
                "CATCH_SKM": 16.629999,
                "UPLAND_SKM": 16.6,
                "ENDORHEIC": 0,
                "DIS_AV_CMS": 0.27700001,
                "ORD_STRA": 1,
                "ORD_CLAS": 2,
                "ORD_FLOW": 7,
                "HYBAS_L12": 4121602110.0,
                "Shape_Length": 0.022201779686521025
            },
            "geometry": {
                "type": "LineString",
                "coordinates": [
                    [
                        81.61874999999966,
                        6.812499999999893
                    ],
                    [
                        81.61874999999966,
                        6.802083333333208
                    ],
                    [
                        81.62291666666638,
                        6.797916666666545
                    ],
                    [
                        81.61874999999966,
                        6.793749999999896
                    ]
                ]
            }
        },
        {
            "type": "Feature",
            "properties": {
                "HYRIV_ID": 41406396,
                "NEXT_DOWN": 41406413,
                "MAIN_RIV": 41406532,
                "LENGTH_KM": 2.37,
                "DIST_DN_KM": 33.599998,
                "DIST_UP_KM": 6.5,
                "CATCH_SKM": 13.43,
                "UPLAND_SKM": 13.4,
                "ENDORHEIC": 0,
                "DIS_AV_CMS": 0.232,
                "ORD_STRA": 1,
                "ORD_CLAS": 2,
                "ORD_FLOW": 7,
                "HYBAS_L12": 4121602110.0,
                "Shape_Length": 0.02133883476476808
            },
            "geometry": {
                "type": "LineString",
                "coordinates": [
                    [
                        81.57083333333307,
                        6.808333333333245
                    ],
                    [
                        81.57708333333298,
                        6.802083333333208
                    ],
                    [
                        81.57708333333298,
                        6.789583333333233
                    ]
                ]
            }
        },
        {
            "type": "Feature",
            "properties": {
                "HYRIV_ID": 41406397,
                "NEXT_DOWN": 41406398,
                "MAIN_RIV": 41406532,
                "LENGTH_KM": 2.27,
                "DIST_DN_KM": 30.1,
                "DIST_UP_KM": 4.9,
                "CATCH_SKM": 10.23,
                "UPLAND_SKM": 10.2,
                "ENDORHEIC": 0,
                "DIS_AV_CMS": 0.174,
                "ORD_STRA": 1,
                "ORD_CLAS": 2,
                "ORD_FLOW": 7,
                "HYBAS_L12": 4121602110.0,
                "Shape_Length": 0.02047588984323519
            },
            "geometry": {
                "type": "LineString",
                "coordinates": [
                    [
                        81.59791666666635,
                        6.808333333333245
                    ],
                    [
                        81.59791666666635,
                        6.797916666666545
                    ],
                    [
                        81.60208333333301,
                        6.793749999999896
                    ],
                    [
                        81.60208333333301,
                        6.789583333333233
                    ]
                ]
            }
        },
        {
            "type": "Feature",
            "properties": {
                "HYRIV_ID": 41406398,
                "NEXT_DOWN": 41406478,
                "MAIN_RIV": 41406532,
                "LENGTH_KM": 2.03,
                "DIST_DN_KM": 28.1,
                "DIST_UP_KM": 27.700001,
                "CATCH_SKM": 3.4100001,
                "UPLAND_SKM": 196.10001,
                "ENDORHEIC": 0,
                "DIS_AV_CMS": 3.267,
                "ORD_STRA": 3,
                "ORD_CLAS": 1,
                "ORD_FLOW": 6,
                "HYBAS_L12": 4121602110.0,
                "Shape_Length": 0.018392556509871167
            },
            "geometry": {
                "type": "LineString",
                "coordinates": [
                    [
                        81.60208333333301,
                        6.789583333333233
                    ],
                    [
                        81.61041666666634,
                        6.789583333333233
                    ],
                    [
                        81.614583333333,
                        6.793749999999896
                    ],
                    [
                        81.61874999999966,
                        6.793749999999896
                    ]
                ]
            }
        },
        {
            "type": "Feature",
            "properties": {
                "HYRIV_ID": 41406410,
                "NEXT_DOWN": 41406411,
                "MAIN_RIV": 41406532,
                "LENGTH_KM": 1.12,
                "DIST_DN_KM": 37.400002,
                "DIST_UP_KM": 13.6,
                "CATCH_SKM": 1.0700001,
                "UPLAND_SKM": 51.400002,
                "ENDORHEIC": 0,
                "DIS_AV_CMS": 0.89700001,
                "ORD_STRA": 2,
                "ORD_CLAS": 2,
                "ORD_FLOW": 7,
                "HYBAS_L12": 4121602050.0,
                "Shape_Length": 0.010059223176545413
            },
            "geometry": {
                "type": "LineString",
                "coordinates": [
                    [
                        81.54374999999962,
                        6.785416666666571
                    ],
                    [
                        81.54791666666628,
                        6.789583333333233
                    ],
                    [
                        81.54791666666628,
                        6.793749999999896
                    ]
                ]
            }
        },
        {
            "type": "Feature",
            "properties": {
                "HYRIV_ID": 41406411,
                "NEXT_DOWN": 41406412,
                "MAIN_RIV": 41406532,
                "LENGTH_KM": 3.1500001,
                "DIST_DN_KM": 34.3,
                "DIST_UP_KM": 21.5,
                "CATCH_SKM": 6.1799998,
                "UPLAND_SKM": 142.0,
                "ENDORHEIC": 0,
                "DIS_AV_CMS": 2.4790001,
                "ORD_STRA": 3,
                "ORD_CLAS": 1,
                "ORD_FLOW": 6,
                "HYBAS_L12": 4121602050.0,
                "Shape_Length": 0.028451779686473423
            },
            "geometry": {
                "type": "LineString",
                "coordinates": [
                    [
                        81.54791666666628,
                        6.793749999999896
                    ],
                    [
                        81.55624999999961,
                        6.793749999999896
                    ],
                    [
                        81.56041666666627,
                        6.789583333333233
                    ],
                    [
                        81.56458333333293,
                        6.789583333333233
                    ],
                    [
                        81.5687499999996,
                        6.785416666666571
                    ],
                    [
                        81.57291666666632,
                        6.785416666666571
                    ]
                ]
            }
        },
        {
            "type": "Feature",
            "properties": {
                "HYRIV_ID": 41406412,
                "NEXT_DOWN": 41406413,
                "MAIN_RIV": 41406532,
                "LENGTH_KM": 0.65,
                "DIST_DN_KM": 33.8,
                "DIST_UP_KM": 22.0,
                "CATCH_SKM": 1.0700001,
                "UPLAND_SKM": 159.39999,
                "ENDORHEIC": 0,
                "DIS_AV_CMS": 2.7620001,
                "ORD_STRA": 3,
                "ORD_CLAS": 1,
                "ORD_FLOW": 6,
                "HYBAS_L12": 4121602050.0,
                "Shape_Length": 0.0058925565098825365
            },
            "geometry": {
                "type": "LineString",
                "coordinates": [
                    [
                        81.57291666666632,
                        6.785416666666571
                    ],
                    [
                        81.57708333333298,
                        6.789583333333233
                    ]
                ]
            }
        },
        {
            "type": "Feature",
            "properties": {
                "HYRIV_ID": 41406413,
                "NEXT_DOWN": 41406398,
                "MAIN_RIV": 41406532,
                "LENGTH_KM": 3.53,
                "DIST_DN_KM": 30.3,
                "DIST_UP_KM": 25.5,
                "CATCH_SKM": 9.5900002,
                "UPLAND_SKM": 182.5,
                "ENDORHEIC": 0,
                "DIS_AV_CMS": 3.0869999,
                "ORD_STRA": 3,
                "ORD_CLAS": 1,
                "ORD_FLOW": 6,
                "HYBAS_L12": 4121602110.0,
                "Shape_Length": 0.03190355937291275
            },
            "geometry": {
                "type": "LineString",
                "coordinates": [
                    [
                        81.57708333333298,
                        6.789583333333233
                    ],
                    [
                        81.58124999999964,
                        6.793749999999896
                    ],
                    [
                        81.5854166666663,
                        6.793749999999896
                    ],
                    [
                        81.59374999999963,
                        6.785416666666571
                    ],
                    [
                        81.59791666666635,
                        6.785416666666571
                    ],
                    [
                        81.60208333333301,
                        6.789583333333233
                    ]
                ]
            }
        },
        {
            "type": "Feature",
            "properties": {
                "HYRIV_ID": 41406440,
                "NEXT_DOWN": 41406410,
                "MAIN_RIV": 41406532,
                "LENGTH_KM": 0.98,
                "DIST_DN_KM": 38.700001,
                "DIST_UP_KM": 4.5,
                "CATCH_SKM": 6.8200002,
                "UPLAND_SKM": 6.8,
                "ENDORHEIC": 0,
                "DIS_AV_CMS": 0.118,
                "ORD_STRA": 1,
                "ORD_CLAS": 3,
                "ORD_FLOW": 7,
                "HYBAS_L12": 4121602050.0,
                "Shape_Length": 0.008838834764874048
            },
            "geometry": {
                "type": "LineString",
                "coordinates": [
                    [
                        81.5499999999997,
                        6.77916666666659
                    ],
                    [
                        81.54374999999962,
                        6.785416666666571
                    ]
                ]
            }
        },
        {
            "type": "Feature",
            "properties": {
                "HYRIV_ID": 41406478,
                "NEXT_DOWN": 41406513,
                "MAIN_RIV": 41406532,
                "LENGTH_KM": 3.54,
                "DIST_DN_KM": 24.700001,
                "DIST_UP_KM": 31.1,
                "CATCH_SKM": 11.51,
                "UPLAND_SKM": 224.2,
                "ENDORHEIC": 0,
                "DIS_AV_CMS": 3.648,
                "ORD_STRA": 3,
                "ORD_CLAS": 1,
                "ORD_FLOW": 6,
                "HYBAS_L12": 4121602110.0,
                "Shape_Length": 0.03190355937280251
            },
            "geometry": {
                "type": "LineString",
                "coordinates": [
                    [
                        81.61874999999966,
                        6.793749999999896
                    ],
                    [
                        81.62708333333305,
                        6.785416666666571
                    ],
                    [
                        81.6312499999996,
                        6.785416666666571
                    ],
                    [
                        81.63541666666626,
                        6.781249999999879
                    ],
                    [
                        81.63541666666626,
                        6.777083333333216
                    ],
                    [
                        81.63958333333292,
                        6.772916666666553
                    ]
                ]
            }
        },
        {
            "type": "Feature",
            "properties": {
                "HYRIV_ID": 41406495,
                "NEXT_DOWN": 41406513,
                "MAIN_RIV": 41406532,
                "LENGTH_KM": 0.69,
                "DIST_DN_KM": 24.5,
                "DIST_UP_KM": 5.2,
                "CATCH_SKM": 6.8200002,
                "UPLAND_SKM": 6.8,
                "ENDORHEIC": 0,
                "DIS_AV_CMS": 0.111,
                "ORD_STRA": 1,
                "ORD_CLAS": 2,
                "ORD_FLOW": 7,
                "HYBAS_L12": 4121602110.0,
                "Shape_Length": 0.006249999999980105
            },
            "geometry": {
                "type": "LineString",
                "coordinates": [
                    [
                        81.63958333333292,
                        6.766666666666573
                    ],
                    [
                        81.63958333333292,
                        6.772916666666553
                    ]
                ]
            }
        },
        {
            "type": "Feature",
            "properties": {
                "HYRIV_ID": 41406513,
                "NEXT_DOWN": 41406530,
                "MAIN_RIV": 41406532,
                "LENGTH_KM": 6.75,
                "DIST_DN_KM": 18.0,
                "DIST_UP_KM": 37.8,
                "CATCH_SKM": 26.219999,
                "UPLAND_SKM": 257.29999,
                "ENDORHEIC": 0,
                "DIS_AV_CMS": 3.9749999,
                "ORD_STRA": 3,
                "ORD_CLAS": 1,
                "ORD_FLOW": 6,
                "HYBAS_L12": 4121602110.0,
                "Shape_Length": 0.06107022603948944
            },
            "geometry": {
                "type": "LineString",
                "coordinates": [
                    [
                        81.63958333333292,
                        6.772916666666553
                    ],
                    [
                        81.6437499999997,
                        6.76875
                    ],
                    [
                        81.68124999999961,
                        6.76875
                    ],
                    [
                        81.68541666666627,
                        6.772916666666553
                    ],
                    [
                        81.6937499999996,
                        6.764583333333242
                    ]
                ]
            }
        },
        {
            "type": "Feature",
            "properties": {
                "HYRIV_ID": 41406514,
                "NEXT_DOWN": 41406532,
                "MAIN_RIV": 41406532,
                "LENGTH_KM": 14.33,
                "DIST_DN_KM": 8.5,
                "DIST_UP_KM": 17.9,
                "CATCH_SKM": 45.610001,
                "UPLAND_SKM": 45.599998,
                "ENDORHEIC": 0,
                "DIS_AV_CMS": 0.686,
                "ORD_STRA": 1,
                "ORD_CLAS": 2,
                "ORD_FLOW": 7,
                "HYBAS_L12": 4120049960.0,
                "Shape_Length": 0.12940145494197905
            },
            "geometry": {
                "type": "LineString",
                "coordinates": [
                    [
                        81.67916666666636,
                        6.814583333333225
                    ],
                    [
                        81.68958333333293,
                        6.814583333333225
                    ],
                    [
                        81.6937499999996,
                        6.810416666666562
                    ],
                    [
                        81.69791666666632,
                        6.810416666666562
                    ],
                    [
                        81.70208333333298,
                        6.80625
                    ],
                    [
                        81.70624999999964,
                        6.810416666666562
                    ],
                    [
                        81.7104166666663,
                        6.80625
                    ],
                    [
                        81.7104166666663,
                        6.802083333333208
                    ],
                    [
                        81.71458333333297,
                        6.797916666666545
                    ],
                    [
                        81.71458333333297,
                        6.785416666666571
                    ],
                    [
                        81.71874999999963,
                        6.781249999999879
                    ],
                    [
                        81.71458333333297,
                        6.777083333333216
                    ],
                    [
                        81.71874999999963,
                        6.772916666666553
                    ],
                    [
                        81.7229166666663,
                        6.772916666666553
                    ],
                    [
                        81.72708333333301,
                        6.777083333333216
                    ],
                    [
                        81.74374999999966,
                        6.777083333333216
                    ],
                    [
                        81.74791666666633,
                        6.772916666666553
                    ],
                    [
                        81.75624999999971,
                        6.772916666666553
                    ],
                    [
                        81.76041666666626,
                        6.76875
                    ],
                    [
                        81.76041666666626,
                        6.764583333333242
                    ]
                ]
            }
        },
        {
            "type": "Feature",
            "properties": {
                "HYRIV_ID": 41406530,
                "NEXT_DOWN": 41406531,
                "MAIN_RIV": 41406532,
                "LENGTH_KM": 1.5700001,
                "DIST_DN_KM": 16.200001,
                "DIST_UP_KM": 39.599998,
                "CATCH_SKM": 3.2,
                "UPLAND_SKM": 350.20001,
                "ENDORHEIC": 0,
                "DIS_AV_CMS": 5.2930002,
                "ORD_STRA": 4,
                "ORD_CLAS": 1,
                "ORD_FLOW": 6,
                "HYBAS_L12": 4120049960.0,
                "Shape_Length": 0.014225889843265133
            },
            "geometry": {
                "type": "LineString",
                "coordinates": [
                    [
                        81.6937499999996,
                        6.764583333333242
                    ],
                    [
                        81.69791666666632,
                        6.764583333333242
                    ],
                    [
                        81.70208333333298,
                        6.760416666666579
                    ],
                    [
                        81.70624999999964,
                        6.760416666666579
                    ]
                ]
            }
        },
        {
            "type": "Feature",
            "properties": {
                "HYRIV_ID": 41406531,
                "NEXT_DOWN": 41406580,
                "MAIN_RIV": 41406532,
                "LENGTH_KM": 2.23,
                "DIST_DN_KM": 14.0,
                "DIST_UP_KM": 41.8,
                "CATCH_SKM": 7.25,
                "UPLAND_SKM": 368.60001,
                "ENDORHEIC": 0,
                "DIS_AV_CMS": 5.4829998,
                "ORD_STRA": 4,
                "ORD_CLAS": 1,
                "ORD_FLOW": 6,
                "HYBAS_L12": 4120049960.0,
                "Shape_Length": 0.020118446353090826
            },
            "geometry": {
                "type": "LineString",
                "coordinates": [
                    [
                        81.70624999999964,
                        6.760416666666579
                    ],
                    [
                        81.7104166666663,
                        6.764583333333242
                    ],
                    [
                        81.71458333333297,
                        6.764583333333242
                    ],
                    [
                        81.71874999999963,
                        6.760416666666579
                    ],
                    [
                        81.7229166666663,
                        6.760416666666579
                    ]
                ]
            }
        },
        {
            "type": "Feature",
            "properties": {
                "HYRIV_ID": 41406532,
                "NEXT_DOWN": 0,
                "MAIN_RIV": 41406532,
                "LENGTH_KM": 8.25,
                "DIST_DN_KM": 0.0,
                "DIST_UP_KM": 55.5,
                "CATCH_SKM": 31.120001,
                "UPLAND_SKM": 473.60001,
                "ENDORHEIC": 0,
                "DIS_AV_CMS": 6.4380002,
                "ORD_STRA": 4,
                "ORD_CLAS": 1,
                "ORD_FLOW": 6,
                "HYBAS_L12": 4120049960.0,
                "Shape_Length": 0.074581228902591
            },
            "geometry": {
                "type": "LineString",
                "coordinates": [
                    [
                        81.76041666666626,
                        6.764583333333242
                    ],
                    [
                        81.76458333333292,
                        6.76875
                    ],
                    [
                        81.7687499999997,
                        6.76875
                    ],
                    [
                        81.77291666666625,
                        6.772916666666553
                    ],
                    [
                        81.78124999999957,
                        6.772916666666553
                    ],
                    [
                        81.79374999999962,
                        6.760416666666579
                    ],
                    [
                        81.80208333333294,
                        6.760416666666579
                    ],
                    [
                        81.81041666666627,
                        6.76875
                    ],
                    [
                        81.82291666666632,
                        6.76875
                    ]
                ]
            }
        },
        {
            "type": "Feature",
            "properties": {
                "HYRIV_ID": 41406558,
                "NEXT_DOWN": 41406410,
                "MAIN_RIV": 41406532,
                "LENGTH_KM": 8.83,
                "DIST_DN_KM": 38.5,
                "DIST_UP_KM": 12.5,
                "CATCH_SKM": 43.48,
                "UPLAND_SKM": 43.5,
                "ENDORHEIC": 0,
                "DIS_AV_CMS": 0.76700002,
                "ORD_STRA": 1,
                "ORD_CLAS": 2,
                "ORD_FLOW": 7,
                "HYBAS_L12": 4121602050.0,
                "Shape_Length": 0.07982022603961521
            },
            "geometry": {
                "type": "LineString",
                "coordinates": [
                    [
                        81.48333333333292,
                        6.756249999999888
                    ],
                    [
                        81.489583333333,
                        6.756249999999888
                    ],
                    [
                        81.489583333333,
                        6.760416666666579
                    ],
                    [
                        81.49791666666627,
                        6.76875
                    ],
                    [
                        81.49791666666627,
                        6.777083333333216
                    ],
                    [
                        81.50208333333293,
                        6.781249999999879
                    ],
                    [
                        81.5354166666663,
                        6.781249999999879
                    ],
                    [
                        81.53958333333296,
                        6.785416666666571
                    ],
                    [
                        81.54374999999962,
                        6.785416666666571
                    ]
                ]
            }
        },
        {
            "type": "Feature",
            "properties": {
                "HYRIV_ID": 41406559,
                "NEXT_DOWN": 41406412,
                "MAIN_RIV": 41406532,
                "LENGTH_KM": 4.23,
                "DIST_DN_KM": 34.5,
                "DIST_UP_KM": 6.5,
                "CATCH_SKM": 16.41,
                "UPLAND_SKM": 16.4,
                "ENDORHEIC": 0,
                "DIS_AV_CMS": 0.274,
                "ORD_STRA": 1,
                "ORD_CLAS": 2,
                "ORD_FLOW": 7,
                "HYBAS_L12": 4121602050.0,
                "Shape_Length": 0.03815355937292888
            },
            "geometry": {
                "type": "LineString",
                "coordinates": [
                    [
                        81.56458333333293,
                        6.754166666666556
                    ],
                    [
                        81.56458333333293,
                        6.76875
                    ],
                    [
                        81.57708333333298,
                        6.781249999999879
                    ],
                    [
                        81.57291666666632,
                        6.785416666666571
                    ]
                ]
            }
        },
        {
            "type": "Feature",
            "properties": {
                "HYRIV_ID": 41406578,
                "NEXT_DOWN": 41406530,
                "MAIN_RIV": 41406532,
                "LENGTH_KM": 5.1100001,
                "DIST_DN_KM": 17.8,
                "DIST_UP_KM": 19.3,
                "CATCH_SKM": 6.8200002,
                "UPLAND_SKM": 89.699997,
                "ENDORHEIC": 0,
                "DIS_AV_CMS": 1.3329999,
                "ORD_STRA": 3,
                "ORD_CLAS": 2,
                "ORD_FLOW": 6,
                "HYBAS_L12": 4121602110.0,
                "Shape_Length": 0.046129449216181326
            },
            "geometry": {
                "type": "LineString",
                "coordinates": [
                    [
                        81.65624999999957,
                        6.752083333333225
                    ],
                    [
                        81.6604166666663,
                        6.752083333333225
                    ],
                    [
                        81.66458333333296,
                        6.756249999999888
                    ],
                    [
                        81.66874999999962,
                        6.756249999999888
                    ],
                    [
                        81.67291666666628,
                        6.760416666666579
                    ],
                    [
                        81.67708333333294,
                        6.756249999999888
                    ],
                    [
                        81.68124999999961,
                        6.760416666666579
                    ],
                    [
                        81.68541666666627,
                        6.760416666666579
                    ],
                    [
                        81.68958333333293,
                        6.764583333333242
                    ],
                    [
                        81.6937499999996,
                        6.764583333333242
                    ]
                ]
            }
        },
        {
            "type": "Feature",
            "properties": {
                "HYRIV_ID": 41406579,
                "NEXT_DOWN": 41406531,
                "MAIN_RIV": 41406532,
                "LENGTH_KM": 1.81,
                "DIST_DN_KM": 16.200001,
                "DIST_UP_KM": 6.3,
                "CATCH_SKM": 11.09,
                "UPLAND_SKM": 11.1,
                "ENDORHEIC": 0,
                "DIS_AV_CMS": 0.168,
                "ORD_STRA": 1,
                "ORD_CLAS": 2,
                "ORD_FLOW": 7,
                "HYBAS_L12": 4120049960.0,
                "Shape_Length": 0.01630922317653973
            },
            "geometry": {
                "type": "LineString",
                "coordinates": [
                    [
                        81.69583333333301,
                        6.752083333333225
                    ],
                    [
                        81.70208333333298,
                        6.752083333333225
                    ],
                    [
                        81.70624999999964,
                        6.756249999999888
                    ],
                    [
                        81.70624999999964,
                        6.760416666666579
                    ]
                ]
            }
        },
        {
            "type": "Feature",
            "properties": {
                "HYRIV_ID": 41406580,
                "NEXT_DOWN": 41406532,
                "MAIN_RIV": 41406532,
                "LENGTH_KM": 5.4899998,
                "DIST_DN_KM": 8.7,
                "DIST_UP_KM": 47.099998,
                "CATCH_SKM": 16.41,
                "UPLAND_SKM": 397.10001,
                "ENDORHEIC": 0,
                "DIS_AV_CMS": 5.6989999,
                "ORD_STRA": 4,
                "ORD_CLAS": 1,
                "ORD_FLOW": 6,
                "HYBAS_L12": 4120049960.0,
                "Shape_Length": 0.04958122890256035
            },
            "geometry": {
                "type": "LineString",
                "coordinates": [
                    [
                        81.7229166666663,
                        6.760416666666579
                    ],
                    [
                        81.72708333333301,
                        6.760416666666579
                    ],
                    [
                        81.73124999999968,
                        6.764583333333242
                    ],
                    [
                        81.73541666666634,
                        6.760416666666579
                    ],
                    [
                        81.739583333333,
                        6.760416666666579
                    ],
                    [
                        81.74791666666633,
                        6.752083333333225
                    ],
                    [
                        81.76041666666626,
                        6.764583333333242
                    ]
                ]
            }
        },
        {
            "type": "Feature",
            "properties": {
                "HYRIV_ID": 41406596,
                "NEXT_DOWN": 41406578,
                "MAIN_RIV": 41406532,
                "LENGTH_KM": 0.46,
                "DIST_DN_KM": 22.9,
                "DIST_UP_KM": 7.4,
                "CATCH_SKM": 0.21,
                "UPLAND_SKM": 27.5,
                "ENDORHEIC": 0,
                "DIS_AV_CMS": 0.41600001,
                "ORD_STRA": 2,
                "ORD_CLAS": 3,
                "ORD_FLOW": 7,
                "HYBAS_L12": 4121602110.0,
                "Shape_Length": 0.004166666666662877
            },
            "geometry": {
                "type": "LineString",
                "coordinates": [
                    [
                        81.65624999999957,
                        6.747916666666562
                    ],
                    [
                        81.65624999999957,
                        6.752083333333225
                    ]
                ]
            }
        },
        {
            "type": "Feature",
            "properties": {
                "HYRIV_ID": 41406617,
                "NEXT_DOWN": 41406578,
                "MAIN_RIV": 41406532,
                "LENGTH_KM": 6.4899998,
                "DIST_DN_KM": 22.9,
                "DIST_UP_KM": 14.2,
                "CATCH_SKM": 22.379999,
                "UPLAND_SKM": 55.400002,
                "ENDORHEIC": 0,
                "DIS_AV_CMS": 0.85399997,
                "ORD_STRA": 2,
                "ORD_CLAS": 2,
                "ORD_FLOW": 7,
                "HYBAS_L12": 4121602110.0,
                "Shape_Length": 0.058629449215929386
            },
            "geometry": {
                "type": "LineString",
                "coordinates": [
                    [
                        81.61041666666634,
                        6.743749999999899
                    ],
                    [
                        81.61874999999966,
                        6.752083333333225
                    ],
                    [
                        81.62291666666638,
                        6.747916666666562
                    ],
                    [
                        81.62291666666638,
                        6.743749999999899
                    ],
                    [
                        81.62708333333305,
                        6.747916666666562
                    ],
                    [
                        81.64791666666625,
                        6.747916666666562
                    ],
                    [
                        81.65208333333308,
                        6.752083333333225
                    ],
                    [
                        81.65624999999957,
                        6.752083333333225
                    ]
                ]
            }
        },
        {
            "type": "Feature",
            "properties": {
                "HYRIV_ID": 41406618,
                "NEXT_DOWN": 41406580,
                "MAIN_RIV": 41406532,
                "LENGTH_KM": 2.27,
                "DIST_DN_KM": 14.0,
                "DIST_UP_KM": 7.2,
                "CATCH_SKM": 12.15,
                "UPLAND_SKM": 12.2,
                "ENDORHEIC": 0,
                "DIS_AV_CMS": 0.181,
                "ORD_STRA": 1,
                "ORD_CLAS": 2,
                "ORD_FLOW": 7,
                "HYBAS_L12": 4120049960.0,
                "Shape_Length": 0.020475889843216816
            },
            "geometry": {
                "type": "LineString",
                "coordinates": [
                    [
                        81.71874999999963,
                        6.741666666666582
                    ],
                    [
                        81.71874999999963,
                        6.752083333333225
                    ],
                    [
                        81.7229166666663,
                        6.756249999999888
                    ],
                    [
                        81.7229166666663,
                        6.760416666666579
                    ]
                ]
            }
        },
        {
            "type": "Feature",
            "properties": {
                "HYRIV_ID": 41406639,
                "NEXT_DOWN": 41406596,
                "MAIN_RIV": 41406532,
                "LENGTH_KM": 1.16,
                "DIST_DN_KM": 23.3,
                "DIST_UP_KM": 4.9,
                "CATCH_SKM": 9.1700001,
                "UPLAND_SKM": 9.2,
                "ENDORHEIC": 0,
                "DIS_AV_CMS": 0.139,
                "ORD_STRA": 1,
                "ORD_CLAS": 4,
                "ORD_FLOW": 7,
                "HYBAS_L12": 4121602110.0,
                "Shape_Length": 0.010416666666685614
            },
            "geometry": {
                "type": "LineString",
                "coordinates": [
                    [
                        81.65624999999957,
                        6.737499999999876
                    ],
                    [
                        81.65624999999957,
                        6.747916666666562
                    ]
                ]
            }
        },
        {
            "type": "Feature",
            "properties": {
                "HYRIV_ID": 41406725,
                "NEXT_DOWN": 41406617,
                "MAIN_RIV": 41406532,
                "LENGTH_KM": 3.11,
                "DIST_DN_KM": 29.6,
                "DIST_UP_KM": 6.7,
                "CATCH_SKM": 18.969999,
                "UPLAND_SKM": 19.0,
                "ENDORHEIC": 0,
                "DIS_AV_CMS": 0.30700001,
                "ORD_STRA": 1,
                "ORD_CLAS": 3,
                "ORD_FLOW": 7,
                "HYBAS_L12": 4121602110.0,
                "Shape_Length": 0.02809433619635088
            },
            "geometry": {
                "type": "LineString",
                "coordinates": [
                    [
                        81.59374999999963,
                        6.725
                    ],
                    [
                        81.59374999999963,
                        6.731249999999882
                    ],
                    [
                        81.59791666666635,
                        6.735416666666545
                    ],
                    [
                        81.60208333333301,
                        6.735416666666545
                    ],
                    [
                        81.61041666666634,
                        6.743749999999899
                    ]
                ]
            }
        },
        {
            "type": "Feature",
            "properties": {
                "HYRIV_ID": 41406756,
                "NEXT_DOWN": 41406596,
                "MAIN_RIV": 41406532,
                "LENGTH_KM": 3.85,
                "DIST_DN_KM": 23.5,
                "DIST_UP_KM": 6.8,
                "CATCH_SKM": 18.120001,
                "UPLAND_SKM": 18.1,
                "ENDORHEIC": 0,
                "DIS_AV_CMS": 0.27500001,
                "ORD_STRA": 1,
                "ORD_CLAS": 3,
                "ORD_FLOW": 7,
                "HYBAS_L12": 4121602110.0,
                "Shape_Length": 0.03470177968645769
            },
            "geometry": {
                "type": "LineString",
                "coordinates": [
                    [
                        81.64791666666625,
                        6.716666666666548
                    ],
                    [
                        81.64791666666625,
                        6.73958333333325
                    ],
                    [
                        81.65624999999957,
                        6.747916666666562
                    ]
                ]
            }
        },
        {
            "type": "Feature",
            "properties": {
                "HYRIV_ID": 41406782,
                "NEXT_DOWN": 41406617,
                "MAIN_RIV": 41406532,
                "LENGTH_KM": 4.23,
                "DIST_DN_KM": 29.6,
                "DIST_UP_KM": 7.5,
                "CATCH_SKM": 14.07,
                "UPLAND_SKM": 14.1,
                "ENDORHEIC": 0,
                "DIS_AV_CMS": 0.221,
                "ORD_STRA": 1,
                "ORD_CLAS": 2,
                "ORD_FLOW": 7,
                "HYBAS_L12": 4121602110.0,
                "Shape_Length": 0.03815355937290117
            },
            "geometry": {
                "type": "LineString",
                "coordinates": [
                    [
                        81.60208333333301,
                        6.712499999999885
                    ],
                    [
                        81.60208333333301,
                        6.722916666666571
                    ],
                    [
                        81.614583333333,
                        6.735416666666545
                    ],
                    [
                        81.614583333333,
                        6.73958333333325
                    ],
                    [
                        81.61041666666634,
                        6.743749999999899
                    ]
                ]
            }
        }
    ]
}