{
    "type": "FeatureCollection",
    "features": [
        {
            "type": "Feature",
            "properties": {
                "HYRIV_ID": 41405368,
                "NEXT_DOWN": 41405548,
                "MAIN_RIV": 41406076,
                "LENGTH_KM": 6.35,
                "DIST_DN_KM": 37.200001,
                "DIST_UP_KM": 8.3,
                "CATCH_SKM": 30.889999,
                "UPLAND_SKM": 30.9,
                "ENDORHEIC": 0,
                "DIS_AV_CMS": 0.62900001,
                "ORD_STRA": 1,
                "ORD_CLAS": 2,
                "ORD_FLOW": 7,
                "HYBAS_L12": 4121158670.0,
                "Shape_Length": 0.057409060804411605
            },
            "geometry": {
                "type": "LineString",
                "coordinates": [
                    [
                        81.56249999999957,
                        7.037499999999874
                    ],
                    [
                        81.57708333333298,
                        7.022916666666568
                    ],
                    [
                        81.59374999999963,
                        7.022916666666568
                    ],
                    [
                        81.59791666666635,
                        7.018749999999862
                    ],
                    [
                        81.60208333333301,
                        7.018749999999862
                    ],
                    [
                        81.60624999999968,
                        7.014583333333256
                    ],
                    [
                        81.61041666666634,
                        7.014583333333256
                    ]
                ]
            }
        },
        {
            "type": "Feature",
            "properties": {
                "HYRIV_ID": 41405369,
                "NEXT_DOWN": 41405548,
                "MAIN_RIV": 41406076,
                "LENGTH_KM": 3.3900001,
                "DIST_DN_KM": 37.200001,
                "DIST_UP_KM": 6.0,
                "CATCH_SKM": 12.99,
                "UPLAND_SKM": 13.0,
                "ENDORHEIC": 0,
                "DIS_AV_CMS": 0.265,
                "ORD_STRA": 1,
                "ORD_CLAS": 3,
                "ORD_FLOW": 7,
                "HYBAS_L12": 4121158670.0,
                "Shape_Length": 0.030535113019766393
            },
            "geometry": {
                "type": "LineString",
                "coordinates": [
                    [
                        81.61041666666634,
                        7.041666666666579
                    ],
                    [
                        81.61041666666634,
                        7.031249999999879
                    ],
                    [
                        81.60624999999968,
                        7.027083333333231
                    ],
                    [
                        81.61041666666634,
                        7.022916666666568
                    ],
                    [
                        81.61041666666634,
                        7.014583333333256
                    ]
                ]
            }
        },
        {
            "type": "Feature",
            "properties": {
                "HYRIV_ID": 41405386,
                "NEXT_DOWN": 41405471,
                "MAIN_RIV": 41406076,
                "LENGTH_KM": 4.6,
                "DIST_DN_KM": 29.8,
                "DIST_UP_KM": 7.9,
                "CATCH_SKM": 23.219999,
                "UPLAND_SKM": 23.200001,
                "ENDORHEIC": 0,
                "DIS_AV_CMS": 0.465,
                "ORD_STRA": 1,
                "ORD_CLAS": 2,
                "ORD_FLOW": 7,
                "HYBAS_L12": 4121158640.0,
                "Shape_Length": 0.04145728111800202
            },
            "geometry": {
                "type": "LineString",
                "coordinates": [
                    [
                        81.65416666666633,
                        7.045833333333228
                    ],
                    [
                        81.6604166666663,
                        7.039583333333248
                    ],
                    [
                        81.6604166666663,
                        7.031249999999879
                    ],
                    [
                        81.65624999999957,
                        7.027083333333231
                    ],
                    [
                        81.65624999999957,
                        7.014583333333256
                    ],
                    [
                        81.6604166666663,
                        7.010416666666551
                    ]
                ]
            }
        },
        {
            "type": "Feature",
            "properties": {
                "HYRIV_ID": 41405422,
                "NEXT_DOWN": 41405471,
                "MAIN_RIV": 41406076,
                "LENGTH_KM": 1.4400001,
                "DIST_DN_KM": 29.6,
                "DIST_UP_KM": 4.5,
                "CATCH_SKM": 9.5900002,
                "UPLAND_SKM": 9.6,
                "ENDORHEIC": 0,
                "DIS_AV_CMS": 0.186,
                "ORD_STRA": 1,
                "ORD_CLAS": 3,
                "ORD_FLOW": 7,
                "HYBAS_L12": 4121158640.0,
                "Shape_Length": 0.013005501431456536
            },
            "geometry": {
                "type": "LineString",
                "coordinates": [
                    [
                        81.65416666666633,
                        7.0
                    ],
                    [
                        81.6604166666663,
                        7.006249999999888
                    ],
                    [
                        81.6604166666663,
                        7.010416666666551
                    ]
                ]
            }
        },
        {
            "type": "Feature",
            "properties": {
                "HYRIV_ID": 41405471,
                "NEXT_DOWN": 41405473,
                "MAIN_RIV": 41406076,
                "LENGTH_KM": 4.4499998,
                "DIST_DN_KM": 25.200001,
                "DIST_UP_KM": 12.5,
                "CATCH_SKM": 11.72,
                "UPLAND_SKM": 44.5,
                "ENDORHEIC": 0,
                "DIS_AV_CMS": 0.86,
                "ORD_STRA": 2,
                "ORD_CLAS": 2,
                "ORD_FLOW": 7,
                "HYBAS_L12": 4121158640.0,
                "Shape_Length": 0.04023689270620175
            },
            "geometry": {
                "type": "LineString",
                "coordinates": [
                    [
                        81.6604166666663,
                        7.010416666666551
                    ],
                    [
                        81.67291666666628,
                        6.997916666666576
                    ],
                    [
                        81.68124999999961,
                        6.997916666666576
                    ],
                    [
                        81.68541666666627,
                        6.993749999999871
                    ],
                    [
                        81.6937499999996,
                        6.993749999999871
                    ]
                ]
            }
        },
        {
            "type": "Feature",
            "properties": {
                "HYRIV_ID": 41405472,
                "NEXT_DOWN": 41405473,
                "MAIN_RIV": 41406076,
                "LENGTH_KM": 5.52,
                "DIST_DN_KM": 25.200001,
                "DIST_UP_KM": 8.5,
                "CATCH_SKM": 14.06,
                "UPLAND_SKM": 14.1,
                "ENDORHEIC": 0,
                "DIS_AV_CMS": 0.27500001,
                "ORD_STRA": 1,
                "ORD_CLAS": 3,
                "ORD_FLOW": 7,
                "HYBAS_L12": 4121158640.0,
                "Shape_Length": 0.049790614451259874
            },
            "geometry": {
                "type": "LineString",
                "coordinates": [
                    [
                        81.68749999999957,
                        7.033333333333211
                    ],
                    [
                        81.68124999999961,
                        7.027083333333231
                    ],
                    [
                        81.68124999999961,
                        7.010416666666551
                    ],
                    [
                        81.68541666666627,
                        7.006249999999888
                    ],
                    [
                        81.68958333333293,
                        7.006249999999888
                    ],
                    [
                        81.6937499999996,
                        7.002083333333239
                    ],
                    [
                        81.6937499999996,
                        6.993749999999871
                    ]
                ]
            }
        },
        {
            "type": "Feature",
            "properties": {
                "HYRIV_ID": 41405473,
                "NEXT_DOWN": 41405591,
                "MAIN_RIV": 41406076,
                "LENGTH_KM": 1.38,
                "DIST_DN_KM": 23.8,
                "DIST_UP_KM": 13.9,
                "CATCH_SKM": 1.7,
                "UPLAND_SKM": 60.3,
                "ENDORHEIC": 0,
                "DIS_AV_CMS": 1.155,
                "ORD_STRA": 2,
                "ORD_CLAS": 2,
                "ORD_FLOW": 6,
                "HYBAS_L12": 4121158640.0,
                "Shape_Length": 0.012500000000045475
            },
            "geometry": {
                "type": "LineString",
                "coordinates": [
                    [
                        81.6937499999996,
                        6.993749999999871
                    ],
                    [
                        81.70624999999964,
                        6.993749999999871
                    ]
                ]
            }
        },
        {
            "type": "Feature",
            "properties": {
                "HYRIV_ID": 41405474,
                "NEXT_DOWN": 41405591,
                "MAIN_RIV": 41406076,
                "LENGTH_KM": 1.81,
                "DIST_DN_KM": 23.8,
                "DIST_UP_KM": 5.0,
                "CATCH_SKM": 6.8200002,
                "UPLAND_SKM": 6.8,
                "ENDORHEIC": 0,
                "DIS_AV_CMS": 0.132,
                "ORD_STRA": 1,
                "ORD_CLAS": 3,
                "ORD_FLOW": 7,
                "HYBAS_L12": 4121158640.0,
                "Shape_Length": 0.01630922317656815
            },
            "geometry": {
                "type": "LineString",
                "coordinates": [
                    [
                        81.70208333333298,
                        7.008333333333219
                    ],
                    [
                        81.70208333333298,
                        7.002083333333239
                    ],
                    [
                        81.70624999999964,
                        6.997916666666576
                    ],
                    [
                        81.70624999999964,
                        6.993749999999871
                    ]
                ]
            }
        },
        {
            "type": "Feature",
            "properties": {
                "HYRIV_ID": 41405548,
                "NEXT_DOWN": 41405639,
                "MAIN_RIV": 41406076,
                "LENGTH_KM": 4.7399998,
                "DIST_DN_KM": 32.400002,
                "DIST_UP_KM": 13.0,
                "CATCH_SKM": 15.98,
                "UPLAND_SKM": 59.900002,
                "ENDORHEIC": 0,
                "DIS_AV_CMS": 1.186,
                "ORD_STRA": 2,
                "ORD_CLAS": 2,
                "ORD_FLOW": 6,
                "HYBAS_L12": 4121158670.0,
                "Shape_Length": 0.042677669529659186
            },
            "geometry": {
                "type": "LineString",
                "coordinates": [
                    [
                        81.61041666666634,
                        7.014583333333256
                    ],
                    [
                        81.614583333333,
                        7.010416666666551
                    ],
                    [
                        81.614583333333,
                        7.006249999999888
                    ],
                    [
                        81.61874999999966,
                        7.002083333333239
                    ],
                    [
                        81.61874999999966,
                        6.985416666666559
                    ],
                    [
                        81.614583333333,
                        6.981249999999896
                    ],
                    [
                        81.614583333333,
                        6.977083333333248
                    ]
                ]
            }
        },
        {
            "type": "Feature",
            "properties": {
                "HYRIV_ID": 41405588,
                "NEXT_DOWN": 41405590,
                "MAIN_RIV": 41406076,
                "LENGTH_KM": 0.69,
                "DIST_DN_KM": 38.200001,
                "DIST_UP_KM": 4.0,
                "CATCH_SKM": 9.3800001,
                "UPLAND_SKM": 9.4,
                "ENDORHEIC": 0,
                "DIS_AV_CMS": 0.18,
                "ORD_STRA": 1,
                "ORD_CLAS": 2,
                "ORD_FLOW": 7,
                "HYBAS_L12": 4121158670.0,
                "Shape_Length": 0.006249999999965894
            },
            "geometry": {
                "type": "LineString",
                "coordinates": [
                    [
                        81.56666666666635,
                        6.968749999999879
                    ],
                    [
                        81.57291666666632,
                        6.968749999999879
                    ]
                ]
            }
        },
        {
            "type": "Feature",
            "properties": {
                "HYRIV_ID": 41405589,
                "NEXT_DOWN": 41405590,
                "MAIN_RIV": 41406076,
                "LENGTH_KM": 7.85,
                "DIST_DN_KM": 38.400002,
                "DIST_UP_KM": 11.2,
                "CATCH_SKM": 29.610001,
                "UPLAND_SKM": 29.6,
                "ENDORHEIC": 0,
                "DIS_AV_CMS": 0.584,
                "ORD_STRA": 1,
                "ORD_CLAS": 1,
                "ORD_FLOW": 7,
                "HYBAS_L12": 4121158670.0,
                "Shape_Length": 0.07077200572604682
            },
            "geometry": {
                "type": "LineString",
                "coordinates": [
                    [
                        81.54374999999962,
                        7.016666666666588
                    ],
                    [
                        81.54374999999962,
                        6.997916666666576
                    ],
                    [
                        81.54791666666628,
                        6.993749999999871
                    ],
                    [
                        81.54791666666628,
                        6.985416666666559
                    ],
                    [
                        81.55208333333294,
                        6.981249999999896
                    ],
                    [
                        81.55624999999961,
                        6.981249999999896
                    ],
                    [
                        81.56041666666627,
                        6.985416666666559
                    ],
                    [
                        81.5687499999996,
                        6.977083333333248
                    ],
                    [
                        81.5687499999996,
                        6.972916666666542
                    ],
                    [
                        81.57291666666632,
                        6.968749999999879
                    ]
                ]
            }
        },
        {
            "type": "Feature",
            "properties": {
                "HYRIV_ID": 41405590,
                "NEXT_DOWN": 41405639,
                "MAIN_RIV": 41406076,
                "LENGTH_KM": 5.7600002,
                "DIST_DN_KM": 32.599998,
                "DIST_UP_KM": 17.0,
                "CATCH_SKM": 18.959999,
                "UPLAND_SKM": 58.0,
                "ENDORHEIC": 0,
                "DIS_AV_CMS": 1.098,
                "ORD_STRA": 2,
                "ORD_CLAS": 1,
                "ORD_FLOW": 6,
                "HYBAS_L12": 4121158670.0,
                "Shape_Length": 0.0520220057261543
            },
            "geometry": {
                "type": "LineString",
                "coordinates": [
                    [
                        81.57291666666632,
                        6.968749999999879
                    ],
                    [
                        81.57708333333298,
                        6.972916666666542
                    ],
                    [
                        81.58124999999964,
                        6.972916666666542
                    ],
                    [
                        81.5854166666663,
                        6.977083333333248
                    ],
                    [
                        81.59791666666635,
                        6.977083333333248
                    ],
                    [
                        81.60208333333301,
                        6.972916666666542
                    ],
                    [
                        81.60624999999968,
                        6.977083333333248
                    ],
                    [
                        81.61041666666634,
                        6.972916666666542
                    ],
                    [
                        81.614583333333,
                        6.977083333333248
                    ]
                ]
            }
        },
        {
            "type": "Feature",
            "properties": {
                "HYRIV_ID": 41405591,
                "NEXT_DOWN": 41405837,
                "MAIN_RIV": 41406076,
                "LENGTH_KM": 3.35,
                "DIST_DN_KM": 20.700001,
                "DIST_UP_KM": 17.1,
                "CATCH_SKM": 10.87,
                "UPLAND_SKM": 78.0,
                "ENDORHEIC": 0,
                "DIS_AV_CMS": 1.461,
                "ORD_STRA": 2,
                "ORD_CLAS": 2,
                "ORD_FLOW": 6,
                "HYBAS_L12": 4121158640.0,
                "Shape_Length": 0.030177669529654613
            },
            "geometry": {
                "type": "LineString",
                "coordinates": [
                    [
                        81.70624999999964,
                        6.993749999999871
                    ],
                    [
                        81.7104166666663,
                        6.989583333333222
                    ],
                    [
                        81.7104166666663,
                        6.985416666666559
                    ],
                    [
                        81.71458333333297,
                        6.981249999999896
                    ],
                    [
                        81.71458333333297,
                        6.972916666666542
                    ],
                    [
                        81.71874999999963,
                        6.968749999999879
                    ]
                ]
            }
        },
        {
            "type": "Feature",
            "properties": {
                "HYRIV_ID": 41405606,
                "NEXT_DOWN": 41405837,
                "MAIN_RIV": 41406076,
                "LENGTH_KM": 4.4899998,
                "DIST_DN_KM": 20.700001,
                "DIST_UP_KM": 7.7,
                "CATCH_SKM": 15.34,
                "UPLAND_SKM": 15.3,
                "ENDORHEIC": 0,
                "DIS_AV_CMS": 0.278,
                "ORD_STRA": 1,
                "ORD_CLAS": 3,
                "ORD_FLOW": 7,
                "HYBAS_L12": 4121158640.0,
                "Shape_Length": 0.040594336196334346
            },
            "geometry": {
                "type": "LineString",
                "coordinates": [
                    [
                        81.68749999999957,
                        6.968749999999879
                    ],
                    [
                        81.69791666666632,
                        6.968749999999879
                    ],
                    [
                        81.69791666666632,
                        6.964583333333231
                    ],
                    [
                        81.70208333333298,
                        6.968749999999879
                    ],
                    [
                        81.70624999999964,
                        6.964583333333231
                    ],
                    [
                        81.71458333333297,
                        6.964583333333231
                    ],
                    [
                        81.71874999999963,
                        6.968749999999879
                    ]
                ]
            }
        },
        {
            "type": "Feature",
            "properties": {
                "HYRIV_ID": 41405638,
                "NEXT_DOWN": 41405800,
                "MAIN_RIV": 41406076,
                "LENGTH_KM": 3.45,
                "DIST_DN_KM": 28.700001,
                "DIST_UP_KM": 6.3,
                "CATCH_SKM": 14.06,
                "UPLAND_SKM": 14.1,
                "ENDORHEIC": 0,
                "DIS_AV_CMS": 0.26,
                "ORD_STRA": 1,
                "ORD_CLAS": 2,
                "ORD_FLOW": 7,
                "HYBAS_L12": 4121158670.0,
                "Shape_Length": 0.03125
            },
            "geometry": {
                "type": "LineString",
                "coordinates": [
                    [
                        81.60833333333292,
                        6.95625
                    ],
                    [
                        81.63958333333292,
                        6.95625
                    ]
                ]
            }
        },
        {
            "type": "Feature",
            "properties": {
                "HYRIV_ID": 41405639,
                "NEXT_DOWN": 41405800,
                "MAIN_RIV": 41406076,
                "LENGTH_KM": 3.72,
                "DIST_DN_KM": 28.9,
                "DIST_UP_KM": 20.700001,
                "CATCH_SKM": 10.44,
                "UPLAND_SKM": 128.3,
                "ENDORHEIC": 0,
                "DIS_AV_CMS": 2.4300001,
                "ORD_STRA": 3,
                "ORD_CLAS": 1,
                "ORD_FLOW": 6,
                "HYBAS_L12": 4121158670.0,
                "Shape_Length": 0.03362944921605546
            },
            "geometry": {
                "type": "LineString",
                "coordinates": [
                    [
                        81.614583333333,
                        6.977083333333248
                    ],
                    [
                        81.62291666666638,
                        6.968749999999879
                    ],
                    [
                        81.62708333333305,
                        6.968749999999879
                    ],
                    [
                        81.63958333333292,
                        6.95625
                    ]
                ]
            }
        },
        {
            "type": "Feature",
            "properties": {
                "HYRIV_ID": 41405800,
                "NEXT_DOWN": 41405866,
                "MAIN_RIV": 41406076,
                "LENGTH_KM": 5.1100001,
                "DIST_DN_KM": 23.8,
                "DIST_UP_KM": 25.8,
                "CATCH_SKM": 16.41,
                "UPLAND_SKM": 158.7,
                "ENDORHEIC": 0,
                "DIS_AV_CMS": 2.8959999,
                "ORD_STRA": 3,
                "ORD_CLAS": 1,
                "ORD_FLOW": 6,
                "HYBAS_L12": 4121158670.0,
                "Shape_Length": 0.046129449216084584
            },
            "geometry": {
                "type": "LineString",
                "coordinates": [
                    [
                        81.63958333333292,
                        6.95625
                    ],
                    [
                        81.6437499999997,
                        6.952083333333213
                    ],
                    [
                        81.64791666666625,
                        6.952083333333213
                    ],
                    [
                        81.64791666666625,
                        6.947916666666593
                    ],
                    [
                        81.65624999999957,
                        6.939583333333225
                    ],
                    [
                        81.65624999999957,
                        6.935416666666576
                    ],
                    [
                        81.6604166666663,
                        6.931249999999871
                    ],
                    [
                        81.6604166666663,
                        6.927083333333208
                    ],
                    [
                        81.66458333333296,
                        6.922916666666559
                    ]
                ]
            }
        },
        {
            "type": "Feature",
            "properties": {
                "HYRIV_ID": 41405818,
                "NEXT_DOWN": 41405866,
                "MAIN_RIV": 41406076,
                "LENGTH_KM": 3.6700001,
                "DIST_DN_KM": 23.6,
                "DIST_UP_KM": 7.1,
                "CATCH_SKM": 13.21,
                "UPLAND_SKM": 13.2,
                "ENDORHEIC": 0,
                "DIS_AV_CMS": 0.236,
                "ORD_STRA": 1,
                "ORD_CLAS": 2,
                "ORD_FLOW": 7,
                "HYBAS_L12": 4121158670.0,
                "Shape_Length": 0.03312394778456431
            },
            "geometry": {
                "type": "LineString",
                "coordinates": [
                    [
                        81.63749999999962,
                        6.916666666666565
                    ],
                    [
                        81.6437499999997,
                        6.922916666666559
                    ],
                    [
                        81.64791666666625,
                        6.918749999999896
                    ],
                    [
                        81.65208333333308,
                        6.922916666666559
                    ],
                    [
                        81.66458333333296,
                        6.922916666666559
                    ]
                ]
            }
        },
        {
            "type": "Feature",
            "properties": {
                "HYRIV_ID": 41405837,
                "NEXT_DOWN": 41405900,
                "MAIN_RIV": 41406076,
                "LENGTH_KM": 8.08,
                "DIST_DN_KM": 12.4,
                "DIST_UP_KM": 25.3,
                "CATCH_SKM": 30.68,
                "UPLAND_SKM": 124.0,
                "ENDORHEIC": 0,
                "DIS_AV_CMS": 2.1760001,
                "ORD_STRA": 2,
                "ORD_CLAS": 2,
                "ORD_FLOW": 6,
                "HYBAS_L12": 4121158640.0,
                "Shape_Length": 0.07285533905936162
            },
            "geometry": {
                "type": "LineString",
                "coordinates": [
                    [
                        81.71874999999963,
                        6.968749999999879
                    ],
                    [
                        81.7229166666663,
                        6.968749999999879
                    ],
                    [
                        81.72708333333301,
                        6.964583333333231
                    ],
                    [
                        81.72708333333301,
                        6.960416666666568
                    ],
                    [
                        81.73124999999968,
                        6.95625
                    ],
                    [
                        81.73124999999968,
                        6.947916666666593
                    ],
                    [
                        81.73541666666634,
                        6.943749999999888
                    ],
                    [
                        81.739583333333,
                        6.943749999999888
                    ],
                    [
                        81.74374999999966,
                        6.939583333333225
                    ],
                    [
                        81.74374999999966,
                        6.931249999999871
                    ],
                    [
                        81.74791666666633,
                        6.927083333333208
                    ],
                    [
                        81.74791666666633,
                        6.922916666666559
                    ],
                    [
                        81.75208333333305,
                        6.918749999999896
                    ],
                    [
                        81.75208333333305,
                        6.914583333333233
                    ]
                ]
            }
        },
        {
            "type": "Feature",
            "properties": {
                "HYRIV_ID": 41405866,
                "NEXT_DOWN": 41405900,
                "MAIN_RIV": 41406076,
                "LENGTH_KM": 11.2,
                "DIST_DN_KM": 12.4,
                "DIST_UP_KM": 37.200001,
                "CATCH_SKM": 34.950001,
                "UPLAND_SKM": 206.89999,
                "ENDORHEIC": 0,
                "DIS_AV_CMS": 3.474,
                "ORD_STRA": 3,
                "ORD_CLAS": 1,
                "ORD_FLOW": 6,
                "HYBAS_L12": 4121158670.0,
                "Shape_Length": 0.10130711874579139
            },
            "geometry": {
                "type": "LineString",
                "coordinates": [
                    [
                        81.66458333333296,
                        6.922916666666559
                    ],
                    [
                        81.68958333333293,
                        6.922916666666559
                    ],
                    [
                        81.6937499999996,
                        6.927083333333208
                    ],
                    [
                        81.70208333333298,
                        6.918749999999896
                    ],
                    [
                        81.71458333333297,
                        6.918749999999896
                    ],
                    [
                        81.7229166666663,
                        6.910416666666585
                    ],
                    [
                        81.72708333333301,
                        6.910416666666585
                    ],
                    [
                        81.73541666666634,
                        6.918749999999896
                    ],
                    [
                        81.739583333333,
                        6.918749999999896
                    ],
                    [
                        81.74374999999966,
                        6.914583333333233
                    ],
                    [
                        81.75208333333305,
                        6.914583333333233
                    ]
                ]
            }
        },
        {
            "type": "Feature",
            "properties": {
                "HYRIV_ID": 41405900,
                "NEXT_DOWN": 41406076,
                "MAIN_RIV": 41406076,
                "LENGTH_KM": 3.34,
                "DIST_DN_KM": 9.2,
                "DIST_UP_KM": 40.400002,
                "CATCH_SKM": 9.5900002,
                "UPLAND_SKM": 340.5,
                "ENDORHEIC": 0,
                "DIS_AV_CMS": 5.677,
                "ORD_STRA": 3,
                "ORD_CLAS": 1,
                "ORD_FLOW": 6,
                "HYBAS_L12": 4120049920.0,
                "Shape_Length": 0.030177669529532603
            },
            "geometry": {
                "type": "LineString",
                "coordinates": [
                    [
                        81.75208333333305,
                        6.914583333333233
                    ],
                    [
                        81.76041666666626,
                        6.914583333333233
                    ],
                    [
                        81.7687499999997,
                        6.906249999999879
                    ],
                    [
                        81.7687499999997,
                        6.902083333333216
                    ],
                    [
                        81.77291666666625,
                        6.897916666666568
                    ]
                ]
            }
        },
        {
            "type": "Feature",
            "properties": {
                "HYRIV_ID": 41405943,
                "NEXT_DOWN": 41406076,
                "MAIN_RIV": 41406076,
                "LENGTH_KM": 1.4400001,
                "DIST_DN_KM": 9.0,
                "DIST_UP_KM": 5.6,
                "CATCH_SKM": 7.8800001,
                "UPLAND_SKM": 7.9,
                "ENDORHEIC": 0,
                "DIS_AV_CMS": 0.131,
                "ORD_STRA": 1,
                "ORD_CLAS": 2,
                "ORD_FLOW": 7,
                "HYBAS_L12": 4120049920.0,
                "Shape_Length": 0.013005501431466584
            },
            "geometry": {
                "type": "LineString",
                "coordinates": [
                    [
                        81.76666666666628,
                        6.8875
                    ],
                    [
                        81.77291666666625,
                        6.89375
                    ],
                    [
                        81.77291666666625,
                        6.897916666666568
                    ]
                ]
            }
        },
        {
            "type": "Feature",
            "properties": {
                "HYRIV_ID": 41406076,
                "NEXT_DOWN": 0,
                "MAIN_RIV": 41406076,
                "LENGTH_KM": 8.9099998,
                "DIST_DN_KM": 0.0,
                "DIST_UP_KM": 49.3,
                "CATCH_SKM": 33.889999,
                "UPLAND_SKM": 378.0,
                "ENDORHEIC": 0,
                "DIS_AV_CMS": 5.9070001,
                "ORD_STRA": 3,
                "ORD_CLAS": 1,
                "ORD_FLOW": 6,
                "HYBAS_L12": 4120049920.0,
                "Shape_Length": 0.08047378541253213
            },
            "geometry": {
                "type": "LineString",
                "coordinates": [
                    [
                        81.77291666666625,
                        6.897916666666568
                    ],
                    [
                        81.78124999999957,
                        6.889583333333242
                    ],
                    [
                        81.7854166666663,
                        6.889583333333242
                    ],
                    [
                        81.7895833333329,
                        6.885416666666551
                    ],
                    [
                        81.79791666666628,
                        6.885416666666551
                    ],
                    [
                        81.80208333333294,
                        6.881249999999888
                    ],
                    [
                        81.80624999999961,
                        6.881249999999888
                    ],
                    [
                        81.81041666666627,
                        6.877083333333225
                    ],
                    [
                        81.81041666666627,
                        6.868749999999871
                    ],
                    [
                        81.81458333333293,
                        6.864583333333208
                    ],
                    [
                        81.82291666666632,
                        6.864583333333208
                    ],
                    [
                        81.83124999999964,
                        6.856249999999896
                    ]
                ]
            }
        }
    ]
}