{
    "type": "FeatureCollection",
    "features": [
        {
            "type": "Feature",
            "properties": {
                "HYRIV_ID": 41405287,
                "NEXT_DOWN": 41405393,
                "MAIN_RIV": 41405393,
                "LENGTH_KM": 4.96,
                "DIST_DN_KM": 5.0,
                "DIST_UP_KM": 7.8,
                "CATCH_SKM": 15.13,
                "UPLAND_SKM": 15.1,
                "ENDORHEIC": 0,
                "DIS_AV_CMS": 0.509,
                "ORD_STRA": 1,
                "ORD_CLAS": 1,
                "ORD_FLOW": 7,
                "HYBAS_L12": 4120049060.0,
                "Shape_Length": 0.04476100286293622
            },
            "geometry": {
                "type": "LineString",
                "coordinates": [
                    [
                        79.87499999999963,
                        7.072916666666551
                    ],
                    [
                        79.86874999999966,
                        7.072916666666551
                    ],
                    [
                        79.86874999999966,
                        7.060416666666534
                    ],
                    [
                        79.87291666666633,
                        7.056249999999885
                    ],
                    [
                        79.87291666666633,
                        7.052083333333222
                    ],
                    [
                        79.86874999999966,
                        7.047916666666559
                    ],
                    [
                        79.86874999999966,
                        7.043749999999896
                    ],
                    [
                        79.87291666666633,
                        7.039583333333248
                    ]
                ]
            }
        },
        {
            "type": "Feature",
            "properties": {
                "HYRIV_ID": 41405288,
                "NEXT_DOWN": 41405393,
                "MAIN_RIV": 41405393,
                "LENGTH_KM": 3.86,
                "DIST_DN_KM": 4.8,
                "DIST_UP_KM": 6.0,
                "CATCH_SKM": 9.8,
                "UPLAND_SKM": 9.8,
                "ENDORHEIC": 0,
                "DIS_AV_CMS": 0.334,
                "ORD_STRA": 1,
                "ORD_CLAS": 2,
                "ORD_FLOW": 7,
                "HYBAS_L12": 4120049060.0,
                "Shape_Length": 0.03484983762771952
            },
            "geometry": {
                "type": "LineString",
                "coordinates": [
                    [
                        79.89583333333294,
                        7.062499999999865
                    ],
                    [
                        79.8812499999996,
                        7.047916666666559
                    ],
                    [
                        79.87708333333305,
                        7.047916666666559
                    ],
                    [
                        79.87291666666633,
                        7.043749999999896
                    ],
                    [
                        79.87291666666633,
                        7.039583333333248
                    ]
                ]
            }
        },
        {
            "type": "Feature",
            "properties": {
                "HYRIV_ID": 41405393,
                "NEXT_DOWN": 0,
                "MAIN_RIV": 41405393,
                "LENGTH_KM": 4.54,
                "DIST_DN_KM": 0.0,
                "DIST_UP_KM": 12.5,
                "CATCH_SKM": 16.620001,
                "UPLAND_SKM": 41.099998,
                "ENDORHEIC": 0,
                "DIS_AV_CMS": 1.406,
                "ORD_STRA": 2,
                "ORD_CLAS": 1,
                "ORD_FLOW": 6,
                "HYBAS_L12": 4120049060.0,
                "Shape_Length": 0.04095177968652996
            },
            "geometry": {
                "type": "LineString",
                "coordinates": [
                    [
                        79.87291666666633,
                        7.039583333333248
                    ],
                    [
                        79.87708333333305,
                        7.035416666666542
                    ],
                    [
                        79.87708333333305,
                        7.010416666666551
                    ],
                    [
                        79.87291666666633,
                        7.006249999999888
                    ],
                    [
                        79.86874999999966,
                        7.006249999999888
                    ]
                ]
            }
        }
    ]
}