{
    "type": "FeatureCollection",
    "features": [
        {
            "type": "Feature",
            "properties": {
                "HYRIV_ID": 41404673,
                "NEXT_DOWN": 41404801,
                "MAIN_RIV": 41404802,
                "LENGTH_KM": 1.15,
                "DIST_DN_KM": 8.5,
                "DIST_UP_KM": 5.2,
                "CATCH_SKM": 9.8,
                "UPLAND_SKM": 9.8,
                "ENDORHEIC": 0,
                "DIS_AV_CMS": 0.213,
                "ORD_STRA": 1,
                "ORD_CLAS": 3,
                "ORD_FLOW": 7,
                "HYBAS_L12": 4120049860.0,
                "Shape_Length": 0.010416666666628771
            },
            "geometry": {
                "type": "LineString",
                "coordinates": [
                    [
                        81.78749999999965,
                        7.202083333333213
                    ],
                    [
                        81.79791666666628,
                        7.202083333333213
                    ]
                ]
            }
        },
        {
            "type": "Feature",
            "properties": {
                "HYRIV_ID": 41404674,
                "NEXT_DOWN": 41404801,
                "MAIN_RIV": 41404802,
                "LENGTH_KM": 0.98,
                "DIST_DN_KM": 8.7,
                "DIST_UP_KM": 5.1,
                "CATCH_SKM": 4.9,
                "UPLAND_SKM": 4.9,
                "ENDORHEIC": 0,
                "DIS_AV_CMS": 0.107,
                "ORD_STRA": 1,
                "ORD_CLAS": 2,
                "ORD_FLOW": 7,
                "HYBAS_L12": 4120049860.0,
                "Shape_Length": 0.008838834764914243
            },
            "geometry": {
                "type": "LineString",
                "coordinates": [
                    [
                        81.80416666666636,
                        7.20833333333325
                    ],
                    [
                        81.79791666666628,
                        7.202083333333213
                    ]
                ]
            }
        },
        {
            "type": "Feature",
            "properties": {
                "HYRIV_ID": 41404800,
                "NEXT_DOWN": 41404845,
                "MAIN_RIV": 41404802,
                "LENGTH_KM": 8.2200003,
                "DIST_DN_KM": 12.5,
                "DIST_UP_KM": 10.9,
                "CATCH_SKM": 26.83,
                "UPLAND_SKM": 26.8,
                "ENDORHEIC": 0,
                "DIS_AV_CMS": 0.583,
                "ORD_STRA": 1,
                "ORD_CLAS": 3,
                "ORD_FLOW": 7,
                "HYBAS_L12": 4121158340.0,
                "Shape_Length": 0.07422378541249273
            },
            "geometry": {
                "type": "LineString",
                "coordinates": [
                    [
                        81.72083333333293,
                        7.19375
                    ],
                    [
                        81.73124999999968,
                        7.19375
                    ],
                    [
                        81.74374999999966,
                        7.206249999999876
                    ],
                    [
                        81.74791666666633,
                        7.206249999999876
                    ],
                    [
                        81.75624999999971,
                        7.197916666666565
                    ],
                    [
                        81.75624999999971,
                        7.19375
                    ],
                    [
                        81.76041666666626,
                        7.189583333333239
                    ],
                    [
                        81.76041666666626,
                        7.185416666666548
                    ],
                    [
                        81.76458333333292,
                        7.181249999999885
                    ],
                    [
                        81.76458333333292,
                        7.177083333333222
                    ],
                    [
                        81.7687499999997,
                        7.172916666666573
                    ]
                ]
            }
        },
        {
            "type": "Feature",
            "properties": {
                "HYRIV_ID": 41404801,
                "NEXT_DOWN": 41404802,
                "MAIN_RIV": 41404802,
                "LENGTH_KM": 7.79,
                "DIST_DN_KM": 0.9,
                "DIST_UP_KM": 12.9,
                "CATCH_SKM": 25.559999,
                "UPLAND_SKM": 40.3,
                "ENDORHEIC": 0,
                "DIS_AV_CMS": 0.866,
                "ORD_STRA": 2,
                "ORD_CLAS": 2,
                "ORD_FLOW": 7,
                "HYBAS_L12": 4120049860.0,
                "Shape_Length": 0.07041456223585808
            },
            "geometry": {
                "type": "LineString",
                "coordinates": [
                    [
                        81.79791666666628,
                        7.202083333333213
                    ],
                    [
                        81.80208333333294,
                        7.197916666666565
                    ],
                    [
                        81.8187499999996,
                        7.197916666666565
                    ],
                    [
                        81.82291666666632,
                        7.19375
                    ],
                    [
                        81.83124999999964,
                        7.19375
                    ],
                    [
                        81.8479166666663,
                        7.177083333333222
                    ],
                    [
                        81.85208333333296,
                        7.177083333333222
                    ],
                    [
                        81.85624999999962,
                        7.172916666666573
                    ]
                ]
            }
        },
        {
            "type": "Feature",
            "properties": {
                "HYRIV_ID": 41404802,
                "NEXT_DOWN": 0,
                "MAIN_RIV": 41404802,
                "LENGTH_KM": 0.46,
                "DIST_DN_KM": 0.0,
                "DIST_UP_KM": 40.700001,
                "CATCH_SKM": 0.43,
                "UPLAND_SKM": 369.10001,
                "ENDORHEIC": 0,
                "DIS_AV_CMS": 7.638,
                "ORD_STRA": 3,
                "ORD_CLAS": 1,
                "ORD_FLOW": 6,
                "HYBAS_L12": 4120049860.0,
                "Shape_Length": 0.0041666666667197205
            },
            "geometry": {
                "type": "LineString",
                "coordinates": [
                    [
                        81.85624999999962,
                        7.172916666666573
                    ],
                    [
                        81.86041666666634,
                        7.172916666666573
                    ]
                ]
            }
        },
        {
            "type": "Feature",
            "properties": {
                "HYRIV_ID": 41404845,
                "NEXT_DOWN": 41404861,
                "MAIN_RIV": 41404802,
                "LENGTH_KM": 5.64,
                "DIST_DN_KM": 6.6,
                "DIST_UP_KM": 23.700001,
                "CATCH_SKM": 14.48,
                "UPLAND_SKM": 106.7,
                "ENDORHEIC": 0,
                "DIS_AV_CMS": 2.2709999,
                "ORD_STRA": 2,
                "ORD_CLAS": 2,
                "ORD_FLOW": 6,
                "HYBAS_L12": 4121158340.0,
                "Shape_Length": 0.05101100286289723
            },
            "geometry": {
                "type": "LineString",
                "coordinates": [
                    [
                        81.7687499999997,
                        7.172916666666573
                    ],
                    [
                        81.7895833333329,
                        7.172916666666573
                    ],
                    [
                        81.80208333333294,
                        7.160416666666556
                    ],
                    [
                        81.81458333333293,
                        7.160416666666556
                    ]
                ]
            }
        },
        {
            "type": "Feature",
            "properties": {
                "HYRIV_ID": 41404861,
                "NEXT_DOWN": 41404862,
                "MAIN_RIV": 41404802,
                "LENGTH_KM": 2.8800001,
                "DIST_DN_KM": 4.0,
                "DIST_UP_KM": 26.4,
                "CATCH_SKM": 9.1599998,
                "UPLAND_SKM": 122.3,
                "ENDORHEIC": 0,
                "DIS_AV_CMS": 2.592,
                "ORD_STRA": 2,
                "ORD_CLAS": 2,
                "ORD_FLOW": 6,
                "HYBAS_L12": 4121158340.0,
                "Shape_Length": 0.02601100286299346
            },
            "geometry": {
                "type": "LineString",
                "coordinates": [
                    [
                        81.81458333333293,
                        7.160416666666556
                    ],
                    [
                        81.8187499999996,
                        7.164583333333205
                    ],
                    [
                        81.82708333333292,
                        7.164583333333205
                    ],
                    [
                        81.8354166666663,
                        7.156249999999893
                    ]
                ]
            }
        },
        {
            "type": "Feature",
            "properties": {
                "HYRIV_ID": 41404862,
                "NEXT_DOWN": 41404802,
                "MAIN_RIV": 41404802,
                "LENGTH_KM": 3.07,
                "DIST_DN_KM": 0.9,
                "DIST_UP_KM": 40.099998,
                "CATCH_SKM": 6.8200002,
                "UPLAND_SKM": 328.70001,
                "ENDORHEIC": 0,
                "DIS_AV_CMS": 6.7729998,
                "ORD_STRA": 3,
                "ORD_CLAS": 1,
                "ORD_FLOW": 6,
                "HYBAS_L12": 4120049860.0,
                "Shape_Length": 0.027736892706213122
            },
            "geometry": {
                "type": "LineString",
                "coordinates": [
                    [
                        81.8354166666663,
                        7.156249999999893
                    ],
                    [
                        81.83958333333297,
                        7.156249999999893
                    ],
                    [
                        81.85624999999962,
                        7.172916666666573
                    ]
                ]
            }
        },
        {
            "type": "Feature",
            "properties": {
                "HYRIV_ID": 41404875,
                "NEXT_DOWN": 41404845,
                "MAIN_RIV": 41404802,
                "LENGTH_KM": 8.3199997,
                "DIST_DN_KM": 12.5,
                "DIST_UP_KM": 17.9,
                "CATCH_SKM": 28.969999,
                "UPLAND_SKM": 65.400002,
                "ENDORHEIC": 0,
                "DIS_AV_CMS": 1.3940001,
                "ORD_STRA": 2,
                "ORD_CLAS": 2,
                "ORD_FLOW": 6,
                "HYBAS_L12": 4121158340.0,
                "Shape_Length": 0.07529611588277152
            },
            "geometry": {
                "type": "LineString",
                "coordinates": [
                    [
                        81.70208333333298,
                        7.152083333333231
                    ],
                    [
                        81.70624999999964,
                        7.156249999999893
                    ],
                    [
                        81.7229166666663,
                        7.156249999999893
                    ],
                    [
                        81.72708333333301,
                        7.160416666666556
                    ],
                    [
                        81.739583333333,
                        7.160416666666556
                    ],
                    [
                        81.74374999999966,
                        7.164583333333205
                    ],
                    [
                        81.74791666666633,
                        7.164583333333205
                    ],
                    [
                        81.75208333333305,
                        7.16875
                    ],
                    [
                        81.76458333333292,
                        7.16875
                    ],
                    [
                        81.7687499999997,
                        7.172916666666573
                    ]
                ]
            }
        },
        {
            "type": "Feature",
            "properties": {
                "HYRIV_ID": 41404876,
                "NEXT_DOWN": 41404861,
                "MAIN_RIV": 41404802,
                "LENGTH_KM": 2.27,
                "DIST_DN_KM": 6.6,
                "DIST_UP_KM": 6.4,
                "CATCH_SKM": 6.39,
                "UPLAND_SKM": 6.4,
                "ENDORHEIC": 0,
                "DIS_AV_CMS": 0.13500001,
                "ORD_STRA": 1,
                "ORD_CLAS": 3,
                "ORD_FLOW": 7,
                "HYBAS_L12": 4121158340.0,
                "Shape_Length": 0.020475889843174184
            },
            "geometry": {
                "type": "LineString",
                "coordinates": [
                    [
                        81.79999999999964,
                        7.152083333333231
                    ],
                    [
                        81.81041666666627,
                        7.152083333333231
                    ],
                    [
                        81.81458333333293,
                        7.156249999999893
                    ],
                    [
                        81.81458333333293,
                        7.160416666666556
                    ]
                ]
            }
        },
        {
            "type": "Feature",
            "properties": {
                "HYRIV_ID": 41404877,
                "NEXT_DOWN": 41404862,
                "MAIN_RIV": 41404802,
                "LENGTH_KM": 0.65,
                "DIST_DN_KM": 4.0,
                "DIST_UP_KM": 37.0,
                "CATCH_SKM": 1.49,
                "UPLAND_SKM": 199.60001,
                "ENDORHEIC": 0,
                "DIS_AV_CMS": 4.0609999,
                "ORD_STRA": 2,
                "ORD_CLAS": 1,
                "ORD_FLOW": 6,
                "HYBAS_L12": 4121158370.0,
                "Shape_Length": 0.0058925565098825365
            },
            "geometry": {
                "type": "LineString",
                "coordinates": [
                    [
                        81.83124999999964,
                        7.152083333333231
                    ],
                    [
                        81.8354166666663,
                        7.156249999999893
                    ]
                ]
            }
        },
        {
            "type": "Feature",
            "properties": {
                "HYRIV_ID": 41404913,
                "NEXT_DOWN": 41404875,
                "MAIN_RIV": 41404802,
                "LENGTH_KM": 1.63,
                "DIST_DN_KM": 20.8,
                "DIST_UP_KM": 4.9,
                "CATCH_SKM": 10.86,
                "UPLAND_SKM": 10.9,
                "ENDORHEIC": 0,
                "DIS_AV_CMS": 0.232,
                "ORD_STRA": 1,
                "ORD_CLAS": 3,
                "ORD_FLOW": 7,
                "HYBAS_L12": 4121158340.0,
                "Shape_Length": 0.014731391274706343
            },
            "geometry": {
                "type": "LineString",
                "coordinates": [
                    [
                        81.69166666666635,
                        7.141666666666545
                    ],
                    [
                        81.70208333333298,
                        7.152083333333231
                    ]
                ]
            }
        },
        {
            "type": "Feature",
            "properties": {
                "HYRIV_ID": 41404932,
                "NEXT_DOWN": 41404875,
                "MAIN_RIV": 41404802,
                "LENGTH_KM": 6.73,
                "DIST_DN_KM": 20.8,
                "DIST_UP_KM": 9.6,
                "CATCH_SKM": 25.559999,
                "UPLAND_SKM": 25.6,
                "ENDORHEIC": 0,
                "DIS_AV_CMS": 0.551,
                "ORD_STRA": 1,
                "ORD_CLAS": 2,
                "ORD_FLOW": 7,
                "HYBAS_L12": 4121158340.0,
                "Shape_Length": 0.06086084049081073
            },
            "geometry": {
                "type": "LineString",
                "coordinates": [
                    [
                        81.65416666666633,
                        7.137499999999882
                    ],
                    [
                        81.66874999999962,
                        7.152083333333231
                    ],
                    [
                        81.67291666666628,
                        7.152083333333231
                    ],
                    [
                        81.67708333333294,
                        7.156249999999893
                    ],
                    [
                        81.68124999999961,
                        7.156249999999893
                    ],
                    [
                        81.68541666666627,
                        7.160416666666556
                    ],
                    [
                        81.6937499999996,
                        7.160416666666556
                    ],
                    [
                        81.70208333333298,
                        7.152083333333231
                    ]
                ]
            }
        },
        {
            "type": "Feature",
            "properties": {
                "HYRIV_ID": 41404958,
                "NEXT_DOWN": 41404959,
                "MAIN_RIV": 41404802,
                "LENGTH_KM": 2.6900001,
                "DIST_DN_KM": 10.0,
                "DIST_UP_KM": 31.0,
                "CATCH_SKM": 4.0500002,
                "UPLAND_SKM": 157.0,
                "ENDORHEIC": 0,
                "DIS_AV_CMS": 3.2079999,
                "ORD_STRA": 2,
                "ORD_CLAS": 1,
                "ORD_FLOW": 6,
                "HYBAS_L12": 4121158370.0,
                "Shape_Length": 0.02428511301963657
            },
            "geometry": {
                "type": "LineString",
                "coordinates": [
                    [
                        81.7687499999997,
                        7.13125
                    ],
                    [
                        81.77291666666625,
                        7.135416666666551
                    ],
                    [
                        81.78124999999957,
                        7.135416666666551
                    ],
                    [
                        81.7854166666663,
                        7.13125
                    ],
                    [
                        81.7895833333329,
                        7.13125
                    ]
                ]
            }
        },
        {
            "type": "Feature",
            "properties": {
                "HYRIV_ID": 41404959,
                "NEXT_DOWN": 41404877,
                "MAIN_RIV": 41404802,
                "LENGTH_KM": 5.56,
                "DIST_DN_KM": 4.6,
                "DIST_UP_KM": 36.3,
                "CATCH_SKM": 12.99,
                "UPLAND_SKM": 177.0,
                "ENDORHEIC": 0,
                "DIS_AV_CMS": 3.599,
                "ORD_STRA": 2,
                "ORD_CLAS": 1,
                "ORD_FLOW": 6,
                "HYBAS_L12": 4121158370.0,
                "Shape_Length": 0.050296115882834155
            },
            "geometry": {
                "type": "LineString",
                "coordinates": [
                    [
                        81.7895833333329,
                        7.13125
                    ],
                    [
                        81.79374999999962,
                        7.13125
                    ],
                    [
                        81.80208333333294,
                        7.139583333333213
                    ],
                    [
                        81.81041666666627,
                        7.139583333333213
                    ],
                    [
                        81.8187499999996,
                        7.147916666666539
                    ],
                    [
                        81.82708333333292,
                        7.147916666666539
                    ],
                    [
                        81.83124999999964,
                        7.152083333333231
                    ]
                ]
            }
        },
        {
            "type": "Feature",
            "properties": {
                "HYRIV_ID": 41404968,
                "NEXT_DOWN": 41404959,
                "MAIN_RIV": 41404802,
                "LENGTH_KM": 0.69,
                "DIST_DN_KM": 10.0,
                "DIST_UP_KM": 4.9,
                "CATCH_SKM": 7.0300002,
                "UPLAND_SKM": 7.0,
                "ENDORHEIC": 0,
                "DIS_AV_CMS": 0.145,
                "ORD_STRA": 1,
                "ORD_CLAS": 2,
                "ORD_FLOW": 7,
                "HYBAS_L12": 4121158370.0,
                "Shape_Length": 0.006249999999994316
            },
            "geometry": {
                "type": "LineString",
                "coordinates": [
                    [
                        81.7895833333329,
                        7.125
                    ],
                    [
                        81.7895833333329,
                        7.13125
                    ]
                ]
            }
        },
        {
            "type": "Feature",
            "properties": {
                "HYRIV_ID": 41404969,
                "NEXT_DOWN": 41404877,
                "MAIN_RIV": 41404802,
                "LENGTH_KM": 3.86,
                "DIST_DN_KM": 4.6,
                "DIST_UP_KM": 6.3,
                "CATCH_SKM": 21.09,
                "UPLAND_SKM": 21.1,
                "ENDORHEIC": 0,
                "DIS_AV_CMS": 0.433,
                "ORD_STRA": 1,
                "ORD_CLAS": 2,
                "ORD_FLOW": 7,
                "HYBAS_L12": 4121158370.0,
                "Shape_Length": 0.03484983762778295
            },
            "geometry": {
                "type": "LineString",
                "coordinates": [
                    [
                        81.84166666666627,
                        7.125
                    ],
                    [
                        81.8354166666663,
                        7.13125
                    ],
                    [
                        81.8354166666663,
                        7.135416666666551
                    ],
                    [
                        81.83958333333297,
                        7.139583333333213
                    ],
                    [
                        81.8354166666663,
                        7.143749999999876
                    ],
                    [
                        81.8354166666663,
                        7.147916666666539
                    ],
                    [
                        81.83124999999964,
                        7.152083333333231
                    ]
                ]
            }
        },
        {
            "type": "Feature",
            "properties": {
                "HYRIV_ID": 41405043,
                "NEXT_DOWN": 41404958,
                "MAIN_RIV": 41404802,
                "LENGTH_KM": 12.51,
                "DIST_DN_KM": 12.8,
                "DIST_UP_KM": 28.1,
                "CATCH_SKM": 39.189999,
                "UPLAND_SKM": 114.6,
                "ENDORHEIC": 0,
                "DIS_AV_CMS": 2.355,
                "ORD_STRA": 2,
                "ORD_CLAS": 1,
                "ORD_FLOW": 6,
                "HYBAS_L12": 4121158370.0,
                "Shape_Length": 0.11309223176552906
            },
            "geometry": {
                "type": "LineString",
                "coordinates": [
                    [
                        81.68124999999961,
                        7.10625
                    ],
                    [
                        81.68541666666627,
                        7.110416666666559
                    ],
                    [
                        81.69791666666632,
                        7.110416666666559
                    ],
                    [
                        81.70208333333298,
                        7.10625
                    ],
                    [
                        81.71458333333297,
                        7.10625
                    ],
                    [
                        81.71874999999963,
                        7.110416666666559
                    ],
                    [
                        81.71874999999963,
                        7.114583333333222
                    ],
                    [
                        81.7229166666663,
                        7.118749999999885
                    ],
                    [
                        81.7229166666663,
                        7.122916666666534
                    ],
                    [
                        81.73124999999968,
                        7.122916666666534
                    ],
                    [
                        81.74374999999966,
                        7.135416666666551
                    ],
                    [
                        81.74791666666633,
                        7.135416666666551
                    ],
                    [
                        81.75208333333305,
                        7.139583333333213
                    ],
                    [
                        81.75624999999971,
                        7.135416666666551
                    ],
                    [
                        81.76458333333292,
                        7.135416666666551
                    ],
                    [
                        81.7687499999997,
                        7.13125
                    ]
                ]
            }
        },
        {
            "type": "Feature",
            "properties": {
                "HYRIV_ID": 41405116,
                "NEXT_DOWN": 41405043,
                "MAIN_RIV": 41404802,
                "LENGTH_KM": 2.37,
                "DIST_DN_KM": 25.200001,
                "DIST_UP_KM": 5.0,
                "CATCH_SKM": 7.0300002,
                "UPLAND_SKM": 7.0,
                "ENDORHEIC": 0,
                "DIS_AV_CMS": 0.144,
                "ORD_STRA": 1,
                "ORD_CLAS": 2,
                "ORD_FLOW": 7,
                "HYBAS_L12": 4121158370.0,
                "Shape_Length": 0.021338834764780566
            },
            "geometry": {
                "type": "LineString",
                "coordinates": [
                    [
                        81.6749999999997,
                        7.087499999999899
                    ],
                    [
                        81.68124999999961,
                        7.093749999999893
                    ],
                    [
                        81.68124999999961,
                        7.10625
                    ]
                ]
            }
        },
        {
            "type": "Feature",
            "properties": {
                "HYRIV_ID": 41405145,
                "NEXT_DOWN": 41405146,
                "MAIN_RIV": 41404802,
                "LENGTH_KM": 3.4,
                "DIST_DN_KM": 31.1,
                "DIST_UP_KM": 7.0,
                "CATCH_SKM": 15.98,
                "UPLAND_SKM": 16.0,
                "ENDORHEIC": 0,
                "DIS_AV_CMS": 0.338,
                "ORD_STRA": 1,
                "ORD_CLAS": 2,
                "ORD_FLOW": 7,
                "HYBAS_L12": 4121158370.0,
                "Shape_Length": 0.030683170961134293
            },
            "geometry": {
                "type": "LineString",
                "coordinates": [
                    [
                        81.61666666666625,
                        7.099999999999874
                    ],
                    [
                        81.62291666666638,
                        7.093749999999893
                    ],
                    [
                        81.62708333333305,
                        7.093749999999893
                    ],
                    [
                        81.63958333333292,
                        7.08125
                    ]
                ]
            }
        },
        {
            "type": "Feature",
            "properties": {
                "HYRIV_ID": 41405146,
                "NEXT_DOWN": 41405043,
                "MAIN_RIV": 41404802,
                "LENGTH_KM": 5.75,
                "DIST_DN_KM": 25.200001,
                "DIST_UP_KM": 15.8,
                "CATCH_SKM": 26.41,
                "UPLAND_SKM": 68.400002,
                "ENDORHEIC": 0,
                "DIS_AV_CMS": 1.423,
                "ORD_STRA": 2,
                "ORD_CLAS": 1,
                "ORD_FLOW": 6,
                "HYBAS_L12": 4121158370.0,
                "Shape_Length": 0.052022005725996974
            },
            "geometry": {
                "type": "LineString",
                "coordinates": [
                    [
                        81.63958333333292,
                        7.08125
                    ],
                    [
                        81.64791666666625,
                        7.08125
                    ],
                    [
                        81.67291666666628,
                        7.10625
                    ],
                    [
                        81.68124999999961,
                        7.10625
                    ]
                ]
            }
        },
        {
            "type": "Feature",
            "properties": {
                "HYRIV_ID": 41405191,
                "NEXT_DOWN": 41405146,
                "MAIN_RIV": 41404802,
                "LENGTH_KM": 6.25,
                "DIST_DN_KM": 31.1,
                "DIST_UP_KM": 9.8,
                "CATCH_SKM": 25.99,
                "UPLAND_SKM": 26.0,
                "ENDORHEIC": 0,
                "DIS_AV_CMS": 0.54100001,
                "ORD_STRA": 1,
                "ORD_CLAS": 1,
                "ORD_FLOW": 7,
                "HYBAS_L12": 4121158370.0,
                "Shape_Length": 0.05654611588273316
            },
            "geometry": {
                "type": "LineString",
                "coordinates": [
                    [
                        81.59166666666627,
                        7.06875
                    ],
                    [
                        81.59791666666635,
                        7.06875
                    ],
                    [
                        81.60208333333301,
                        7.072916666666551
                    ],
                    [
                        81.60624999999968,
                        7.072916666666551
                    ],
                    [
                        81.61041666666634,
                        7.06875
                    ],
                    [
                        81.61874999999966,
                        7.06875
                    ],
                    [
                        81.62708333333305,
                        7.077083333333213
                    ],
                    [
                        81.63541666666626,
                        7.077083333333213
                    ],
                    [
                        81.63958333333292,
                        7.08125
                    ]
                ]
            }
        },
        {
            "type": "Feature",
            "properties": {
                "HYRIV_ID": 41405192,
                "NEXT_DOWN": 41404958,
                "MAIN_RIV": 41404802,
                "LENGTH_KM": 10.72,
                "DIST_DN_KM": 12.7,
                "DIST_UP_KM": 14.5,
                "CATCH_SKM": 38.34,
                "UPLAND_SKM": 38.3,
                "ENDORHEIC": 0,
                "DIS_AV_CMS": 0.77899998,
                "ORD_STRA": 1,
                "ORD_CLAS": 2,
                "ORD_FLOW": 7,
                "HYBAS_L12": 4121158370.0,
                "Shape_Length": 0.09678300858908118
            },
            "geometry": {
                "type": "LineString",
                "coordinates": [
                    [
                        81.71249999999961,
                        7.06875
                    ],
                    [
                        81.71874999999963,
                        7.06875
                    ],
                    [
                        81.71874999999963,
                        7.072916666666551
                    ],
                    [
                        81.7229166666663,
                        7.077083333333213
                    ],
                    [
                        81.7229166666663,
                        7.085416666666568
                    ],
                    [
                        81.73541666666634,
                        7.097916666666542
                    ],
                    [
                        81.739583333333,
                        7.097916666666542
                    ],
                    [
                        81.74791666666633,
                        7.10625
                    ],
                    [
                        81.75624999999971,
                        7.10625
                    ],
                    [
                        81.76458333333292,
                        7.114583333333222
                    ],
                    [
                        81.76458333333292,
                        7.122916666666534
                    ],
                    [
                        81.7687499999997,
                        7.127083333333196
                    ],
                    [
                        81.7687499999997,
                        7.13125
                    ]
                ]
            }
        }
    ]
}