{
    "type": "FeatureCollection",
    "features": [
        {
            "type": "Feature",
            "properties": {
                "HYRIV_ID": 41403864,
                "NEXT_DOWN": 41403865,
                "MAIN_RIV": 41403865,
                "LENGTH_KM": 1.15,
                "DIST_DN_KM": 2.3,
                "DIST_UP_KM": 5.4,
                "CATCH_SKM": 5.1100001,
                "UPLAND_SKM": 5.1,
                "ENDORHEIC": 0,
                "DIS_AV_CMS": 0.118,
                "ORD_STRA": 1,
                "ORD_CLAS": 2,
                "ORD_FLOW": 7,
                "HYBAS_L12": 4120049820.0,
                "Shape_Length": 0.010416666666628771
            },
            "geometry": {
                "type": "LineString",
                "coordinates": [
                    [
                        81.78749999999965,
                        7.41875
                    ],
                    [
                        81.79791666666628,
                        7.41875
                    ]
                ]
            }
        },
        {
            "type": "Feature",
            "properties": {
                "HYRIV_ID": 41403865,
                "NEXT_DOWN": 0,
                "MAIN_RIV": 41403865,
                "LENGTH_KM": 2.04,
                "DIST_DN_KM": 0.0,
                "DIST_UP_KM": 36.700001,
                "CATCH_SKM": 8.7299995,
                "UPLAND_SKM": 203.7,
                "ENDORHEIC": 0,
                "DIS_AV_CMS": 4.585,
                "ORD_STRA": 2,
                "ORD_CLAS": 1,
                "ORD_FLOW": 6,
                "HYBAS_L12": 4120049820.0,
                "Shape_Length": 0.018392556509842745
            },
            "geometry": {
                "type": "LineString",
                "coordinates": [
                    [
                        81.79791666666628,
                        7.41875
                    ],
                    [
                        81.79791666666628,
                        7.427083333333236
                    ],
                    [
                        81.79374999999962,
                        7.431249999999899
                    ],
                    [
                        81.79374999999962,
                        7.435416666666548
                    ]
                ]
            }
        },
        {
            "type": "Feature",
            "properties": {
                "HYRIV_ID": 41403907,
                "NEXT_DOWN": 41403865,
                "MAIN_RIV": 41403865,
                "LENGTH_KM": 1.77,
                "DIST_DN_KM": 2.5,
                "DIST_UP_KM": 34.5,
                "CATCH_SKM": 5.54,
                "UPLAND_SKM": 190.3,
                "ENDORHEIC": 0,
                "DIS_AV_CMS": 4.289,
                "ORD_STRA": 2,
                "ORD_CLAS": 1,
                "ORD_FLOW": 6,
                "HYBAS_L12": 4120049820.0,
                "Shape_Length": 0.015951779686448047
            },
            "geometry": {
                "type": "LineString",
                "coordinates": [
                    [
                        81.80624999999961,
                        7.40625
                    ],
                    [
                        81.80208333333294,
                        7.410416666666556
                    ],
                    [
                        81.80208333333294,
                        7.414583333333219
                    ],
                    [
                        81.79791666666628,
                        7.41875
                    ]
                ]
            }
        },
        {
            "type": "Feature",
            "properties": {
                "HYRIV_ID": 41403978,
                "NEXT_DOWN": 41403979,
                "MAIN_RIV": 41403865,
                "LENGTH_KM": 0.69,
                "DIST_DN_KM": 14.5,
                "DIST_UP_KM": 4.0,
                "CATCH_SKM": 5.54,
                "UPLAND_SKM": 5.5,
                "ENDORHEIC": 0,
                "DIS_AV_CMS": 0.12800001,
                "ORD_STRA": 1,
                "ORD_CLAS": 3,
                "ORD_FLOW": 7,
                "HYBAS_L12": 4120049820.0,
                "Shape_Length": 0.006249999999994316
            },
            "geometry": {
                "type": "LineString",
                "coordinates": [
                    [
                        81.74374999999966,
                        7.391666666666559
                    ],
                    [
                        81.74374999999966,
                        7.385416666666565
                    ]
                ]
            }
        },
        {
            "type": "Feature",
            "properties": {
                "HYRIV_ID": 41403979,
                "NEXT_DOWN": 41403980,
                "MAIN_RIV": 41403865,
                "LENGTH_KM": 6.6700001,
                "DIST_DN_KM": 7.8,
                "DIST_UP_KM": 18.200001,
                "CATCH_SKM": 18.73,
                "UPLAND_SKM": 61.900002,
                "ENDORHEIC": 0,
                "DIS_AV_CMS": 1.419,
                "ORD_STRA": 2,
                "ORD_CLAS": 2,
                "ORD_FLOW": 6,
                "HYBAS_L12": 4120049820.0,
                "Shape_Length": 0.06035533905928913
            },
            "geometry": {
                "type": "LineString",
                "coordinates": [
                    [
                        81.74374999999966,
                        7.385416666666565
                    ],
                    [
                        81.74791666666633,
                        7.389583333333228
                    ],
                    [
                        81.75624999999971,
                        7.389583333333228
                    ],
                    [
                        81.76041666666626,
                        7.393749999999891
                    ],
                    [
                        81.76458333333292,
                        7.389583333333228
                    ],
                    [
                        81.7687499999997,
                        7.389583333333228
                    ],
                    [
                        81.77291666666625,
                        7.393749999999891
                    ],
                    [
                        81.77708333333302,
                        7.389583333333228
                    ],
                    [
                        81.78124999999957,
                        7.389583333333228
                    ],
                    [
                        81.7854166666663,
                        7.385416666666565
                    ],
                    [
                        81.79374999999962,
                        7.385416666666565
                    ]
                ]
            }
        },
        {
            "type": "Feature",
            "properties": {
                "HYRIV_ID": 41403980,
                "NEXT_DOWN": 41403907,
                "MAIN_RIV": 41403865,
                "LENGTH_KM": 3.8,
                "DIST_DN_KM": 4.0,
                "DIST_UP_KM": 22.0,
                "CATCH_SKM": 9.1499996,
                "UPLAND_SKM": 90.5,
                "ENDORHEIC": 0,
                "DIS_AV_CMS": 2.062,
                "ORD_STRA": 2,
                "ORD_CLAS": 2,
                "ORD_FLOW": 6,
                "HYBAS_L12": 4120049820.0,
                "Shape_Length": 0.034344336196331704
            },
            "geometry": {
                "type": "LineString",
                "coordinates": [
                    [
                        81.79374999999962,
                        7.385416666666565
                    ],
                    [
                        81.80208333333294,
                        7.385416666666565
                    ],
                    [
                        81.80624999999961,
                        7.389583333333228
                    ],
                    [
                        81.80624999999961,
                        7.393749999999891
                    ],
                    [
                        81.81041666666627,
                        7.397916666666539
                    ],
                    [
                        81.80624999999961,
                        7.402083333333202
                    ],
                    [
                        81.80624999999961,
                        7.40625
                    ]
                ]
            }
        },
        {
            "type": "Feature",
            "properties": {
                "HYRIV_ID": 41404031,
                "NEXT_DOWN": 41404032,
                "MAIN_RIV": 41403865,
                "LENGTH_KM": 0.98,
                "DIST_DN_KM": 18.200001,
                "DIST_UP_KM": 3.3,
                "CATCH_SKM": 5.3200002,
                "UPLAND_SKM": 5.3,
                "ENDORHEIC": 0,
                "DIS_AV_CMS": 0.123,
                "ORD_STRA": 1,
                "ORD_CLAS": 3,
                "ORD_FLOW": 7,
                "HYBAS_L12": 4120049820.0,
                "Shape_Length": 0.008838834764833853
            },
            "geometry": {
                "type": "LineString",
                "coordinates": [
                    [
                        81.71249999999961,
                        7.374999999999879
                    ],
                    [
                        81.71874999999963,
                        7.368749999999899
                    ]
                ]
            }
        },
        {
            "type": "Feature",
            "properties": {
                "HYRIV_ID": 41404032,
                "NEXT_DOWN": 41403979,
                "MAIN_RIV": 41403865,
                "LENGTH_KM": 3.53,
                "DIST_DN_KM": 14.7,
                "DIST_UP_KM": 11.3,
                "CATCH_SKM": 12.99,
                "UPLAND_SKM": 37.700001,
                "ENDORHEIC": 0,
                "DIS_AV_CMS": 0.86799997,
                "ORD_STRA": 2,
                "ORD_CLAS": 2,
                "ORD_FLOW": 7,
                "HYBAS_L12": 4120049820.0,
                "Shape_Length": 0.03190355937292279
            },
            "geometry": {
                "type": "LineString",
                "coordinates": [
                    [
                        81.71874999999963,
                        7.368749999999899
                    ],
                    [
                        81.7229166666663,
                        7.372916666666548
                    ],
                    [
                        81.73124999999968,
                        7.372916666666548
                    ],
                    [
                        81.74374999999966,
                        7.385416666666565
                    ]
                ]
            }
        },
        {
            "type": "Feature",
            "properties": {
                "HYRIV_ID": 41404050,
                "NEXT_DOWN": 41403980,
                "MAIN_RIV": 41403865,
                "LENGTH_KM": 4.7800002,
                "DIST_DN_KM": 7.8,
                "DIST_UP_KM": 8.0,
                "CATCH_SKM": 19.370001,
                "UPLAND_SKM": 19.4,
                "ENDORHEIC": 0,
                "DIS_AV_CMS": 0.443,
                "ORD_STRA": 1,
                "ORD_CLAS": 3,
                "ORD_FLOW": 7,
                "HYBAS_L12": 4120049820.0,
                "Shape_Length": 0.04318317096120819
            },
            "geometry": {
                "type": "LineString",
                "coordinates": [
                    [
                        81.76249999999962,
                        7.362499999999862
                    ],
                    [
                        81.77291666666625,
                        7.372916666666548
                    ],
                    [
                        81.7854166666663,
                        7.372916666666548
                    ],
                    [
                        81.79374999999962,
                        7.381249999999874
                    ],
                    [
                        81.79374999999962,
                        7.385416666666565
                    ]
                ]
            }
        },
        {
            "type": "Feature",
            "properties": {
                "HYRIV_ID": 41404104,
                "NEXT_DOWN": 41404032,
                "MAIN_RIV": 41403865,
                "LENGTH_KM": 4.77,
                "DIST_DN_KM": 18.200001,
                "DIST_UP_KM": 7.8,
                "CATCH_SKM": 19.370001,
                "UPLAND_SKM": 19.4,
                "ENDORHEIC": 0,
                "DIS_AV_CMS": 0.447,
                "ORD_STRA": 1,
                "ORD_CLAS": 2,
                "ORD_FLOW": 7,
                "HYBAS_L12": 4120049820.0,
                "Shape_Length": 0.04318317096113958
            },
            "geometry": {
                "type": "LineString",
                "coordinates": [
                    [
                        81.68333333333302,
                        7.349999999999888
                    ],
                    [
                        81.6937499999996,
                        7.360416666666531
                    ],
                    [
                        81.7104166666663,
                        7.360416666666531
                    ],
                    [
                        81.71874999999963,
                        7.368749999999899
                    ]
                ]
            }
        },
        {
            "type": "Feature",
            "properties": {
                "HYRIV_ID": 41404275,
                "NEXT_DOWN": 41403907,
                "MAIN_RIV": 41403865,
                "LENGTH_KM": 29.23,
                "DIST_DN_KM": 4.0,
                "DIST_UP_KM": 32.900002,
                "CATCH_SKM": 94.309998,
                "UPLAND_SKM": 94.300003,
                "ENDORHEIC": 0,
                "DIS_AV_CMS": 2.108,
                "ORD_STRA": 1,
                "ORD_CLAS": 1,
                "ORD_FLOW": 6,
                "HYBAS_L12": 4120049820.0,
                "Shape_Length": 0.26418996496253205
            },
            "geometry": {
                "type": "LineString",
                "coordinates": [
                    [
                        81.69166666666635,
                        7.304166666666568
                    ],
                    [
                        81.69791666666632,
                        7.310416666666548
                    ],
                    [
                        81.71458333333297,
                        7.310416666666548
                    ],
                    [
                        81.71874999999963,
                        7.314583333333211
                    ],
                    [
                        81.71874999999963,
                        7.31875
                    ],
                    [
                        81.72708333333301,
                        7.327083333333228
                    ],
                    [
                        81.75208333333305,
                        7.327083333333228
                    ],
                    [
                        81.75624999999971,
                        7.331249999999876
                    ],
                    [
                        81.75624999999971,
                        7.335416666666539
                    ],
                    [
                        81.76041666666626,
                        7.339583333333245
                    ],
                    [
                        81.7687499999997,
                        7.331249999999876
                    ],
                    [
                        81.77291666666625,
                        7.331249999999876
                    ],
                    [
                        81.77708333333302,
                        7.327083333333228
                    ],
                    [
                        81.78124999999957,
                        7.327083333333228
                    ],
                    [
                        81.7895833333329,
                        7.335416666666539
                    ],
                    [
                        81.79374999999962,
                        7.335416666666539
                    ],
                    [
                        81.79791666666628,
                        7.339583333333245
                    ],
                    [
                        81.83124999999964,
                        7.339583333333245
                    ],
                    [
                        81.83958333333297,
                        7.347916666666556
                    ],
                    [
                        81.83958333333297,
                        7.364583333333194
                    ],
                    [
                        81.8354166666663,
                        7.368749999999899
                    ],
                    [
                        81.8354166666663,
                        7.389583333333228
                    ],
                    [
                        81.81458333333293,
                        7.410416666666556
                    ],
                    [
                        81.81041666666627,
                        7.40625
                    ],
                    [
                        81.80624999999961,
                        7.40625
                    ]
                ]
            }
        }
    ]
}