{
    "type": "FeatureCollection",
    "features": [
        {
            "type": "Feature",
            "properties": {
                "HYRIV_ID": 41405564,
                "NEXT_DOWN": 41405838,
                "MAIN_RIV": 41405819,
                "LENGTH_KM": 4.0500002,
                "DIST_DN_KM": 14.6,
                "DIST_UP_KM": 7.1,
                "CATCH_SKM": 12.14,
                "UPLAND_SKM": 12.1,
                "ENDORHEIC": 0,
                "DIS_AV_CMS": 0.225,
                "ORD_STRA": 1,
                "ORD_CLAS": 1,
                "ORD_FLOW": 7,
                "HYBAS_L12": 4120049900.0,
                "Shape_Length": 0.03657572747103692
            },
            "geometry": {
                "type": "LineString",
                "coordinates": [
                    [
                        81.73749999999964,
                        7.0
                    ],
                    [
                        81.74791666666633,
                        6.989583333333222
                    ],
                    [
                        81.74791666666633,
                        6.985416666666559
                    ],
                    [
                        81.76041666666626,
                        6.972916666666542
                    ]
                ]
            }
        },
        {
            "type": "Feature",
            "properties": {
                "HYRIV_ID": 41405565,
                "NEXT_DOWN": 41405838,
                "MAIN_RIV": 41405819,
                "LENGTH_KM": 0.69,
                "DIST_DN_KM": 14.4,
                "DIST_UP_KM": 5.8,
                "CATCH_SKM": 6.39,
                "UPLAND_SKM": 6.4,
                "ENDORHEIC": 0,
                "DIS_AV_CMS": 0.118,
                "ORD_STRA": 1,
                "ORD_CLAS": 2,
                "ORD_FLOW": 7,
                "HYBAS_L12": 4120049900.0,
                "Shape_Length": 0.006250000000022737
            },
            "geometry": {
                "type": "LineString",
                "coordinates": [
                    [
                        81.76041666666626,
                        6.979166666666565
                    ],
                    [
                        81.76041666666626,
                        6.972916666666542
                    ]
                ]
            }
        },
        {
            "type": "Feature",
            "properties": {
                "HYRIV_ID": 41405735,
                "NEXT_DOWN": 41405801,
                "MAIN_RIV": 41405819,
                "LENGTH_KM": 7.6700001,
                "DIST_DN_KM": 4.1,
                "DIST_UP_KM": 11.3,
                "CATCH_SKM": 37.07,
                "UPLAND_SKM": 37.099998,
                "ENDORHEIC": 0,
                "DIS_AV_CMS": 0.65399998,
                "ORD_STRA": 1,
                "ORD_CLAS": 2,
                "ORD_FLOW": 7,
                "HYBAS_L12": 4120049900.0,
                "Shape_Length": 0.06919417382409629
            },
            "geometry": {
                "type": "LineString",
                "coordinates": [
                    [
                        81.78333333333299,
                        6.987499999999891
                    ],
                    [
                        81.7895833333329,
                        6.981249999999896
                    ],
                    [
                        81.7895833333329,
                        6.977083333333248
                    ],
                    [
                        81.79791666666628,
                        6.968749999999879
                    ],
                    [
                        81.79791666666628,
                        6.964583333333231
                    ],
                    [
                        81.80208333333294,
                        6.960416666666568
                    ],
                    [
                        81.80208333333294,
                        6.952083333333213
                    ],
                    [
                        81.81041666666627,
                        6.943749999999888
                    ],
                    [
                        81.81041666666627,
                        6.939583333333225
                    ],
                    [
                        81.81458333333293,
                        6.935416666666576
                    ],
                    [
                        81.8187499999996,
                        6.935416666666576
                    ]
                ]
            }
        },
        {
            "type": "Feature",
            "properties": {
                "HYRIV_ID": 41405736,
                "NEXT_DOWN": 41405801,
                "MAIN_RIV": 41405819,
                "LENGTH_KM": 3.6700001,
                "DIST_DN_KM": 4.3,
                "DIST_UP_KM": 6.3,
                "CATCH_SKM": 11.93,
                "UPLAND_SKM": 11.9,
                "ENDORHEIC": 0,
                "DIS_AV_CMS": 0.211,
                "ORD_STRA": 1,
                "ORD_CLAS": 3,
                "ORD_FLOW": 7,
                "HYBAS_L12": 4120049900.0,
                "Shape_Length": 0.03312394778462847
            },
            "geometry": {
                "type": "LineString",
                "coordinates": [
                    [
                        81.8208333333329,
                        6.962499999999899
                    ],
                    [
                        81.82708333333292,
                        6.95625
                    ],
                    [
                        81.82708333333292,
                        6.952083333333213
                    ],
                    [
                        81.82291666666632,
                        6.947916666666593
                    ],
                    [
                        81.82291666666632,
                        6.939583333333225
                    ],
                    [
                        81.8187499999996,
                        6.935416666666576
                    ]
                ]
            }
        },
        {
            "type": "Feature",
            "properties": {
                "HYRIV_ID": 41405801,
                "NEXT_DOWN": 41405819,
                "MAIN_RIV": 41405819,
                "LENGTH_KM": 3.34,
                "DIST_DN_KM": 1.0,
                "DIST_UP_KM": 14.5,
                "CATCH_SKM": 7.0300002,
                "UPLAND_SKM": 56.0,
                "ENDORHEIC": 0,
                "DIS_AV_CMS": 0.968,
                "ORD_STRA": 2,
                "ORD_CLAS": 2,
                "ORD_FLOW": 7,
                "HYBAS_L12": 4120049900.0,
                "Shape_Length": 0.030177669529696534
            },
            "geometry": {
                "type": "LineString",
                "coordinates": [
                    [
                        81.8187499999996,
                        6.935416666666576
                    ],
                    [
                        81.82291666666632,
                        6.931249999999871
                    ],
                    [
                        81.83124999999964,
                        6.931249999999871
                    ],
                    [
                        81.8354166666663,
                        6.927083333333208
                    ],
                    [
                        81.83958333333297,
                        6.927083333333208
                    ],
                    [
                        81.84374999999963,
                        6.922916666666559
                    ]
                ]
            }
        },
        {
            "type": "Feature",
            "properties": {
                "HYRIV_ID": 41405819,
                "NEXT_DOWN": 0,
                "MAIN_RIV": 41405819,
                "LENGTH_KM": 0.65,
                "DIST_DN_KM": 0.0,
                "DIST_UP_KM": 21.4,
                "CATCH_SKM": 1.06,
                "UPLAND_SKM": 116.6,
                "ENDORHEIC": 0,
                "DIS_AV_CMS": 1.971,
                "ORD_STRA": 3,
                "ORD_CLAS": 1,
                "ORD_FLOW": 6,
                "HYBAS_L12": 4120049900.0,
                "Shape_Length": 0.0058925565098825365
            },
            "geometry": {
                "type": "LineString",
                "coordinates": [
                    [
                        81.84374999999963,
                        6.922916666666559
                    ],
                    [
                        81.8479166666663,
                        6.918749999999896
                    ]
                ]
            }
        },
        {
            "type": "Feature",
            "properties": {
                "HYRIV_ID": 41405838,
                "NEXT_DOWN": 41405819,
                "MAIN_RIV": 41405819,
                "LENGTH_KM": 13.64,
                "DIST_DN_KM": 1.0,
                "DIST_UP_KM": 20.8,
                "CATCH_SKM": 41.34,
                "UPLAND_SKM": 59.900002,
                "ENDORHEIC": 0,
                "DIS_AV_CMS": 1.0,
                "ORD_STRA": 2,
                "ORD_CLAS": 1,
                "ORD_FLOW": 6,
                "HYBAS_L12": 4120049900.0,
                "Shape_Length": 0.1231514549420845
            },
            "geometry": {
                "type": "LineString",
                "coordinates": [
                    [
                        81.76041666666626,
                        6.972916666666542
                    ],
                    [
                        81.7687499999997,
                        6.964583333333231
                    ],
                    [
                        81.7687499999997,
                        6.95625
                    ],
                    [
                        81.77291666666625,
                        6.952083333333213
                    ],
                    [
                        81.77291666666625,
                        6.947916666666593
                    ],
                    [
                        81.78124999999957,
                        6.939583333333225
                    ],
                    [
                        81.78124999999957,
                        6.931249999999871
                    ],
                    [
                        81.79374999999962,
                        6.918749999999896
                    ],
                    [
                        81.81041666666627,
                        6.918749999999896
                    ],
                    [
                        81.81458333333293,
                        6.914583333333233
                    ],
                    [
                        81.82708333333292,
                        6.914583333333233
                    ],
                    [
                        81.83124999999964,
                        6.918749999999896
                    ],
                    [
                        81.83958333333297,
                        6.918749999999896
                    ],
                    [
                        81.84374999999963,
                        6.922916666666559
                    ]
                ]
            }
        }
    ]
}