{
    "type": "FeatureCollection",
    "features": [
        {
            "type": "Feature",
            "properties": {
                "HYRIV_ID": 41408727,
                "NEXT_DOWN": 41408876,
                "MAIN_RIV": 41408892,
                "LENGTH_KM": 5.62,
                "DIST_DN_KM": 7.7,
                "DIST_UP_KM": 9.2,
                "CATCH_SKM": 26.030001,
                "UPLAND_SKM": 26.0,
                "ENDORHEIC": 0,
                "DIS_AV_CMS": 0.44400001,
                "ORD_STRA": 1,
                "ORD_CLAS": 1,
                "ORD_FLOW": 7,
                "HYBAS_L12": 4120050030.0,
                "Shape_Length": 0.05065355937280382
            },
            "geometry": {
                "type": "LineString",
                "coordinates": [
                    [
                        81.35208333333301,
                        6.341666666666562
                    ],
                    [
                        81.35208333333301,
                        6.335416666666582
                    ],
                    [
                        81.34791666666635,
                        6.33125
                    ],
                    [
                        81.35624999999968,
                        6.322916666666565
                    ],
                    [
                        81.35624999999968,
                        6.31041666666659
                    ],
                    [
                        81.3604166666664,
                        6.31041666666659
                    ],
                    [
                        81.36458333333306,
                        6.306249999999885
                    ],
                    [
                        81.36874999999961,
                        6.306249999999885
                    ]
                ]
            }
        },
        {
            "type": "Feature",
            "properties": {
                "HYRIV_ID": 41408728,
                "NEXT_DOWN": 41408876,
                "MAIN_RIV": 41408892,
                "LENGTH_KM": 4.52,
                "DIST_DN_KM": 7.7,
                "DIST_UP_KM": 7.1,
                "CATCH_SKM": 24.110001,
                "UPLAND_SKM": 24.1,
                "ENDORHEIC": 0,
                "DIS_AV_CMS": 0.398,
                "ORD_STRA": 1,
                "ORD_CLAS": 2,
                "ORD_FLOW": 7,
                "HYBAS_L12": 4120050030.0,
                "Shape_Length": 0.04074239413780517
            },
            "geometry": {
                "type": "LineString",
                "coordinates": [
                    [
                        81.39166666666634,
                        6.3375
                    ],
                    [
                        81.38541666666626,
                        6.33125
                    ],
                    [
                        81.38541666666626,
                        6.327083333333213
                    ],
                    [
                        81.36874999999961,
                        6.31041666666659
                    ],
                    [
                        81.36874999999961,
                        6.306249999999885
                    ]
                ]
            }
        },
        {
            "type": "Feature",
            "properties": {
                "HYRIV_ID": 41408876,
                "NEXT_DOWN": 41408892,
                "MAIN_RIV": 41408892,
                "LENGTH_KM": 6.4200001,
                "DIST_DN_KM": 1.2,
                "DIST_UP_KM": 15.6,
                "CATCH_SKM": 18.139999,
                "UPLAND_SKM": 68.300003,
                "ENDORHEIC": 0,
                "DIS_AV_CMS": 1.117,
                "ORD_STRA": 2,
                "ORD_CLAS": 1,
                "ORD_FLOW": 6,
                "HYBAS_L12": 4120050030.0,
                "Shape_Length": 0.057914562235869466
            },
            "geometry": {
                "type": "LineString",
                "coordinates": [
                    [
                        81.36874999999961,
                        6.306249999999885
                    ],
                    [
                        81.36874999999961,
                        6.302083333333222
                    ],
                    [
                        81.3812499999996,
                        6.289583333333248
                    ],
                    [
                        81.38541666666626,
                        6.289583333333248
                    ],
                    [
                        81.40208333333297,
                        6.272916666666582
                    ],
                    [
                        81.4104166666663,
                        6.272916666666582
                    ]
                ]
            }
        },
        {
            "type": "Feature",
            "properties": {
                "HYRIV_ID": 41408877,
                "NEXT_DOWN": 41408892,
                "MAIN_RIV": 41408892,
                "LENGTH_KM": 2.1,
                "DIST_DN_KM": 1.2,
                "DIST_UP_KM": 6.2,
                "CATCH_SKM": 9.3900003,
                "UPLAND_SKM": 9.4,
                "ENDORHEIC": 0,
                "DIS_AV_CMS": 0.154,
                "ORD_STRA": 1,
                "ORD_CLAS": 2,
                "ORD_FLOW": 7,
                "HYBAS_L12": 4120050030.0,
                "Shape_Length": 0.01889805794132486
            },
            "geometry": {
                "type": "LineString",
                "coordinates": [
                    [
                        81.39999999999966,
                        6.287499999999874
                    ],
                    [
                        81.4104166666663,
                        6.277083333333231
                    ],
                    [
                        81.4104166666663,
                        6.272916666666582
                    ]
                ]
            }
        },
        {
            "type": "Feature",
            "properties": {
                "HYRIV_ID": 41408892,
                "NEXT_DOWN": 0,
                "MAIN_RIV": 41408892,
                "LENGTH_KM": 1.11,
                "DIST_DN_KM": 0.0,
                "DIST_UP_KM": 16.5,
                "CATCH_SKM": 0.85,
                "UPLAND_SKM": 78.099998,
                "ENDORHEIC": 0,
                "DIS_AV_CMS": 1.271,
                "ORD_STRA": 2,
                "ORD_CLAS": 1,
                "ORD_FLOW": 6,
                "HYBAS_L12": 4120050030.0,
                "Shape_Length": 0.010059223176575559
            },
            "geometry": {
                "type": "LineString",
                "coordinates": [
                    [
                        81.4104166666663,
                        6.272916666666582
                    ],
                    [
                        81.41458333333296,
                        6.272916666666582
                    ],
                    [
                        81.41874999999962,
                        6.268749999999876
                    ]
                ]
            }
        }
    ]
}