{
    "type": "FeatureCollection",
    "features": [
        {
            "type": "Feature",
            "properties": {
                "HYRIV_ID": 41401689,
                "NEXT_DOWN": 0,
                "MAIN_RIV": 41401689,
                "LENGTH_KM": 0.92,
                "DIST_DN_KM": 0.0,
                "DIST_UP_KM": 7.8,
                "CATCH_SKM": 1.49,
                "UPLAND_SKM": 24.4,
                "ENDORHEIC": 0,
                "DIS_AV_CMS": 0.35100001,
                "ORD_STRA": 2,
                "ORD_CLAS": 1,
                "ORD_FLOW": 7,
                "HYBAS_L12": 4120049190.0,
                "Shape_Length": 0.008333333333325754
            },
            "geometry": {
                "type": "LineString",
                "coordinates": [
                    [
                        79.84374999999963,
                        7.997916666666534
                    ],
                    [
                        79.8354166666663,
                        7.997916666666534
                    ]
                ]
            }
        },
        {
            "type": "Feature",
            "properties": {
                "HYRIV_ID": 41401690,
                "NEXT_DOWN": 41401689,
                "MAIN_RIV": 41401689,
                "LENGTH_KM": 2.09,
                "DIST_DN_KM": 1.1,
                "DIST_UP_KM": 6.9,
                "CATCH_SKM": 12.33,
                "UPLAND_SKM": 12.3,
                "ENDORHEIC": 0,
                "DIS_AV_CMS": 0.174,
                "ORD_STRA": 1,
                "ORD_CLAS": 1,
                "ORD_FLOW": 7,
                "HYBAS_L12": 4120049190.0,
                "Shape_Length": 0.018898057941419463
            },
            "geometry": {
                "type": "LineString",
                "coordinates": [
                    [
                        79.85833333333298,
                        8.008333333333233
                    ],
                    [
                        79.8479166666663,
                        7.997916666666534
                    ],
                    [
                        79.84374999999963,
                        7.997916666666534
                    ]
                ]
            }
        },
        {
            "type": "Feature",
            "properties": {
                "HYRIV_ID": 41401745,
                "NEXT_DOWN": 41401689,
                "MAIN_RIV": 41401689,
                "LENGTH_KM": 2.74,
                "DIST_DN_KM": 1.3,
                "DIST_UP_KM": 6.3,
                "CATCH_SKM": 10.84,
                "UPLAND_SKM": 10.8,
                "ENDORHEIC": 0,
                "DIS_AV_CMS": 0.159,
                "ORD_STRA": 1,
                "ORD_CLAS": 2,
                "ORD_FLOW": 7,
                "HYBAS_L12": 4120049190.0,
                "Shape_Length": 0.024790614451261805
            },
            "geometry": {
                "type": "LineString",
                "coordinates": [
                    [
                        79.86249999999964,
                        7.983333333333228
                    ],
                    [
                        79.85624999999968,
                        7.989583333333179
                    ],
                    [
                        79.85208333333301,
                        7.989583333333179
                    ],
                    [
                        79.84374999999963,
                        7.997916666666534
                    ]
                ]
            }
        }
    ]
}