{
    "type": "FeatureCollection",
    "features": [
        {
            "type": "Feature",
            "properties": {
                "HYRIV_ID": 41407928,
                "NEXT_DOWN": 41407972,
                "MAIN_RIV": 41408129,
                "LENGTH_KM": 7.8600001,
                "DIST_DN_KM": 11.2,
                "DIST_UP_KM": 11.1,
                "CATCH_SKM": 26.870001,
                "UPLAND_SKM": 26.9,
                "ENDORHEIC": 0,
                "DIS_AV_CMS": 0.387,
                "ORD_STRA": 1,
                "ORD_CLAS": 1,
                "ORD_FLOW": 7,
                "HYBAS_L12": 4120050010.0,
                "Shape_Length": 0.0709200636675828
            },
            "geometry": {
                "type": "LineString",
                "coordinates": [
                    [
                        81.51249999999962,
                        6.504166666666585
                    ],
                    [
                        81.5062499999996,
                        6.497916666666548
                    ],
                    [
                        81.5062499999996,
                        6.485416666666573
                    ],
                    [
                        81.51458333333292,
                        6.477083333333219
                    ],
                    [
                        81.51874999999976,
                        6.477083333333219
                    ],
                    [
                        81.52291666666625,
                        6.48125
                    ],
                    [
                        81.52708333333297,
                        6.477083333333219
                    ],
                    [
                        81.53124999999957,
                        6.48125
                    ],
                    [
                        81.5354166666663,
                        6.477083333333219
                    ],
                    [
                        81.53958333333296,
                        6.477083333333219
                    ],
                    [
                        81.54374999999962,
                        6.472916666666556
                    ]
                ]
            }
        },
        {
            "type": "Feature",
            "properties": {
                "HYRIV_ID": 41407929,
                "NEXT_DOWN": 41407972,
                "MAIN_RIV": 41408129,
                "LENGTH_KM": 1.81,
                "DIST_DN_KM": 11.2,
                "DIST_UP_KM": 6.5,
                "CATCH_SKM": 10.24,
                "UPLAND_SKM": 10.2,
                "ENDORHEIC": 0,
                "DIS_AV_CMS": 0.148,
                "ORD_STRA": 1,
                "ORD_CLAS": 2,
                "ORD_FLOW": 7,
                "HYBAS_L12": 4120050010.0,
                "Shape_Length": 0.01630922317656815
            },
            "geometry": {
                "type": "LineString",
                "coordinates": [
                    [
                        81.54791666666628,
                        6.4875
                    ],
                    [
                        81.54791666666628,
                        6.477083333333219
                    ],
                    [
                        81.54374999999962,
                        6.472916666666556
                    ]
                ]
            }
        },
        {
            "type": "Feature",
            "properties": {
                "HYRIV_ID": 41407972,
                "NEXT_DOWN": 41408033,
                "MAIN_RIV": 41408129,
                "LENGTH_KM": 1.12,
                "DIST_DN_KM": 10.1,
                "DIST_UP_KM": 12.2,
                "CATCH_SKM": 1.92,
                "UPLAND_SKM": 39.0,
                "ENDORHEIC": 0,
                "DIS_AV_CMS": 0.552,
                "ORD_STRA": 2,
                "ORD_CLAS": 1,
                "ORD_FLOW": 7,
                "HYBAS_L12": 4120050010.0,
                "Shape_Length": 0.010059223176531202
            },
            "geometry": {
                "type": "LineString",
                "coordinates": [
                    [
                        81.54374999999962,
                        6.472916666666556
                    ],
                    [
                        81.54374999999962,
                        6.46875
                    ],
                    [
                        81.54791666666628,
                        6.464583333333245
                    ]
                ]
            }
        },
        {
            "type": "Feature",
            "properties": {
                "HYRIV_ID": 41408001,
                "NEXT_DOWN": 41408033,
                "MAIN_RIV": 41408129,
                "LENGTH_KM": 3.11,
                "DIST_DN_KM": 10.1,
                "DIST_UP_KM": 8.3,
                "CATCH_SKM": 14.29,
                "UPLAND_SKM": 14.3,
                "ENDORHEIC": 0,
                "DIS_AV_CMS": 0.204,
                "ORD_STRA": 1,
                "ORD_CLAS": 2,
                "ORD_FLOW": 7,
                "HYBAS_L12": 4120050010.0,
                "Shape_Length": 0.028094336196239633
            },
            "geometry": {
                "type": "LineString",
                "coordinates": [
                    [
                        81.52499999999966,
                        6.460416666666582
                    ],
                    [
                        81.53124999999957,
                        6.460416666666582
                    ],
                    [
                        81.5354166666663,
                        6.45625
                    ],
                    [
                        81.53958333333296,
                        6.45625
                    ],
                    [
                        81.54791666666628,
                        6.464583333333245
                    ]
                ]
            }
        },
        {
            "type": "Feature",
            "properties": {
                "HYRIV_ID": 41408033,
                "NEXT_DOWN": 41408129,
                "MAIN_RIV": 41408129,
                "LENGTH_KM": 4.9099998,
                "DIST_DN_KM": 5.0,
                "DIST_UP_KM": 17.3,
                "CATCH_SKM": 16.0,
                "UPLAND_SKM": 69.300003,
                "ENDORHEIC": 0,
                "DIS_AV_CMS": 0.90700001,
                "ORD_STRA": 2,
                "ORD_CLAS": 1,
                "ORD_FLOW": 7,
                "HYBAS_L12": 4120050010.0,
                "Shape_Length": 0.04440355937290482
            },
            "geometry": {
                "type": "LineString",
                "coordinates": [
                    [
                        81.54791666666628,
                        6.464583333333245
                    ],
                    [
                        81.55208333333294,
                        6.464583333333245
                    ],
                    [
                        81.56458333333293,
                        6.452083333333228
                    ],
                    [
                        81.5687499999996,
                        6.452083333333228
                    ],
                    [
                        81.57291666666632,
                        6.447916666666565
                    ],
                    [
                        81.5854166666663,
                        6.447916666666565
                    ]
                ]
            }
        },
        {
            "type": "Feature",
            "properties": {
                "HYRIV_ID": 41408034,
                "NEXT_DOWN": 41408129,
                "MAIN_RIV": 41408129,
                "LENGTH_KM": 1.62,
                "DIST_DN_KM": 5.0,
                "DIST_UP_KM": 6.5,
                "CATCH_SKM": 11.09,
                "UPLAND_SKM": 11.1,
                "ENDORHEIC": 0,
                "DIS_AV_CMS": 0.151,
                "ORD_STRA": 1,
                "ORD_CLAS": 2,
                "ORD_FLOW": 7,
                "HYBAS_L12": 4120050010.0,
                "Shape_Length": 0.014583333333305859
            },
            "geometry": {
                "type": "LineString",
                "coordinates": [
                    [
                        81.5854166666663,
                        6.462499999999871
                    ],
                    [
                        81.5854166666663,
                        6.447916666666565
                    ]
                ]
            }
        },
        {
            "type": "Feature",
            "properties": {
                "HYRIV_ID": 41408129,
                "NEXT_DOWN": 0,
                "MAIN_RIV": 41408129,
                "LENGTH_KM": 4.73,
                "DIST_DN_KM": 0.0,
                "DIST_UP_KM": 22.0,
                "CATCH_SKM": 17.49,
                "UPLAND_SKM": 97.5,
                "ENDORHEIC": 0,
                "DIS_AV_CMS": 1.1849999,
                "ORD_STRA": 2,
                "ORD_CLAS": 1,
                "ORD_FLOW": 6,
                "HYBAS_L12": 4120050010.0,
                "Shape_Length": 0.04267766952967095
            },
            "geometry": {
                "type": "LineString",
                "coordinates": [
                    [
                        81.5854166666663,
                        6.447916666666565
                    ],
                    [
                        81.58958333333297,
                        6.447916666666565
                    ],
                    [
                        81.59374999999963,
                        6.44375
                    ],
                    [
                        81.59374999999963,
                        6.439583333333253
                    ],
                    [
                        81.59791666666635,
                        6.435416666666548
                    ],
                    [
                        81.59791666666635,
                        6.431249999999885
                    ],
                    [
                        81.60208333333301,
                        6.427083333333236
                    ],
                    [
                        81.614583333333,
                        6.427083333333236
                    ]
                ]
            }
        }
    ]
}