{
    "type": "FeatureCollection",
    "features": [
        {
            "type": "Feature",
            "properties": {
                "HYRIV_ID": 41403465,
                "NEXT_DOWN": 0,
                "MAIN_RIV": 41403465,
                "LENGTH_KM": 4.2199998,
                "DIST_DN_KM": 0.0,
                "DIST_UP_KM": 7.2,
                "CATCH_SKM": 18.73,
                "UPLAND_SKM": 18.3,
                "ENDORHEIC": 0,
                "DIS_AV_CMS": 0.429,
                "ORD_STRA": 1,
                "ORD_CLAS": 1,
                "ORD_FLOW": 7,
                "HYBAS_L12": 4120049790.0,
                "Shape_Length": 0.03815355937294583
            },
            "geometry": {
                "type": "LineString",
                "coordinates": [
                    [
                        81.73749999999964,
                        7.531249999999865
                    ],
                    [
                        81.74791666666633,
                        7.531249999999865
                    ],
                    [
                        81.75208333333305,
                        7.535416666666571
                    ],
                    [
                        81.75624999999971,
                        7.531249999999865
                    ],
                    [
                        81.76041666666626,
                        7.531249999999865
                    ],
                    [
                        81.76458333333292,
                        7.527083333333202
                    ],
                    [
                        81.7687499999997,
                        7.531249999999865
                    ]
                ]
            }
        }
    ]
}