{
    "type": "FeatureCollection",
    "features": [
        {
            "type": "Feature",
            "properties": {
                "HYRIV_ID": 41408627,
                "NEXT_DOWN": 0,
                "MAIN_RIV": 41408627,
                "LENGTH_KM": 8.5900002,
                "DIST_DN_KM": 0.0,
                "DIST_UP_KM": 10.7,
                "CATCH_SKM": 34.130001,
                "UPLAND_SKM": 33.900002,
                "ENDORHEIC": 0,
                "DIS_AV_CMS": 0.52200001,
                "ORD_STRA": 1,
                "ORD_CLAS": 1,
                "ORD_FLOW": 7,
                "HYBAS_L12": 4120050030.0,
                "Shape_Length": 0.07752750715750803
            },
            "geometry": {
                "type": "LineString",
                "coordinates": [
                    [
                        81.4249999999997,
                        6.354166666666579
                    ],
                    [
                        81.43124999999961,
                        6.347916666666599
                    ],
                    [
                        81.43541666666627,
                        6.352083333333248
                    ],
                    [
                        81.44374999999965,
                        6.352083333333248
                    ],
                    [
                        81.44791666666632,
                        6.347916666666599
                    ],
                    [
                        81.44791666666632,
                        6.343749999999893
                    ],
                    [
                        81.45208333333298,
                        6.339583333333231
                    ],
                    [
                        81.4604166666663,
                        6.339583333333231
                    ],
                    [
                        81.46458333333297,
                        6.335416666666582
                    ],
                    [
                        81.47708333333301,
                        6.335416666666582
                    ],
                    [
                        81.48541666666634,
                        6.327083333333213
                    ]
                ]
            }
        }
    ]
}