{
    "type": "FeatureCollection",
    "features": [
        {
            "type": "Feature",
            "properties": {
                "HYRIV_ID": 41408050,
                "NEXT_DOWN": 41408104,
                "MAIN_RIV": 41409326,
                "LENGTH_KM": 1.91,
                "DIST_DN_KM": 44.5,
                "DIST_UP_KM": 4.5,
                "CATCH_SKM": 7.04,
                "UPLAND_SKM": 7.0,
                "ENDORHEIC": 0,
                "DIS_AV_CMS": 0.18700001,
                "ORD_STRA": 1,
                "ORD_CLAS": 2,
                "ORD_FLOW": 7,
                "HYBAS_L12": 4121602400.0,
                "Shape_Length": 0.017172168098109362
            },
            "geometry": {
                "type": "LineString",
                "coordinates": [
                    [
                        81.04166666666637,
                        6.45833333333325
                    ],
                    [
                        81.04791666666628,
                        6.452083333333228
                    ],
                    [
                        81.04791666666628,
                        6.44375
                    ]
                ]
            }
        },
        {
            "type": "Feature",
            "properties": {
                "HYRIV_ID": 41408051,
                "NEXT_DOWN": 41408104,
                "MAIN_RIV": 41409326,
                "LENGTH_KM": 8.4200001,
                "DIST_DN_KM": 44.700001,
                "DIST_UP_KM": 11.3,
                "CATCH_SKM": 29.43,
                "UPLAND_SKM": 29.4,
                "ENDORHEIC": 0,
                "DIS_AV_CMS": 0.75,
                "ORD_STRA": 1,
                "ORD_CLAS": 1,
                "ORD_FLOW": 7,
                "HYBAS_L12": 4121602400.0,
                "Shape_Length": 0.07594967525572101
            },
            "geometry": {
                "type": "LineString",
                "coordinates": [
                    [
                        81.06458333333299,
                        6.499999999999879
                    ],
                    [
                        81.06458333333299,
                        6.489583333333236
                    ],
                    [
                        81.07708333333304,
                        6.477083333333219
                    ],
                    [
                        81.07291666666632,
                        6.472916666666556
                    ],
                    [
                        81.07291666666632,
                        6.464583333333245
                    ],
                    [
                        81.06458333333299,
                        6.45625
                    ],
                    [
                        81.06041666666633,
                        6.45625
                    ],
                    [
                        81.04791666666628,
                        6.44375
                    ]
                ]
            }
        },
        {
            "type": "Feature",
            "properties": {
                "HYRIV_ID": 41408104,
                "NEXT_DOWN": 41408191,
                "MAIN_RIV": 41409326,
                "LENGTH_KM": 1.39,
                "DIST_DN_KM": 43.099998,
                "DIST_UP_KM": 12.8,
                "CATCH_SKM": 3.2,
                "UPLAND_SKM": 39.700001,
                "ENDORHEIC": 0,
                "DIS_AV_CMS": 1.0140001,
                "ORD_STRA": 2,
                "ORD_CLAS": 1,
                "ORD_FLOW": 6,
                "HYBAS_L12": 4121602400.0,
                "Shape_Length": 0.012500000000017053
            },
            "geometry": {
                "type": "LineString",
                "coordinates": [
                    [
                        81.04791666666628,
                        6.44375
                    ],
                    [
                        81.04791666666628,
                        6.431249999999885
                    ]
                ]
            }
        },
        {
            "type": "Feature",
            "properties": {
                "HYRIV_ID": 41408127,
                "NEXT_DOWN": 41408191,
                "MAIN_RIV": 41409326,
                "LENGTH_KM": 4.25,
                "DIST_DN_KM": 43.3,
                "DIST_UP_KM": 6.8,
                "CATCH_SKM": 12.37,
                "UPLAND_SKM": 12.4,
                "ENDORHEIC": 0,
                "DIS_AV_CMS": 0.311,
                "ORD_STRA": 1,
                "ORD_CLAS": 2,
                "ORD_FLOW": 7,
                "HYBAS_L12": 4121602400.0,
                "Shape_Length": 0.03830161731425658
            },
            "geometry": {
                "type": "LineString",
                "coordinates": [
                    [
                        81.07499999999962,
                        6.449999999999896
                    ],
                    [
                        81.052083333333,
                        6.427083333333236
                    ],
                    [
                        81.04791666666628,
                        6.431249999999885
                    ]
                ]
            }
        },
        {
            "type": "Feature",
            "properties": {
                "HYRIV_ID": 41408190,
                "NEXT_DOWN": 41408220,
                "MAIN_RIV": 41409326,
                "LENGTH_KM": 9.1800003,
                "DIST_DN_KM": 40.900002,
                "DIST_UP_KM": 11.3,
                "CATCH_SKM": 25.17,
                "UPLAND_SKM": 25.200001,
                "ENDORHEIC": 0,
                "DIS_AV_CMS": 0.671,
                "ORD_STRA": 1,
                "ORD_CLAS": 2,
                "ORD_FLOW": 7,
                "HYBAS_L12": 4121602400.0,
                "Shape_Length": 0.08270517668709178
            },
            "geometry": {
                "type": "LineString",
                "coordinates": [
                    [
                        81.02916666666627,
                        6.479166666666551
                    ],
                    [
                        81.01041666666632,
                        6.460416666666582
                    ],
                    [
                        81.01458333333292,
                        6.45625
                    ],
                    [
                        81.01458333333292,
                        6.452083333333228
                    ],
                    [
                        81.0229166666663,
                        6.44375
                    ],
                    [
                        81.0229166666663,
                        6.435416666666548
                    ],
                    [
                        81.03124999999963,
                        6.427083333333236
                    ],
                    [
                        81.03124999999963,
                        6.41875
                    ],
                    [
                        81.0354166666663,
                        6.414583333333262
                    ]
                ]
            }
        },
        {
            "type": "Feature",
            "properties": {
                "HYRIV_ID": 41408191,
                "NEXT_DOWN": 41408220,
                "MAIN_RIV": 41409326,
                "LENGTH_KM": 2.4200001,
                "DIST_DN_KM": 40.900002,
                "DIST_UP_KM": 15.1,
                "CATCH_SKM": 3.84,
                "UPLAND_SKM": 55.900002,
                "ENDORHEIC": 0,
                "DIS_AV_CMS": 1.41,
                "ORD_STRA": 2,
                "ORD_CLAS": 1,
                "ORD_FLOW": 6,
                "HYBAS_L12": 4121602400.0,
                "Shape_Length": 0.021844336196290393
            },
            "geometry": {
                "type": "LineString",
                "coordinates": [
                    [
                        81.04791666666628,
                        6.431249999999885
                    ],
                    [
                        81.04374999999962,
                        6.427083333333236
                    ],
                    [
                        81.04374999999962,
                        6.422916666666573
                    ],
                    [
                        81.0354166666663,
                        6.414583333333262
                    ]
                ]
            }
        },
        {
            "type": "Feature",
            "properties": {
                "HYRIV_ID": 41408219,
                "NEXT_DOWN": 41408412,
                "MAIN_RIV": 41409326,
                "LENGTH_KM": 1.15,
                "DIST_DN_KM": 40.200001,
                "DIST_UP_KM": 4.0,
                "CATCH_SKM": 6.83,
                "UPLAND_SKM": 6.8,
                "ENDORHEIC": 0,
                "DIS_AV_CMS": 0.185,
                "ORD_STRA": 1,
                "ORD_CLAS": 2,
                "ORD_FLOW": 7,
                "HYBAS_L12": 4121602400.0,
                "Shape_Length": 0.010416666666571928
            },
            "geometry": {
                "type": "LineString",
                "coordinates": [
                    [
                        81.02499999999972,
                        6.410416666666556
                    ],
                    [
                        81.0354166666663,
                        6.410416666666556
                    ]
                ]
            }
        },
        {
            "type": "Feature",
            "properties": {
                "HYRIV_ID": 41408220,
                "NEXT_DOWN": 41408412,
                "MAIN_RIV": 41409326,
                "LENGTH_KM": 0.46,
                "DIST_DN_KM": 40.200001,
                "DIST_UP_KM": 15.7,
                "CATCH_SKM": 1.0700001,
                "UPLAND_SKM": 82.099998,
                "ENDORHEIC": 0,
                "DIS_AV_CMS": 2.1040001,
                "ORD_STRA": 2,
                "ORD_CLAS": 1,
                "ORD_FLOW": 6,
                "HYBAS_L12": 4121602400.0,
                "Shape_Length": 0.00416666666670551
            },
            "geometry": {
                "type": "LineString",
                "coordinates": [
                    [
                        81.0354166666663,
                        6.414583333333262
                    ],
                    [
                        81.0354166666663,
                        6.410416666666556
                    ]
                ]
            }
        },
        {
            "type": "Feature",
            "properties": {
                "HYRIV_ID": 41408310,
                "NEXT_DOWN": 41408385,
                "MAIN_RIV": 41409326,
                "LENGTH_KM": 2.75,
                "DIST_DN_KM": 34.599998,
                "DIST_UP_KM": 5.3,
                "CATCH_SKM": 8.1099997,
                "UPLAND_SKM": 8.1,
                "ENDORHEIC": 0,
                "DIS_AV_CMS": 0.20100001,
                "ORD_STRA": 1,
                "ORD_CLAS": 2,
                "ORD_FLOW": 7,
                "HYBAS_L12": 4121602480.0,
                "Shape_Length": 0.02479061445132798
            },
            "geometry": {
                "type": "LineString",
                "coordinates": [
                    [
                        81.07916666666628,
                        6.412499999999888
                    ],
                    [
                        81.08541666666625,
                        6.406249999999893
                    ],
                    [
                        81.08541666666625,
                        6.402083333333245
                    ],
                    [
                        81.09374999999969,
                        6.393749999999876
                    ]
                ]
            }
        },
        {
            "type": "Feature",
            "properties": {
                "HYRIV_ID": 41408311,
                "NEXT_DOWN": 41408385,
                "MAIN_RIV": 41409326,
                "LENGTH_KM": 1.35,
                "DIST_DN_KM": 34.599998,
                "DIST_UP_KM": 4.7,
                "CATCH_SKM": 8.1099997,
                "UPLAND_SKM": 8.1,
                "ENDORHEIC": 0,
                "DIS_AV_CMS": 0.197,
                "ORD_STRA": 1,
                "ORD_CLAS": 3,
                "ORD_FLOW": 7,
                "HYBAS_L12": 4121602480.0,
                "Shape_Length": 0.012142556509919484
            },
            "geometry": {
                "type": "LineString",
                "coordinates": [
                    [
                        81.09791666666635,
                        6.404166666666576
                    ],
                    [
                        81.09791666666635,
                        6.397916666666539
                    ],
                    [
                        81.09374999999969,
                        6.393749999999876
                    ]
                ]
            }
        },
        {
            "type": "Feature",
            "properties": {
                "HYRIV_ID": 41408385,
                "NEXT_DOWN": 41408454,
                "MAIN_RIV": 41409326,
                "LENGTH_KM": 2.23,
                "DIST_DN_KM": 32.400002,
                "DIST_UP_KM": 7.5,
                "CATCH_SKM": 4.27,
                "UPLAND_SKM": 20.5,
                "ENDORHEIC": 0,
                "DIS_AV_CMS": 0.498,
                "ORD_STRA": 2,
                "ORD_CLAS": 2,
                "ORD_FLOW": 7,
                "HYBAS_L12": 4121602480.0,
                "Shape_Length": 0.020118446353066567
            },
            "geometry": {
                "type": "LineString",
                "coordinates": [
                    [
                        81.09374999999969,
                        6.393749999999876
                    ],
                    [
                        81.09374999999969,
                        6.385416666666565
                    ],
                    [
                        81.08958333333302,
                        6.38125
                    ],
                    [
                        81.09374999999969,
                        6.377083333333253
                    ]
                ]
            }
        },
        {
            "type": "Feature",
            "properties": {
                "HYRIV_ID": 41408386,
                "NEXT_DOWN": 41408454,
                "MAIN_RIV": 41409326,
                "LENGTH_KM": 0.69,
                "DIST_DN_KM": 32.200001,
                "DIST_UP_KM": 3.3,
                "CATCH_SKM": 6.1900001,
                "UPLAND_SKM": 6.2,
                "ENDORHEIC": 0,
                "DIS_AV_CMS": 0.146,
                "ORD_STRA": 1,
                "ORD_CLAS": 3,
                "ORD_FLOW": 7,
                "HYBAS_L12": 4121602480.0,
                "Shape_Length": 0.0062499999999090505
            },
            "geometry": {
                "type": "LineString",
                "coordinates": [
                    [
                        81.0999999999996,
                        6.377083333333253
                    ],
                    [
                        81.09374999999969,
                        6.377083333333253
                    ]
                ]
            }
        },
        {
            "type": "Feature",
            "properties": {
                "HYRIV_ID": 41408411,
                "NEXT_DOWN": 41408453,
                "MAIN_RIV": 41409326,
                "LENGTH_KM": 0.69,
                "DIST_DN_KM": 35.5,
                "DIST_UP_KM": 4.0,
                "CATCH_SKM": 5.33,
                "UPLAND_SKM": 5.3,
                "ENDORHEIC": 0,
                "DIS_AV_CMS": 0.14300001,
                "ORD_STRA": 1,
                "ORD_CLAS": 2,
                "ORD_FLOW": 7,
                "HYBAS_L12": 4121602400.0,
                "Shape_Length": 0.0062499999999090505
            },
            "geometry": {
                "type": "LineString",
                "coordinates": [
                    [
                        81.03333333333305,
                        6.372916666666548
                    ],
                    [
                        81.03958333333296,
                        6.372916666666548
                    ]
                ]
            }
        },
        {
            "type": "Feature",
            "properties": {
                "HYRIV_ID": 41408412,
                "NEXT_DOWN": 41408453,
                "MAIN_RIV": 41409326,
                "LENGTH_KM": 4.7399998,
                "DIST_DN_KM": 35.5,
                "DIST_UP_KM": 20.5,
                "CATCH_SKM": 13.01,
                "UPLAND_SKM": 102.0,
                "ENDORHEIC": 0,
                "DIS_AV_CMS": 2.5669999,
                "ORD_STRA": 2,
                "ORD_CLAS": 1,
                "ORD_FLOW": 6,
                "HYBAS_L12": 4121602400.0,
                "Shape_Length": 0.04267766952967167
            },
            "geometry": {
                "type": "LineString",
                "coordinates": [
                    [
                        81.0354166666663,
                        6.410416666666556
                    ],
                    [
                        81.0354166666663,
                        6.393749999999876
                    ],
                    [
                        81.04374999999962,
                        6.385416666666565
                    ],
                    [
                        81.03958333333296,
                        6.38125
                    ],
                    [
                        81.03958333333296,
                        6.372916666666548
                    ]
                ]
            }
        },
        {
            "type": "Feature",
            "properties": {
                "HYRIV_ID": 41408452,
                "NEXT_DOWN": 41408530,
                "MAIN_RIV": 41409326,
                "LENGTH_KM": 1.61,
                "DIST_DN_KM": 34.5,
                "DIST_UP_KM": 4.5,
                "CATCH_SKM": 9.3900003,
                "UPLAND_SKM": 9.4,
                "ENDORHEIC": 0,
                "DIS_AV_CMS": 0.25,
                "ORD_STRA": 1,
                "ORD_CLAS": 2,
                "ORD_FLOW": 7,
                "HYBAS_L12": 4121602400.0,
                "Shape_Length": 0.014583333333234805
            },
            "geometry": {
                "type": "LineString",
                "coordinates": [
                    [
                        81.02499999999972,
                        6.364583333333236
                    ],
                    [
                        81.03958333333296,
                        6.364583333333236
                    ]
                ]
            }
        },
        {
            "type": "Feature",
            "properties": {
                "HYRIV_ID": 41408453,
                "NEXT_DOWN": 41408530,
                "MAIN_RIV": 41409326,
                "LENGTH_KM": 0.93,
                "DIST_DN_KM": 34.5,
                "DIST_UP_KM": 21.4,
                "CATCH_SKM": 1.71,
                "UPLAND_SKM": 109.0,
                "ENDORHEIC": 0,
                "DIS_AV_CMS": 2.7379999,
                "ORD_STRA": 2,
                "ORD_CLAS": 1,
                "ORD_FLOW": 6,
                "HYBAS_L12": 4121602400.0,
                "Shape_Length": 0.008333333333311543
            },
            "geometry": {
                "type": "LineString",
                "coordinates": [
                    [
                        81.03958333333296,
                        6.372916666666548
                    ],
                    [
                        81.03958333333296,
                        6.364583333333236
                    ]
                ]
            }
        },
        {
            "type": "Feature",
            "properties": {
                "HYRIV_ID": 41408454,
                "NEXT_DOWN": 41408584,
                "MAIN_RIV": 41409326,
                "LENGTH_KM": 1.77,
                "DIST_DN_KM": 30.6,
                "DIST_UP_KM": 9.3,
                "CATCH_SKM": 4.6900001,
                "UPLAND_SKM": 31.4,
                "ENDORHEIC": 0,
                "DIS_AV_CMS": 0.75199997,
                "ORD_STRA": 2,
                "ORD_CLAS": 2,
                "ORD_FLOW": 7,
                "HYBAS_L12": 4121602480.0,
                "Shape_Length": 0.015951779686528438
            },
            "geometry": {
                "type": "LineString",
                "coordinates": [
                    [
                        81.09374999999969,
                        6.377083333333253
                    ],
                    [
                        81.08958333333302,
                        6.372916666666548
                    ],
                    [
                        81.08958333333302,
                        6.368749999999885
                    ],
                    [
                        81.08541666666625,
                        6.364583333333236
                    ]
                ]
            }
        },
        {
            "type": "Feature",
            "properties": {
                "HYRIV_ID": 41408470,
                "NEXT_DOWN": 41408584,
                "MAIN_RIV": 41409326,
                "LENGTH_KM": 0.98,
                "DIST_DN_KM": 30.6,
                "DIST_UP_KM": 4.5,
                "CATCH_SKM": 4.48,
                "UPLAND_SKM": 4.5,
                "ENDORHEIC": 0,
                "DIS_AV_CMS": 0.105,
                "ORD_STRA": 1,
                "ORD_CLAS": 3,
                "ORD_FLOW": 7,
                "HYBAS_L12": 4121602480.0,
                "Shape_Length": 0.008838834764843902
            },
            "geometry": {
                "type": "LineString",
                "coordinates": [
                    [
                        81.09166666666627,
                        6.358333333333242
                    ],
                    [
                        81.08541666666625,
                        6.364583333333236
                    ]
                ]
            }
        },
        {
            "type": "Feature",
            "properties": {
                "HYRIV_ID": 41408530,
                "NEXT_DOWN": 41408582,
                "MAIN_RIV": 41409326,
                "LENGTH_KM": 2.8800001,
                "DIST_DN_KM": 31.9,
                "DIST_UP_KM": 24.1,
                "CATCH_SKM": 7.4699998,
                "UPLAND_SKM": 125.8,
                "ENDORHEIC": 0,
                "DIS_AV_CMS": 3.1359999,
                "ORD_STRA": 2,
                "ORD_CLAS": 1,
                "ORD_FLOW": 6,
                "HYBAS_L12": 4121602400.0,
                "Shape_Length": 0.026011002863020157
            },
            "geometry": {
                "type": "LineString",
                "coordinates": [
                    [
                        81.03958333333296,
                        6.364583333333236
                    ],
                    [
                        81.03958333333296,
                        6.360416666666573
                    ],
                    [
                        81.04791666666628,
                        6.352083333333248
                    ],
                    [
                        81.052083333333,
                        6.352083333333248
                    ],
                    [
                        81.05624999999966,
                        6.347916666666599
                    ]
                ]
            }
        },
        {
            "type": "Feature",
            "properties": {
                "HYRIV_ID": 41408542,
                "NEXT_DOWN": 41408583,
                "MAIN_RIV": 41409326,
                "LENGTH_KM": 5.25,
                "DIST_DN_KM": 28.1,
                "DIST_UP_KM": 9.2,
                "CATCH_SKM": 14.93,
                "UPLAND_SKM": 14.9,
                "ENDORHEIC": 0,
                "DIS_AV_CMS": 0.369,
                "ORD_STRA": 1,
                "ORD_CLAS": 2,
                "ORD_FLOW": 7,
                "HYBAS_L12": 4121602480.0,
                "Shape_Length": 0.04720177968648652
            },
            "geometry": {
                "type": "LineString",
                "coordinates": [
                    [
                        81.06874999999965,
                        6.387499999999896
                    ],
                    [
                        81.06874999999965,
                        6.360416666666573
                    ],
                    [
                        81.07291666666632,
                        6.35625
                    ],
                    [
                        81.07291666666632,
                        6.352083333333248
                    ],
                    [
                        81.07708333333304,
                        6.347916666666599
                    ],
                    [
                        81.07708333333304,
                        6.343749999999893
                    ]
                ]
            }
        },
        {
            "type": "Feature",
            "properties": {
                "HYRIV_ID": 41408559,
                "NEXT_DOWN": 41408582,
                "MAIN_RIV": 41409326,
                "LENGTH_KM": 1.81,
                "DIST_DN_KM": 31.700001,
                "DIST_UP_KM": 4.7,
                "CATCH_SKM": 9.1700001,
                "UPLAND_SKM": 9.2,
                "ENDORHEIC": 0,
                "DIS_AV_CMS": 0.237,
                "ORD_STRA": 1,
                "ORD_CLAS": 2,
                "ORD_FLOW": 7,
                "HYBAS_L12": 4121602400.0,
                "Shape_Length": 0.016309223176667626
            },
            "geometry": {
                "type": "LineString",
                "coordinates": [
                    [
                        81.04583333333292,
                        6.339583333333231
                    ],
                    [
                        81.052083333333,
                        6.339583333333231
                    ],
                    [
                        81.05624999999966,
                        6.343749999999893
                    ],
                    [
                        81.05624999999966,
                        6.347916666666599
                    ]
                ]
            }
        },
        {
            "type": "Feature",
            "properties": {
                "HYRIV_ID": 41408582,
                "NEXT_DOWN": 41408583,
                "MAIN_RIV": 41409326,
                "LENGTH_KM": 3.54,
                "DIST_DN_KM": 28.3,
                "DIST_UP_KM": 27.6,
                "CATCH_SKM": 7.89,
                "UPLAND_SKM": 142.89999,
                "ENDORHEIC": 0,
                "DIS_AV_CMS": 3.51,
                "ORD_STRA": 2,
                "ORD_CLAS": 1,
                "ORD_FLOW": 6,
                "HYBAS_L12": 4121602480.0,
                "Shape_Length": 0.03190355937290614
            },
            "geometry": {
                "type": "LineString",
                "coordinates": [
                    [
                        81.05624999999966,
                        6.347916666666599
                    ],
                    [
                        81.06041666666633,
                        6.343749999999893
                    ],
                    [
                        81.06041666666633,
                        6.339583333333231
                    ],
                    [
                        81.06458333333299,
                        6.335416666666582
                    ],
                    [
                        81.06874999999965,
                        6.339583333333231
                    ],
                    [
                        81.07291666666632,
                        6.339583333333231
                    ],
                    [
                        81.07708333333304,
                        6.343749999999893
                    ]
                ]
            }
        },
        {
            "type": "Feature",
            "properties": {
                "HYRIV_ID": 41408583,
                "NEXT_DOWN": 41408680,
                "MAIN_RIV": 41409326,
                "LENGTH_KM": 1.31,
                "DIST_DN_KM": 27.0,
                "DIST_UP_KM": 28.9,
                "CATCH_SKM": 1.92,
                "UPLAND_SKM": 159.8,
                "ENDORHEIC": 0,
                "DIS_AV_CMS": 3.9030001,
                "ORD_STRA": 2,
                "ORD_CLAS": 1,
                "ORD_FLOW": 6,
                "HYBAS_L12": 4121602480.0,
                "Shape_Length": 0.011785113019674637
            },
            "geometry": {
                "type": "LineString",
                "coordinates": [
                    [
                        81.07708333333304,
                        6.343749999999893
                    ],
                    [
                        81.08541666666625,
                        6.335416666666582
                    ]
                ]
            }
        },
        {
            "type": "Feature",
            "properties": {
                "HYRIV_ID": 41408584,
                "NEXT_DOWN": 41408680,
                "MAIN_RIV": 41409326,
                "LENGTH_KM": 3.62,
                "DIST_DN_KM": 26.8,
                "DIST_UP_KM": 13.1,
                "CATCH_SKM": 7.89,
                "UPLAND_SKM": 43.700001,
                "ENDORHEIC": 0,
                "DIS_AV_CMS": 1.031,
                "ORD_STRA": 2,
                "ORD_CLAS": 2,
                "ORD_FLOW": 6,
                "HYBAS_L12": 4121602480.0,
                "Shape_Length": 0.032618446352932894
            },
            "geometry": {
                "type": "LineString",
                "coordinates": [
                    [
                        81.08541666666625,
                        6.364583333333236
                    ],
                    [
                        81.0812499999997,
                        6.360416666666573
                    ],
                    [
                        81.0812499999997,
                        6.35625
                    ],
                    [
                        81.08541666666625,
                        6.352083333333248
                    ],
                    [
                        81.08541666666625,
                        6.335416666666582
                    ]
                ]
            }
        },
        {
            "type": "Feature",
            "properties": {
                "HYRIV_ID": 41408680,
                "NEXT_DOWN": 41408754,
                "MAIN_RIV": 41409326,
                "LENGTH_KM": 2.8900001,
                "DIST_DN_KM": 24.1,
                "DIST_UP_KM": 31.8,
                "CATCH_SKM": 9.6,
                "UPLAND_SKM": 213.10001,
                "ENDORHEIC": 0,
                "DIS_AV_CMS": 5.0910001,
                "ORD_STRA": 3,
                "ORD_CLAS": 1,
                "ORD_FLOW": 6,
                "HYBAS_L12": 4121602480.0,
                "Shape_Length": 0.026011002863086337
            },
            "geometry": {
                "type": "LineString",
                "coordinates": [
                    [
                        81.08541666666625,
                        6.335416666666582
                    ],
                    [
                        81.08958333333302,
                        6.33125
                    ],
                    [
                        81.08958333333302,
                        6.327083333333213
                    ],
                    [
                        81.09374999999969,
                        6.322916666666565
                    ],
                    [
                        81.09374999999969,
                        6.31875
                    ],
                    [
                        81.09791666666635,
                        6.314583333333239
                    ]
                ]
            }
        },
        {
            "type": "Feature",
            "properties": {
                "HYRIV_ID": 41408681,
                "NEXT_DOWN": 41408754,
                "MAIN_RIV": 41409326,
                "LENGTH_KM": 5.4400001,
                "DIST_DN_KM": 23.9,
                "DIST_UP_KM": 8.5,
                "CATCH_SKM": 22.4,
                "UPLAND_SKM": 22.4,
                "ENDORHEIC": 0,
                "DIS_AV_CMS": 0.50800002,
                "ORD_STRA": 1,
                "ORD_CLAS": 2,
                "ORD_FLOW": 7,
                "HYBAS_L12": 4121602480.0,
                "Shape_Length": 0.04907572747111469
            },
            "geometry": {
                "type": "LineString",
                "coordinates": [
                    [
                        81.13333333333301,
                        6.341666666666562
                    ],
                    [
                        81.1270833333331,
                        6.335416666666582
                    ],
                    [
                        81.12291666666627,
                        6.335416666666582
                    ],
                    [
                        81.11874999999961,
                        6.33125
                    ],
                    [
                        81.11874999999961,
                        6.327083333333213
                    ],
                    [
                        81.10624999999973,
                        6.314583333333239
                    ],
                    [
                        81.09791666666635,
                        6.314583333333239
                    ]
                ]
            }
        },
        {
            "type": "Feature",
            "properties": {
                "HYRIV_ID": 41408753,
                "NEXT_DOWN": 41408890,
                "MAIN_RIV": 41409326,
                "LENGTH_KM": 2.1,
                "DIST_DN_KM": 21.700001,
                "DIST_UP_KM": 5.1,
                "CATCH_SKM": 9.1700001,
                "UPLAND_SKM": 9.2,
                "ENDORHEIC": 0,
                "DIS_AV_CMS": 0.225,
                "ORD_STRA": 1,
                "ORD_CLAS": 2,
                "ORD_FLOW": 7,
                "HYBAS_L12": 4121602480.0,
                "Shape_Length": 0.018898057941445445
            },
            "geometry": {
                "type": "LineString",
                "coordinates": [
                    [
                        81.07916666666628,
                        6.3125
                    ],
                    [
                        81.08958333333302,
                        6.302083333333222
                    ],
                    [
                        81.08958333333302,
                        6.297916666666573
                    ]
                ]
            }
        },
        {
            "type": "Feature",
            "properties": {
                "HYRIV_ID": 41408754,
                "NEXT_DOWN": 41408890,
                "MAIN_RIV": 41409326,
                "LENGTH_KM": 2.23,
                "DIST_DN_KM": 21.9,
                "DIST_UP_KM": 34.099998,
                "CATCH_SKM": 3.84,
                "UPLAND_SKM": 239.3,
                "ENDORHEIC": 0,
                "DIS_AV_CMS": 5.6230001,
                "ORD_STRA": 3,
                "ORD_CLAS": 1,
                "ORD_FLOW": 6,
                "HYBAS_L12": 4121602480.0,
                "Shape_Length": 0.0201184463531092
            },
            "geometry": {
                "type": "LineString",
                "coordinates": [
                    [
                        81.09791666666635,
                        6.314583333333239
                    ],
                    [
                        81.09791666666635,
                        6.306249999999885
                    ],
                    [
                        81.08958333333302,
                        6.297916666666573
                    ]
                ]
            }
        },
        {
            "type": "Feature",
            "properties": {
                "HYRIV_ID": 41408782,
                "NEXT_DOWN": 41408890,
                "MAIN_RIV": 41409326,
                "LENGTH_KM": 1.4400001,
                "DIST_DN_KM": 21.700001,
                "DIST_UP_KM": 4.2,
                "CATCH_SKM": 7.25,
                "UPLAND_SKM": 7.3,
                "ENDORHEIC": 0,
                "DIS_AV_CMS": 0.178,
                "ORD_STRA": 1,
                "ORD_CLAS": 3,
                "ORD_FLOW": 7,
                "HYBAS_L12": 4121602480.0,
                "Shape_Length": 0.01300550143157712
            },
            "geometry": {
                "type": "LineString",
                "coordinates": [
                    [
                        81.08333333333294,
                        6.287499999999874
                    ],
                    [
                        81.08958333333302,
                        6.29375
                    ],
                    [
                        81.08958333333302,
                        6.297916666666573
                    ]
                ]
            }
        },
        {
            "type": "Feature",
            "properties": {
                "HYRIV_ID": 41408890,
                "NEXT_DOWN": 41408951,
                "MAIN_RIV": 41409326,
                "LENGTH_KM": 4.0,
                "DIST_DN_KM": 17.9,
                "DIST_UP_KM": 38.099998,
                "CATCH_SKM": 6.83,
                "UPLAND_SKM": 262.60001,
                "ENDORHEIC": 0,
                "DIS_AV_CMS": 6.0609999,
                "ORD_STRA": 3,
                "ORD_CLAS": 1,
                "ORD_FLOW": 6,
                "HYBAS_L12": 4121602480.0,
                "Shape_Length": 0.036070226039607495
            },
            "geometry": {
                "type": "LineString",
                "coordinates": [
                    [
                        81.08958333333302,
                        6.297916666666573
                    ],
                    [
                        81.09374999999969,
                        6.29375
                    ],
                    [
                        81.09374999999969,
                        6.281249999999893
                    ],
                    [
                        81.10624999999973,
                        6.268749999999876
                    ]
                ]
            }
        },
        {
            "type": "Feature",
            "properties": {
                "HYRIV_ID": 41408891,
                "NEXT_DOWN": 41408951,
                "MAIN_RIV": 41409326,
                "LENGTH_KM": 2.08,
                "DIST_DN_KM": 17.700001,
                "DIST_UP_KM": 5.8,
                "CATCH_SKM": 10.24,
                "UPLAND_SKM": 10.2,
                "ENDORHEIC": 0,
                "DIS_AV_CMS": 0.236,
                "ORD_STRA": 1,
                "ORD_CLAS": 2,
                "ORD_FLOW": 7,
                "HYBAS_L12": 4121602480.0,
                "Shape_Length": 0.018749999999997158
            },
            "geometry": {
                "type": "LineString",
                "coordinates": [
                    [
                        81.10624999999973,
                        6.287499999999874
                    ],
                    [
                        81.10624999999973,
                        6.268749999999876
                    ]
                ]
            }
        },
        {
            "type": "Feature",
            "properties": {
                "HYRIV_ID": 41408950,
                "NEXT_DOWN": 41408993,
                "MAIN_RIV": 41409326,
                "LENGTH_KM": 2.73,
                "DIST_DN_KM": 16.3,
                "DIST_UP_KM": 4.9,
                "CATCH_SKM": 10.03,
                "UPLAND_SKM": 10.0,
                "ENDORHEIC": 0,
                "DIS_AV_CMS": 0.241,
                "ORD_STRA": 1,
                "ORD_CLAS": 2,
                "ORD_FLOW": 7,
                "HYBAS_L12": 4120050060.0,
                "Shape_Length": 0.024642556509997544
            },
            "geometry": {
                "type": "LineString",
                "coordinates": [
                    [
                        81.08749999999961,
                        6.264583333333213
                    ],
                    [
                        81.09374999999969,
                        6.264583333333213
                    ],
                    [
                        81.09791666666635,
                        6.260416666666565
                    ],
                    [
                        81.09791666666635,
                        6.25625
                    ],
                    [
                        81.10624999999973,
                        6.25625
                    ]
                ]
            }
        },
        {
            "type": "Feature",
            "properties": {
                "HYRIV_ID": 41408951,
                "NEXT_DOWN": 41408993,
                "MAIN_RIV": 41409326,
                "LENGTH_KM": 1.39,
                "DIST_DN_KM": 16.3,
                "DIST_UP_KM": 39.599998,
                "CATCH_SKM": 2.1300001,
                "UPLAND_SKM": 275.0,
                "ENDORHEIC": 0,
                "DIS_AV_CMS": 6.2880001,
                "ORD_STRA": 3,
                "ORD_CLAS": 1,
                "ORD_FLOW": 6,
                "HYBAS_L12": 4120050060.0,
                "Shape_Length": 0.01249999999997442
            },
            "geometry": {
                "type": "LineString",
                "coordinates": [
                    [
                        81.10624999999973,
                        6.268749999999876
                    ],
                    [
                        81.10624999999973,
                        6.25625
                    ]
                ]
            }
        },
        {
            "type": "Feature",
            "properties": {
                "HYRIV_ID": 41408993,
                "NEXT_DOWN": 41409011,
                "MAIN_RIV": 41409326,
                "LENGTH_KM": 1.31,
                "DIST_DN_KM": 15.2,
                "DIST_UP_KM": 40.8,
                "CATCH_SKM": 2.35,
                "UPLAND_SKM": 287.39999,
                "ENDORHEIC": 0,
                "DIS_AV_CMS": 6.5430002,
                "ORD_STRA": 3,
                "ORD_CLAS": 1,
                "ORD_FLOW": 6,
                "HYBAS_L12": 4120050060.0,
                "Shape_Length": 0.011785113019684684
            },
            "geometry": {
                "type": "LineString",
                "coordinates": [
                    [
                        81.10624999999973,
                        6.25625
                    ],
                    [
                        81.11458333333294,
                        6.247916666666576
                    ]
                ]
            }
        },
        {
            "type": "Feature",
            "properties": {
                "HYRIV_ID": 41408994,
                "NEXT_DOWN": 41408995,
                "MAIN_RIV": 41409326,
                "LENGTH_KM": 1.16,
                "DIST_DN_KM": 12.3,
                "DIST_UP_KM": 4.3,
                "CATCH_SKM": 6.1900001,
                "UPLAND_SKM": 6.2,
                "ENDORHEIC": 0,
                "DIS_AV_CMS": 0.14,
                "ORD_STRA": 1,
                "ORD_CLAS": 2,
                "ORD_FLOW": 7,
                "HYBAS_L12": 4120050060.0,
                "Shape_Length": 0.010416666666657193
            },
            "geometry": {
                "type": "LineString",
                "coordinates": [
                    [
                        81.13541666666632,
                        6.258333333333233
                    ],
                    [
                        81.13541666666632,
                        6.247916666666576
                    ]
                ]
            }
        },
        {
            "type": "Feature",
            "properties": {
                "HYRIV_ID": 41408995,
                "NEXT_DOWN": 41409166,
                "MAIN_RIV": 41409326,
                "LENGTH_KM": 1.38,
                "DIST_DN_KM": 10.9,
                "DIST_UP_KM": 45.0,
                "CATCH_SKM": 2.77,
                "UPLAND_SKM": 308.5,
                "ENDORHEIC": 0,
                "DIS_AV_CMS": 6.862,
                "ORD_STRA": 3,
                "ORD_CLAS": 1,
                "ORD_FLOW": 6,
                "HYBAS_L12": 4120050060.0,
                "Shape_Length": 0.012499999999931788
            },
            "geometry": {
                "type": "LineString",
                "coordinates": [
                    [
                        81.13541666666632,
                        6.247916666666576
                    ],
                    [
                        81.14791666666625,
                        6.247916666666576
                    ]
                ]
            }
        },
        {
            "type": "Feature",
            "properties": {
                "HYRIV_ID": 41408996,
                "NEXT_DOWN": 41409166,
                "MAIN_RIV": 41409326,
                "LENGTH_KM": 7.0900002,
                "DIST_DN_KM": 10.9,
                "DIST_UP_KM": 10.2,
                "CATCH_SKM": 35.630001,
                "UPLAND_SKM": 35.599998,
                "ENDORHEIC": 0,
                "DIS_AV_CMS": 0.765,
                "ORD_STRA": 1,
                "ORD_CLAS": 2,
                "ORD_FLOW": 7,
                "HYBAS_L12": 4120050060.0,
                "Shape_Length": 0.06386844635311133
            },
            "geometry": {
                "type": "LineString",
                "coordinates": [
                    [
                        81.15208333333297,
                        6.304166666666553
                    ],
                    [
                        81.15208333333297,
                        6.297916666666573
                    ],
                    [
                        81.15624999999963,
                        6.297916666666573
                    ],
                    [
                        81.15624999999963,
                        6.289583333333248
                    ],
                    [
                        81.15208333333297,
                        6.285416666666556
                    ],
                    [
                        81.15208333333297,
                        6.281249999999893
                    ],
                    [
                        81.14791666666625,
                        6.277083333333231
                    ],
                    [
                        81.14791666666625,
                        6.247916666666576
                    ]
                ]
            }
        },
        {
            "type": "Feature",
            "properties": {
                "HYRIV_ID": 41409010,
                "NEXT_DOWN": 41409011,
                "MAIN_RIV": 41409326,
                "LENGTH_KM": 1.4400001,
                "DIST_DN_KM": 15.0,
                "DIST_UP_KM": 4.3,
                "CATCH_SKM": 7.25,
                "UPLAND_SKM": 7.3,
                "ENDORHEIC": 0,
                "DIS_AV_CMS": 0.17200001,
                "ORD_STRA": 1,
                "ORD_CLAS": 2,
                "ORD_FLOW": 7,
                "HYBAS_L12": 4120050060.0,
                "Shape_Length": 0.013005501431486682
            },
            "geometry": {
                "type": "LineString",
                "coordinates": [
                    [
                        81.10416666666632,
                        6.241666666666553
                    ],
                    [
                        81.11041666666628,
                        6.247916666666576
                    ],
                    [
                        81.11458333333294,
                        6.247916666666576
                    ]
                ]
            }
        },
        {
            "type": "Feature",
            "properties": {
                "HYRIV_ID": 41409011,
                "NEXT_DOWN": 41408995,
                "MAIN_RIV": 41409326,
                "LENGTH_KM": 2.6900001,
                "DIST_DN_KM": 12.3,
                "DIST_UP_KM": 43.599998,
                "CATCH_SKM": 4.9099998,
                "UPLAND_SKM": 299.5,
                "ENDORHEIC": 0,
                "DIS_AV_CMS": 6.724,
                "ORD_STRA": 3,
                "ORD_CLAS": 1,
                "ORD_FLOW": 6,
                "HYBAS_L12": 4120050060.0,
                "Shape_Length": 0.024285113019740505
            },
            "geometry": {
                "type": "LineString",
                "coordinates": [
                    [
                        81.11458333333294,
                        6.247916666666576
                    ],
                    [
                        81.11874999999961,
                        6.24375
                    ],
                    [
                        81.12291666666627,
                        6.24375
                    ],
                    [
                        81.1270833333331,
                        6.247916666666576
                    ],
                    [
                        81.13541666666632,
                        6.247916666666576
                    ]
                ]
            }
        },
        {
            "type": "Feature",
            "properties": {
                "HYRIV_ID": 41409165,
                "NEXT_DOWN": 41409222,
                "MAIN_RIV": 41409326,
                "LENGTH_KM": 4.6900001,
                "DIST_DN_KM": 6.7,
                "DIST_UP_KM": 7.8,
                "CATCH_SKM": 13.23,
                "UPLAND_SKM": 13.2,
                "ENDORHEIC": 0,
                "DIS_AV_CMS": 0.302,
                "ORD_STRA": 1,
                "ORD_CLAS": 2,
                "ORD_FLOW": 7,
                "HYBAS_L12": 4120050060.0,
                "Shape_Length": 0.04232022603957136
            },
            "geometry": {
                "type": "LineString",
                "coordinates": [
                    [
                        81.1166666666663,
                        6.227083333333248
                    ],
                    [
                        81.1270833333331,
                        6.227083333333248
                    ],
                    [
                        81.1312499999996,
                        6.23125
                    ],
                    [
                        81.13541666666632,
                        6.23125
                    ],
                    [
                        81.13541666666632,
                        6.227083333333248
                    ],
                    [
                        81.14791666666625,
                        6.214583333333231
                    ]
                ]
            }
        },
        {
            "type": "Feature",
            "properties": {
                "HYRIV_ID": 41409166,
                "NEXT_DOWN": 41409222,
                "MAIN_RIV": 41409326,
                "LENGTH_KM": 4.4699998,
                "DIST_DN_KM": 6.7,
                "DIST_UP_KM": 49.3,
                "CATCH_SKM": 11.1,
                "UPLAND_SKM": 355.20001,
                "ENDORHEIC": 0,
                "DIS_AV_CMS": 7.6739998,
                "ORD_STRA": 3,
                "ORD_CLAS": 1,
                "ORD_FLOW": 6,
                "HYBAS_L12": 4120050060.0,
                "Shape_Length": 0.04023689270628386
            },
            "geometry": {
                "type": "LineString",
                "coordinates": [
                    [
                        81.14791666666625,
                        6.247916666666576
                    ],
                    [
                        81.15624999999963,
                        6.239583333333222
                    ],
                    [
                        81.15624999999963,
                        6.23125
                    ],
                    [
                        81.15208333333297,
                        6.227083333333248
                    ],
                    [
                        81.15208333333297,
                        6.21875
                    ],
                    [
                        81.14791666666625,
                        6.214583333333231
                    ]
                ]
            }
        },
        {
            "type": "Feature",
            "properties": {
                "HYRIV_ID": 41409221,
                "NEXT_DOWN": 41409326,
                "MAIN_RIV": 41409326,
                "LENGTH_KM": 2.55,
                "DIST_DN_KM": 5.5,
                "DIST_UP_KM": 6.0,
                "CATCH_SKM": 11.31,
                "UPLAND_SKM": 11.3,
                "ENDORHEIC": 0,
                "DIS_AV_CMS": 0.26,
                "ORD_STRA": 1,
                "ORD_CLAS": 2,
                "ORD_FLOW": 7,
                "HYBAS_L12": 4120050060.0,
                "Shape_Length": 0.023064724607981854
            },
            "geometry": {
                "type": "LineString",
                "coordinates": [
                    [
                        81.12916666666635,
                        6.204166666666545
                    ],
                    [
                        81.13541666666632,
                        6.210416666666568
                    ],
                    [
                        81.13958333333292,
                        6.20625
                    ],
                    [
                        81.14791666666625,
                        6.20625
                    ]
                ]
            }
        },
        {
            "type": "Feature",
            "properties": {
                "HYRIV_ID": 41409222,
                "NEXT_DOWN": 41409326,
                "MAIN_RIV": 41409326,
                "LENGTH_KM": 0.93,
                "DIST_DN_KM": 5.5,
                "DIST_UP_KM": 50.400002,
                "CATCH_SKM": 1.49,
                "UPLAND_SKM": 369.89999,
                "ENDORHEIC": 0,
                "DIS_AV_CMS": 7.9590001,
                "ORD_STRA": 3,
                "ORD_CLAS": 1,
                "ORD_FLOW": 6,
                "HYBAS_L12": 4120050060.0,
                "Shape_Length": 0.008333333333311543
            },
            "geometry": {
                "type": "LineString",
                "coordinates": [
                    [
                        81.14791666666625,
                        6.214583333333231
                    ],
                    [
                        81.14791666666625,
                        6.20625
                    ]
                ]
            }
        },
        {
            "type": "Feature",
            "properties": {
                "HYRIV_ID": 41409326,
                "NEXT_DOWN": 0,
                "MAIN_RIV": 41409326,
                "LENGTH_KM": 5.31,
                "DIST_DN_KM": 0.0,
                "DIST_UP_KM": 55.700001,
                "CATCH_SKM": 16.219999,
                "UPLAND_SKM": 396.60001,
                "ENDORHEIC": 0,
                "DIS_AV_CMS": 8.316,
                "ORD_STRA": 3,
                "ORD_CLAS": 1,
                "ORD_FLOW": 6,
                "HYBAS_L12": 4120050060.0,
                "Shape_Length": 0.047855339059305675
            },
            "geometry": {
                "type": "LineString",
                "coordinates": [
                    [
                        81.14791666666625,
                        6.20625
                    ],
                    [
                        81.1604166666663,
                        6.19375
                    ],
                    [
                        81.16458333333296,
                        6.197916666666551
                    ],
                    [
                        81.16874999999962,
                        6.197916666666551
                    ],
                    [
                        81.16874999999962,
                        6.19375
                    ],
                    [
                        81.17708333333294,
                        6.185416666666576
                    ],
                    [
                        81.17708333333294,
                        6.18125
                    ]
                ]
            }
        }
    ]
}