{
    "type": "FeatureCollection",
    "features": [
        {
            "type": "Feature",
            "properties": {
                "HYRIV_ID": 41401029,
                "NEXT_DOWN": 41401046,
                "MAIN_RIV": 41401046,
                "LENGTH_KM": 7.6599998,
                "DIST_DN_KM": 2.7,
                "DIST_UP_KM": 10.5,
                "CATCH_SKM": 32.3,
                "UPLAND_SKM": 32.3,
                "ENDORHEIC": 0,
                "DIS_AV_CMS": 0.37200001,
                "ORD_STRA": 1,
                "ORD_CLAS": 2,
                "ORD_FLOW": 7,
                "HYBAS_L12": 4120049210.0,
                "Shape_Length": 0.0691941738241448
            },
            "geometry": {
                "type": "LineString",
                "coordinates": [
                    [
                        79.8791666666663,
                        8.208333333333208
                    ],
                    [
                        79.86874999999966,
                        8.197916666666522
                    ],
                    [
                        79.86874999999966,
                        8.19374999999986
                    ],
                    [
                        79.86041666666634,
                        8.185416666666548
                    ],
                    [
                        79.85624999999968,
                        8.18958333333321
                    ],
                    [
                        79.85208333333301,
                        8.18958333333321
                    ],
                    [
                        79.8479166666663,
                        8.185416666666548
                    ],
                    [
                        79.8479166666663,
                        8.168749999999868
                    ],
                    [
                        79.84374999999963,
                        8.16458333333322
                    ]
                ]
            }
        },
        {
            "type": "Feature",
            "properties": {
                "HYRIV_ID": 41401046,
                "NEXT_DOWN": 0,
                "MAIN_RIV": 41401046,
                "LENGTH_KM": 2.4100001,
                "DIST_DN_KM": 0.0,
                "DIST_UP_KM": 14.9,
                "CATCH_SKM": 4.25,
                "UPLAND_SKM": 76.699997,
                "ENDORHEIC": 0,
                "DIS_AV_CMS": 0.89200002,
                "ORD_STRA": 2,
                "ORD_CLAS": 1,
                "ORD_FLOW": 7,
                "HYBAS_L12": 4120049210.0,
                "Shape_Length": 0.021844336196290393
            },
            "geometry": {
                "type": "LineString",
                "coordinates": [
                    [
                        79.84374999999963,
                        8.16458333333322
                    ],
                    [
                        79.83958333333297,
                        8.16458333333322
                    ],
                    [
                        79.8354166666663,
                        8.168749999999868
                    ],
                    [
                        79.82708333333298,
                        8.160416666666556
                    ]
                ]
            }
        },
        {
            "type": "Feature",
            "properties": {
                "HYRIV_ID": 41401076,
                "NEXT_DOWN": 41401046,
                "MAIN_RIV": 41401046,
                "LENGTH_KM": 8.3100004,
                "DIST_DN_KM": 2.7,
                "DIST_UP_KM": 12.5,
                "CATCH_SKM": 40.369999,
                "UPLAND_SKM": 40.400002,
                "ENDORHEIC": 0,
                "DIS_AV_CMS": 0.48100001,
                "ORD_STRA": 1,
                "ORD_CLAS": 1,
                "ORD_FLOW": 7,
                "HYBAS_L12": 4120049210.0,
                "Shape_Length": 0.07508673033413514
            },
            "geometry": {
                "type": "LineString",
                "coordinates": [
                    [
                        79.89166666666634,
                        8.179166666666553
                    ],
                    [
                        79.88541666666637,
                        8.17291666666653
                    ],
                    [
                        79.88541666666637,
                        8.160416666666556
                    ],
                    [
                        79.8812499999996,
                        8.160416666666556
                    ],
                    [
                        79.86874999999966,
                        8.14791666666654
                    ],
                    [
                        79.864583333333,
                        8.14791666666654
                    ],
                    [
                        79.85208333333301,
                        8.160416666666556
                    ],
                    [
                        79.8479166666663,
                        8.160416666666556
                    ],
                    [
                        79.84374999999963,
                        8.16458333333322
                    ]
                ]
            }
        }
    ]
}