{
    "type": "FeatureCollection",
    "features": [
        {
            "type": "Feature",
            "properties": {
                "HYRIV_ID": 41403898,
                "NEXT_DOWN": 41403927,
                "MAIN_RIV": 41404278,
                "LENGTH_KM": 0.69,
                "DIST_DN_KM": 22.200001,
                "DIST_UP_KM": 2.9,
                "CATCH_SKM": 4.4699998,
                "UPLAND_SKM": 4.5,
                "ENDORHEIC": 0,
                "DIS_AV_CMS": 0.115,
                "ORD_STRA": 1,
                "ORD_CLAS": 3,
                "ORD_FLOW": 7,
                "HYBAS_L12": 4120049110.0,
                "Shape_Length": 0.006249999999980105
            },
            "geometry": {
                "type": "LineString",
                "coordinates": [
                    [
                        79.9229166666664,
                        7.412499999999888
                    ],
                    [
                        79.9229166666664,
                        7.40625
                    ]
                ]
            }
        },
        {
            "type": "Feature",
            "properties": {
                "HYRIV_ID": 41403899,
                "NEXT_DOWN": 41403927,
                "MAIN_RIV": 41404278,
                "LENGTH_KM": 1.15,
                "DIST_DN_KM": 22.200001,
                "DIST_UP_KM": 4.2,
                "CATCH_SKM": 5.75,
                "UPLAND_SKM": 5.7,
                "ENDORHEIC": 0,
                "DIS_AV_CMS": 0.149,
                "ORD_STRA": 1,
                "ORD_CLAS": 2,
                "ORD_FLOW": 7,
                "HYBAS_L12": 4120049110.0,
                "Shape_Length": 0.010416666666628771
            },
            "geometry": {
                "type": "LineString",
                "coordinates": [
                    [
                        79.93333333333302,
                        7.40625
                    ],
                    [
                        79.9229166666664,
                        7.40625
                    ]
                ]
            }
        },
        {
            "type": "Feature",
            "properties": {
                "HYRIV_ID": 41403914,
                "NEXT_DOWN": 41403953,
                "MAIN_RIV": 41404278,
                "LENGTH_KM": 1.4400001,
                "DIST_DN_KM": 19.5,
                "DIST_UP_KM": 3.7,
                "CATCH_SKM": 5.5300002,
                "UPLAND_SKM": 5.5,
                "ENDORHEIC": 0,
                "DIS_AV_CMS": 0.142,
                "ORD_STRA": 1,
                "ORD_CLAS": 3,
                "ORD_FLOW": 7,
                "HYBAS_L12": 4120049110.0,
                "Shape_Length": 0.013005501431458975
            },
            "geometry": {
                "type": "LineString",
                "coordinates": [
                    [
                        79.91249999999965,
                        7.412499999999888
                    ],
                    [
                        79.90624999999974,
                        7.40625
                    ],
                    [
                        79.90624999999974,
                        7.402083333333202
                    ]
                ]
            }
        },
        {
            "type": "Feature",
            "properties": {
                "HYRIV_ID": 41403927,
                "NEXT_DOWN": 41403953,
                "MAIN_RIV": 41404278,
                "LENGTH_KM": 2.6900001,
                "DIST_DN_KM": 19.700001,
                "DIST_UP_KM": 6.7,
                "CATCH_SKM": 4.9,
                "UPLAND_SKM": 15.1,
                "ENDORHEIC": 0,
                "DIS_AV_CMS": 0.391,
                "ORD_STRA": 2,
                "ORD_CLAS": 2,
                "ORD_FLOW": 7,
                "HYBAS_L12": 4120049110.0,
                "Shape_Length": 0.024285113019829635
            },
            "geometry": {
                "type": "LineString",
                "coordinates": [
                    [
                        79.9229166666664,
                        7.40625
                    ],
                    [
                        79.9229166666664,
                        7.402083333333202
                    ],
                    [
                        79.91874999999962,
                        7.402083333333202
                    ],
                    [
                        79.91458333333296,
                        7.397916666666539
                    ],
                    [
                        79.9104166666663,
                        7.397916666666539
                    ],
                    [
                        79.90624999999974,
                        7.402083333333202
                    ]
                ]
            }
        },
        {
            "type": "Feature",
            "properties": {
                "HYRIV_ID": 41403944,
                "NEXT_DOWN": 41404110,
                "MAIN_RIV": 41404278,
                "LENGTH_KM": 6.54,
                "DIST_DN_KM": 14.2,
                "DIST_UP_KM": 8.9,
                "CATCH_SKM": 26.82,
                "UPLAND_SKM": 26.8,
                "ENDORHEIC": 0,
                "DIS_AV_CMS": 0.67900002,
                "ORD_STRA": 1,
                "ORD_CLAS": 2,
                "ORD_FLOW": 7,
                "HYBAS_L12": 4120049110.0,
                "Shape_Length": 0.05898689270617709
            },
            "geometry": {
                "type": "LineString",
                "coordinates": [
                    [
                        79.87499999999963,
                        7.435416666666548
                    ],
                    [
                        79.864583333333,
                        7.435416666666548
                    ],
                    [
                        79.86041666666634,
                        7.431249999999899
                    ],
                    [
                        79.86041666666634,
                        7.422916666666531
                    ],
                    [
                        79.86874999999966,
                        7.414583333333219
                    ],
                    [
                        79.86874999999966,
                        7.410416666666556
                    ],
                    [
                        79.864583333333,
                        7.40625
                    ],
                    [
                        79.864583333333,
                        7.393749999999891
                    ]
                ]
            }
        },
        {
            "type": "Feature",
            "properties": {
                "HYRIV_ID": 41403952,
                "NEXT_DOWN": 41404110,
                "MAIN_RIV": 41404278,
                "LENGTH_KM": 1.5700001,
                "DIST_DN_KM": 14.3,
                "DIST_UP_KM": 35.700001,
                "CATCH_SKM": 3.1900001,
                "UPLAND_SKM": 208.2,
                "ENDORHEIC": 0,
                "DIS_AV_CMS": 5.5640001,
                "ORD_STRA": 3,
                "ORD_CLAS": 1,
                "ORD_FLOW": 6,
                "HYBAS_L12": 4120049110.0,
                "Shape_Length": 0.014225889843265133
            },
            "geometry": {
                "type": "LineString",
                "coordinates": [
                    [
                        79.87708333333305,
                        7.389583333333228
                    ],
                    [
                        79.86874999999966,
                        7.389583333333228
                    ],
                    [
                        79.864583333333,
                        7.393749999999891
                    ]
                ]
            }
        },
        {
            "type": "Feature",
            "properties": {
                "HYRIV_ID": 41403953,
                "NEXT_DOWN": 41403952,
                "MAIN_RIV": 41404278,
                "LENGTH_KM": 3.79,
                "DIST_DN_KM": 15.9,
                "DIST_UP_KM": 10.5,
                "CATCH_SKM": 9.58,
                "UPLAND_SKM": 30.200001,
                "ENDORHEIC": 0,
                "DIS_AV_CMS": 0.783,
                "ORD_STRA": 2,
                "ORD_CLAS": 2,
                "ORD_FLOW": 7,
                "HYBAS_L12": 4120049110.0,
                "Shape_Length": 0.03434433619637921
            },
            "geometry": {
                "type": "LineString",
                "coordinates": [
                    [
                        79.90624999999974,
                        7.402083333333202
                    ],
                    [
                        79.89791666666636,
                        7.402083333333202
                    ],
                    [
                        79.8937499999997,
                        7.397916666666539
                    ],
                    [
                        79.88958333333304,
                        7.397916666666539
                    ],
                    [
                        79.88541666666637,
                        7.393749999999891
                    ],
                    [
                        79.8812499999996,
                        7.393749999999891
                    ],
                    [
                        79.87708333333305,
                        7.389583333333228
                    ]
                ]
            }
        },
        {
            "type": "Feature",
            "properties": {
                "HYRIV_ID": 41403954,
                "NEXT_DOWN": 41404011,
                "MAIN_RIV": 41404278,
                "LENGTH_KM": 6.9,
                "DIST_DN_KM": 24.0,
                "DIST_UP_KM": 9.2,
                "CATCH_SKM": 18.73,
                "UPLAND_SKM": 18.700001,
                "ENDORHEIC": 0,
                "DIS_AV_CMS": 0.491,
                "ORD_STRA": 1,
                "ORD_CLAS": 2,
                "ORD_FLOW": 7,
                "HYBAS_L12": 4121601630.0,
                "Shape_Length": 0.062438672392698936
            },
            "geometry": {
                "type": "LineString",
                "coordinates": [
                    [
                        79.98333333333309,
                        7.40625
                    ],
                    [
                        79.9729166666663,
                        7.40625
                    ],
                    [
                        79.9604166666663,
                        7.393749999999891
                    ],
                    [
                        79.95624999999964,
                        7.393749999999891
                    ],
                    [
                        79.95208333333298,
                        7.397916666666539
                    ],
                    [
                        79.9437499999996,
                        7.397916666666539
                    ],
                    [
                        79.93958333333299,
                        7.393749999999891
                    ],
                    [
                        79.93541666666627,
                        7.393749999999891
                    ],
                    [
                        79.93124999999978,
                        7.389583333333228
                    ]
                ]
            }
        },
        {
            "type": "Feature",
            "properties": {
                "HYRIV_ID": 41403966,
                "NEXT_DOWN": 41404044,
                "MAIN_RIV": 41404278,
                "LENGTH_KM": 0.98,
                "DIST_DN_KM": 40.200001,
                "DIST_UP_KM": 3.4,
                "CATCH_SKM": 7.2399998,
                "UPLAND_SKM": 7.2,
                "ENDORHEIC": 0,
                "DIS_AV_CMS": 0.192,
                "ORD_STRA": 1,
                "ORD_CLAS": 2,
                "ORD_FLOW": 7,
                "HYBAS_L12": 4121601630.0,
                "Shape_Length": 0.008838834764843902
            },
            "geometry": {
                "type": "LineString",
                "coordinates": [
                    [
                        80.04999999999964,
                        7.391666666666559
                    ],
                    [
                        80.04374999999962,
                        7.385416666666565
                    ]
                ]
            }
        },
        {
            "type": "Feature",
            "properties": {
                "HYRIV_ID": 41403967,
                "NEXT_DOWN": 41403986,
                "MAIN_RIV": 41404278,
                "LENGTH_KM": 0.69,
                "DIST_DN_KM": 42.200001,
                "DIST_UP_KM": 3.1,
                "CATCH_SKM": 4.04,
                "UPLAND_SKM": 4.0,
                "ENDORHEIC": 0,
                "DIS_AV_CMS": 0.11,
                "ORD_STRA": 1,
                "ORD_CLAS": 2,
                "ORD_FLOW": 7,
                "HYBAS_L12": 4121601630.0,
                "Shape_Length": 0.006250000000079581
            },
            "geometry": {
                "type": "LineString",
                "coordinates": [
                    [
                        80.06666666666635,
                        7.385416666666565
                    ],
                    [
                        80.06041666666627,
                        7.385416666666565
                    ]
                ]
            }
        },
        {
            "type": "Feature",
            "properties": {
                "HYRIV_ID": 41403968,
                "NEXT_DOWN": 41403986,
                "MAIN_RIV": 41404278,
                "LENGTH_KM": 4.4899998,
                "DIST_DN_KM": 42.400002,
                "DIST_UP_KM": 7.6,
                "CATCH_SKM": 9.1499996,
                "UPLAND_SKM": 9.2,
                "ENDORHEIC": 0,
                "DIS_AV_CMS": 0.248,
                "ORD_STRA": 1,
                "ORD_CLAS": 1,
                "ORD_FLOW": 7,
                "HYBAS_L12": 4121601630.0,
                "Shape_Length": 0.04059433619635961
            },
            "geometry": {
                "type": "LineString",
                "coordinates": [
                    [
                        80.08958333333297,
                        7.383333333333191
                    ],
                    [
                        80.08958333333297,
                        7.389583333333228
                    ],
                    [
                        80.0854166666663,
                        7.393749999999891
                    ],
                    [
                        80.07291666666632,
                        7.393749999999891
                    ],
                    [
                        80.0687499999996,
                        7.389583333333228
                    ],
                    [
                        80.06458333333299,
                        7.389583333333228
                    ],
                    [
                        80.06041666666627,
                        7.385416666666565
                    ]
                ]
            }
        },
        {
            "type": "Feature",
            "properties": {
                "HYRIV_ID": 41403986,
                "NEXT_DOWN": 41404044,
                "MAIN_RIV": 41404278,
                "LENGTH_KM": 2.22,
                "DIST_DN_KM": 40.200001,
                "DIST_UP_KM": 9.8,
                "CATCH_SKM": 4.04,
                "UPLAND_SKM": 17.200001,
                "ENDORHEIC": 0,
                "DIS_AV_CMS": 0.466,
                "ORD_STRA": 2,
                "ORD_CLAS": 1,
                "ORD_FLOW": 7,
                "HYBAS_L12": 4121601630.0,
                "Shape_Length": 0.020118446353047777
            },
            "geometry": {
                "type": "LineString",
                "coordinates": [
                    [
                        80.06041666666627,
                        7.385416666666565
                    ],
                    [
                        80.05624999999978,
                        7.385416666666565
                    ],
                    [
                        80.05208333333294,
                        7.381249999999874
                    ],
                    [
                        80.0479166666664,
                        7.381249999999874
                    ],
                    [
                        80.04374999999962,
                        7.385416666666565
                    ]
                ]
            }
        },
        {
            "type": "Feature",
            "properties": {
                "HYRIV_ID": 41403996,
                "NEXT_DOWN": 41404011,
                "MAIN_RIV": 41404278,
                "LENGTH_KM": 3.34,
                "DIST_DN_KM": 24.0,
                "DIST_UP_KM": 26.0,
                "CATCH_SKM": 6.6,
                "UPLAND_SKM": 118.8,
                "ENDORHEIC": 0,
                "DIS_AV_CMS": 3.1949999,
                "ORD_STRA": 2,
                "ORD_CLAS": 1,
                "ORD_FLOW": 6,
                "HYBAS_L12": 4121601630.0,
                "Shape_Length": 0.03017766952957595
            },
            "geometry": {
                "type": "LineString",
                "coordinates": [
                    [
                        79.95624999999964,
                        7.377083333333211
                    ],
                    [
                        79.95208333333298,
                        7.381249999999874
                    ],
                    [
                        79.94791666666632,
                        7.381249999999874
                    ],
                    [
                        79.9437499999996,
                        7.385416666666565
                    ],
                    [
                        79.93541666666627,
                        7.385416666666565
                    ],
                    [
                        79.93124999999978,
                        7.389583333333228
                    ]
                ]
            }
        },
        {
            "type": "Feature",
            "properties": {
                "HYRIV_ID": 41404009,
                "NEXT_DOWN": 41403952,
                "MAIN_RIV": 41404278,
                "LENGTH_KM": 4.4499998,
                "DIST_DN_KM": 15.9,
                "DIST_UP_KM": 34.099998,
                "CATCH_SKM": 8.0900002,
                "UPLAND_SKM": 174.8,
                "ENDORHEIC": 0,
                "DIS_AV_CMS": 4.697,
                "ORD_STRA": 2,
                "ORD_CLAS": 1,
                "ORD_FLOW": 6,
                "HYBAS_L12": 4120049110.0,
                "Shape_Length": 0.040236892706161556
            },
            "geometry": {
                "type": "LineString",
                "coordinates": [
                    [
                        79.9104166666663,
                        7.372916666666548
                    ],
                    [
                        79.90624999999974,
                        7.377083333333211
                    ],
                    [
                        79.90208333333308,
                        7.377083333333211
                    ],
                    [
                        79.89791666666636,
                        7.381249999999874
                    ],
                    [
                        79.88541666666637,
                        7.381249999999874
                    ],
                    [
                        79.87708333333305,
                        7.389583333333228
                    ]
                ]
            }
        },
        {
            "type": "Feature",
            "properties": {
                "HYRIV_ID": 41404010,
                "NEXT_DOWN": 41404009,
                "MAIN_RIV": 41404278,
                "LENGTH_KM": 0.46,
                "DIST_DN_KM": 20.200001,
                "DIST_UP_KM": 29.8,
                "CATCH_SKM": 0.64,
                "UPLAND_SKM": 148.8,
                "ENDORHEIC": 0,
                "DIS_AV_CMS": 3.9890001,
                "ORD_STRA": 2,
                "ORD_CLAS": 1,
                "ORD_FLOW": 6,
                "HYBAS_L12": 4121601630.0,
                "Shape_Length": 0.004166666666662877
            },
            "geometry": {
                "type": "LineString",
                "coordinates": [
                    [
                        79.91458333333296,
                        7.372916666666548
                    ],
                    [
                        79.9104166666663,
                        7.372916666666548
                    ]
                ]
            }
        },
        {
            "type": "Feature",
            "properties": {
                "HYRIV_ID": 41404011,
                "NEXT_DOWN": 41404010,
                "MAIN_RIV": 41404278,
                "LENGTH_KM": 3.1500001,
                "DIST_DN_KM": 20.8,
                "DIST_UP_KM": 29.200001,
                "CATCH_SKM": 6.1700001,
                "UPLAND_SKM": 143.7,
                "ENDORHEIC": 0,
                "DIS_AV_CMS": 3.8510001,
                "ORD_STRA": 2,
                "ORD_CLAS": 1,
                "ORD_FLOW": 6,
                "HYBAS_L12": 4121601630.0,
                "Shape_Length": 0.028451779686582235
            },
            "geometry": {
                "type": "LineString",
                "coordinates": [
                    [
                        79.93124999999978,
                        7.389583333333228
                    ],
                    [
                        79.9229166666664,
                        7.389583333333228
                    ],
                    [
                        79.91874999999962,
                        7.385416666666565
                    ],
                    [
                        79.91874999999962,
                        7.377083333333211
                    ],
                    [
                        79.91458333333296,
                        7.372916666666548
                    ]
                ]
            }
        },
        {
            "type": "Feature",
            "properties": {
                "HYRIV_ID": 41404025,
                "NEXT_DOWN": 41404010,
                "MAIN_RIV": 41404278,
                "LENGTH_KM": 0.46,
                "DIST_DN_KM": 20.6,
                "DIST_UP_KM": 4.5,
                "CATCH_SKM": 4.4699998,
                "UPLAND_SKM": 4.5,
                "ENDORHEIC": 0,
                "DIS_AV_CMS": 0.121,
                "ORD_STRA": 1,
                "ORD_CLAS": 2,
                "ORD_FLOW": 7,
                "HYBAS_L12": 4121601630.0,
                "Shape_Length": 0.004166666666648666
            },
            "geometry": {
                "type": "LineString",
                "coordinates": [
                    [
                        79.91458333333296,
                        7.368749999999899
                    ],
                    [
                        79.91458333333296,
                        7.372916666666548
                    ]
                ]
            }
        },
        {
            "type": "Feature",
            "properties": {
                "HYRIV_ID": 41404026,
                "NEXT_DOWN": 41404042,
                "MAIN_RIV": 41404278,
                "LENGTH_KM": 6.27,
                "DIST_DN_KM": 32.5,
                "DIST_UP_KM": 8.5,
                "CATCH_SKM": 22.780001,
                "UPLAND_SKM": 22.8,
                "ENDORHEIC": 0,
                "DIS_AV_CMS": 0.602,
                "ORD_STRA": 1,
                "ORD_CLAS": 2,
                "ORD_FLOW": 7,
                "HYBAS_L12": 4121601630.0,
                "Shape_Length": 0.056546115882794165
            },
            "geometry": {
                "type": "LineString",
                "coordinates": [
                    [
                        80.0187499999997,
                        7.412499999999888
                    ],
                    [
                        80.0187499999997,
                        7.393749999999891
                    ],
                    [
                        80.01458333333304,
                        7.393749999999891
                    ],
                    [
                        80.00624999999971,
                        7.385416666666565
                    ],
                    [
                        80.00624999999971,
                        7.381249999999874
                    ],
                    [
                        79.99374999999966,
                        7.368749999999899
                    ]
                ]
            }
        },
        {
            "type": "Feature",
            "properties": {
                "HYRIV_ID": 41404041,
                "NEXT_DOWN": 41403996,
                "MAIN_RIV": 41404278,
                "LENGTH_KM": 1.91,
                "DIST_DN_KM": 27.1,
                "DIST_UP_KM": 4.3,
                "CATCH_SKM": 8.7299995,
                "UPLAND_SKM": 8.7,
                "ENDORHEIC": 0,
                "DIS_AV_CMS": 0.239,
                "ORD_STRA": 1,
                "ORD_CLAS": 2,
                "ORD_FLOW": 7,
                "HYBAS_L12": 4121601630.0,
                "Shape_Length": 0.017172168098225787
            },
            "geometry": {
                "type": "LineString",
                "coordinates": [
                    [
                        79.96249999999972,
                        7.362499999999862
                    ],
                    [
                        79.95624999999964,
                        7.368749999999899
                    ],
                    [
                        79.95624999999964,
                        7.377083333333211
                    ]
                ]
            }
        },
        {
            "type": "Feature",
            "properties": {
                "HYRIV_ID": 41404042,
                "NEXT_DOWN": 41403996,
                "MAIN_RIV": 41404278,
                "LENGTH_KM": 5.1799998,
                "DIST_DN_KM": 27.1,
                "DIST_UP_KM": 22.9,
                "CATCH_SKM": 15.97,
                "UPLAND_SKM": 103.5,
                "ENDORHEIC": 0,
                "DIS_AV_CMS": 2.78,
                "ORD_STRA": 2,
                "ORD_CLAS": 1,
                "ORD_FLOW": 6,
                "HYBAS_L12": 4121601630.0,
                "Shape_Length": 0.046844336196390675
            },
            "geometry": {
                "type": "LineString",
                "coordinates": [
                    [
                        79.99374999999966,
                        7.368749999999899
                    ],
                    [
                        79.989583333333,
                        7.368749999999899
                    ],
                    [
                        79.98541666666634,
                        7.364583333333194
                    ],
                    [
                        79.97708333333296,
                        7.364583333333194
                    ],
                    [
                        79.9729166666663,
                        7.368749999999899
                    ],
                    [
                        79.9729166666663,
                        7.372916666666548
                    ],
                    [
                        79.96874999999963,
                        7.377083333333211
                    ],
                    [
                        79.95624999999964,
                        7.377083333333211
                    ]
                ]
            }
        },
        {
            "type": "Feature",
            "properties": {
                "HYRIV_ID": 41404043,
                "NEXT_DOWN": 41404042,
                "MAIN_RIV": 41404278,
                "LENGTH_KM": 4.64,
                "DIST_DN_KM": 32.5,
                "DIST_UP_KM": 17.5,
                "CATCH_SKM": 11.28,
                "UPLAND_SKM": 64.699997,
                "ENDORHEIC": 0,
                "DIS_AV_CMS": 1.748,
                "ORD_STRA": 2,
                "ORD_CLAS": 1,
                "ORD_FLOW": 6,
                "HYBAS_L12": 4121601630.0,
                "Shape_Length": 0.04196278254959224
            },
            "geometry": {
                "type": "LineString",
                "coordinates": [
                    [
                        80.02708333333302,
                        7.364583333333194
                    ],
                    [
                        80.02291666666636,
                        7.364583333333194
                    ],
                    [
                        80.0187499999997,
                        7.368749999999899
                    ],
                    [
                        80.01458333333304,
                        7.364583333333194
                    ],
                    [
                        80.01041666666637,
                        7.364583333333194
                    ],
                    [
                        80.00624999999971,
                        7.368749999999899
                    ],
                    [
                        80.00208333333299,
                        7.364583333333194
                    ],
                    [
                        79.99791666666633,
                        7.364583333333194
                    ],
                    [
                        79.99374999999966,
                        7.368749999999899
                    ]
                ]
            }
        },
        {
            "type": "Feature",
            "properties": {
                "HYRIV_ID": 41404044,
                "NEXT_DOWN": 41404043,
                "MAIN_RIV": 41404278,
                "LENGTH_KM": 3.07,
                "DIST_DN_KM": 37.099998,
                "DIST_UP_KM": 12.9,
                "CATCH_SKM": 9.1499996,
                "UPLAND_SKM": 33.599998,
                "ENDORHEIC": 0,
                "DIS_AV_CMS": 0.90200001,
                "ORD_STRA": 2,
                "ORD_CLAS": 1,
                "ORD_FLOW": 7,
                "HYBAS_L12": 4121601630.0,
                "Shape_Length": 0.027736892706193023
            },
            "geometry": {
                "type": "LineString",
                "coordinates": [
                    [
                        80.04374999999962,
                        7.385416666666565
                    ],
                    [
                        80.03958333333296,
                        7.381249999999874
                    ],
                    [
                        80.03958333333296,
                        7.377083333333211
                    ],
                    [
                        80.02708333333302,
                        7.364583333333194
                    ]
                ]
            }
        },
        {
            "type": "Feature",
            "properties": {
                "HYRIV_ID": 41404080,
                "NEXT_DOWN": 41404043,
                "MAIN_RIV": 41404278,
                "LENGTH_KM": 6.1300001,
                "DIST_DN_KM": 36.900002,
                "DIST_UP_KM": 10.1,
                "CATCH_SKM": 19.8,
                "UPLAND_SKM": 19.8,
                "ENDORHEIC": 0,
                "DIS_AV_CMS": 0.54400003,
                "ORD_STRA": 1,
                "ORD_CLAS": 2,
                "ORD_FLOW": 7,
                "HYBAS_L12": 4121601630.0,
                "Shape_Length": 0.05553511301968366
            },
            "geometry": {
                "type": "LineString",
                "coordinates": [
                    [
                        80.07499999999968,
                        7.360416666666531
                    ],
                    [
                        80.0479166666664,
                        7.360416666666531
                    ],
                    [
                        80.04374999999962,
                        7.356249999999882
                    ],
                    [
                        80.03124999999974,
                        7.356249999999882
                    ],
                    [
                        80.02708333333302,
                        7.360416666666531
                    ],
                    [
                        80.02708333333302,
                        7.364583333333194
                    ]
                ]
            }
        },
        {
            "type": "Feature",
            "properties": {
                "HYRIV_ID": 41404110,
                "NEXT_DOWN": 41404148,
                "MAIN_RIV": 41404278,
                "LENGTH_KM": 6.8800001,
                "DIST_DN_KM": 7.5,
                "DIST_UP_KM": 42.599998,
                "CATCH_SKM": 18.950001,
                "UPLAND_SKM": 254.0,
                "ENDORHEIC": 0,
                "DIS_AV_CMS": 6.743,
                "ORD_STRA": 3,
                "ORD_CLAS": 1,
                "ORD_FLOW": 6,
                "HYBAS_L12": 4120049110.0,
                "Shape_Length": 0.06208122890260684
            },
            "geometry": {
                "type": "LineString",
                "coordinates": [
                    [
                        79.864583333333,
                        7.393749999999891
                    ],
                    [
                        79.86041666666634,
                        7.393749999999891
                    ],
                    [
                        79.85208333333301,
                        7.385416666666565
                    ],
                    [
                        79.85208333333301,
                        7.368749999999899
                    ],
                    [
                        79.84374999999963,
                        7.360416666666531
                    ],
                    [
                        79.85624999999968,
                        7.347916666666556
                    ]
                ]
            }
        },
        {
            "type": "Feature",
            "properties": {
                "HYRIV_ID": 41404111,
                "NEXT_DOWN": 41404148,
                "MAIN_RIV": 41404278,
                "LENGTH_KM": 4.9699998,
                "DIST_DN_KM": 7.3,
                "DIST_UP_KM": 7.7,
                "CATCH_SKM": 17.879999,
                "UPLAND_SKM": 17.9,
                "ENDORHEIC": 0,
                "DIS_AV_CMS": 0.48500001,
                "ORD_STRA": 1,
                "ORD_CLAS": 2,
                "ORD_FLOW": 7,
                "HYBAS_L12": 4120049110.0,
                "Shape_Length": 0.04490906080430239
            },
            "geometry": {
                "type": "LineString",
                "coordinates": [
                    [
                        79.88749999999962,
                        7.354166666666551
                    ],
                    [
                        79.8812499999996,
                        7.360416666666531
                    ],
                    [
                        79.87291666666633,
                        7.352083333333219
                    ],
                    [
                        79.86874999999966,
                        7.356249999999882
                    ],
                    [
                        79.864583333333,
                        7.356249999999882
                    ],
                    [
                        79.86041666666634,
                        7.352083333333219
                    ],
                    [
                        79.85624999999968,
                        7.352083333333219
                    ],
                    [
                        79.85624999999968,
                        7.347916666666556
                    ]
                ]
            }
        },
        {
            "type": "Feature",
            "properties": {
                "HYRIV_ID": 41404148,
                "NEXT_DOWN": 41404278,
                "MAIN_RIV": 41404278,
                "LENGTH_KM": 1.39,
                "DIST_DN_KM": 5.9,
                "DIST_UP_KM": 44.099998,
                "CATCH_SKM": 2.1300001,
                "UPLAND_SKM": 274.0,
                "ENDORHEIC": 0,
                "DIS_AV_CMS": 7.2859998,
                "ORD_STRA": 3,
                "ORD_CLAS": 1,
                "ORD_FLOW": 6,
                "HYBAS_L12": 4120049110.0,
                "Shape_Length": 0.012500000000017053
            },
            "geometry": {
                "type": "LineString",
                "coordinates": [
                    [
                        79.85624999999968,
                        7.347916666666556
                    ],
                    [
                        79.85624999999968,
                        7.335416666666539
                    ]
                ]
            }
        },
        {
            "type": "Feature",
            "properties": {
                "HYRIV_ID": 41404149,
                "NEXT_DOWN": 41404278,
                "MAIN_RIV": 41404278,
                "LENGTH_KM": 0.69,
                "DIST_DN_KM": 5.9,
                "DIST_UP_KM": 2.9,
                "CATCH_SKM": 4.4699998,
                "UPLAND_SKM": 4.5,
                "ENDORHEIC": 0,
                "DIS_AV_CMS": 0.124,
                "ORD_STRA": 1,
                "ORD_CLAS": 2,
                "ORD_FLOW": 7,
                "HYBAS_L12": 4120049110.0,
                "Shape_Length": 0.006249999999965894
            },
            "geometry": {
                "type": "LineString",
                "coordinates": [
                    [
                        79.86249999999964,
                        7.335416666666539
                    ],
                    [
                        79.85624999999968,
                        7.335416666666539
                    ]
                ]
            }
        },
        {
            "type": "Feature",
            "properties": {
                "HYRIV_ID": 41404167,
                "NEXT_DOWN": 41404009,
                "MAIN_RIV": 41404278,
                "LENGTH_KM": 6.46,
                "DIST_DN_KM": 20.200001,
                "DIST_UP_KM": 8.8,
                "CATCH_SKM": 17.879999,
                "UPLAND_SKM": 17.9,
                "ENDORHEIC": 0,
                "DIS_AV_CMS": 0.494,
                "ORD_STRA": 1,
                "ORD_CLAS": 2,
                "ORD_FLOW": 7,
                "HYBAS_L12": 4120049110.0,
                "Shape_Length": 0.05827200572604813
            },
            "geometry": {
                "type": "LineString",
                "coordinates": [
                    [
                        79.94166666666635,
                        7.331249999999876
                    ],
                    [
                        79.93541666666627,
                        7.331249999999876
                    ],
                    [
                        79.91458333333296,
                        7.352083333333219
                    ],
                    [
                        79.91458333333296,
                        7.364583333333194
                    ],
                    [
                        79.9104166666663,
                        7.368749999999899
                    ],
                    [
                        79.9104166666663,
                        7.372916666666548
                    ]
                ]
            }
        },
        {
            "type": "Feature",
            "properties": {
                "HYRIV_ID": 41404278,
                "NEXT_DOWN": 0,
                "MAIN_RIV": 41404278,
                "LENGTH_KM": 5.6500001,
                "DIST_DN_KM": 0.0,
                "DIST_UP_KM": 49.8,
                "CATCH_SKM": 12.56,
                "UPLAND_SKM": 290.39999,
                "ENDORHEIC": 0,
                "DIS_AV_CMS": 7.7410002,
                "ORD_STRA": 3,
                "ORD_CLAS": 1,
                "ORD_FLOW": 6,
                "HYBAS_L12": 4120049110.0,
                "Shape_Length": 0.051011002862999144
            },
            "geometry": {
                "type": "LineString",
                "coordinates": [
                    [
                        79.85624999999968,
                        7.335416666666539
                    ],
                    [
                        79.85624999999968,
                        7.327083333333228
                    ],
                    [
                        79.85208333333301,
                        7.322916666666522
                    ],
                    [
                        79.85208333333301,
                        7.314583333333211
                    ],
                    [
                        79.85624999999968,
                        7.310416666666548
                    ],
                    [
                        79.85624999999968,
                        7.306249999999885
                    ],
                    [
                        79.85208333333301,
                        7.302083333333236
                    ],
                    [
                        79.83958333333297,
                        7.302083333333236
                    ]
                ]
            }
        }
    ]
}