{
    "type": "FeatureCollection",
    "features": [
        {
            "type": "Feature",
            "properties": {
                "HYRIV_ID": 41402727,
                "NEXT_DOWN": 41402728,
                "MAIN_RIV": 41402728,
                "LENGTH_KM": 0.69,
                "DIST_DN_KM": 1.1,
                "DIST_UP_KM": 3.6,
                "CATCH_SKM": 5.3200002,
                "UPLAND_SKM": 5.3,
                "ENDORHEIC": 0,
                "DIS_AV_CMS": 0.124,
                "ORD_STRA": 1,
                "ORD_CLAS": 2,
                "ORD_FLOW": 7,
                "HYBAS_L12": 4120049770.0,
                "Shape_Length": 0.006250000000036948
            },
            "geometry": {
                "type": "LineString",
                "coordinates": [
                    [
                        81.57291666666632,
                        7.733333333333228
                    ],
                    [
                        81.57291666666632,
                        7.727083333333191
                    ]
                ]
            }
        },
        {
            "type": "Feature",
            "properties": {
                "HYRIV_ID": 41402728,
                "NEXT_DOWN": 0,
                "MAIN_RIV": 41402728,
                "LENGTH_KM": 0.92,
                "DIST_DN_KM": 0.0,
                "DIST_UP_KM": 15.4,
                "CATCH_SKM": 1.91,
                "UPLAND_SKM": 79.800003,
                "ENDORHEIC": 0,
                "DIS_AV_CMS": 1.831,
                "ORD_STRA": 2,
                "ORD_CLAS": 1,
                "ORD_FLOW": 6,
                "HYBAS_L12": 4120049770.0,
                "Shape_Length": 0.008333333333325754
            },
            "geometry": {
                "type": "LineString",
                "coordinates": [
                    [
                        81.57291666666632,
                        7.727083333333191
                    ],
                    [
                        81.58124999999964,
                        7.727083333333191
                    ]
                ]
            }
        },
        {
            "type": "Feature",
            "properties": {
                "HYRIV_ID": 41402758,
                "NEXT_DOWN": 41402728,
                "MAIN_RIV": 41402728,
                "LENGTH_KM": 1.12,
                "DIST_DN_KM": 1.1,
                "DIST_UP_KM": 14.5,
                "CATCH_SKM": 2.98,
                "UPLAND_SKM": 73.199997,
                "ENDORHEIC": 0,
                "DIS_AV_CMS": 1.681,
                "ORD_STRA": 2,
                "ORD_CLAS": 1,
                "ORD_FLOW": 6,
                "HYBAS_L12": 4120049770.0,
                "Shape_Length": 0.010059223176575559
            },
            "geometry": {
                "type": "LineString",
                "coordinates": [
                    [
                        81.5687499999996,
                        7.718749999999879
                    ],
                    [
                        81.57291666666632,
                        7.722916666666528
                    ],
                    [
                        81.57291666666632,
                        7.727083333333191
                    ]
                ]
            }
        },
        {
            "type": "Feature",
            "properties": {
                "HYRIV_ID": 41402834,
                "NEXT_DOWN": 41402758,
                "MAIN_RIV": 41402728,
                "LENGTH_KM": 7.9099998,
                "DIST_DN_KM": 2.3,
                "DIST_UP_KM": 10.3,
                "CATCH_SKM": 27.02,
                "UPLAND_SKM": 27.0,
                "ENDORHEIC": 0,
                "DIS_AV_CMS": 0.621,
                "ORD_STRA": 1,
                "ORD_CLAS": 2,
                "ORD_FLOW": 7,
                "HYBAS_L12": 4120049770.0,
                "Shape_Length": 0.07163495064760296
            },
            "geometry": {
                "type": "LineString",
                "coordinates": [
                    [
                        81.50833333333296,
                        7.691666666666556
                    ],
                    [
                        81.52291666666625,
                        7.70625
                    ],
                    [
                        81.52708333333297,
                        7.70625
                    ],
                    [
                        81.53124999999957,
                        7.710416666666553
                    ],
                    [
                        81.54374999999962,
                        7.710416666666553
                    ],
                    [
                        81.54791666666628,
                        7.714583333333216
                    ],
                    [
                        81.56041666666627,
                        7.714583333333216
                    ],
                    [
                        81.56458333333293,
                        7.718749999999879
                    ],
                    [
                        81.5687499999996,
                        7.718749999999879
                    ]
                ]
            }
        },
        {
            "type": "Feature",
            "properties": {
                "HYRIV_ID": 41402986,
                "NEXT_DOWN": 41402758,
                "MAIN_RIV": 41402728,
                "LENGTH_KM": 10.53,
                "DIST_DN_KM": 2.3,
                "DIST_UP_KM": 13.4,
                "CATCH_SKM": 43.189999,
                "UPLAND_SKM": 43.200001,
                "ENDORHEIC": 0,
                "DIS_AV_CMS": 0.99400002,
                "ORD_STRA": 1,
                "ORD_CLAS": 1,
                "ORD_FLOW": 7,
                "HYBAS_L12": 4120049770.0,
                "Shape_Length": 0.09505711874576306
            },
            "geometry": {
                "type": "LineString",
                "coordinates": [
                    [
                        81.52499999999966,
                        7.656249999999879
                    ],
                    [
                        81.53124999999957,
                        7.656249999999879
                    ],
                    [
                        81.53958333333296,
                        7.664583333333191
                    ],
                    [
                        81.53958333333296,
                        7.668749999999896
                    ],
                    [
                        81.54374999999962,
                        7.672916666666545
                    ],
                    [
                        81.54791666666628,
                        7.672916666666545
                    ],
                    [
                        81.55208333333294,
                        7.677083333333208
                    ],
                    [
                        81.55208333333294,
                        7.685416666666519
                    ],
                    [
                        81.56041666666627,
                        7.693749999999888
                    ],
                    [
                        81.5687499999996,
                        7.693749999999888
                    ],
                    [
                        81.5687499999996,
                        7.702083333333199
                    ],
                    [
                        81.57291666666632,
                        7.70625
                    ],
                    [
                        81.5687499999996,
                        7.710416666666553
                    ],
                    [
                        81.5687499999996,
                        7.718749999999879
                    ]
                ]
            }
        }
    ]
}