{
    "type": "FeatureCollection",
    "features": [
        {
            "type": "Feature",
            "properties": {
                "HYRIV_ID": 41407628,
                "NEXT_DOWN": 41407704,
                "MAIN_RIV": 41408073,
                "LENGTH_KM": 1.81,
                "DIST_DN_KM": 17.8,
                "DIST_UP_KM": 5.9,
                "CATCH_SKM": 17.700001,
                "UPLAND_SKM": 17.700001,
                "ENDORHEIC": 0,
                "DIS_AV_CMS": 0.27500001,
                "ORD_STRA": 1,
                "ORD_CLAS": 2,
                "ORD_FLOW": 7,
                "HYBAS_L12": 4120050000.0,
                "Shape_Length": 0.016309223176555664
            },
            "geometry": {
                "type": "LineString",
                "coordinates": [
                    [
                        81.54791666666628,
                        6.554166666666568
                    ],
                    [
                        81.54791666666628,
                        6.54375
                    ],
                    [
                        81.55208333333294,
                        6.539583333333219
                    ]
                ]
            }
        },
        {
            "type": "Feature",
            "properties": {
                "HYRIV_ID": 41407644,
                "NEXT_DOWN": 41407704,
                "MAIN_RIV": 41408073,
                "LENGTH_KM": 4.39,
                "DIST_DN_KM": 17.6,
                "DIST_UP_KM": 7.4,
                "CATCH_SKM": 17.49,
                "UPLAND_SKM": 17.5,
                "ENDORHEIC": 0,
                "DIS_AV_CMS": 0.273,
                "ORD_STRA": 1,
                "ORD_CLAS": 1,
                "ORD_FLOW": 7,
                "HYBAS_L12": 4120050000.0,
                "Shape_Length": 0.039731391274737
            },
            "geometry": {
                "type": "LineString",
                "coordinates": [
                    [
                        81.51666666666628,
                        6.541666666666551
                    ],
                    [
                        81.52291666666625,
                        6.535416666666556
                    ],
                    [
                        81.52708333333297,
                        6.535416666666556
                    ],
                    [
                        81.53124999999957,
                        6.539583333333219
                    ],
                    [
                        81.55208333333294,
                        6.539583333333219
                    ]
                ]
            }
        },
        {
            "type": "Feature",
            "properties": {
                "HYRIV_ID": 41407704,
                "NEXT_DOWN": 41408073,
                "MAIN_RIV": 41408073,
                "LENGTH_KM": 3.34,
                "DIST_DN_KM": 14.3,
                "DIST_UP_KM": 10.8,
                "CATCH_SKM": 10.24,
                "UPLAND_SKM": 45.400002,
                "ENDORHEIC": 0,
                "DIS_AV_CMS": 0.68900001,
                "ORD_STRA": 2,
                "ORD_CLAS": 1,
                "ORD_FLOW": 7,
                "HYBAS_L12": 4120050000.0,
                "Shape_Length": 0.03017766952971318
            },
            "geometry": {
                "type": "LineString",
                "coordinates": [
                    [
                        81.55208333333294,
                        6.539583333333219
                    ],
                    [
                        81.55208333333294,
                        6.535416666666556
                    ],
                    [
                        81.56458333333293,
                        6.522916666666539
                    ],
                    [
                        81.57291666666632,
                        6.522916666666539
                    ]
                ]
            }
        },
        {
            "type": "Feature",
            "properties": {
                "HYRIV_ID": 41407705,
                "NEXT_DOWN": 41408073,
                "MAIN_RIV": 41408073,
                "LENGTH_KM": 0.69,
                "DIST_DN_KM": 14.3,
                "DIST_UP_KM": 5.8,
                "CATCH_SKM": 10.66,
                "UPLAND_SKM": 10.7,
                "ENDORHEIC": 0,
                "DIS_AV_CMS": 0.159,
                "ORD_STRA": 1,
                "ORD_CLAS": 2,
                "ORD_FLOW": 7,
                "HYBAS_L12": 4120050000.0,
                "Shape_Length": 0.006250000000036948
            },
            "geometry": {
                "type": "LineString",
                "coordinates": [
                    [
                        81.57291666666632,
                        6.529166666666576
                    ],
                    [
                        81.57291666666632,
                        6.522916666666539
                    ]
                ]
            }
        },
        {
            "type": "Feature",
            "properties": {
                "HYRIV_ID": 41408073,
                "NEXT_DOWN": 0,
                "MAIN_RIV": 41408073,
                "LENGTH_KM": 14.04,
                "DIST_DN_KM": 0.0,
                "DIST_UP_KM": 24.8,
                "CATCH_SKM": 52.040001,
                "UPLAND_SKM": 107.9,
                "ENDORHEIC": 0,
                "DIS_AV_CMS": 1.329,
                "ORD_STRA": 2,
                "ORD_CLAS": 1,
                "ORD_FLOW": 6,
                "HYBAS_L12": 4120050000.0,
                "Shape_Length": 0.12660323462845663
            },
            "geometry": {
                "type": "LineString",
                "coordinates": [
                    [
                        81.57291666666632,
                        6.522916666666539
                    ],
                    [
                        81.5854166666663,
                        6.510416666666565
                    ],
                    [
                        81.59374999999963,
                        6.510416666666565
                    ],
                    [
                        81.59791666666635,
                        6.50625
                    ],
                    [
                        81.59791666666635,
                        6.489583333333236
                    ],
                    [
                        81.60624999999968,
                        6.48125
                    ],
                    [
                        81.60624999999968,
                        6.477083333333219
                    ],
                    [
                        81.614583333333,
                        6.46875
                    ],
                    [
                        81.614583333333,
                        6.464583333333245
                    ],
                    [
                        81.62291666666638,
                        6.45625
                    ],
                    [
                        81.62708333333305,
                        6.45625
                    ],
                    [
                        81.6312499999996,
                        6.460416666666582
                    ],
                    [
                        81.63541666666626,
                        6.45625
                    ],
                    [
                        81.63541666666626,
                        6.452083333333228
                    ],
                    [
                        81.6312499999996,
                        6.447916666666565
                    ],
                    [
                        81.6312499999996,
                        6.439583333333253
                    ]
                ]
            }
        }
    ]
}