{
    "type": "FeatureCollection",
    "features": [
        {
            "type": "Feature",
            "properties": {
                "HYRIV_ID": 41405523,
                "NEXT_DOWN": 41405546,
                "MAIN_RIV": 41406267,
                "LENGTH_KM": 9.1400003,
                "DIST_DN_KM": 56.5,
                "DIST_UP_KM": 11.6,
                "CATCH_SKM": 28.549999,
                "UPLAND_SKM": 28.5,
                "ENDORHEIC": 0,
                "DIS_AV_CMS": 0.60399997,
                "ORD_STRA": 1,
                "ORD_CLAS": 2,
                "ORD_FLOW": 7,
                "HYBAS_L12": 4121601990.0,
                "Shape_Length": 0.08255711874576407
            },
            "geometry": {
                "type": "LineString",
                "coordinates": [
                    [
                        81.44583333333296,
                        7.031249999999879
                    ],
                    [
                        81.45208333333298,
                        7.031249999999879
                    ],
                    [
                        81.45208333333298,
                        7.027083333333231
                    ],
                    [
                        81.45624999999964,
                        7.022916666666568
                    ],
                    [
                        81.4604166666663,
                        7.022916666666568
                    ],
                    [
                        81.48124999999968,
                        7.002083333333239
                    ],
                    [
                        81.48541666666634,
                        7.002083333333239
                    ],
                    [
                        81.48541666666634,
                        6.989583333333222
                    ],
                    [
                        81.489583333333,
                        6.985416666666559
                    ],
                    [
                        81.49374999999972,
                        6.985416666666559
                    ],
                    [
                        81.49791666666627,
                        6.981249999999896
                    ]
                ]
            }
        },
        {
            "type": "Feature",
            "properties": {
                "HYRIV_ID": 41405545,
                "NEXT_DOWN": 41405546,
                "MAIN_RIV": 41406267,
                "LENGTH_KM": 2.26,
                "DIST_DN_KM": 56.5,
                "DIST_UP_KM": 6.1,
                "CATCH_SKM": 11.72,
                "UPLAND_SKM": 11.7,
                "ENDORHEIC": 0,
                "DIS_AV_CMS": 0.242,
                "ORD_STRA": 1,
                "ORD_CLAS": 3,
                "ORD_FLOW": 7,
                "HYBAS_L12": 4121601990.0,
                "Shape_Length": 0.020475889843254276
            },
            "geometry": {
                "type": "LineString",
                "coordinates": [
                    [
                        81.47916666666626,
                        6.977083333333248
                    ],
                    [
                        81.49374999999972,
                        6.977083333333248
                    ],
                    [
                        81.49791666666627,
                        6.981249999999896
                    ]
                ]
            }
        },
        {
            "type": "Feature",
            "properties": {
                "HYRIV_ID": 41405546,
                "NEXT_DOWN": 41405776,
                "MAIN_RIV": 41406267,
                "LENGTH_KM": 0.65,
                "DIST_DN_KM": 55.8,
                "DIST_UP_KM": 12.3,
                "CATCH_SKM": 0.21,
                "UPLAND_SKM": 40.5,
                "ENDORHEIC": 0,
                "DIS_AV_CMS": 0.84899998,
                "ORD_STRA": 2,
                "ORD_CLAS": 2,
                "ORD_FLOW": 7,
                "HYBAS_L12": 4121601990.0,
                "Shape_Length": 0.005892556509872488
            },
            "geometry": {
                "type": "LineString",
                "coordinates": [
                    [
                        81.49791666666627,
                        6.981249999999896
                    ],
                    [
                        81.50208333333293,
                        6.977083333333248
                    ]
                ]
            }
        },
        {
            "type": "Feature",
            "properties": {
                "HYRIV_ID": 41405547,
                "NEXT_DOWN": 41405776,
                "MAIN_RIV": 41406267,
                "LENGTH_KM": 2.74,
                "DIST_DN_KM": 55.8,
                "DIST_UP_KM": 6.5,
                "CATCH_SKM": 17.040001,
                "UPLAND_SKM": 17.0,
                "ENDORHEIC": 0,
                "DIS_AV_CMS": 0.347,
                "ORD_STRA": 1,
                "ORD_CLAS": 3,
                "ORD_FLOW": 7,
                "HYBAS_L12": 4121601990.0,
                "Shape_Length": 0.024642556509883857
            },
            "geometry": {
                "type": "LineString",
                "coordinates": [
                    [
                        81.5062499999996,
                        7.0
                    ],
                    [
                        81.5062499999996,
                        6.981249999999896
                    ],
                    [
                        81.50208333333293,
                        6.977083333333248
                    ]
                ]
            }
        },
        {
            "type": "Feature",
            "properties": {
                "HYRIV_ID": 41405586,
                "NEXT_DOWN": 41405625,
                "MAIN_RIV": 41406267,
                "LENGTH_KM": 2.26,
                "DIST_DN_KM": 69.0,
                "DIST_UP_KM": 6.0,
                "CATCH_SKM": 14.7,
                "UPLAND_SKM": 14.7,
                "ENDORHEIC": 0,
                "DIS_AV_CMS": 0.31600001,
                "ORD_STRA": 1,
                "ORD_CLAS": 2,
                "ORD_FLOW": 7,
                "HYBAS_L12": 4121601970.0,
                "Shape_Length": 0.020475889843157534
            },
            "geometry": {
                "type": "LineString",
                "coordinates": [
                    [
                        81.39999999999966,
                        6.972916666666542
                    ],
                    [
                        81.40624999999957,
                        6.972916666666542
                    ],
                    [
                        81.4104166666663,
                        6.968749999999879
                    ],
                    [
                        81.41874999999962,
                        6.968749999999879
                    ]
                ]
            }
        },
        {
            "type": "Feature",
            "properties": {
                "HYRIV_ID": 41405587,
                "NEXT_DOWN": 41405625,
                "MAIN_RIV": 41406267,
                "LENGTH_KM": 4.2199998,
                "DIST_DN_KM": 69.0,
                "DIST_UP_KM": 7.2,
                "CATCH_SKM": 13.42,
                "UPLAND_SKM": 13.4,
                "ENDORHEIC": 0,
                "DIS_AV_CMS": 0.288,
                "ORD_STRA": 1,
                "ORD_CLAS": 1,
                "ORD_FLOW": 7,
                "HYBAS_L12": 4121601970.0,
                "Shape_Length": 0.03800550143158108
            },
            "geometry": {
                "type": "LineString",
                "coordinates": [
                    [
                        81.4249999999997,
                        7.004166666666571
                    ],
                    [
                        81.41874999999962,
                        6.997916666666576
                    ],
                    [
                        81.41874999999962,
                        6.968749999999879
                    ]
                ]
            }
        },
        {
            "type": "Feature",
            "properties": {
                "HYRIV_ID": 41405625,
                "NEXT_DOWN": 41405673,
                "MAIN_RIV": 41406267,
                "LENGTH_KM": 2.23,
                "DIST_DN_KM": 66.699997,
                "DIST_UP_KM": 9.5,
                "CATCH_SKM": 3.62,
                "UPLAND_SKM": 31.700001,
                "ENDORHEIC": 0,
                "DIS_AV_CMS": 0.677,
                "ORD_STRA": 2,
                "ORD_CLAS": 1,
                "ORD_FLOW": 7,
                "HYBAS_L12": 4121601970.0,
                "Shape_Length": 0.020118446353080778
            },
            "geometry": {
                "type": "LineString",
                "coordinates": [
                    [
                        81.41874999999962,
                        6.968749999999879
                    ],
                    [
                        81.42708333333294,
                        6.960416666666568
                    ],
                    [
                        81.43541666666627,
                        6.960416666666568
                    ]
                ]
            }
        },
        {
            "type": "Feature",
            "properties": {
                "HYRIV_ID": 41405626,
                "NEXT_DOWN": 41405673,
                "MAIN_RIV": 41406267,
                "LENGTH_KM": 2.74,
                "DIST_DN_KM": 66.900002,
                "DIST_UP_KM": 5.7,
                "CATCH_SKM": 12.14,
                "UPLAND_SKM": 12.1,
                "ENDORHEIC": 0,
                "DIS_AV_CMS": 0.257,
                "ORD_STRA": 1,
                "ORD_CLAS": 2,
                "ORD_FLOW": 7,
                "HYBAS_L12": 4121601970.0,
                "Shape_Length": 0.024642556509919887
            },
            "geometry": {
                "type": "LineString",
                "coordinates": [
                    [
                        81.43958333333299,
                        6.983333333333228
                    ],
                    [
                        81.43958333333299,
                        6.964583333333231
                    ],
                    [
                        81.43541666666627,
                        6.960416666666568
                    ]
                ]
            }
        },
        {
            "type": "Feature",
            "properties": {
                "HYRIV_ID": 41405672,
                "NEXT_DOWN": 41405816,
                "MAIN_RIV": 41406267,
                "LENGTH_KM": 1.15,
                "DIST_DN_KM": 65.400002,
                "DIST_UP_KM": 3.8,
                "CATCH_SKM": 7.6700001,
                "UPLAND_SKM": 7.7,
                "ENDORHEIC": 0,
                "DIS_AV_CMS": 0.162,
                "ORD_STRA": 1,
                "ORD_CLAS": 2,
                "ORD_FLOW": 7,
                "HYBAS_L12": 4121601970.0,
                "Shape_Length": 0.010416666666571928
            },
            "geometry": {
                "type": "LineString",
                "coordinates": [
                    [
                        81.4249999999997,
                        6.947916666666593
                    ],
                    [
                        81.43541666666627,
                        6.947916666666593
                    ]
                ]
            }
        },
        {
            "type": "Feature",
            "properties": {
                "HYRIV_ID": 41405673,
                "NEXT_DOWN": 41405816,
                "MAIN_RIV": 41406267,
                "LENGTH_KM": 1.39,
                "DIST_DN_KM": 65.400002,
                "DIST_UP_KM": 10.9,
                "CATCH_SKM": 1.92,
                "UPLAND_SKM": 45.8,
                "ENDORHEIC": 0,
                "DIS_AV_CMS": 0.97100002,
                "ORD_STRA": 2,
                "ORD_CLAS": 1,
                "ORD_FLOW": 7,
                "HYBAS_L12": 4121601970.0,
                "Shape_Length": 0.01249999999997442
            },
            "geometry": {
                "type": "LineString",
                "coordinates": [
                    [
                        81.43541666666627,
                        6.960416666666568
                    ],
                    [
                        81.43541666666627,
                        6.947916666666593
                    ]
                ]
            }
        },
        {
            "type": "Feature",
            "properties": {
                "HYRIV_ID": 41405716,
                "NEXT_DOWN": 41405797,
                "MAIN_RIV": 41406267,
                "LENGTH_KM": 0.69,
                "DIST_DN_KM": 54.700001,
                "DIST_UP_KM": 3.3,
                "CATCH_SKM": 7.25,
                "UPLAND_SKM": 7.2,
                "ENDORHEIC": 0,
                "DIS_AV_CMS": 0.148,
                "ORD_STRA": 1,
                "ORD_CLAS": 2,
                "ORD_FLOW": 7,
                "HYBAS_L12": 4121601990.0,
                "Shape_Length": 0.006250000000079581
            },
            "geometry": {
                "type": "LineString",
                "coordinates": [
                    [
                        81.4749999999996,
                        6.939583333333225
                    ],
                    [
                        81.48124999999968,
                        6.939583333333225
                    ]
                ]
            }
        },
        {
            "type": "Feature",
            "properties": {
                "HYRIV_ID": 41405775,
                "NEXT_DOWN": 41405797,
                "MAIN_RIV": 41406267,
                "LENGTH_KM": 1.77,
                "DIST_DN_KM": 54.900002,
                "DIST_UP_KM": 21.4,
                "CATCH_SKM": 1.92,
                "UPLAND_SKM": 160.2,
                "ENDORHEIC": 0,
                "DIS_AV_CMS": 3.2520001,
                "ORD_STRA": 3,
                "ORD_CLAS": 1,
                "ORD_FLOW": 6,
                "HYBAS_L12": 4121601990.0,
                "Shape_Length": 0.015951779686460534
            },
            "geometry": {
                "type": "LineString",
                "coordinates": [
                    [
                        81.47291666666635,
                        6.927083333333208
                    ],
                    [
                        81.47708333333301,
                        6.931249999999871
                    ],
                    [
                        81.47708333333301,
                        6.935416666666576
                    ],
                    [
                        81.48124999999968,
                        6.939583333333225
                    ]
                ]
            }
        },
        {
            "type": "Feature",
            "properties": {
                "HYRIV_ID": 41405776,
                "NEXT_DOWN": 41405798,
                "MAIN_RIV": 41406267,
                "LENGTH_KM": 6.3200002,
                "DIST_DN_KM": 49.3,
                "DIST_UP_KM": 18.8,
                "CATCH_SKM": 21.73,
                "UPLAND_SKM": 79.300003,
                "ENDORHEIC": 0,
                "DIS_AV_CMS": 1.569,
                "ORD_STRA": 2,
                "ORD_CLAS": 2,
                "ORD_FLOW": 6,
                "HYBAS_L12": 4121601990.0,
                "Shape_Length": 0.05690355937303068
            },
            "geometry": {
                "type": "LineString",
                "coordinates": [
                    [
                        81.50208333333293,
                        6.977083333333248
                    ],
                    [
                        81.51041666666626,
                        6.968749999999879
                    ],
                    [
                        81.51041666666626,
                        6.964583333333231
                    ],
                    [
                        81.51458333333292,
                        6.960416666666568
                    ],
                    [
                        81.51458333333292,
                        6.939583333333225
                    ],
                    [
                        81.51874999999976,
                        6.935416666666576
                    ],
                    [
                        81.51874999999976,
                        6.927083333333208
                    ]
                ]
            }
        },
        {
            "type": "Feature",
            "properties": {
                "HYRIV_ID": 41405797,
                "NEXT_DOWN": 41405798,
                "MAIN_RIV": 41406267,
                "LENGTH_KM": 5.37,
                "DIST_DN_KM": 49.3,
                "DIST_UP_KM": 26.9,
                "CATCH_SKM": 19.610001,
                "UPLAND_SKM": 187.10001,
                "ENDORHEIC": 0,
                "DIS_AV_CMS": 3.7049999,
                "ORD_STRA": 3,
                "ORD_CLAS": 1,
                "ORD_FLOW": 6,
                "HYBAS_L12": 4121601990.0,
                "Shape_Length": 0.048570226039637746
            },
            "geometry": {
                "type": "LineString",
                "coordinates": [
                    [
                        81.48124999999968,
                        6.939583333333225
                    ],
                    [
                        81.489583333333,
                        6.931249999999871
                    ],
                    [
                        81.489583333333,
                        6.927083333333208
                    ],
                    [
                        81.49374999999972,
                        6.922916666666559
                    ],
                    [
                        81.49791666666627,
                        6.927083333333208
                    ],
                    [
                        81.51874999999976,
                        6.927083333333208
                    ]
                ]
            }
        },
        {
            "type": "Feature",
            "properties": {
                "HYRIV_ID": 41405798,
                "NEXT_DOWN": 41405888,
                "MAIN_RIV": 41406267,
                "LENGTH_KM": 2.4200001,
                "DIST_DN_KM": 47.099998,
                "DIST_UP_KM": 29.1,
                "CATCH_SKM": 5.75,
                "UPLAND_SKM": 272.10001,
                "ENDORHEIC": 0,
                "DIS_AV_CMS": 5.3070002,
                "ORD_STRA": 3,
                "ORD_CLAS": 1,
                "ORD_FLOW": 6,
                "HYBAS_L12": 4121601990.0,
                "Shape_Length": 0.0218443361962367
            },
            "geometry": {
                "type": "LineString",
                "coordinates": [
                    [
                        81.51874999999976,
                        6.927083333333208
                    ],
                    [
                        81.52291666666625,
                        6.931249999999871
                    ],
                    [
                        81.52708333333297,
                        6.931249999999871
                    ],
                    [
                        81.5354166666663,
                        6.922916666666559
                    ]
                ]
            }
        },
        {
            "type": "Feature",
            "properties": {
                "HYRIV_ID": 41405799,
                "NEXT_DOWN": 41405888,
                "MAIN_RIV": 41406267,
                "LENGTH_KM": 1.4400001,
                "DIST_DN_KM": 46.900002,
                "DIST_UP_KM": 4.9,
                "CATCH_SKM": 7.6700001,
                "UPLAND_SKM": 7.7,
                "ENDORHEIC": 0,
                "DIS_AV_CMS": 0.148,
                "ORD_STRA": 1,
                "ORD_CLAS": 2,
                "ORD_FLOW": 7,
                "HYBAS_L12": 4121601990.0,
                "Shape_Length": 0.013005501431492568
            },
            "geometry": {
                "type": "LineString",
                "coordinates": [
                    [
                        81.54166666666632,
                        6.933333333333202
                    ],
                    [
                        81.5354166666663,
                        6.927083333333208
                    ],
                    [
                        81.5354166666663,
                        6.922916666666559
                    ]
                ]
            }
        },
        {
            "type": "Feature",
            "properties": {
                "HYRIV_ID": 41405816,
                "NEXT_DOWN": 41405817,
                "MAIN_RIV": 41406267,
                "LENGTH_KM": 5.1900001,
                "DIST_DN_KM": 60.200001,
                "DIST_UP_KM": 16.0,
                "CATCH_SKM": 14.49,
                "UPLAND_SKM": 68.0,
                "ENDORHEIC": 0,
                "DIS_AV_CMS": 1.415,
                "ORD_STRA": 2,
                "ORD_CLAS": 1,
                "ORD_FLOW": 6,
                "HYBAS_L12": 4121601970.0,
                "Shape_Length": 0.04684433619645685
            },
            "geometry": {
                "type": "LineString",
                "coordinates": [
                    [
                        81.43541666666627,
                        6.947916666666593
                    ],
                    [
                        81.43958333333299,
                        6.943749999999888
                    ],
                    [
                        81.43958333333299,
                        6.927083333333208
                    ],
                    [
                        81.43541666666627,
                        6.922916666666559
                    ],
                    [
                        81.43958333333299,
                        6.918749999999896
                    ],
                    [
                        81.45208333333298,
                        6.918749999999896
                    ]
                ]
            }
        },
        {
            "type": "Feature",
            "properties": {
                "HYRIV_ID": 41405817,
                "NEXT_DOWN": 41405775,
                "MAIN_RIV": 41406267,
                "LENGTH_KM": 3.73,
                "DIST_DN_KM": 56.400002,
                "DIST_UP_KM": 19.8,
                "CATCH_SKM": 7.8800001,
                "UPLAND_SKM": 134.0,
                "ENDORHEIC": 0,
                "DIS_AV_CMS": 2.747,
                "ORD_STRA": 3,
                "ORD_CLAS": 1,
                "ORD_FLOW": 6,
                "HYBAS_L12": 4121601970.0,
                "Shape_Length": 0.033629449216165994
            },
            "geometry": {
                "type": "LineString",
                "coordinates": [
                    [
                        81.45208333333298,
                        6.918749999999896
                    ],
                    [
                        81.46874999999969,
                        6.935416666666576
                    ],
                    [
                        81.47291666666635,
                        6.931249999999871
                    ],
                    [
                        81.47291666666635,
                        6.927083333333208
                    ]
                ]
            }
        },
        {
            "type": "Feature",
            "properties": {
                "HYRIV_ID": 41405864,
                "NEXT_DOWN": 41405920,
                "MAIN_RIV": 41406267,
                "LENGTH_KM": 2.09,
                "DIST_DN_KM": 68.800003,
                "DIST_UP_KM": 4.2,
                "CATCH_SKM": 7.25,
                "UPLAND_SKM": 7.2,
                "ENDORHEIC": 0,
                "DIS_AV_CMS": 0.154,
                "ORD_STRA": 1,
                "ORD_CLAS": 3,
                "ORD_FLOW": 7,
                "HYBAS_L12": 4121601970.0,
                "Shape_Length": 0.018898057941355722
            },
            "geometry": {
                "type": "LineString",
                "coordinates": [
                    [
                        81.38749999999968,
                        6.920833333333228
                    ],
                    [
                        81.39791666666625,
                        6.910416666666585
                    ],
                    [
                        81.40208333333297,
                        6.910416666666585
                    ]
                ]
            }
        },
        {
            "type": "Feature",
            "properties": {
                "HYRIV_ID": 41405865,
                "NEXT_DOWN": 41405920,
                "MAIN_RIV": 41406267,
                "LENGTH_KM": 2.37,
                "DIST_DN_KM": 68.800003,
                "DIST_UP_KM": 4.9,
                "CATCH_SKM": 8.5200005,
                "UPLAND_SKM": 8.5,
                "ENDORHEIC": 0,
                "DIS_AV_CMS": 0.181,
                "ORD_STRA": 1,
                "ORD_CLAS": 2,
                "ORD_FLOW": 7,
                "HYBAS_L12": 4121601970.0,
                "Shape_Length": 0.02133883476476808
            },
            "geometry": {
                "type": "LineString",
                "coordinates": [
                    [
                        81.395833333333,
                        6.929166666666539
                    ],
                    [
                        81.40208333333297,
                        6.922916666666559
                    ],
                    [
                        81.40208333333297,
                        6.910416666666585
                    ]
                ]
            }
        },
        {
            "type": "Feature",
            "properties": {
                "HYRIV_ID": 41405888,
                "NEXT_DOWN": 41406061,
                "MAIN_RIV": 41406267,
                "LENGTH_KM": 2.8800001,
                "DIST_DN_KM": 44.200001,
                "DIST_UP_KM": 32.0,
                "CATCH_SKM": 12.36,
                "UPLAND_SKM": 292.10001,
                "ENDORHEIC": 0,
                "DIS_AV_CMS": 5.585,
                "ORD_STRA": 3,
                "ORD_CLAS": 1,
                "ORD_FLOW": 6,
                "HYBAS_L12": 4121601990.0,
                "Shape_Length": 0.026011002863001783
            },
            "geometry": {
                "type": "LineString",
                "coordinates": [
                    [
                        81.5354166666663,
                        6.922916666666559
                    ],
                    [
                        81.54374999999962,
                        6.914583333333233
                    ],
                    [
                        81.54374999999962,
                        6.906249999999879
                    ],
                    [
                        81.54791666666628,
                        6.902083333333216
                    ]
                ]
            }
        },
        {
            "type": "Feature",
            "properties": {
                "HYRIV_ID": 41405898,
                "NEXT_DOWN": 41405817,
                "MAIN_RIV": 41406267,
                "LENGTH_KM": 3.54,
                "DIST_DN_KM": 60.200001,
                "DIST_UP_KM": 13.6,
                "CATCH_SKM": 8.7399998,
                "UPLAND_SKM": 58.200001,
                "ENDORHEIC": 0,
                "DIS_AV_CMS": 1.193,
                "ORD_STRA": 2,
                "ORD_CLAS": 2,
                "ORD_FLOW": 6,
                "HYBAS_L12": 4121601970.0,
                "Shape_Length": 0.03190355937290615
            },
            "geometry": {
                "type": "LineString",
                "coordinates": [
                    [
                        81.43124999999961,
                        6.897916666666568
                    ],
                    [
                        81.44374999999965,
                        6.910416666666585
                    ],
                    [
                        81.44791666666632,
                        6.910416666666585
                    ],
                    [
                        81.45208333333298,
                        6.914583333333233
                    ],
                    [
                        81.45208333333298,
                        6.918749999999896
                    ]
                ]
            }
        },
        {
            "type": "Feature",
            "properties": {
                "HYRIV_ID": 41405899,
                "NEXT_DOWN": 41406061,
                "MAIN_RIV": 41406267,
                "LENGTH_KM": 3.01,
                "DIST_DN_KM": 44.0,
                "DIST_UP_KM": 5.8,
                "CATCH_SKM": 8.9499998,
                "UPLAND_SKM": 8.9,
                "ENDORHEIC": 0,
                "DIS_AV_CMS": 0.169,
                "ORD_STRA": 1,
                "ORD_CLAS": 2,
                "ORD_FLOW": 7,
                "HYBAS_L12": 4121601990.0,
                "Shape_Length": 0.02723139127467143
            },
            "geometry": {
                "type": "LineString",
                "coordinates": [
                    [
                        81.52499999999966,
                        6.904166666666548
                    ],
                    [
                        81.53124999999957,
                        6.897916666666568
                    ],
                    [
                        81.53958333333296,
                        6.897916666666568
                    ],
                    [
                        81.54374999999962,
                        6.902083333333216
                    ],
                    [
                        81.54791666666628,
                        6.902083333333216
                    ]
                ]
            }
        },
        {
            "type": "Feature",
            "properties": {
                "HYRIV_ID": 41405920,
                "NEXT_DOWN": 41405898,
                "MAIN_RIV": 41406267,
                "LENGTH_KM": 5.1100001,
                "DIST_DN_KM": 63.900002,
                "DIST_UP_KM": 9.8,
                "CATCH_SKM": 16.84,
                "UPLAND_SKM": 32.599998,
                "ENDORHEIC": 0,
                "DIS_AV_CMS": 0.68,
                "ORD_STRA": 2,
                "ORD_CLAS": 2,
                "ORD_FLOW": 7,
                "HYBAS_L12": 4121601970.0,
                "Shape_Length": 0.04612944921607667
            },
            "geometry": {
                "type": "LineString",
                "coordinates": [
                    [
                        81.40208333333297,
                        6.910416666666585
                    ],
                    [
                        81.40208333333297,
                        6.902083333333216
                    ],
                    [
                        81.4104166666663,
                        6.89375
                    ],
                    [
                        81.41458333333296,
                        6.89375
                    ],
                    [
                        81.42291666666628,
                        6.902083333333216
                    ],
                    [
                        81.42708333333294,
                        6.902083333333216
                    ],
                    [
                        81.43124999999961,
                        6.897916666666568
                    ]
                ]
            }
        },
        {
            "type": "Feature",
            "properties": {
                "HYRIV_ID": 41405956,
                "NEXT_DOWN": 41406137,
                "MAIN_RIV": 41406267,
                "LENGTH_KM": 7.21,
                "DIST_DN_KM": 28.200001,
                "DIST_UP_KM": 10.7,
                "CATCH_SKM": 22.59,
                "UPLAND_SKM": 22.6,
                "ENDORHEIC": 0,
                "DIS_AV_CMS": 0.403,
                "ORD_STRA": 1,
                "ORD_CLAS": 2,
                "ORD_FLOW": 7,
                "HYBAS_L12": 4121602000.0,
                "Shape_Length": 0.06502750715745939
            },
            "geometry": {
                "type": "LineString",
                "coordinates": [
                    [
                        81.59583333333293,
                        6.920833333333228
                    ],
                    [
                        81.60624999999968,
                        6.910416666666585
                    ],
                    [
                        81.61041666666634,
                        6.914583333333233
                    ],
                    [
                        81.614583333333,
                        6.910416666666585
                    ],
                    [
                        81.61874999999966,
                        6.910416666666585
                    ],
                    [
                        81.62291666666638,
                        6.906249999999879
                    ],
                    [
                        81.62291666666638,
                        6.89375
                    ],
                    [
                        81.6312499999996,
                        6.885416666666551
                    ],
                    [
                        81.63541666666626,
                        6.885416666666551
                    ]
                ]
            }
        },
        {
            "type": "Feature",
            "properties": {
                "HYRIV_ID": 41406001,
                "NEXT_DOWN": 41405775,
                "MAIN_RIV": 41406267,
                "LENGTH_KM": 7.3,
                "DIST_DN_KM": 56.400002,
                "DIST_UP_KM": 10.5,
                "CATCH_SKM": 24.3,
                "UPLAND_SKM": 24.3,
                "ENDORHEIC": 0,
                "DIS_AV_CMS": 0.48,
                "ORD_STRA": 1,
                "ORD_CLAS": 2,
                "ORD_FLOW": 7,
                "HYBAS_L12": 4121601970.0,
                "Shape_Length": 0.06574239413774395
            },
            "geometry": {
                "type": "LineString",
                "coordinates": [
                    [
                        81.44999999999962,
                        6.870833333333245
                    ],
                    [
                        81.45624999999964,
                        6.877083333333225
                    ],
                    [
                        81.45624999999964,
                        6.881249999999888
                    ],
                    [
                        81.4604166666663,
                        6.885416666666551
                    ],
                    [
                        81.4604166666663,
                        6.889583333333242
                    ],
                    [
                        81.46458333333297,
                        6.89375
                    ],
                    [
                        81.46458333333297,
                        6.897916666666568
                    ],
                    [
                        81.46874999999969,
                        6.902083333333216
                    ],
                    [
                        81.46874999999969,
                        6.910416666666585
                    ],
                    [
                        81.47291666666635,
                        6.914583333333233
                    ],
                    [
                        81.47291666666635,
                        6.927083333333208
                    ]
                ]
            }
        },
        {
            "type": "Feature",
            "properties": {
                "HYRIV_ID": 41406020,
                "NEXT_DOWN": 41405898,
                "MAIN_RIV": 41406267,
                "LENGTH_KM": 4.23,
                "DIST_DN_KM": 63.700001,
                "DIST_UP_KM": 7.2,
                "CATCH_SKM": 16.84,
                "UPLAND_SKM": 16.8,
                "ENDORHEIC": 0,
                "DIS_AV_CMS": 0.343,
                "ORD_STRA": 1,
                "ORD_CLAS": 3,
                "ORD_FLOW": 7,
                "HYBAS_L12": 4121601970.0,
                "Shape_Length": 0.038153559372898736
            },
            "geometry": {
                "type": "LineString",
                "coordinates": [
                    [
                        81.41458333333296,
                        6.866666666666539
                    ],
                    [
                        81.41458333333296,
                        6.877083333333225
                    ],
                    [
                        81.43124999999961,
                        6.89375
                    ],
                    [
                        81.43124999999961,
                        6.897916666666568
                    ]
                ]
            }
        },
        {
            "type": "Feature",
            "properties": {
                "HYRIV_ID": 41406021,
                "NEXT_DOWN": 41406022,
                "MAIN_RIV": 41406267,
                "LENGTH_KM": 1.4400001,
                "DIST_DN_KM": 33.3,
                "DIST_UP_KM": 4.9,
                "CATCH_SKM": 7.46,
                "UPLAND_SKM": 7.5,
                "ENDORHEIC": 0,
                "DIS_AV_CMS": 0.133,
                "ORD_STRA": 1,
                "ORD_CLAS": 2,
                "ORD_FLOW": 7,
                "HYBAS_L12": 4121602000.0,
                "Shape_Length": 0.013005501431567071
            },
            "geometry": {
                "type": "LineString",
                "coordinates": [
                    [
                        81.5999999999996,
                        6.874999999999893
                    ],
                    [
                        81.60624999999968,
                        6.868749999999871
                    ],
                    [
                        81.61041666666634,
                        6.868749999999871
                    ]
                ]
            }
        },
        {
            "type": "Feature",
            "properties": {
                "HYRIV_ID": 41406022,
                "NEXT_DOWN": 41406137,
                "MAIN_RIV": 41406267,
                "LENGTH_KM": 5.1100001,
                "DIST_DN_KM": 28.4,
                "DIST_UP_KM": 47.8,
                "CATCH_SKM": 21.1,
                "UPLAND_SKM": 432.60001,
                "ENDORHEIC": 0,
                "DIS_AV_CMS": 7.3579998,
                "ORD_STRA": 3,
                "ORD_CLAS": 1,
                "ORD_FLOW": 6,
                "HYBAS_L12": 4121602000.0,
                "Shape_Length": 0.04612944921606693
            },
            "geometry": {
                "type": "LineString",
                "coordinates": [
                    [
                        81.61041666666634,
                        6.868749999999871
                    ],
                    [
                        81.61874999999966,
                        6.868749999999871
                    ],
                    [
                        81.62291666666638,
                        6.872916666666576
                    ],
                    [
                        81.62708333333305,
                        6.868749999999871
                    ],
                    [
                        81.6312499999996,
                        6.868749999999871
                    ],
                    [
                        81.63541666666626,
                        6.872916666666576
                    ],
                    [
                        81.63541666666626,
                        6.877083333333225
                    ],
                    [
                        81.63958333333292,
                        6.881249999999888
                    ],
                    [
                        81.63541666666626,
                        6.885416666666551
                    ]
                ]
            }
        },
        {
            "type": "Feature",
            "properties": {
                "HYRIV_ID": 41406057,
                "NEXT_DOWN": 41406059,
                "MAIN_RIV": 41406267,
                "LENGTH_KM": 1.61,
                "DIST_DN_KM": 45.0,
                "DIST_UP_KM": 5.2,
                "CATCH_SKM": 14.07,
                "UPLAND_SKM": 14.1,
                "ENDORHEIC": 0,
                "DIS_AV_CMS": 0.267,
                "ORD_STRA": 1,
                "ORD_CLAS": 3,
                "ORD_FLOW": 7,
                "HYBAS_L12": 4121602000.0,
                "Shape_Length": 0.014583333333291648
            },
            "geometry": {
                "type": "LineString",
                "coordinates": [
                    [
                        81.49999999999963,
                        6.860416666666559
                    ],
                    [
                        81.51458333333292,
                        6.860416666666559
                    ]
                ]
            }
        },
        {
            "type": "Feature",
            "properties": {
                "HYRIV_ID": 41406058,
                "NEXT_DOWN": 41406059,
                "MAIN_RIV": 41406267,
                "LENGTH_KM": 2.46,
                "DIST_DN_KM": 45.200001,
                "DIST_UP_KM": 5.4,
                "CATCH_SKM": 10.44,
                "UPLAND_SKM": 10.4,
                "ENDORHEIC": 0,
                "DIS_AV_CMS": 0.2,
                "ORD_STRA": 1,
                "ORD_CLAS": 2,
                "ORD_FLOW": 7,
                "HYBAS_L12": 4121602000.0,
                "Shape_Length": 0.022201779686428152
            },
            "geometry": {
                "type": "LineString",
                "coordinates": [
                    [
                        81.5062499999996,
                        6.879166666666556
                    ],
                    [
                        81.5062499999996,
                        6.872916666666576
                    ],
                    [
                        81.51041666666626,
                        6.868749999999871
                    ],
                    [
                        81.51041666666626,
                        6.864583333333208
                    ],
                    [
                        81.51458333333292,
                        6.860416666666559
                    ]
                ]
            }
        },
        {
            "type": "Feature",
            "properties": {
                "HYRIV_ID": 41406059,
                "NEXT_DOWN": 41406060,
                "MAIN_RIV": 41406267,
                "LENGTH_KM": 4.9099998,
                "DIST_DN_KM": 40.3,
                "DIST_UP_KM": 10.3,
                "CATCH_SKM": 17.48,
                "UPLAND_SKM": 42.0,
                "ENDORHEIC": 0,
                "DIS_AV_CMS": 0.774,
                "ORD_STRA": 2,
                "ORD_CLAS": 2,
                "ORD_FLOW": 7,
                "HYBAS_L12": 4121602000.0,
                "Shape_Length": 0.044403559372827875
            },
            "geometry": {
                "type": "LineString",
                "coordinates": [
                    [
                        81.51458333333292,
                        6.860416666666559
                    ],
                    [
                        81.52291666666625,
                        6.860416666666559
                    ],
                    [
                        81.52708333333297,
                        6.864583333333208
                    ],
                    [
                        81.53124999999957,
                        6.864583333333208
                    ],
                    [
                        81.5354166666663,
                        6.860416666666559
                    ],
                    [
                        81.53958333333296,
                        6.860416666666559
                    ],
                    [
                        81.54374999999962,
                        6.864583333333208
                    ],
                    [
                        81.54791666666628,
                        6.864583333333208
                    ],
                    [
                        81.55208333333294,
                        6.860416666666559
                    ]
                ]
            }
        },
        {
            "type": "Feature",
            "properties": {
                "HYRIV_ID": 41406060,
                "NEXT_DOWN": 41406062,
                "MAIN_RIV": 41406267,
                "LENGTH_KM": 3.6800001,
                "DIST_DN_KM": 36.5,
                "DIST_UP_KM": 14.2,
                "CATCH_SKM": 17.690001,
                "UPLAND_SKM": 67.099998,
                "ENDORHEIC": 0,
                "DIS_AV_CMS": 1.194,
                "ORD_STRA": 2,
                "ORD_CLAS": 2,
                "ORD_FLOW": 6,
                "HYBAS_L12": 4121602000.0,
                "Shape_Length": 0.03333333333335986
            },
            "geometry": {
                "type": "LineString",
                "coordinates": [
                    [
                        81.55208333333294,
                        6.860416666666559
                    ],
                    [
                        81.5854166666663,
                        6.860416666666559
                    ]
                ]
            }
        },
        {
            "type": "Feature",
            "properties": {
                "HYRIV_ID": 41406061,
                "NEXT_DOWN": 41406062,
                "MAIN_RIV": 41406267,
                "LENGTH_KM": 7.5300002,
                "DIST_DN_KM": 36.700001,
                "DIST_UP_KM": 39.599998,
                "CATCH_SKM": 24.719999,
                "UPLAND_SKM": 325.79999,
                "ENDORHEIC": 0,
                "DIS_AV_CMS": 5.9120002,
                "ORD_STRA": 3,
                "ORD_CLAS": 1,
                "ORD_FLOW": 6,
                "HYBAS_L12": 4121602000.0,
                "Shape_Length": 0.06797378541244746
            },
            "geometry": {
                "type": "LineString",
                "coordinates": [
                    [
                        81.54791666666628,
                        6.902083333333216
                    ],
                    [
                        81.55208333333294,
                        6.897916666666568
                    ],
                    [
                        81.55624999999961,
                        6.897916666666568
                    ],
                    [
                        81.56458333333293,
                        6.889583333333242
                    ],
                    [
                        81.57291666666632,
                        6.889583333333242
                    ],
                    [
                        81.58124999999964,
                        6.881249999999888
                    ],
                    [
                        81.58124999999964,
                        6.872916666666576
                    ],
                    [
                        81.57708333333298,
                        6.868749999999871
                    ],
                    [
                        81.5854166666663,
                        6.860416666666559
                    ]
                ]
            }
        },
        {
            "type": "Feature",
            "properties": {
                "HYRIV_ID": 41406062,
                "NEXT_DOWN": 41406022,
                "MAIN_RIV": 41406267,
                "LENGTH_KM": 3.1500001,
                "DIST_DN_KM": 33.5,
                "DIST_UP_KM": 42.700001,
                "CATCH_SKM": 11.08,
                "UPLAND_SKM": 404.0,
                "ENDORHEIC": 0,
                "DIS_AV_CMS": 7.131,
                "ORD_STRA": 3,
                "ORD_CLAS": 1,
                "ORD_FLOW": 6,
                "HYBAS_L12": 4121602000.0,
                "Shape_Length": 0.028451779686463376
            },
            "geometry": {
                "type": "LineString",
                "coordinates": [
                    [
                        81.5854166666663,
                        6.860416666666559
                    ],
                    [
                        81.59791666666635,
                        6.860416666666559
                    ],
                    [
                        81.60208333333301,
                        6.864583333333208
                    ],
                    [
                        81.60624999999968,
                        6.864583333333208
                    ],
                    [
                        81.61041666666634,
                        6.868749999999871
                    ]
                ]
            }
        },
        {
            "type": "Feature",
            "properties": {
                "HYRIV_ID": 41406075,
                "NEXT_DOWN": 41406060,
                "MAIN_RIV": 41406267,
                "LENGTH_KM": 0.69,
                "DIST_DN_KM": 40.099998,
                "DIST_UP_KM": 4.0,
                "CATCH_SKM": 7.46,
                "UPLAND_SKM": 7.5,
                "ENDORHEIC": 0,
                "DIS_AV_CMS": 0.134,
                "ORD_STRA": 1,
                "ORD_CLAS": 3,
                "ORD_FLOW": 7,
                "HYBAS_L12": 4121602000.0,
                "Shape_Length": 0.006249999999994316
            },
            "geometry": {
                "type": "LineString",
                "coordinates": [
                    [
                        81.55208333333294,
                        6.854166666666565
                    ],
                    [
                        81.55208333333294,
                        6.860416666666559
                    ]
                ]
            }
        },
        {
            "type": "Feature",
            "properties": {
                "HYRIV_ID": 41406136,
                "NEXT_DOWN": 41406154,
                "MAIN_RIV": 41406267,
                "LENGTH_KM": 5.6,
                "DIST_DN_KM": 14.5,
                "DIST_UP_KM": 9.2,
                "CATCH_SKM": 20.889999,
                "UPLAND_SKM": 20.9,
                "ENDORHEIC": 0,
                "DIS_AV_CMS": 0.34,
                "ORD_STRA": 1,
                "ORD_CLAS": 2,
                "ORD_FLOW": 7,
                "HYBAS_L12": 4120049940.0,
                "Shape_Length": 0.05065355937278372
            },
            "geometry": {
                "type": "LineString",
                "coordinates": [
                    [
                        81.6749999999997,
                        6.852083333333233
                    ],
                    [
                        81.6937499999996,
                        6.852083333333233
                    ],
                    [
                        81.69791666666632,
                        6.856249999999896
                    ],
                    [
                        81.70208333333298,
                        6.856249999999896
                    ],
                    [
                        81.7104166666663,
                        6.847916666666571
                    ],
                    [
                        81.71458333333297,
                        6.847916666666571
                    ],
                    [
                        81.71874999999963,
                        6.84375
                    ]
                ]
            }
        },
        {
            "type": "Feature",
            "properties": {
                "HYRIV_ID": 41406137,
                "NEXT_DOWN": 41406223,
                "MAIN_RIV": 41406267,
                "LENGTH_KM": 16.58,
                "DIST_DN_KM": 11.8,
                "DIST_UP_KM": 64.400002,
                "CATCH_SKM": 66.279999,
                "UPLAND_SKM": 521.40002,
                "ENDORHEIC": 0,
                "DIS_AV_CMS": 7.8319998,
                "ORD_STRA": 3,
                "ORD_CLAS": 1,
                "ORD_FLOW": 6,
                "HYBAS_L12": 4120049940.0,
                "Shape_Length": 0.14987734478534176
            },
            "geometry": {
                "type": "LineString",
                "coordinates": [
                    [
                        81.63541666666626,
                        6.885416666666551
                    ],
                    [
                        81.63958333333292,
                        6.889583333333242
                    ],
                    [
                        81.64791666666625,
                        6.889583333333242
                    ],
                    [
                        81.65208333333308,
                        6.885416666666551
                    ],
                    [
                        81.68124999999961,
                        6.885416666666551
                    ],
                    [
                        81.68541666666627,
                        6.881249999999888
                    ],
                    [
                        81.68958333333293,
                        6.881249999999888
                    ],
                    [
                        81.6937499999996,
                        6.885416666666551
                    ],
                    [
                        81.7104166666663,
                        6.885416666666551
                    ],
                    [
                        81.71874999999963,
                        6.877083333333225
                    ],
                    [
                        81.71874999999963,
                        6.872916666666576
                    ],
                    [
                        81.72708333333301,
                        6.872916666666576
                    ],
                    [
                        81.73541666666634,
                        6.864583333333208
                    ],
                    [
                        81.739583333333,
                        6.864583333333208
                    ],
                    [
                        81.74374999999966,
                        6.860416666666559
                    ],
                    [
                        81.739583333333,
                        6.856249999999896
                    ],
                    [
                        81.739583333333,
                        6.852083333333233
                    ],
                    [
                        81.73541666666634,
                        6.847916666666571
                    ],
                    [
                        81.739583333333,
                        6.84375
                    ]
                ]
            }
        },
        {
            "type": "Feature",
            "properties": {
                "HYRIV_ID": 41406153,
                "NEXT_DOWN": 41406154,
                "MAIN_RIV": 41406267,
                "LENGTH_KM": 1.16,
                "DIST_DN_KM": 14.3,
                "DIST_UP_KM": 5.0,
                "CATCH_SKM": 7.0300002,
                "UPLAND_SKM": 7.0,
                "ENDORHEIC": 0,
                "DIS_AV_CMS": 0.114,
                "ORD_STRA": 1,
                "ORD_CLAS": 3,
                "ORD_FLOW": 7,
                "HYBAS_L12": 4120049940.0,
                "Shape_Length": 0.010416666666699825
            },
            "geometry": {
                "type": "LineString",
                "coordinates": [
                    [
                        81.71458333333297,
                        6.837499999999885
                    ],
                    [
                        81.71458333333297,
                        6.84375
                    ],
                    [
                        81.71874999999963,
                        6.84375
                    ]
                ]
            }
        },
        {
            "type": "Feature",
            "properties": {
                "HYRIV_ID": 41406154,
                "NEXT_DOWN": 41406223,
                "MAIN_RIV": 41406267,
                "LENGTH_KM": 2.6900001,
                "DIST_DN_KM": 11.6,
                "DIST_UP_KM": 12.1,
                "CATCH_SKM": 8.3100004,
                "UPLAND_SKM": 36.200001,
                "ENDORHEIC": 0,
                "DIS_AV_CMS": 0.57800001,
                "ORD_STRA": 2,
                "ORD_CLAS": 2,
                "ORD_FLOW": 7,
                "HYBAS_L12": 4120049940.0,
                "Shape_Length": 0.024285113019870838
            },
            "geometry": {
                "type": "LineString",
                "coordinates": [
                    [
                        81.71874999999963,
                        6.84375
                    ],
                    [
                        81.7229166666663,
                        6.839583333333216
                    ],
                    [
                        81.73124999999968,
                        6.839583333333216
                    ],
                    [
                        81.73541666666634,
                        6.84375
                    ],
                    [
                        81.739583333333,
                        6.84375
                    ]
                ]
            }
        },
        {
            "type": "Feature",
            "properties": {
                "HYRIV_ID": 41406223,
                "NEXT_DOWN": 41406267,
                "MAIN_RIV": 41406267,
                "LENGTH_KM": 7.4099998,
                "DIST_DN_KM": 4.2,
                "DIST_UP_KM": 72.0,
                "CATCH_SKM": 23.66,
                "UPLAND_SKM": 581.29999,
                "ENDORHEIC": 0,
                "DIS_AV_CMS": 8.2469997,
                "ORD_STRA": 3,
                "ORD_CLAS": 1,
                "ORD_FLOW": 6,
                "HYBAS_L12": 4120049940.0,
                "Shape_Length": 0.0669627825494683
            },
            "geometry": {
                "type": "LineString",
                "coordinates": [
                    [
                        81.739583333333,
                        6.84375
                    ],
                    [
                        81.74374999999966,
                        6.839583333333216
                    ],
                    [
                        81.74791666666633,
                        6.84375
                    ],
                    [
                        81.76458333333292,
                        6.84375
                    ],
                    [
                        81.7687499999997,
                        6.839583333333216
                    ],
                    [
                        81.7854166666663,
                        6.839583333333216
                    ],
                    [
                        81.79374999999962,
                        6.83125
                    ],
                    [
                        81.79374999999962,
                        6.827083333333199
                    ]
                ]
            }
        },
        {
            "type": "Feature",
            "properties": {
                "HYRIV_ID": 41406267,
                "NEXT_DOWN": 0,
                "MAIN_RIV": 41406267,
                "LENGTH_KM": 3.99,
                "DIST_DN_KM": 0.0,
                "DIST_UP_KM": 76.0,
                "CATCH_SKM": 14.71,
                "UPLAND_SKM": 618.59998,
                "ENDORHEIC": 0,
                "DIS_AV_CMS": 8.5349998,
                "ORD_STRA": 3,
                "ORD_CLAS": 1,
                "ORD_FLOW": 6,
                "HYBAS_L12": 4120049940.0,
                "Shape_Length": 0.03607022603960577
            },
            "geometry": {
                "type": "LineString",
                "coordinates": [
                    [
                        81.79374999999962,
                        6.827083333333199
                    ],
                    [
                        81.80208333333294,
                        6.818749999999888
                    ],
                    [
                        81.80624999999961,
                        6.822916666666579
                    ],
                    [
                        81.81041666666627,
                        6.822916666666579
                    ],
                    [
                        81.81458333333293,
                        6.818749999999888
                    ],
                    [
                        81.82291666666632,
                        6.818749999999888
                    ]
                ]
            }
        },
        {
            "type": "Feature",
            "properties": {
                "HYRIV_ID": 41406286,
                "NEXT_DOWN": 41406267,
                "MAIN_RIV": 41406267,
                "LENGTH_KM": 5.4099998,
                "DIST_DN_KM": 4.4,
                "DIST_UP_KM": 9.6,
                "CATCH_SKM": 23.02,
                "UPLAND_SKM": 23.0,
                "ENDORHEIC": 0,
                "DIS_AV_CMS": 0.354,
                "ORD_STRA": 1,
                "ORD_CLAS": 2,
                "ORD_FLOW": 7,
                "HYBAS_L12": 4120049940.0,
                "Shape_Length": 0.04892766952962091
            },
            "geometry": {
                "type": "LineString",
                "coordinates": [
                    [
                        81.7541666666663,
                        6.818749999999888
                    ],
                    [
                        81.77291666666625,
                        6.818749999999888
                    ],
                    [
                        81.77291666666625,
                        6.814583333333225
                    ],
                    [
                        81.78124999999957,
                        6.814583333333225
                    ],
                    [
                        81.79374999999962,
                        6.827083333333199
                    ]
                ]
            }
        }
    ]
}