{
    "type": "FeatureCollection",
    "features": [
        {
            "type": "Feature",
            "properties": {
                "HYRIV_ID": 41402282,
                "NEXT_DOWN": 41402322,
                "MAIN_RIV": 41402815,
                "LENGTH_KM": 0.69,
                "DIST_DN_KM": 30.0,
                "DIST_UP_KM": 4.1,
                "CATCH_SKM": 8.08,
                "UPLAND_SKM": 8.1,
                "ENDORHEIC": 0,
                "DIS_AV_CMS": 0.137,
                "ORD_STRA": 1,
                "ORD_CLAS": 4,
                "ORD_FLOW": 7,
                "HYBAS_L12": 4121601390.0,
                "Shape_Length": 0.006249999999994316
            },
            "geometry": {
                "type": "LineString",
                "coordinates": [
                    [
                        79.9604166666663,
                        7.849999999999874
                    ],
                    [
                        79.9604166666663,
                        7.843749999999879
                    ]
                ]
            }
        },
        {
            "type": "Feature",
            "properties": {
                "HYRIV_ID": 41402283,
                "NEXT_DOWN": 41402322,
                "MAIN_RIV": 41402815,
                "LENGTH_KM": 0.69,
                "DIST_DN_KM": 30.0,
                "DIST_UP_KM": 5.0,
                "CATCH_SKM": 6.5900002,
                "UPLAND_SKM": 6.6,
                "ENDORHEIC": 0,
                "DIS_AV_CMS": 0.113,
                "ORD_STRA": 1,
                "ORD_CLAS": 3,
                "ORD_FLOW": 7,
                "HYBAS_L12": 4121601390.0,
                "Shape_Length": 0.006249999999965894
            },
            "geometry": {
                "type": "LineString",
                "coordinates": [
                    [
                        79.96666666666627,
                        7.843749999999879
                    ],
                    [
                        79.9604166666663,
                        7.843749999999879
                    ]
                ]
            }
        },
        {
            "type": "Feature",
            "properties": {
                "HYRIV_ID": 41402292,
                "NEXT_DOWN": 41402553,
                "MAIN_RIV": 41402815,
                "LENGTH_KM": 7.2,
                "DIST_DN_KM": 19.6,
                "DIST_UP_KM": 12.4,
                "CATCH_SKM": 20.41,
                "UPLAND_SKM": 20.4,
                "ENDORHEIC": 0,
                "DIS_AV_CMS": 0.332,
                "ORD_STRA": 1,
                "ORD_CLAS": 3,
                "ORD_FLOW": 7,
                "HYBAS_L12": 4121601390.0,
                "Shape_Length": 0.0650275071575204
            },
            "geometry": {
                "type": "LineString",
                "coordinates": [
                    [
                        79.88333333333301,
                        7.866666666666539
                    ],
                    [
                        79.87708333333305,
                        7.872916666666534
                    ],
                    [
                        79.87291666666633,
                        7.872916666666534
                    ],
                    [
                        79.86874999999966,
                        7.868749999999871
                    ],
                    [
                        79.86041666666634,
                        7.868749999999871
                    ],
                    [
                        79.85624999999968,
                        7.864583333333222
                    ],
                    [
                        79.85624999999968,
                        7.860416666666559
                    ],
                    [
                        79.84374999999963,
                        7.847916666666542
                    ],
                    [
                        79.84374999999963,
                        7.843749999999879
                    ],
                    [
                        79.8479166666663,
                        7.839583333333216
                    ]
                ]
            }
        },
        {
            "type": "Feature",
            "properties": {
                "HYRIV_ID": 41402293,
                "NEXT_DOWN": 41402553,
                "MAIN_RIV": 41402815,
                "LENGTH_KM": 3.6600001,
                "DIST_DN_KM": 19.6,
                "DIST_UP_KM": 7.1,
                "CATCH_SKM": 18.07,
                "UPLAND_SKM": 18.1,
                "ENDORHEIC": 0,
                "DIS_AV_CMS": 0.302,
                "ORD_STRA": 1,
                "ORD_CLAS": 4,
                "ORD_FLOW": 7,
                "HYBAS_L12": 4121601390.0,
                "Shape_Length": 0.0331239477845976
            },
            "geometry": {
                "type": "LineString",
                "coordinates": [
                    [
                        79.87499999999963,
                        7.841666666666548
                    ],
                    [
                        79.86874999999966,
                        7.847916666666542
                    ],
                    [
                        79.86041666666634,
                        7.847916666666542
                    ],
                    [
                        79.85624999999968,
                        7.843749999999879
                    ],
                    [
                        79.85208333333301,
                        7.843749999999879
                    ],
                    [
                        79.8479166666663,
                        7.839583333333216
                    ]
                ]
            }
        },
        {
            "type": "Feature",
            "properties": {
                "HYRIV_ID": 41402322,
                "NEXT_DOWN": 41402338,
                "MAIN_RIV": 41402815,
                "LENGTH_KM": 1.58,
                "DIST_DN_KM": 28.4,
                "DIST_UP_KM": 6.6,
                "CATCH_SKM": 2.76,
                "UPLAND_SKM": 17.4,
                "ENDORHEIC": 0,
                "DIS_AV_CMS": 0.297,
                "ORD_STRA": 2,
                "ORD_CLAS": 3,
                "ORD_FLOW": 7,
                "HYBAS_L12": 4121601390.0,
                "Shape_Length": 0.014225889843240875
            },
            "geometry": {
                "type": "LineString",
                "coordinates": [
                    [
                        79.9604166666663,
                        7.843749999999879
                    ],
                    [
                        79.9604166666663,
                        7.839583333333216
                    ],
                    [
                        79.95624999999964,
                        7.835416666666568
                    ],
                    [
                        79.95624999999964,
                        7.831249999999862
                    ]
                ]
            }
        },
        {
            "type": "Feature",
            "properties": {
                "HYRIV_ID": 41402323,
                "NEXT_DOWN": 41402338,
                "MAIN_RIV": 41402815,
                "LENGTH_KM": 2.75,
                "DIST_DN_KM": 28.4,
                "DIST_UP_KM": 9.0,
                "CATCH_SKM": 9.1400003,
                "UPLAND_SKM": 24.9,
                "ENDORHEIC": 0,
                "DIS_AV_CMS": 0.436,
                "ORD_STRA": 2,
                "ORD_CLAS": 2,
                "ORD_FLOW": 7,
                "HYBAS_L12": 4121601390.0,
                "Shape_Length": 0.025000000000034106
            },
            "geometry": {
                "type": "LineString",
                "coordinates": [
                    [
                        79.98124999999968,
                        7.831249999999862
                    ],
                    [
                        79.95624999999964,
                        7.831249999999862
                    ]
                ]
            }
        },
        {
            "type": "Feature",
            "properties": {
                "HYRIV_ID": 41402324,
                "NEXT_DOWN": 41402323,
                "MAIN_RIV": 41402815,
                "LENGTH_KM": 2.09,
                "DIST_DN_KM": 31.200001,
                "DIST_UP_KM": 6.2,
                "CATCH_SKM": 9.3599997,
                "UPLAND_SKM": 9.4,
                "ENDORHEIC": 0,
                "DIS_AV_CMS": 0.162,
                "ORD_STRA": 1,
                "ORD_CLAS": 2,
                "ORD_FLOW": 7,
                "HYBAS_L12": 4121601390.0,
                "Shape_Length": 0.018898057941381705
            },
            "geometry": {
                "type": "LineString",
                "coordinates": [
                    [
                        79.9916666666663,
                        7.845833333333211
                    ],
                    [
                        79.98124999999968,
                        7.835416666666568
                    ],
                    [
                        79.98124999999968,
                        7.831249999999862
                    ]
                ]
            }
        },
        {
            "type": "Feature",
            "properties": {
                "HYRIV_ID": 41402325,
                "NEXT_DOWN": 41402369,
                "MAIN_RIV": 41402815,
                "LENGTH_KM": 2.09,
                "DIST_DN_KM": 39.400002,
                "DIST_UP_KM": 5.3,
                "CATCH_SKM": 16.8,
                "UPLAND_SKM": 16.8,
                "ENDORHEIC": 0,
                "DIS_AV_CMS": 0.297,
                "ORD_STRA": 1,
                "ORD_CLAS": 2,
                "ORD_FLOW": 7,
                "HYBAS_L12": 4121157340.0,
                "Shape_Length": 0.01889805794134151
            },
            "geometry": {
                "type": "LineString",
                "coordinates": [
                    [
                        80.06666666666635,
                        7.845833333333211
                    ],
                    [
                        80.05624999999978,
                        7.835416666666568
                    ],
                    [
                        80.05624999999978,
                        7.831249999999862
                    ]
                ]
            }
        },
        {
            "type": "Feature",
            "properties": {
                "HYRIV_ID": 41402326,
                "NEXT_DOWN": 41402369,
                "MAIN_RIV": 41402815,
                "LENGTH_KM": 3.4400001,
                "DIST_DN_KM": 39.3,
                "DIST_UP_KM": 6.7,
                "CATCH_SKM": 15.1,
                "UPLAND_SKM": 15.1,
                "ENDORHEIC": 0,
                "DIS_AV_CMS": 0.274,
                "ORD_STRA": 1,
                "ORD_CLAS": 1,
                "ORD_FLOW": 7,
                "HYBAS_L12": 4121157340.0,
                "Shape_Length": 0.031249999999943157
            },
            "geometry": {
                "type": "LineString",
                "coordinates": [
                    [
                        80.08749999999972,
                        7.831249999999862
                    ],
                    [
                        80.05624999999978,
                        7.831249999999862
                    ]
                ]
            }
        },
        {
            "type": "Feature",
            "properties": {
                "HYRIV_ID": 41402338,
                "NEXT_DOWN": 41402420,
                "MAIN_RIV": 41402815,
                "LENGTH_KM": 1.11,
                "DIST_DN_KM": 27.5,
                "DIST_UP_KM": 9.9,
                "CATCH_SKM": 1.49,
                "UPLAND_SKM": 43.8,
                "ENDORHEIC": 0,
                "DIS_AV_CMS": 0.759,
                "ORD_STRA": 3,
                "ORD_CLAS": 2,
                "ORD_FLOW": 7,
                "HYBAS_L12": 4121601390.0,
                "Shape_Length": 0.010059223176545413
            },
            "geometry": {
                "type": "LineString",
                "coordinates": [
                    [
                        79.95624999999964,
                        7.831249999999862
                    ],
                    [
                        79.95208333333298,
                        7.831249999999862
                    ],
                    [
                        79.94791666666632,
                        7.827083333333199
                    ]
                ]
            }
        },
        {
            "type": "Feature",
            "properties": {
                "HYRIV_ID": 41402339,
                "NEXT_DOWN": 41402323,
                "MAIN_RIV": 41402815,
                "LENGTH_KM": 0.98,
                "DIST_DN_KM": 31.3,
                "DIST_UP_KM": 3.1,
                "CATCH_SKM": 6.3800001,
                "UPLAND_SKM": 6.4,
                "ENDORHEIC": 0,
                "DIS_AV_CMS": 0.113,
                "ORD_STRA": 1,
                "ORD_CLAS": 3,
                "ORD_FLOW": 7,
                "HYBAS_L12": 4121601390.0,
                "Shape_Length": 0.00883883476479366
            },
            "geometry": {
                "type": "LineString",
                "coordinates": [
                    [
                        79.98749999999964,
                        7.824999999999882
                    ],
                    [
                        79.98124999999968,
                        7.831249999999862
                    ]
                ]
            }
        },
        {
            "type": "Feature",
            "properties": {
                "HYRIV_ID": 41402353,
                "NEXT_DOWN": 41402420,
                "MAIN_RIV": 41402815,
                "LENGTH_KM": 1.8,
                "DIST_DN_KM": 27.3,
                "DIST_UP_KM": 4.9,
                "CATCH_SKM": 7.23,
                "UPLAND_SKM": 7.2,
                "ENDORHEIC": 0,
                "DIS_AV_CMS": 0.129,
                "ORD_STRA": 1,
                "ORD_CLAS": 3,
                "ORD_FLOW": 7,
                "HYBAS_L12": 4121601390.0,
                "Shape_Length": 0.016309223176614946
            },
            "geometry": {
                "type": "LineString",
                "coordinates": [
                    [
                        79.96249999999972,
                        7.822916666666551
                    ],
                    [
                        79.95624999999964,
                        7.822916666666551
                    ],
                    [
                        79.95208333333298,
                        7.827083333333199
                    ],
                    [
                        79.94791666666632,
                        7.827083333333199
                    ]
                ]
            }
        },
        {
            "type": "Feature",
            "properties": {
                "HYRIV_ID": 41402368,
                "NEXT_DOWN": 41402391,
                "MAIN_RIV": 41402815,
                "LENGTH_KM": 0.69,
                "DIST_DN_KM": 36.900002,
                "DIST_UP_KM": 5.3,
                "CATCH_SKM": 5.9499998,
                "UPLAND_SKM": 6.0,
                "ENDORHEIC": 0,
                "DIS_AV_CMS": 0.105,
                "ORD_STRA": 1,
                "ORD_CLAS": 2,
                "ORD_FLOW": 7,
                "HYBAS_L12": 4121157340.0,
                "Shape_Length": 0.006249999999994316
            },
            "geometry": {
                "type": "LineString",
                "coordinates": [
                    [
                        80.03958333333296,
                        7.824999999999882
                    ],
                    [
                        80.03958333333296,
                        7.818749999999888
                    ]
                ]
            }
        },
        {
            "type": "Feature",
            "properties": {
                "HYRIV_ID": 41402369,
                "NEXT_DOWN": 41402391,
                "MAIN_RIV": 41402815,
                "LENGTH_KM": 2.4200001,
                "DIST_DN_KM": 37.099998,
                "DIST_UP_KM": 9.0,
                "CATCH_SKM": 7.4400001,
                "UPLAND_SKM": 39.3,
                "ENDORHEIC": 0,
                "DIS_AV_CMS": 0.70499998,
                "ORD_STRA": 2,
                "ORD_CLAS": 1,
                "ORD_FLOW": 7,
                "HYBAS_L12": 4121157340.0,
                "Shape_Length": 0.021844336196387724
            },
            "geometry": {
                "type": "LineString",
                "coordinates": [
                    [
                        80.05624999999978,
                        7.831249999999862
                    ],
                    [
                        80.05208333333294,
                        7.827083333333199
                    ],
                    [
                        80.0479166666664,
                        7.827083333333199
                    ],
                    [
                        80.03958333333296,
                        7.818749999999888
                    ]
                ]
            }
        },
        {
            "type": "Feature",
            "properties": {
                "HYRIV_ID": 41402391,
                "NEXT_DOWN": 41402397,
                "MAIN_RIV": 41402815,
                "LENGTH_KM": 0.65,
                "DIST_DN_KM": 36.5,
                "DIST_UP_KM": 9.6,
                "CATCH_SKM": 0.64,
                "UPLAND_SKM": 45.900002,
                "ENDORHEIC": 0,
                "DIS_AV_CMS": 0.82200003,
                "ORD_STRA": 2,
                "ORD_CLAS": 1,
                "ORD_FLOW": 7,
                "HYBAS_L12": 4121157340.0,
                "Shape_Length": 0.005892556509802148
            },
            "geometry": {
                "type": "LineString",
                "coordinates": [
                    [
                        80.03958333333296,
                        7.818749999999888
                    ],
                    [
                        80.0354166666664,
                        7.814583333333225
                    ]
                ]
            }
        },
        {
            "type": "Feature",
            "properties": {
                "HYRIV_ID": 41402396,
                "NEXT_DOWN": 41402555,
                "MAIN_RIV": 41402815,
                "LENGTH_KM": 1.9,
                "DIST_DN_KM": 35.599998,
                "DIST_UP_KM": 5.2,
                "CATCH_SKM": 7.23,
                "UPLAND_SKM": 7.2,
                "ENDORHEIC": 0,
                "DIS_AV_CMS": 0.129,
                "ORD_STRA": 1,
                "ORD_CLAS": 2,
                "ORD_FLOW": 7,
                "HYBAS_L12": 4121157340.0,
                "Shape_Length": 0.017172168098295117
            },
            "geometry": {
                "type": "LineString",
                "coordinates": [
                    [
                        80.02083333333294,
                        7.820833333333219
                    ],
                    [
                        80.02708333333302,
                        7.814583333333225
                    ],
                    [
                        80.03124999999974,
                        7.814583333333225
                    ],
                    [
                        80.03124999999974,
                        7.810416666666534
                    ]
                ]
            }
        },
        {
            "type": "Feature",
            "properties": {
                "HYRIV_ID": 41402397,
                "NEXT_DOWN": 41402555,
                "MAIN_RIV": 41402815,
                "LENGTH_KM": 0.65,
                "DIST_DN_KM": 35.8,
                "DIST_UP_KM": 10.3,
                "CATCH_SKM": 1.28,
                "UPLAND_SKM": 56.599998,
                "ENDORHEIC": 0,
                "DIS_AV_CMS": 1.017,
                "ORD_STRA": 2,
                "ORD_CLAS": 1,
                "ORD_FLOW": 6,
                "HYBAS_L12": 4121157340.0,
                "Shape_Length": 0.005892556509902633
            },
            "geometry": {
                "type": "LineString",
                "coordinates": [
                    [
                        80.0354166666664,
                        7.814583333333225
                    ],
                    [
                        80.03124999999974,
                        7.810416666666534
                    ]
                ]
            }
        },
        {
            "type": "Feature",
            "properties": {
                "HYRIV_ID": 41402398,
                "NEXT_DOWN": 41402397,
                "MAIN_RIV": 41402815,
                "LENGTH_KM": 1.8,
                "DIST_DN_KM": 36.5,
                "DIST_UP_KM": 4.9,
                "CATCH_SKM": 9.3599997,
                "UPLAND_SKM": 9.4,
                "ENDORHEIC": 0,
                "DIS_AV_CMS": 0.173,
                "ORD_STRA": 1,
                "ORD_CLAS": 2,
                "ORD_FLOW": 7,
                "HYBAS_L12": 4121157340.0,
                "Shape_Length": 0.016309223176507858
            },
            "geometry": {
                "type": "LineString",
                "coordinates": [
                    [
                        80.04999999999964,
                        7.810416666666534
                    ],
                    [
                        80.03958333333296,
                        7.810416666666534
                    ],
                    [
                        80.0354166666664,
                        7.814583333333225
                    ]
                ]
            }
        },
        {
            "type": "Feature",
            "properties": {
                "HYRIV_ID": 41402420,
                "NEXT_DOWN": 41402434,
                "MAIN_RIV": 41402815,
                "LENGTH_KM": 6.21,
                "DIST_DN_KM": 21.3,
                "DIST_UP_KM": 16.1,
                "CATCH_SKM": 30.200001,
                "UPLAND_SKM": 81.199997,
                "ENDORHEIC": 0,
                "DIS_AV_CMS": 1.415,
                "ORD_STRA": 3,
                "ORD_CLAS": 2,
                "ORD_FLOW": 6,
                "HYBAS_L12": 4121601390.0,
                "Shape_Length": 0.056188672392565545
            },
            "geometry": {
                "type": "LineString",
                "coordinates": [
                    [
                        79.94791666666632,
                        7.827083333333199
                    ],
                    [
                        79.94791666666632,
                        7.822916666666551
                    ],
                    [
                        79.93541666666627,
                        7.810416666666534
                    ],
                    [
                        79.93124999999978,
                        7.810416666666534
                    ],
                    [
                        79.92708333333294,
                        7.814583333333225
                    ],
                    [
                        79.91874999999962,
                        7.814583333333225
                    ],
                    [
                        79.91458333333296,
                        7.810416666666534
                    ],
                    [
                        79.9104166666663,
                        7.810416666666534
                    ],
                    [
                        79.90624999999974,
                        7.806249999999871
                    ]
                ]
            }
        },
        {
            "type": "Feature",
            "properties": {
                "HYRIV_ID": 41402433,
                "NEXT_DOWN": 41402502,
                "MAIN_RIV": 41402815,
                "LENGTH_KM": 10.17,
                "DIST_DN_KM": 19.5,
                "DIST_UP_KM": 14.3,
                "CATCH_SKM": 35.939999,
                "UPLAND_SKM": 35.900002,
                "ENDORHEIC": 0,
                "DIS_AV_CMS": 0.59899998,
                "ORD_STRA": 1,
                "ORD_CLAS": 3,
                "ORD_FLOW": 7,
                "HYBAS_L12": 4121601390.0,
                "Shape_Length": 0.09160533905913251
            },
            "geometry": {
                "type": "LineString",
                "coordinates": [
                    [
                        79.9104166666663,
                        7.883333333333219
                    ],
                    [
                        79.9104166666663,
                        7.872916666666534
                    ],
                    [
                        79.90624999999974,
                        7.868749999999871
                    ],
                    [
                        79.90624999999974,
                        7.864583333333222
                    ],
                    [
                        79.9104166666663,
                        7.860416666666559
                    ],
                    [
                        79.90624999999974,
                        7.856249999999896
                    ],
                    [
                        79.90624999999974,
                        7.827083333333199
                    ],
                    [
                        79.8937499999997,
                        7.814583333333225
                    ],
                    [
                        79.8937499999997,
                        7.802083333333208
                    ]
                ]
            }
        },
        {
            "type": "Feature",
            "properties": {
                "HYRIV_ID": 41402434,
                "NEXT_DOWN": 41402502,
                "MAIN_RIV": 41402815,
                "LENGTH_KM": 1.5700001,
                "DIST_DN_KM": 19.5,
                "DIST_UP_KM": 17.9,
                "CATCH_SKM": 3.62,
                "UPLAND_SKM": 95.900002,
                "ENDORHEIC": 0,
                "DIS_AV_CMS": 1.676,
                "ORD_STRA": 3,
                "ORD_CLAS": 2,
                "ORD_FLOW": 6,
                "HYBAS_L12": 4121601390.0,
                "Shape_Length": 0.014225889843248485
            },
            "geometry": {
                "type": "LineString",
                "coordinates": [
                    [
                        79.90624999999974,
                        7.806249999999871
                    ],
                    [
                        79.90208333333308,
                        7.806249999999871
                    ],
                    [
                        79.89791666666636,
                        7.802083333333208
                    ],
                    [
                        79.8937499999997,
                        7.802083333333208
                    ]
                ]
            }
        },
        {
            "type": "Feature",
            "properties": {
                "HYRIV_ID": 41402502,
                "NEXT_DOWN": 41402554,
                "MAIN_RIV": 41402815,
                "LENGTH_KM": 3.07,
                "DIST_DN_KM": 16.6,
                "DIST_UP_KM": 20.700001,
                "CATCH_SKM": 11.48,
                "UPLAND_SKM": 143.3,
                "ENDORHEIC": 0,
                "DIS_AV_CMS": 2.4760001,
                "ORD_STRA": 3,
                "ORD_CLAS": 2,
                "ORD_FLOW": 6,
                "HYBAS_L12": 4121601390.0,
                "Shape_Length": 0.027736892706276564
            },
            "geometry": {
                "type": "LineString",
                "coordinates": [
                    [
                        79.8937499999997,
                        7.802083333333208
                    ],
                    [
                        79.88541666666637,
                        7.793749999999854
                    ],
                    [
                        79.8812499999996,
                        7.793749999999854
                    ],
                    [
                        79.87291666666633,
                        7.785416666666542
                    ]
                ]
            }
        },
        {
            "type": "Feature",
            "properties": {
                "HYRIV_ID": 41402514,
                "NEXT_DOWN": 41402434,
                "MAIN_RIV": 41402815,
                "LENGTH_KM": 4.0500002,
                "DIST_DN_KM": 21.3,
                "DIST_UP_KM": 6.7,
                "CATCH_SKM": 11.06,
                "UPLAND_SKM": 11.1,
                "ENDORHEIC": 0,
                "DIS_AV_CMS": 0.199,
                "ORD_STRA": 1,
                "ORD_CLAS": 3,
                "ORD_FLOW": 7,
                "HYBAS_L12": 4121601390.0,
                "Shape_Length": 0.03657572747100678
            },
            "geometry": {
                "type": "LineString",
                "coordinates": [
                    [
                        79.92916666666636,
                        7.779166666666548
                    ],
                    [
                        79.91874999999962,
                        7.789583333333191
                    ],
                    [
                        79.91874999999962,
                        7.793749999999854
                    ],
                    [
                        79.90624999999974,
                        7.806249999999871
                    ]
                ]
            }
        },
        {
            "type": "Feature",
            "properties": {
                "HYRIV_ID": 41402530,
                "NEXT_DOWN": 41402554,
                "MAIN_RIV": 41402815,
                "LENGTH_KM": 2.55,
                "DIST_DN_KM": 16.4,
                "DIST_UP_KM": 5.1,
                "CATCH_SKM": 8.29,
                "UPLAND_SKM": 8.3,
                "ENDORHEIC": 0,
                "DIS_AV_CMS": 0.149,
                "ORD_STRA": 1,
                "ORD_CLAS": 3,
                "ORD_FLOW": 7,
                "HYBAS_L12": 4121601390.0,
                "Shape_Length": 0.02306472460810214
            },
            "geometry": {
                "type": "LineString",
                "coordinates": [
                    [
                        79.89166666666634,
                        7.774999999999885
                    ],
                    [
                        79.88541666666637,
                        7.781249999999879
                    ],
                    [
                        79.8812499999996,
                        7.781249999999879
                    ],
                    [
                        79.87708333333305,
                        7.785416666666542
                    ],
                    [
                        79.87291666666633,
                        7.785416666666542
                    ]
                ]
            }
        },
        {
            "type": "Feature",
            "properties": {
                "HYRIV_ID": 41402553,
                "NEXT_DOWN": 41402571,
                "MAIN_RIV": 41402815,
                "LENGTH_KM": 8.6300001,
                "DIST_DN_KM": 10.8,
                "DIST_UP_KM": 21.3,
                "CATCH_SKM": 26.16,
                "UPLAND_SKM": 64.599998,
                "ENDORHEIC": 0,
                "DIS_AV_CMS": 1.0779999,
                "ORD_STRA": 2,
                "ORD_CLAS": 3,
                "ORD_FLOW": 6,
                "HYBAS_L12": 4121601390.0,
                "Shape_Length": 0.0777368927061985
            },
            "geometry": {
                "type": "LineString",
                "coordinates": [
                    [
                        79.8479166666663,
                        7.839583333333216
                    ],
                    [
                        79.84374999999963,
                        7.835416666666568
                    ],
                    [
                        79.84374999999963,
                        7.818749999999888
                    ],
                    [
                        79.83958333333297,
                        7.814583333333225
                    ],
                    [
                        79.83958333333297,
                        7.810416666666534
                    ],
                    [
                        79.8354166666663,
                        7.806249999999871
                    ],
                    [
                        79.8354166666663,
                        7.789583333333191
                    ],
                    [
                        79.83124999999964,
                        7.785416666666542
                    ],
                    [
                        79.82708333333298,
                        7.785416666666542
                    ],
                    [
                        79.82708333333298,
                        7.772916666666568
                    ]
                ]
            }
        },
        {
            "type": "Feature",
            "properties": {
                "HYRIV_ID": 41402554,
                "NEXT_DOWN": 41402571,
                "MAIN_RIV": 41402815,
                "LENGTH_KM": 5.6300001,
                "DIST_DN_KM": 10.8,
                "DIST_UP_KM": 26.6,
                "CATCH_SKM": 21.27,
                "UPLAND_SKM": 172.89999,
                "ENDORHEIC": 0,
                "DIS_AV_CMS": 2.994,
                "ORD_STRA": 3,
                "ORD_CLAS": 2,
                "ORD_FLOW": 6,
                "HYBAS_L12": 4121601390.0,
                "Shape_Length": 0.05101100286298077
            },
            "geometry": {
                "type": "LineString",
                "coordinates": [
                    [
                        79.87291666666633,
                        7.785416666666542
                    ],
                    [
                        79.86041666666634,
                        7.785416666666542
                    ],
                    [
                        79.85624999999968,
                        7.781249999999879
                    ],
                    [
                        79.85208333333301,
                        7.781249999999879
                    ],
                    [
                        79.8479166666663,
                        7.777083333333216
                    ],
                    [
                        79.8354166666663,
                        7.777083333333216
                    ],
                    [
                        79.83124999999964,
                        7.772916666666568
                    ],
                    [
                        79.82708333333298,
                        7.772916666666568
                    ]
                ]
            }
        },
        {
            "type": "Feature",
            "properties": {
                "HYRIV_ID": 41402555,
                "NEXT_DOWN": 41402612,
                "MAIN_RIV": 41402815,
                "LENGTH_KM": 6.0300002,
                "DIST_DN_KM": 29.6,
                "DIST_UP_KM": 16.5,
                "CATCH_SKM": 20.200001,
                "UPLAND_SKM": 84.0,
                "ENDORHEIC": 0,
                "DIS_AV_CMS": 1.513,
                "ORD_STRA": 2,
                "ORD_CLAS": 1,
                "ORD_FLOW": 6,
                "HYBAS_L12": 4121157340.0,
                "Shape_Length": 0.05446278254945785
            },
            "geometry": {
                "type": "LineString",
                "coordinates": [
                    [
                        80.03124999999974,
                        7.810416666666534
                    ],
                    [
                        80.03124999999974,
                        7.806249999999871
                    ],
                    [
                        80.02708333333302,
                        7.802083333333208
                    ],
                    [
                        80.02291666666636,
                        7.802083333333208
                    ],
                    [
                        80.02291666666636,
                        7.797916666666559
                    ],
                    [
                        80.01458333333304,
                        7.789583333333191
                    ],
                    [
                        80.01458333333304,
                        7.785416666666542
                    ],
                    [
                        80.01041666666637,
                        7.781249999999879
                    ],
                    [
                        80.00624999999971,
                        7.781249999999879
                    ],
                    [
                        80.00208333333299,
                        7.777083333333216
                    ],
                    [
                        80.00208333333299,
                        7.772916666666568
                    ]
                ]
            }
        },
        {
            "type": "Feature",
            "properties": {
                "HYRIV_ID": 41402556,
                "NEXT_DOWN": 41402612,
                "MAIN_RIV": 41402815,
                "LENGTH_KM": 3.4400001,
                "DIST_DN_KM": 29.6,
                "DIST_UP_KM": 6.9,
                "CATCH_SKM": 14.68,
                "UPLAND_SKM": 14.7,
                "ENDORHEIC": 0,
                "DIS_AV_CMS": 0.276,
                "ORD_STRA": 1,
                "ORD_CLAS": 2,
                "ORD_FLOW": 7,
                "HYBAS_L12": 4121157340.0,
                "Shape_Length": 0.03125
            },
            "geometry": {
                "type": "LineString",
                "coordinates": [
                    [
                        80.03333333333299,
                        7.772916666666568
                    ],
                    [
                        80.00208333333299,
                        7.772916666666568
                    ]
                ]
            }
        },
        {
            "type": "Feature",
            "properties": {
                "HYRIV_ID": 41402570,
                "NEXT_DOWN": 41402597,
                "MAIN_RIV": 41402815,
                "LENGTH_KM": 3.2,
                "DIST_DN_KM": 9.9,
                "DIST_UP_KM": 6.7,
                "CATCH_SKM": 10.0,
                "UPLAND_SKM": 10.0,
                "ENDORHEIC": 0,
                "DIS_AV_CMS": 0.17200001,
                "ORD_STRA": 1,
                "ORD_CLAS": 3,
                "ORD_FLOW": 7,
                "HYBAS_L12": 4121157310.0,
                "Shape_Length": 0.028809223176572717
            },
            "geometry": {
                "type": "LineString",
                "coordinates": [
                    [
                        79.81458333333299,
                        7.795833333333228
                    ],
                    [
                        79.81458333333299,
                        7.772916666666568
                    ],
                    [
                        79.81874999999965,
                        7.768749999999862
                    ]
                ]
            }
        },
        {
            "type": "Feature",
            "properties": {
                "HYRIV_ID": 41402571,
                "NEXT_DOWN": 41402597,
                "MAIN_RIV": 41402815,
                "LENGTH_KM": 1.11,
                "DIST_DN_KM": 9.9,
                "DIST_UP_KM": 27.5,
                "CATCH_SKM": 0.85,
                "UPLAND_SKM": 238.39999,
                "ENDORHEIC": 0,
                "DIS_AV_CMS": 4.085,
                "ORD_STRA": 3,
                "ORD_CLAS": 2,
                "ORD_FLOW": 6,
                "HYBAS_L12": 4121157310.0,
                "Shape_Length": 0.010059223176575559
            },
            "geometry": {
                "type": "LineString",
                "coordinates": [
                    [
                        79.82708333333298,
                        7.772916666666568
                    ],
                    [
                        79.82291666666632,
                        7.772916666666568
                    ],
                    [
                        79.81874999999965,
                        7.768749999999862
                    ]
                ]
            }
        },
        {
            "type": "Feature",
            "properties": {
                "HYRIV_ID": 41402596,
                "NEXT_DOWN": 41402680,
                "MAIN_RIV": 41402815,
                "LENGTH_KM": 12.84,
                "DIST_DN_KM": 8.6,
                "DIST_UP_KM": 17.8,
                "CATCH_SKM": 57.84,
                "UPLAND_SKM": 57.8,
                "ENDORHEIC": 0,
                "DIS_AV_CMS": 0.954,
                "ORD_STRA": 1,
                "ORD_CLAS": 3,
                "ORD_FLOW": 7,
                "HYBAS_L12": 4121157310.0,
                "Shape_Length": 0.11559433619631881
            },
            "geometry": {
                "type": "LineString",
                "coordinates": [
                    [
                        79.81041666666627,
                        7.866666666666539
                    ],
                    [
                        79.81041666666627,
                        7.860416666666559
                    ],
                    [
                        79.80624999999966,
                        7.856249999999896
                    ],
                    [
                        79.80208333333294,
                        7.856249999999896
                    ],
                    [
                        79.80208333333294,
                        7.772916666666568
                    ],
                    [
                        79.80624999999966,
                        7.768749999999862
                    ],
                    [
                        79.80624999999966,
                        7.764583333333199
                    ],
                    [
                        79.81041666666627,
                        7.760416666666551
                    ]
                ]
            }
        },
        {
            "type": "Feature",
            "properties": {
                "HYRIV_ID": 41402597,
                "NEXT_DOWN": 41402680,
                "MAIN_RIV": 41402815,
                "LENGTH_KM": 1.3,
                "DIST_DN_KM": 8.6,
                "DIST_UP_KM": 28.8,
                "CATCH_SKM": 8.08,
                "UPLAND_SKM": 256.5,
                "ENDORHEIC": 0,
                "DIS_AV_CMS": 4.3990002,
                "ORD_STRA": 3,
                "ORD_CLAS": 2,
                "ORD_FLOW": 6,
                "HYBAS_L12": 4121157310.0,
                "Shape_Length": 0.011785113019795219
            },
            "geometry": {
                "type": "LineString",
                "coordinates": [
                    [
                        79.81874999999965,
                        7.768749999999862
                    ],
                    [
                        79.81041666666627,
                        7.760416666666551
                    ]
                ]
            }
        },
        {
            "type": "Feature",
            "properties": {
                "HYRIV_ID": 41402598,
                "NEXT_DOWN": 41402740,
                "MAIN_RIV": 41402815,
                "LENGTH_KM": 2.0,
                "DIST_DN_KM": 26.1,
                "DIST_UP_KM": 5.1,
                "CATCH_SKM": 12.55,
                "UPLAND_SKM": 12.5,
                "ENDORHEIC": 0,
                "DIS_AV_CMS": 0.23,
                "ORD_STRA": 1,
                "ORD_CLAS": 2,
                "ORD_FLOW": 7,
                "HYBAS_L12": 4121157340.0,
                "Shape_Length": 0.01803511301977776
            },
            "geometry": {
                "type": "LineString",
                "coordinates": [
                    [
                        79.97708333333296,
                        7.774999999999885
                    ],
                    [
                        79.97708333333296,
                        7.768749999999862
                    ],
                    [
                        79.9729166666663,
                        7.764583333333199
                    ],
                    [
                        79.97708333333296,
                        7.760416666666551
                    ]
                ]
            }
        },
        {
            "type": "Feature",
            "properties": {
                "HYRIV_ID": 41402612,
                "NEXT_DOWN": 41402740,
                "MAIN_RIV": 41402815,
                "LENGTH_KM": 3.72,
                "DIST_DN_KM": 25.9,
                "DIST_UP_KM": 20.200001,
                "CATCH_SKM": 9.5699997,
                "UPLAND_SKM": 108.2,
                "ENDORHEIC": 0,
                "DIS_AV_CMS": 1.966,
                "ORD_STRA": 2,
                "ORD_CLAS": 1,
                "ORD_FLOW": 6,
                "HYBAS_L12": 4121157340.0,
                "Shape_Length": 0.033629449216152504
            },
            "geometry": {
                "type": "LineString",
                "coordinates": [
                    [
                        80.00208333333299,
                        7.772916666666568
                    ],
                    [
                        79.98541666666634,
                        7.756249999999888
                    ],
                    [
                        79.98124999999968,
                        7.760416666666551
                    ],
                    [
                        79.97708333333296,
                        7.760416666666551
                    ]
                ]
            }
        },
        {
            "type": "Feature",
            "properties": {
                "HYRIV_ID": 41402680,
                "NEXT_DOWN": 41402749,
                "MAIN_RIV": 41402815,
                "LENGTH_KM": 3.1600001,
                "DIST_DN_KM": 5.4,
                "DIST_UP_KM": 31.9,
                "CATCH_SKM": 6.3800001,
                "UPLAND_SKM": 320.70001,
                "ENDORHEIC": 0,
                "DIS_AV_CMS": 5.46,
                "ORD_STRA": 3,
                "ORD_CLAS": 2,
                "ORD_FLOW": 6,
                "HYBAS_L12": 4121157310.0,
                "Shape_Length": 0.028451779686364614
            },
            "geometry": {
                "type": "LineString",
                "coordinates": [
                    [
                        79.81041666666627,
                        7.760416666666551
                    ],
                    [
                        79.81041666666627,
                        7.756249999999888
                    ],
                    [
                        79.80624999999966,
                        7.752083333333225
                    ],
                    [
                        79.80624999999966,
                        7.739583333333208
                    ],
                    [
                        79.81041666666627,
                        7.735416666666545
                    ]
                ]
            }
        },
        {
            "type": "Feature",
            "properties": {
                "HYRIV_ID": 41402681,
                "NEXT_DOWN": 41402749,
                "MAIN_RIV": 41402815,
                "LENGTH_KM": 6.7800002,
                "DIST_DN_KM": 5.2,
                "DIST_UP_KM": 10.1,
                "CATCH_SKM": 19.99,
                "UPLAND_SKM": 20.0,
                "ENDORHEIC": 0,
                "DIS_AV_CMS": 0.366,
                "ORD_STRA": 1,
                "ORD_CLAS": 3,
                "ORD_FLOW": 7,
                "HYBAS_L12": 4121157310.0,
                "Shape_Length": 0.06142766952967643
            },
            "geometry": {
                "type": "LineString",
                "coordinates": [
                    [
                        79.86249999999964,
                        7.743749999999871
                    ],
                    [
                        79.85208333333301,
                        7.743749999999871
                    ],
                    [
                        79.8479166666663,
                        7.739583333333208
                    ],
                    [
                        79.84374999999963,
                        7.739583333333208
                    ],
                    [
                        79.83958333333297,
                        7.735416666666545
                    ],
                    [
                        79.8354166666663,
                        7.739583333333208
                    ],
                    [
                        79.81041666666627,
                        7.739583333333208
                    ],
                    [
                        79.81041666666627,
                        7.735416666666545
                    ]
                ]
            }
        },
        {
            "type": "Feature",
            "properties": {
                "HYRIV_ID": 41402739,
                "NEXT_DOWN": 41402788,
                "MAIN_RIV": 41402815,
                "LENGTH_KM": 3.6700001,
                "DIST_DN_KM": 14.3,
                "DIST_UP_KM": 6.9,
                "CATCH_SKM": 14.04,
                "UPLAND_SKM": 14.0,
                "ENDORHEIC": 0,
                "DIS_AV_CMS": 0.26,
                "ORD_STRA": 1,
                "ORD_CLAS": 2,
                "ORD_FLOW": 7,
                "HYBAS_L12": 4121157340.0,
                "Shape_Length": 0.03312394778462014
            },
            "geometry": {
                "type": "LineString",
                "coordinates": [
                    [
                        79.91249999999965,
                        7.745833333333245
                    ],
                    [
                        79.90624999999974,
                        7.739583333333208
                    ],
                    [
                        79.90208333333308,
                        7.739583333333208
                    ],
                    [
                        79.8937499999997,
                        7.731249999999896
                    ],
                    [
                        79.8937499999997,
                        7.722916666666528
                    ]
                ]
            }
        },
        {
            "type": "Feature",
            "properties": {
                "HYRIV_ID": 41402740,
                "NEXT_DOWN": 41402788,
                "MAIN_RIV": 41402815,
                "LENGTH_KM": 11.58,
                "DIST_DN_KM": 14.3,
                "DIST_UP_KM": 31.8,
                "CATCH_SKM": 37.650002,
                "UPLAND_SKM": 158.39999,
                "ENDORHEIC": 0,
                "DIS_AV_CMS": 2.8940001,
                "ORD_STRA": 2,
                "ORD_CLAS": 1,
                "ORD_FLOW": 6,
                "HYBAS_L12": 4121157340.0,
                "Shape_Length": 0.1047588984320906
            },
            "geometry": {
                "type": "LineString",
                "coordinates": [
                    [
                        79.97708333333296,
                        7.760416666666551
                    ],
                    [
                        79.9729166666663,
                        7.756249999999888
                    ],
                    [
                        79.9729166666663,
                        7.752083333333225
                    ],
                    [
                        79.95624999999964,
                        7.735416666666545
                    ],
                    [
                        79.9437499999996,
                        7.735416666666545
                    ],
                    [
                        79.93958333333299,
                        7.731249999999896
                    ],
                    [
                        79.93124999999978,
                        7.731249999999896
                    ],
                    [
                        79.92708333333294,
                        7.727083333333191
                    ],
                    [
                        79.9229166666664,
                        7.727083333333191
                    ],
                    [
                        79.91874999999962,
                        7.722916666666528
                    ],
                    [
                        79.91458333333296,
                        7.727083333333191
                    ],
                    [
                        79.9104166666663,
                        7.722916666666528
                    ],
                    [
                        79.8937499999997,
                        7.722916666666528
                    ]
                ]
            }
        },
        {
            "type": "Feature",
            "properties": {
                "HYRIV_ID": 41402749,
                "NEXT_DOWN": 41402815,
                "MAIN_RIV": 41402815,
                "LENGTH_KM": 1.85,
                "DIST_DN_KM": 3.4,
                "DIST_UP_KM": 34.0,
                "CATCH_SKM": 3.4,
                "UPLAND_SKM": 344.10001,
                "ENDORHEIC": 0,
                "DIS_AV_CMS": 5.882,
                "ORD_STRA": 3,
                "ORD_CLAS": 2,
                "ORD_FLOW": 6,
                "HYBAS_L12": 4121157310.0,
                "Shape_Length": 0.01666666666666572
            },
            "geometry": {
                "type": "LineString",
                "coordinates": [
                    [
                        79.81041666666627,
                        7.735416666666545
                    ],
                    [
                        79.81041666666627,
                        7.718749999999879
                    ]
                ]
            }
        },
        {
            "type": "Feature",
            "properties": {
                "HYRIV_ID": 41402788,
                "NEXT_DOWN": 41402815,
                "MAIN_RIV": 41402815,
                "LENGTH_KM": 10.92,
                "DIST_DN_KM": 3.4,
                "DIST_UP_KM": 42.700001,
                "CATCH_SKM": 34.459999,
                "UPLAND_SKM": 206.89999,
                "ENDORHEIC": 0,
                "DIS_AV_CMS": 3.7869999,
                "ORD_STRA": 2,
                "ORD_CLAS": 1,
                "ORD_FLOW": 6,
                "HYBAS_L12": 4121157340.0,
                "Shape_Length": 0.09886634192230481
            },
            "geometry": {
                "type": "LineString",
                "coordinates": [
                    [
                        79.8937499999997,
                        7.722916666666528
                    ],
                    [
                        79.8812499999996,
                        7.710416666666553
                    ],
                    [
                        79.87708333333305,
                        7.710416666666553
                    ],
                    [
                        79.87291666666633,
                        7.70625
                    ],
                    [
                        79.86874999999966,
                        7.70625
                    ],
                    [
                        79.86041666666634,
                        7.714583333333216
                    ],
                    [
                        79.83958333333297,
                        7.714583333333216
                    ],
                    [
                        79.83124999999964,
                        7.722916666666528
                    ],
                    [
                        79.81874999999965,
                        7.722916666666528
                    ],
                    [
                        79.81458333333299,
                        7.718749999999879
                    ],
                    [
                        79.81041666666627,
                        7.718749999999879
                    ]
                ]
            }
        },
        {
            "type": "Feature",
            "properties": {
                "HYRIV_ID": 41402815,
                "NEXT_DOWN": 0,
                "MAIN_RIV": 41402815,
                "LENGTH_KM": 3.1500001,
                "DIST_DN_KM": 0.0,
                "DIST_UP_KM": 45.900002,
                "CATCH_SKM": 4.4699998,
                "UPLAND_SKM": 555.29999,
                "ENDORHEIC": 0,
                "DIS_AV_CMS": 9.7340002,
                "ORD_STRA": 3,
                "ORD_CLAS": 1,
                "ORD_FLOW": 6,
                "HYBAS_L12": 4120049150.0,
                "Shape_Length": 0.028451779686278635
            },
            "geometry": {
                "type": "LineString",
                "coordinates": [
                    [
                        79.81041666666627,
                        7.718749999999879
                    ],
                    [
                        79.81041666666627,
                        7.710416666666553
                    ],
                    [
                        79.80624999999966,
                        7.70625
                    ],
                    [
                        79.80624999999966,
                        7.702083333333199
                    ],
                    [
                        79.80208333333294,
                        7.697916666666536
                    ],
                    [
                        79.79791666666645,
                        7.697916666666536
                    ]
                ]
            }
        }
    ]
}