{
    "type": "FeatureCollection",
    "features": [
        {
            "type": "Feature",
            "properties": {
                "HYRIV_ID": 41405147,
                "NEXT_DOWN": 41405259,
                "MAIN_RIV": 41405272,
                "LENGTH_KM": 7.54,
                "DIST_DN_KM": 7.4,
                "DIST_UP_KM": 9.6,
                "CATCH_SKM": 24.07,
                "UPLAND_SKM": 24.1,
                "ENDORHEIC": 0,
                "DIS_AV_CMS": 0.484,
                "ORD_STRA": 1,
                "ORD_CLAS": 2,
                "ORD_FLOW": 7,
                "HYBAS_L12": 4120049880.0,
                "Shape_Length": 0.06818317096115044
            },
            "geometry": {
                "type": "LineString",
                "coordinates": [
                    [
                        81.77083333333294,
                        7.079166666666588
                    ],
                    [
                        81.77708333333302,
                        7.085416666666568
                    ],
                    [
                        81.79374999999962,
                        7.085416666666568
                    ],
                    [
                        81.79791666666628,
                        7.089583333333231
                    ],
                    [
                        81.81041666666627,
                        7.089583333333231
                    ],
                    [
                        81.81458333333293,
                        7.093749999999893
                    ],
                    [
                        81.8187499999996,
                        7.089583333333231
                    ],
                    [
                        81.83124999999964,
                        7.089583333333231
                    ]
                ]
            }
        },
        {
            "type": "Feature",
            "properties": {
                "HYRIV_ID": 41405258,
                "NEXT_DOWN": 41405259,
                "MAIN_RIV": 41405272,
                "LENGTH_KM": 5.96,
                "DIST_DN_KM": 7.6,
                "DIST_UP_KM": 18.3,
                "CATCH_SKM": 13.42,
                "UPLAND_SKM": 69.699997,
                "ENDORHEIC": 0,
                "DIS_AV_CMS": 1.353,
                "ORD_STRA": 2,
                "ORD_CLAS": 1,
                "ORD_FLOW": 6,
                "HYBAS_L12": 4120049880.0,
                "Shape_Length": 0.053747895569249214
            },
            "geometry": {
                "type": "LineString",
                "coordinates": [
                    [
                        81.79791666666628,
                        7.052083333333222
                    ],
                    [
                        81.81458333333293,
                        7.06875
                    ],
                    [
                        81.81458333333293,
                        7.077083333333213
                    ],
                    [
                        81.8187499999996,
                        7.08125
                    ],
                    [
                        81.82291666666632,
                        7.08125
                    ],
                    [
                        81.83124999999964,
                        7.089583333333231
                    ]
                ]
            }
        },
        {
            "type": "Feature",
            "properties": {
                "HYRIV_ID": 41405259,
                "NEXT_DOWN": 41405272,
                "MAIN_RIV": 41405272,
                "LENGTH_KM": 5.58,
                "DIST_DN_KM": 2.0,
                "DIST_UP_KM": 23.9,
                "CATCH_SKM": 15.76,
                "UPLAND_SKM": 109.5,
                "ENDORHEIC": 0,
                "DIS_AV_CMS": 2.138,
                "ORD_STRA": 2,
                "ORD_CLAS": 1,
                "ORD_FLOW": 6,
                "HYBAS_L12": 4120049880.0,
                "Shape_Length": 0.05029611588276138
            },
            "geometry": {
                "type": "LineString",
                "coordinates": [
                    [
                        81.83124999999964,
                        7.089583333333231
                    ],
                    [
                        81.8354166666663,
                        7.089583333333231
                    ],
                    [
                        81.85208333333296,
                        7.072916666666551
                    ],
                    [
                        81.85208333333296,
                        7.056249999999885
                    ],
                    [
                        81.85624999999962,
                        7.052083333333222
                    ]
                ]
            }
        },
        {
            "type": "Feature",
            "properties": {
                "HYRIV_ID": 41405272,
                "NEXT_DOWN": 0,
                "MAIN_RIV": 41405272,
                "LENGTH_KM": 1.5700001,
                "DIST_DN_KM": 0.0,
                "DIST_UP_KM": 25.700001,
                "CATCH_SKM": 3.62,
                "UPLAND_SKM": 140.60001,
                "ENDORHEIC": 0,
                "DIS_AV_CMS": 2.73,
                "ORD_STRA": 2,
                "ORD_CLAS": 1,
                "ORD_FLOW": 6,
                "HYBAS_L12": 4120049880.0,
                "Shape_Length": 0.014225889843265133
            },
            "geometry": {
                "type": "LineString",
                "coordinates": [
                    [
                        81.85624999999962,
                        7.052083333333222
                    ],
                    [
                        81.86041666666634,
                        7.052083333333222
                    ],
                    [
                        81.864583333333,
                        7.047916666666559
                    ],
                    [
                        81.86874999999966,
                        7.047916666666559
                    ]
                ]
            }
        },
        {
            "type": "Feature",
            "properties": {
                "HYRIV_ID": 41405298,
                "NEXT_DOWN": 41405258,
                "MAIN_RIV": 41405272,
                "LENGTH_KM": 9.4,
                "DIST_DN_KM": 13.3,
                "DIST_UP_KM": 12.6,
                "CATCH_SKM": 47.509998,
                "UPLAND_SKM": 47.5,
                "ENDORHEIC": 0,
                "DIS_AV_CMS": 0.927,
                "ORD_STRA": 1,
                "ORD_CLAS": 1,
                "ORD_FLOW": 7,
                "HYBAS_L12": 4120049880.0,
                "Shape_Length": 0.08499789556918305
            },
            "geometry": {
                "type": "LineString",
                "coordinates": [
                    [
                        81.7249999999996,
                        7.047916666666559
                    ],
                    [
                        81.73541666666634,
                        7.047916666666559
                    ],
                    [
                        81.74374999999966,
                        7.039583333333248
                    ],
                    [
                        81.74791666666633,
                        7.043749999999896
                    ],
                    [
                        81.77291666666625,
                        7.043749999999896
                    ],
                    [
                        81.77708333333302,
                        7.039583333333248
                    ],
                    [
                        81.78124999999957,
                        7.043749999999896
                    ],
                    [
                        81.7854166666663,
                        7.043749999999896
                    ],
                    [
                        81.79374999999962,
                        7.052083333333222
                    ],
                    [
                        81.79791666666628,
                        7.052083333333222
                    ]
                ]
            }
        },
        {
            "type": "Feature",
            "properties": {
                "HYRIV_ID": 41405316,
                "NEXT_DOWN": 41405258,
                "MAIN_RIV": 41405272,
                "LENGTH_KM": 2.27,
                "DIST_DN_KM": 13.3,
                "DIST_UP_KM": 5.1,
                "CATCH_SKM": 8.7299995,
                "UPLAND_SKM": 8.7,
                "ENDORHEIC": 0,
                "DIS_AV_CMS": 0.168,
                "ORD_STRA": 1,
                "ORD_CLAS": 2,
                "ORD_FLOW": 7,
                "HYBAS_L12": 4120049880.0,
                "Shape_Length": 0.02047588984323519
            },
            "geometry": {
                "type": "LineString",
                "coordinates": [
                    [
                        81.79374999999962,
                        7.033333333333211
                    ],
                    [
                        81.79374999999962,
                        7.039583333333248
                    ],
                    [
                        81.79791666666628,
                        7.043749999999896
                    ],
                    [
                        81.79791666666628,
                        7.052083333333222
                    ]
                ]
            }
        },
        {
            "type": "Feature",
            "properties": {
                "HYRIV_ID": 41405339,
                "NEXT_DOWN": 41405272,
                "MAIN_RIV": 41405272,
                "LENGTH_KM": 6.54,
                "DIST_DN_KM": 1.8,
                "DIST_UP_KM": 9.2,
                "CATCH_SKM": 29.610001,
                "UPLAND_SKM": 29.6,
                "ENDORHEIC": 0,
                "DIS_AV_CMS": 0.56900001,
                "ORD_STRA": 1,
                "ORD_CLAS": 2,
                "ORD_FLOW": 7,
                "HYBAS_L12": 4120049880.0,
                "Shape_Length": 0.059134950647540825
            },
            "geometry": {
                "type": "LineString",
                "coordinates": [
                    [
                        81.80833333333302,
                        7.024999999999899
                    ],
                    [
                        81.8354166666663,
                        7.052083333333222
                    ],
                    [
                        81.85624999999962,
                        7.052083333333222
                    ]
                ]
            }
        }
    ]
}