{
    "type": "FeatureCollection",
    "features": [
        {
            "type": "Feature",
            "properties": {
                "HYRIV_ID": 41402876,
                "NEXT_DOWN": 0,
                "MAIN_RIV": 41402876,
                "LENGTH_KM": 8.9300003,
                "DIST_DN_KM": 0.0,
                "DIST_UP_KM": 13.3,
                "CATCH_SKM": 31.91,
                "UPLAND_SKM": 31.700001,
                "ENDORHEIC": 0,
                "DIS_AV_CMS": 0.616,
                "ORD_STRA": 1,
                "ORD_CLAS": 1,
                "ORD_FLOW": 7,
                "HYBAS_L12": 4120049140.0,
                "Shape_Length": 0.08083122890235968
            },
            "geometry": {
                "type": "LineString",
                "coordinates": [
                    [
                        79.8666666666663,
                        7.68125
                    ],
                    [
                        79.86041666666634,
                        7.68125
                    ],
                    [
                        79.85624999999968,
                        7.685416666666519
                    ],
                    [
                        79.8479166666663,
                        7.685416666666519
                    ],
                    [
                        79.84374999999963,
                        7.68125
                    ],
                    [
                        79.83958333333297,
                        7.68125
                    ],
                    [
                        79.8354166666663,
                        7.677083333333208
                    ],
                    [
                        79.83124999999964,
                        7.68125
                    ],
                    [
                        79.81874999999965,
                        7.68125
                    ],
                    [
                        79.81458333333299,
                        7.685416666666519
                    ],
                    [
                        79.81041666666627,
                        7.685416666666519
                    ],
                    [
                        79.80208333333294,
                        7.693749999999888
                    ],
                    [
                        79.79791666666645,
                        7.693749999999888
                    ]
                ]
            }
        }
    ]
}