{
    "type": "FeatureCollection",
    "features": [
        {
            "type": "Feature",
            "properties": {
                "HYRIV_ID": 41400903,
                "NEXT_DOWN": 41400956,
                "MAIN_RIV": 41401284,
                "LENGTH_KM": 0.98,
                "DIST_DN_KM": 21.5,
                "DIST_UP_KM": 4.3,
                "CATCH_SKM": 11.26,
                "UPLAND_SKM": 11.3,
                "ENDORHEIC": 0,
                "DIS_AV_CMS": 0.227,
                "ORD_STRA": 1,
                "ORD_CLAS": 4,
                "ORD_FLOW": 7,
                "HYBAS_L12": 4121156600.0,
                "Shape_Length": 0.008838834764874048
            },
            "geometry": {
                "type": "LineString",
                "coordinates": [
                    [
                        81.32916666666628,
                        8.208333333333208
                    ],
                    [
                        81.33541666666636,
                        8.202083333333228
                    ]
                ]
            }
        },
        {
            "type": "Feature",
            "properties": {
                "HYRIV_ID": 41400956,
                "NEXT_DOWN": 41401083,
                "MAIN_RIV": 41401284,
                "LENGTH_KM": 2.8800001,
                "DIST_DN_KM": 18.6,
                "DIST_UP_KM": 11.4,
                "CATCH_SKM": 9.5600004,
                "UPLAND_SKM": 41.400002,
                "ENDORHEIC": 0,
                "DIS_AV_CMS": 0.83700001,
                "ORD_STRA": 2,
                "ORD_CLAS": 3,
                "ORD_FLOW": 7,
                "HYBAS_L12": 4121156600.0,
                "Shape_Length": 0.026011002863022596
            },
            "geometry": {
                "type": "LineString",
                "coordinates": [
                    [
                        81.33541666666636,
                        8.202083333333228
                    ],
                    [
                        81.34374999999957,
                        8.19374999999986
                    ],
                    [
                        81.34791666666635,
                        8.19374999999986
                    ],
                    [
                        81.34791666666635,
                        8.18958333333321
                    ],
                    [
                        81.35208333333301,
                        8.185416666666548
                    ]
                ]
            }
        },
        {
            "type": "Feature",
            "properties": {
                "HYRIV_ID": 41400957,
                "NEXT_DOWN": 41401083,
                "MAIN_RIV": 41401284,
                "LENGTH_KM": 0.98,
                "DIST_DN_KM": 18.6,
                "DIST_UP_KM": 4.8,
                "CATCH_SKM": 6.1599998,
                "UPLAND_SKM": 6.2,
                "ENDORHEIC": 0,
                "DIS_AV_CMS": 0.125,
                "ORD_STRA": 1,
                "ORD_CLAS": 4,
                "ORD_FLOW": 7,
                "HYBAS_L12": 4121156600.0,
                "Shape_Length": 0.008838834764753466
            },
            "geometry": {
                "type": "LineString",
                "coordinates": [
                    [
                        81.35833333333292,
                        8.191666666666528
                    ],
                    [
                        81.35208333333301,
                        8.185416666666548
                    ]
                ]
            }
        },
        {
            "type": "Feature",
            "properties": {
                "HYRIV_ID": 41400986,
                "NEXT_DOWN": 41400956,
                "MAIN_RIV": 41401284,
                "LENGTH_KM": 4.7800002,
                "DIST_DN_KM": 21.3,
                "DIST_UP_KM": 8.7,
                "CATCH_SKM": 20.610001,
                "UPLAND_SKM": 20.6,
                "ENDORHEIC": 0,
                "DIS_AV_CMS": 0.41800001,
                "ORD_STRA": 1,
                "ORD_CLAS": 3,
                "ORD_FLOW": 7,
                "HYBAS_L12": 4121156600.0,
                "Shape_Length": 0.04318317096113785
            },
            "geometry": {
                "type": "LineString",
                "coordinates": [
                    [
                        81.30833333333308,
                        8.175
                    ],
                    [
                        81.31458333333299,
                        8.181249999999842
                    ],
                    [
                        81.31458333333299,
                        8.185416666666548
                    ],
                    [
                        81.31874999999965,
                        8.18958333333321
                    ],
                    [
                        81.32708333333298,
                        8.18958333333321
                    ],
                    [
                        81.33541666666636,
                        8.197916666666522
                    ],
                    [
                        81.33541666666636,
                        8.202083333333228
                    ]
                ]
            }
        },
        {
            "type": "Feature",
            "properties": {
                "HYRIV_ID": 41401032,
                "NEXT_DOWN": 41401126,
                "MAIN_RIV": 41401284,
                "LENGTH_KM": 2.74,
                "DIST_DN_KM": 13.2,
                "DIST_UP_KM": 5.8,
                "CATCH_SKM": 13.6,
                "UPLAND_SKM": 13.6,
                "ENDORHEIC": 0,
                "DIS_AV_CMS": 0.278,
                "ORD_STRA": 1,
                "ORD_CLAS": 3,
                "ORD_FLOW": 7,
                "HYBAS_L12": 4121156600.0,
                "Shape_Length": 0.024642556509907404
            },
            "geometry": {
                "type": "LineString",
                "coordinates": [
                    [
                        81.38958333333292,
                        8.18749999999988
                    ],
                    [
                        81.38958333333292,
                        8.177083333333236
                    ],
                    [
                        81.39374999999964,
                        8.17291666666653
                    ],
                    [
                        81.39374999999964,
                        8.16458333333322
                    ]
                ]
            }
        },
        {
            "type": "Feature",
            "properties": {
                "HYRIV_ID": 41401033,
                "NEXT_DOWN": 41401126,
                "MAIN_RIV": 41401284,
                "LENGTH_KM": 1.81,
                "DIST_DN_KM": 13.4,
                "DIST_UP_KM": 4.5,
                "CATCH_SKM": 9.9899998,
                "UPLAND_SKM": 10.0,
                "ENDORHEIC": 0,
                "DIS_AV_CMS": 0.205,
                "ORD_STRA": 1,
                "ORD_CLAS": 4,
                "ORD_FLOW": 7,
                "HYBAS_L12": 4121156600.0,
                "Shape_Length": 0.01630922317651791
            },
            "geometry": {
                "type": "LineString",
                "coordinates": [
                    [
                        81.39791666666625,
                        8.179166666666553
                    ],
                    [
                        81.39791666666625,
                        8.168749999999868
                    ],
                    [
                        81.39374999999964,
                        8.16458333333322
                    ]
                ]
            }
        },
        {
            "type": "Feature",
            "properties": {
                "HYRIV_ID": 41401083,
                "NEXT_DOWN": 41401125,
                "MAIN_RIV": 41401284,
                "LENGTH_KM": 4.7399998,
                "DIST_DN_KM": 13.9,
                "DIST_UP_KM": 16.1,
                "CATCH_SKM": 9.7700005,
                "UPLAND_SKM": 57.400002,
                "ENDORHEIC": 0,
                "DIS_AV_CMS": 1.158,
                "ORD_STRA": 2,
                "ORD_CLAS": 3,
                "ORD_FLOW": 6,
                "HYBAS_L12": 4121156600.0,
                "Shape_Length": 0.04267766952971602
            },
            "geometry": {
                "type": "LineString",
                "coordinates": [
                    [
                        81.35208333333301,
                        8.185416666666548
                    ],
                    [
                        81.35208333333301,
                        8.168749999999868
                    ],
                    [
                        81.35624999999968,
                        8.16458333333322
                    ],
                    [
                        81.35624999999968,
                        8.15624999999985
                    ],
                    [
                        81.36458333333306,
                        8.14791666666654
                    ]
                ]
            }
        },
        {
            "type": "Feature",
            "properties": {
                "HYRIV_ID": 41401103,
                "NEXT_DOWN": 41401104,
                "MAIN_RIV": 41401284,
                "LENGTH_KM": 1.34,
                "DIST_DN_KM": 15.0,
                "DIST_UP_KM": 5.4,
                "CATCH_SKM": 9.1400003,
                "UPLAND_SKM": 9.1,
                "ENDORHEIC": 0,
                "DIS_AV_CMS": 0.18700001,
                "ORD_STRA": 1,
                "ORD_CLAS": 3,
                "ORD_FLOW": 7,
                "HYBAS_L12": 4121156600.0,
                "Shape_Length": 0.012142556509962116
            },
            "geometry": {
                "type": "LineString",
                "coordinates": [
                    [
                        81.34583333333293,
                        8.14791666666654
                    ],
                    [
                        81.35208333333301,
                        8.14791666666654
                    ],
                    [
                        81.35624999999968,
                        8.143749999999876
                    ]
                ]
            }
        },
        {
            "type": "Feature",
            "properties": {
                "HYRIV_ID": 41401104,
                "NEXT_DOWN": 41401125,
                "MAIN_RIV": 41401284,
                "LENGTH_KM": 1.11,
                "DIST_DN_KM": 13.7,
                "DIST_UP_KM": 18.5,
                "CATCH_SKM": 4.6700001,
                "UPLAND_SKM": 85.0,
                "ENDORHEIC": 0,
                "DIS_AV_CMS": 1.744,
                "ORD_STRA": 2,
                "ORD_CLAS": 2,
                "ORD_FLOW": 6,
                "HYBAS_L12": 4121156600.0,
                "Shape_Length": 0.010059223176585608
            },
            "geometry": {
                "type": "LineString",
                "coordinates": [
                    [
                        81.35624999999968,
                        8.143749999999876
                    ],
                    [
                        81.3604166666664,
                        8.14791666666654
                    ],
                    [
                        81.36458333333306,
                        8.14791666666654
                    ]
                ]
            }
        },
        {
            "type": "Feature",
            "properties": {
                "HYRIV_ID": 41401124,
                "NEXT_DOWN": 41401104,
                "MAIN_RIV": 41401284,
                "LENGTH_KM": 1.11,
                "DIST_DN_KM": 15.0,
                "DIST_UP_KM": 17.200001,
                "CATCH_SKM": 1.91,
                "UPLAND_SKM": 71.199997,
                "ENDORHEIC": 0,
                "DIS_AV_CMS": 1.462,
                "ORD_STRA": 2,
                "ORD_CLAS": 2,
                "ORD_FLOW": 6,
                "HYBAS_L12": 4121156600.0,
                "Shape_Length": 0.010059223176545413
            },
            "geometry": {
                "type": "LineString",
                "coordinates": [
                    [
                        81.34791666666635,
                        8.139583333333213
                    ],
                    [
                        81.35208333333301,
                        8.139583333333213
                    ],
                    [
                        81.35624999999968,
                        8.143749999999876
                    ]
                ]
            }
        },
        {
            "type": "Feature",
            "properties": {
                "HYRIV_ID": 41401125,
                "NEXT_DOWN": 41401251,
                "MAIN_RIV": 41401284,
                "LENGTH_KM": 3.6,
                "DIST_DN_KM": 10.1,
                "DIST_UP_KM": 22.1,
                "CATCH_SKM": 7.4400001,
                "UPLAND_SKM": 149.8,
                "ENDORHEIC": 0,
                "DIS_AV_CMS": 3.046,
                "ORD_STRA": 3,
                "ORD_CLAS": 2,
                "ORD_FLOW": 6,
                "HYBAS_L12": 4121156600.0,
                "Shape_Length": 0.032618446353022613
            },
            "geometry": {
                "type": "LineString",
                "coordinates": [
                    [
                        81.36458333333306,
                        8.14791666666654
                    ],
                    [
                        81.36874999999961,
                        8.14791666666654
                    ],
                    [
                        81.37291666666627,
                        8.143749999999876
                    ],
                    [
                        81.37708333333293,
                        8.143749999999876
                    ],
                    [
                        81.3812499999996,
                        8.139583333333213
                    ],
                    [
                        81.39374999999964,
                        8.139583333333213
                    ]
                ]
            }
        },
        {
            "type": "Feature",
            "properties": {
                "HYRIV_ID": 41401126,
                "NEXT_DOWN": 41401251,
                "MAIN_RIV": 41401284,
                "LENGTH_KM": 3.1600001,
                "DIST_DN_KM": 10.1,
                "DIST_UP_KM": 9.0,
                "CATCH_SKM": 13.17,
                "UPLAND_SKM": 36.8,
                "ENDORHEIC": 0,
                "DIS_AV_CMS": 0.75199997,
                "ORD_STRA": 2,
                "ORD_CLAS": 3,
                "ORD_FLOW": 7,
                "HYBAS_L12": 4121156600.0,
                "Shape_Length": 0.02845177968652539
            },
            "geometry": {
                "type": "LineString",
                "coordinates": [
                    [
                        81.39374999999964,
                        8.16458333333322
                    ],
                    [
                        81.38958333333292,
                        8.160416666666556
                    ],
                    [
                        81.38958333333292,
                        8.14791666666654
                    ],
                    [
                        81.39374999999964,
                        8.143749999999876
                    ],
                    [
                        81.39374999999964,
                        8.139583333333213
                    ]
                ]
            }
        },
        {
            "type": "Feature",
            "properties": {
                "HYRIV_ID": 41401250,
                "NEXT_DOWN": 41401124,
                "MAIN_RIV": 41401284,
                "LENGTH_KM": 5.4299998,
                "DIST_DN_KM": 15.9,
                "DIST_UP_KM": 9.1,
                "CATCH_SKM": 24.23,
                "UPLAND_SKM": 24.200001,
                "ENDORHEIC": 0,
                "DIS_AV_CMS": 0.501,
                "ORD_STRA": 1,
                "ORD_CLAS": 3,
                "ORD_FLOW": 7,
                "HYBAS_L12": 4121156600.0,
                "Shape_Length": 0.049075727471070925
            },
            "geometry": {
                "type": "LineString",
                "coordinates": [
                    [
                        81.3166666666663,
                        8.1083333333332
                    ],
                    [
                        81.32291666666632,
                        8.11458333333318
                    ],
                    [
                        81.32708333333298,
                        8.11458333333318
                    ],
                    [
                        81.33958333333302,
                        8.127083333333196
                    ],
                    [
                        81.34374999999957,
                        8.127083333333196
                    ],
                    [
                        81.34791666666635,
                        8.13124999999986
                    ],
                    [
                        81.34791666666635,
                        8.139583333333213
                    ]
                ]
            }
        },
        {
            "type": "Feature",
            "properties": {
                "HYRIV_ID": 41401251,
                "NEXT_DOWN": 41401283,
                "MAIN_RIV": 41401284,
                "LENGTH_KM": 4.64,
                "DIST_DN_KM": 5.6,
                "DIST_UP_KM": 26.6,
                "CATCH_SKM": 22.309999,
                "UPLAND_SKM": 208.89999,
                "ENDORHEIC": 0,
                "DIS_AV_CMS": 4.2470002,
                "ORD_STRA": 3,
                "ORD_CLAS": 2,
                "ORD_FLOW": 6,
                "HYBAS_L12": 4121156600.0,
                "Shape_Length": 0.04196278254938467
            },
            "geometry": {
                "type": "LineString",
                "coordinates": [
                    [
                        81.39374999999964,
                        8.139583333333213
                    ],
                    [
                        81.39791666666625,
                        8.139583333333213
                    ],
                    [
                        81.40624999999957,
                        8.13124999999986
                    ],
                    [
                        81.40624999999957,
                        8.127083333333196
                    ],
                    [
                        81.4104166666663,
                        8.122916666666548
                    ],
                    [
                        81.4104166666663,
                        8.118749999999885
                    ],
                    [
                        81.41874999999962,
                        8.110416666666573
                    ]
                ]
            }
        },
        {
            "type": "Feature",
            "properties": {
                "HYRIV_ID": 41401283,
                "NEXT_DOWN": 41401307,
                "MAIN_RIV": 41401284,
                "LENGTH_KM": 1.3,
                "DIST_DN_KM": 4.3,
                "DIST_UP_KM": 30.9,
                "CATCH_SKM": 2.98,
                "UPLAND_SKM": 361.70001,
                "ENDORHEIC": 0,
                "DIS_AV_CMS": 7.3979998,
                "ORD_STRA": 4,
                "ORD_CLAS": 1,
                "ORD_FLOW": 6,
                "HYBAS_L12": 4120049720.0,
                "Shape_Length": 0.011785113019795219
            },
            "geometry": {
                "type": "LineString",
                "coordinates": [
                    [
                        81.41874999999962,
                        8.110416666666573
                    ],
                    [
                        81.42708333333294,
                        8.102083333333205
                    ]
                ]
            }
        },
        {
            "type": "Feature",
            "properties": {
                "HYRIV_ID": 41401284,
                "NEXT_DOWN": 0,
                "MAIN_RIV": 41401284,
                "LENGTH_KM": 2.23,
                "DIST_DN_KM": 0.0,
                "DIST_UP_KM": 34.900002,
                "CATCH_SKM": 3.61,
                "UPLAND_SKM": 474.79999,
                "ENDORHEIC": 0,
                "DIS_AV_CMS": 9.75,
                "ORD_STRA": 4,
                "ORD_CLAS": 1,
                "ORD_FLOW": 6,
                "HYBAS_L12": 4120049720.0,
                "Shape_Length": 0.02011844635312341
            },
            "geometry": {
                "type": "LineString",
                "coordinates": [
                    [
                        81.43958333333299,
                        8.102083333333205
                    ],
                    [
                        81.43958333333299,
                        8.110416666666573
                    ],
                    [
                        81.44791666666632,
                        8.118749999999885
                    ]
                ]
            }
        },
        {
            "type": "Feature",
            "properties": {
                "HYRIV_ID": 41401307,
                "NEXT_DOWN": 41401284,
                "MAIN_RIV": 41401284,
                "LENGTH_KM": 1.76,
                "DIST_DN_KM": 2.6,
                "DIST_UP_KM": 32.599998,
                "CATCH_SKM": 2.55,
                "UPLAND_SKM": 376.10001,
                "ENDORHEIC": 0,
                "DIS_AV_CMS": 7.691,
                "ORD_STRA": 4,
                "ORD_CLAS": 1,
                "ORD_FLOW": 6,
                "HYBAS_L12": 4120049720.0,
                "Shape_Length": 0.015951779686448047
            },
            "geometry": {
                "type": "LineString",
                "coordinates": [
                    [
                        81.42708333333294,
                        8.102083333333205
                    ],
                    [
                        81.43124999999961,
                        8.097916666666556
                    ],
                    [
                        81.43541666666627,
                        8.097916666666556
                    ],
                    [
                        81.43958333333299,
                        8.102083333333205
                    ]
                ]
            }
        },
        {
            "type": "Feature",
            "properties": {
                "HYRIV_ID": 41401318,
                "NEXT_DOWN": 41401283,
                "MAIN_RIV": 41401284,
                "LENGTH_KM": 3.07,
                "DIST_DN_KM": 5.6,
                "DIST_UP_KM": 29.6,
                "CATCH_SKM": 4.46,
                "UPLAND_SKM": 149.8,
                "ENDORHEIC": 0,
                "DIS_AV_CMS": 3.096,
                "ORD_STRA": 3,
                "ORD_CLAS": 1,
                "ORD_FLOW": 6,
                "HYBAS_L12": 4121156640.0,
                "Shape_Length": 0.02773689270628346
            },
            "geometry": {
                "type": "LineString",
                "coordinates": [
                    [
                        81.39791666666625,
                        8.09374999999985
                    ],
                    [
                        81.4104166666663,
                        8.106249999999868
                    ],
                    [
                        81.41458333333296,
                        8.106249999999868
                    ],
                    [
                        81.41874999999962,
                        8.110416666666573
                    ]
                ]
            }
        },
        {
            "type": "Feature",
            "properties": {
                "HYRIV_ID": 41401346,
                "NEXT_DOWN": 41401307,
                "MAIN_RIV": 41401284,
                "LENGTH_KM": 2.9300001,
                "DIST_DN_KM": 4.3,
                "DIST_UP_KM": 6.3,
                "CATCH_SKM": 11.9,
                "UPLAND_SKM": 11.9,
                "ENDORHEIC": 0,
                "DIS_AV_CMS": 0.251,
                "ORD_STRA": 1,
                "ORD_CLAS": 2,
                "ORD_FLOW": 7,
                "HYBAS_L12": 4120049720.0,
                "Shape_Length": 0.026516504294461365
            },
            "geometry": {
                "type": "LineString",
                "coordinates": [
                    [
                        81.40833333333299,
                        8.083333333333208
                    ],
                    [
                        81.42708333333294,
                        8.102083333333205
                    ]
                ]
            }
        },
        {
            "type": "Feature",
            "properties": {
                "HYRIV_ID": 41401360,
                "NEXT_DOWN": 41401124,
                "MAIN_RIV": 41401284,
                "LENGTH_KM": 12.73,
                "DIST_DN_KM": 15.9,
                "DIST_UP_KM": 16.3,
                "CATCH_SKM": 45.049999,
                "UPLAND_SKM": 45.099998,
                "ENDORHEIC": 0,
                "DIS_AV_CMS": 0.92299998,
                "ORD_STRA": 1,
                "ORD_CLAS": 2,
                "ORD_FLOW": 7,
                "HYBAS_L12": 4121156600.0,
                "Shape_Length": 0.11517556509895308
            },
            "geometry": {
                "type": "LineString",
                "coordinates": [
                    [
                        81.26874999999964,
                        8.079166666666545
                    ],
                    [
                        81.26874999999964,
                        8.09374999999985
                    ],
                    [
                        81.27291666666625,
                        8.097916666666556
                    ],
                    [
                        81.28124999999957,
                        8.097916666666556
                    ],
                    [
                        81.28958333333296,
                        8.106249999999868
                    ],
                    [
                        81.28958333333296,
                        8.110416666666573
                    ],
                    [
                        81.29791666666628,
                        8.118749999999885
                    ],
                    [
                        81.30208333333294,
                        8.118749999999885
                    ],
                    [
                        81.31458333333299,
                        8.13124999999986
                    ],
                    [
                        81.32708333333298,
                        8.13124999999986
                    ],
                    [
                        81.33124999999964,
                        8.135416666666565
                    ],
                    [
                        81.33958333333302,
                        8.135416666666565
                    ],
                    [
                        81.34374999999957,
                        8.139583333333213
                    ],
                    [
                        81.34791666666635,
                        8.139583333333213
                    ]
                ]
            }
        },
        {
            "type": "Feature",
            "properties": {
                "HYRIV_ID": 41401361,
                "NEXT_DOWN": 41401318,
                "MAIN_RIV": 41401284,
                "LENGTH_KM": 2.09,
                "DIST_DN_KM": 8.5,
                "DIST_UP_KM": 5.7,
                "CATCH_SKM": 7.23,
                "UPLAND_SKM": 7.2,
                "ENDORHEIC": 0,
                "DIS_AV_CMS": 0.152,
                "ORD_STRA": 1,
                "ORD_CLAS": 2,
                "ORD_FLOW": 7,
                "HYBAS_L12": 4121156640.0,
                "Shape_Length": 0.01889805794129888
            },
            "geometry": {
                "type": "LineString",
                "coordinates": [
                    [
                        81.38749999999968,
                        8.079166666666545
                    ],
                    [
                        81.39791666666625,
                        8.089583333333188
                    ],
                    [
                        81.39791666666625,
                        8.09374999999985
                    ]
                ]
            }
        },
        {
            "type": "Feature",
            "properties": {
                "HYRIV_ID": 41401439,
                "NEXT_DOWN": 41401318,
                "MAIN_RIV": 41401284,
                "LENGTH_KM": 9.7299995,
                "DIST_DN_KM": 8.5,
                "DIST_UP_KM": 26.700001,
                "CATCH_SKM": 40.8,
                "UPLAND_SKM": 138.2,
                "ENDORHEIC": 0,
                "DIS_AV_CMS": 2.858,
                "ORD_STRA": 3,
                "ORD_CLAS": 1,
                "ORD_FLOW": 6,
                "HYBAS_L12": 4121156640.0,
                "Shape_Length": 0.08809223176554244
            },
            "geometry": {
                "type": "LineString",
                "coordinates": [
                    [
                        81.32708333333298,
                        8.060416666666548
                    ],
                    [
                        81.33124999999964,
                        8.064583333333196
                    ],
                    [
                        81.33958333333302,
                        8.064583333333196
                    ],
                    [
                        81.35208333333301,
                        8.077083333333213
                    ],
                    [
                        81.3604166666664,
                        8.077083333333213
                    ],
                    [
                        81.3812499999996,
                        8.097916666666556
                    ],
                    [
                        81.38958333333292,
                        8.097916666666556
                    ],
                    [
                        81.39374999999964,
                        8.09374999999985
                    ],
                    [
                        81.39791666666625,
                        8.09374999999985
                    ]
                ]
            }
        },
        {
            "type": "Feature",
            "properties": {
                "HYRIV_ID": 41401491,
                "NEXT_DOWN": 41401439,
                "MAIN_RIV": 41401284,
                "LENGTH_KM": 1.77,
                "DIST_DN_KM": 18.200001,
                "DIST_UP_KM": 10.2,
                "CATCH_SKM": 6.3800001,
                "UPLAND_SKM": 36.8,
                "ENDORHEIC": 0,
                "DIS_AV_CMS": 0.77,
                "ORD_STRA": 2,
                "ORD_CLAS": 2,
                "ORD_FLOW": 7,
                "HYBAS_L12": 4121156640.0,
                "Shape_Length": 0.01595177968642795
            },
            "geometry": {
                "type": "LineString",
                "coordinates": [
                    [
                        81.31874999999965,
                        8.04791666666656
                    ],
                    [
                        81.32708333333298,
                        8.056249999999885
                    ],
                    [
                        81.32708333333298,
                        8.060416666666548
                    ]
                ]
            }
        },
        {
            "type": "Feature",
            "properties": {
                "HYRIV_ID": 41401492,
                "NEXT_DOWN": 41401284,
                "MAIN_RIV": 41401284,
                "LENGTH_KM": 7.2399998,
                "DIST_DN_KM": 2.4,
                "DIST_UP_KM": 19.6,
                "CATCH_SKM": 25.290001,
                "UPLAND_SKM": 95.199997,
                "ENDORHEIC": 0,
                "DIS_AV_CMS": 2.007,
                "ORD_STRA": 2,
                "ORD_CLAS": 2,
                "ORD_FLOW": 6,
                "HYBAS_L12": 4120049720.0,
                "Shape_Length": 0.06523689270631208
            },
            "geometry": {
                "type": "LineString",
                "coordinates": [
                    [
                        81.42708333333294,
                        8.04791666666656
                    ],
                    [
                        81.43124999999961,
                        8.04791666666656
                    ],
                    [
                        81.43541666666627,
                        8.052083333333222
                    ],
                    [
                        81.43541666666627,
                        8.056249999999885
                    ],
                    [
                        81.43958333333299,
                        8.060416666666548
                    ],
                    [
                        81.43541666666627,
                        8.064583333333196
                    ],
                    [
                        81.43541666666627,
                        8.081249999999876
                    ],
                    [
                        81.43958333333299,
                        8.08541666666654
                    ],
                    [
                        81.43958333333299,
                        8.102083333333205
                    ]
                ]
            }
        },
        {
            "type": "Feature",
            "properties": {
                "HYRIV_ID": 41401504,
                "NEXT_DOWN": 41401491,
                "MAIN_RIV": 41401284,
                "LENGTH_KM": 0.98,
                "DIST_DN_KM": 20.200001,
                "DIST_UP_KM": 3.5,
                "CATCH_SKM": 5.7399998,
                "UPLAND_SKM": 5.7,
                "ENDORHEIC": 0,
                "DIS_AV_CMS": 0.12,
                "ORD_STRA": 1,
                "ORD_CLAS": 3,
                "ORD_FLOW": 7,
                "HYBAS_L12": 4121156640.0,
                "Shape_Length": 0.008838834764904194
            },
            "geometry": {
                "type": "LineString",
                "coordinates": [
                    [
                        81.31249999999957,
                        8.041666666666536
                    ],
                    [
                        81.31874999999965,
                        8.04791666666656
                    ]
                ]
            }
        },
        {
            "type": "Feature",
            "properties": {
                "HYRIV_ID": 41401524,
                "NEXT_DOWN": 41401492,
                "MAIN_RIV": 41401284,
                "LENGTH_KM": 1.76,
                "DIST_DN_KM": 9.8,
                "DIST_UP_KM": 12.2,
                "CATCH_SKM": 2.34,
                "UPLAND_SKM": 45.099998,
                "ENDORHEIC": 0,
                "DIS_AV_CMS": 0.95200002,
                "ORD_STRA": 2,
                "ORD_CLAS": 2,
                "ORD_FLOW": 7,
                "HYBAS_L12": 4120049720.0,
                "Shape_Length": 0.015951779686448047
            },
            "geometry": {
                "type": "LineString",
                "coordinates": [
                    [
                        81.41458333333296,
                        8.039583333333205
                    ],
                    [
                        81.41874999999962,
                        8.039583333333205
                    ],
                    [
                        81.42708333333294,
                        8.04791666666656
                    ]
                ]
            }
        },
        {
            "type": "Feature",
            "properties": {
                "HYRIV_ID": 41401585,
                "NEXT_DOWN": 41401524,
                "MAIN_RIV": 41401284,
                "LENGTH_KM": 8.0100002,
                "DIST_DN_KM": 11.6,
                "DIST_UP_KM": 10.5,
                "CATCH_SKM": 31.879999,
                "UPLAND_SKM": 31.9,
                "ENDORHEIC": 0,
                "DIS_AV_CMS": 0.67299998,
                "ORD_STRA": 1,
                "ORD_CLAS": 2,
                "ORD_FLOW": 7,
                "HYBAS_L12": 4120049720.0,
                "Shape_Length": 0.07249789556911503
            },
            "geometry": {
                "type": "LineString",
                "coordinates": [
                    [
                        81.3604166666664,
                        8.020833333333208
                    ],
                    [
                        81.3604166666664,
                        8.027083333333188
                    ],
                    [
                        81.36874999999961,
                        8.035416666666542
                    ],
                    [
                        81.37291666666627,
                        8.035416666666542
                    ],
                    [
                        81.37708333333293,
                        8.039583333333205
                    ],
                    [
                        81.3812499999996,
                        8.035416666666542
                    ],
                    [
                        81.38541666666626,
                        8.035416666666542
                    ],
                    [
                        81.38958333333292,
                        8.039583333333205
                    ],
                    [
                        81.39791666666625,
                        8.039583333333205
                    ],
                    [
                        81.40208333333297,
                        8.043749999999868
                    ],
                    [
                        81.4104166666663,
                        8.043749999999868
                    ],
                    [
                        81.41458333333296,
                        8.039583333333205
                    ]
                ]
            }
        },
        {
            "type": "Feature",
            "properties": {
                "HYRIV_ID": 41401586,
                "NEXT_DOWN": 41401524,
                "MAIN_RIV": 41401284,
                "LENGTH_KM": 3.02,
                "DIST_DN_KM": 11.4,
                "DIST_UP_KM": 6.2,
                "CATCH_SKM": 10.84,
                "UPLAND_SKM": 10.8,
                "ENDORHEIC": 0,
                "DIS_AV_CMS": 0.23100001,
                "ORD_STRA": 1,
                "ORD_CLAS": 3,
                "ORD_FLOW": 7,
                "HYBAS_L12": 4120049720.0,
                "Shape_Length": 0.02723139127471406
            },
            "geometry": {
                "type": "LineString",
                "coordinates": [
                    [
                        81.39999999999966,
                        8.020833333333208
                    ],
                    [
                        81.40624999999957,
                        8.027083333333188
                    ],
                    [
                        81.40624999999957,
                        8.031249999999893
                    ],
                    [
                        81.4104166666663,
                        8.031249999999893
                    ],
                    [
                        81.41458333333296,
                        8.035416666666542
                    ],
                    [
                        81.41458333333296,
                        8.039583333333205
                    ]
                ]
            }
        },
        {
            "type": "Feature",
            "properties": {
                "HYRIV_ID": 41401601,
                "NEXT_DOWN": 41401602,
                "MAIN_RIV": 41401284,
                "LENGTH_KM": 2.55,
                "DIST_DN_KM": 29.200001,
                "DIST_UP_KM": 5.3,
                "CATCH_SKM": 10.41,
                "UPLAND_SKM": 10.4,
                "ENDORHEIC": 0,
                "DIS_AV_CMS": 0.217,
                "ORD_STRA": 1,
                "ORD_CLAS": 2,
                "ORD_FLOW": 7,
                "HYBAS_L12": 4121156640.0,
                "Shape_Length": 0.02306472460797525
            },
            "geometry": {
                "type": "LineString",
                "coordinates": [
                    [
                        81.2541666666663,
                        8.016666666666545
                    ],
                    [
                        81.26041666666626,
                        8.022916666666525
                    ],
                    [
                        81.26458333333292,
                        8.022916666666525
                    ],
                    [
                        81.26874999999964,
                        8.018749999999876
                    ],
                    [
                        81.27291666666625,
                        8.018749999999876
                    ]
                ]
            }
        },
        {
            "type": "Feature",
            "properties": {
                "HYRIV_ID": 41401602,
                "NEXT_DOWN": 41401439,
                "MAIN_RIV": 41401284,
                "LENGTH_KM": 10.94,
                "DIST_DN_KM": 18.200001,
                "DIST_UP_KM": 17.0,
                "CATCH_SKM": 36.98,
                "UPLAND_SKM": 60.599998,
                "ENDORHEIC": 0,
                "DIS_AV_CMS": 1.2539999,
                "ORD_STRA": 2,
                "ORD_CLAS": 1,
                "ORD_FLOW": 6,
                "HYBAS_L12": 4121156640.0,
                "Shape_Length": 0.09886634192239352
            },
            "geometry": {
                "type": "LineString",
                "coordinates": [
                    [
                        81.27291666666625,
                        8.018749999999876
                    ],
                    [
                        81.27708333333297,
                        8.022916666666525
                    ],
                    [
                        81.27708333333297,
                        8.035416666666542
                    ],
                    [
                        81.27291666666625,
                        8.039583333333205
                    ],
                    [
                        81.27291666666625,
                        8.043749999999868
                    ],
                    [
                        81.27708333333297,
                        8.04791666666656
                    ],
                    [
                        81.28124999999957,
                        8.04791666666656
                    ],
                    [
                        81.2854166666663,
                        8.052083333333222
                    ],
                    [
                        81.2854166666663,
                        8.056249999999885
                    ],
                    [
                        81.29374999999962,
                        8.064583333333196
                    ],
                    [
                        81.29791666666628,
                        8.060416666666548
                    ],
                    [
                        81.30208333333294,
                        8.060416666666548
                    ],
                    [
                        81.30624999999961,
                        8.064583333333196
                    ],
                    [
                        81.31041666666633,
                        8.064583333333196
                    ],
                    [
                        81.31458333333299,
                        8.060416666666548
                    ],
                    [
                        81.32708333333298,
                        8.060416666666548
                    ]
                ]
            }
        },
        {
            "type": "Feature",
            "properties": {
                "HYRIV_ID": 41401635,
                "NEXT_DOWN": 41401491,
                "MAIN_RIV": 41401284,
                "LENGTH_KM": 5.6100001,
                "DIST_DN_KM": 20.0,
                "DIST_UP_KM": 8.5,
                "CATCH_SKM": 24.66,
                "UPLAND_SKM": 24.700001,
                "ENDORHEIC": 0,
                "DIS_AV_CMS": 0.51700002,
                "ORD_STRA": 1,
                "ORD_CLAS": 2,
                "ORD_FLOW": 7,
                "HYBAS_L12": 4121156640.0,
                "Shape_Length": 0.05065355937296675
            },
            "geometry": {
                "type": "LineString",
                "coordinates": [
                    [
                        81.30416666666625,
                        8.01041666666655
                    ],
                    [
                        81.31041666666633,
                        8.01041666666655
                    ],
                    [
                        81.31874999999965,
                        8.018749999999876
                    ],
                    [
                        81.31874999999965,
                        8.035416666666542
                    ],
                    [
                        81.31458333333299,
                        8.039583333333205
                    ],
                    [
                        81.31874999999965,
                        8.043749999999868
                    ],
                    [
                        81.31874999999965,
                        8.04791666666656
                    ]
                ]
            }
        },
        {
            "type": "Feature",
            "properties": {
                "HYRIV_ID": 41401694,
                "NEXT_DOWN": 41401602,
                "MAIN_RIV": 41401284,
                "LENGTH_KM": 3.84,
                "DIST_DN_KM": 29.200001,
                "DIST_UP_KM": 6.0,
                "CATCH_SKM": 13.18,
                "UPLAND_SKM": 13.2,
                "ENDORHEIC": 0,
                "DIS_AV_CMS": 0.276,
                "ORD_STRA": 1,
                "ORD_CLAS": 1,
                "ORD_FLOW": 7,
                "HYBAS_L12": 4121156640.0,
                "Shape_Length": 0.034701779686410895
            },
            "geometry": {
                "type": "LineString",
                "coordinates": [
                    [
                        81.2541666666663,
                        7.997916666666534
                    ],
                    [
                        81.26458333333292,
                        7.997916666666534
                    ],
                    [
                        81.27291666666625,
                        8.00624999999986
                    ],
                    [
                        81.27291666666625,
                        8.018749999999876
                    ]
                ]
            }
        },
        {
            "type": "Feature",
            "properties": {
                "HYRIV_ID": 41401714,
                "NEXT_DOWN": 41401492,
                "MAIN_RIV": 41401284,
                "LENGTH_KM": 9.1400003,
                "DIST_DN_KM": 9.6,
                "DIST_UP_KM": 12.0,
                "CATCH_SKM": 24.870001,
                "UPLAND_SKM": 24.9,
                "ENDORHEIC": 0,
                "DIS_AV_CMS": 0.53100002,
                "ORD_STRA": 1,
                "ORD_CLAS": 3,
                "ORD_FLOW": 7,
                "HYBAS_L12": 4120049720.0,
                "Shape_Length": 0.08255711874569403
            },
            "geometry": {
                "type": "LineString",
                "coordinates": [
                    [
                        81.395833333333,
                        7.993749999999885
                    ],
                    [
                        81.40624999999957,
                        7.993749999999885
                    ],
                    [
                        81.4104166666663,
                        7.997916666666534
                    ],
                    [
                        81.41458333333296,
                        7.997916666666534
                    ],
                    [
                        81.42708333333294,
                        8.01041666666655
                    ],
                    [
                        81.42708333333294,
                        8.022916666666525
                    ],
                    [
                        81.43541666666627,
                        8.031249999999893
                    ],
                    [
                        81.43124999999961,
                        8.035416666666542
                    ],
                    [
                        81.43124999999961,
                        8.039583333333205
                    ],
                    [
                        81.42708333333294,
                        8.043749999999868
                    ],
                    [
                        81.42708333333294,
                        8.04791666666656
                    ]
                ]
            }
        }
    ]
}