{
    "type": "FeatureCollection",
    "features": [
        {
            "type": "Feature",
            "properties": {
                "HYRIV_ID": 41403351,
                "NEXT_DOWN": 0,
                "MAIN_RIV": 41403351,
                "LENGTH_KM": 4.58,
                "DIST_DN_KM": 0.0,
                "DIST_UP_KM": 7.1,
                "CATCH_SKM": 13.62,
                "UPLAND_SKM": 13.0,
                "ENDORHEIC": 0,
                "DIS_AV_CMS": 0.30500001,
                "ORD_STRA": 1,
                "ORD_CLAS": 1,
                "ORD_FLOW": 7,
                "HYBAS_L12": 4120049790.0,
                "Shape_Length": 0.04145728111805055
            },
            "geometry": {
                "type": "LineString",
                "coordinates": [
                    [
                        81.71666666666627,
                        7.554166666666568
                    ],
                    [
                        81.7229166666663,
                        7.560416666666519
                    ],
                    [
                        81.73124999999968,
                        7.560416666666519
                    ],
                    [
                        81.73541666666634,
                        7.564583333333225
                    ],
                    [
                        81.74791666666633,
                        7.564583333333225
                    ],
                    [
                        81.75208333333305,
                        7.560416666666519
                    ]
                ]
            }
        }
    ]
}