{
    "type": "FeatureCollection",
    "features": [
        {
            "type": "Feature",
            "properties": {
                "HYRIV_ID": 41402795,
                "NEXT_DOWN": 0,
                "MAIN_RIV": 41402795,
                "LENGTH_KM": 0.98,
                "DIST_DN_KM": 0.0,
                "DIST_UP_KM": 3.3,
                "CATCH_SKM": 5.3200002,
                "UPLAND_SKM": 4.7,
                "ENDORHEIC": 0,
                "DIS_AV_CMS": 0.111,
                "ORD_STRA": 1,
                "ORD_CLAS": 1,
                "ORD_FLOW": 7,
                "HYBAS_L12": 4120049790.0,
                "Shape_Length": 0.00883883476479366
            },
            "geometry": {
                "type": "LineString",
                "coordinates": [
                    [
                        81.64166666666628,
                        7.704166666666573
                    ],
                    [
                        81.64791666666625,
                        7.710416666666553
                    ]
                ]
            }
        }
    ]
}