{
    "type": "FeatureCollection",
    "features": [
        {
            "type": "Feature",
            "properties": {
                "HYRIV_ID": 41408922,
                "NEXT_DOWN": 41408992,
                "MAIN_RIV": 41409952,
                "LENGTH_KM": 14.23,
                "DIST_DN_KM": 40.099998,
                "DIST_UP_KM": 15.8,
                "CATCH_SKM": 43.099998,
                "UPLAND_SKM": 43.099998,
                "ENDORHEIC": 0,
                "DIS_AV_CMS": 1.623,
                "ORD_STRA": 1,
                "ORD_CLAS": 1,
                "ORD_FLOW": 6,
                "HYBAS_L12": 4121602560.0,
                "Shape_Length": 0.12839045207923244
            },
            "geometry": {
                "type": "LineString",
                "coordinates": [
                    [
                        80.6791666666663,
                        6.314583333333239
                    ],
                    [
                        80.65624999999963,
                        6.314583333333239
                    ],
                    [
                        80.6479166666663,
                        6.306249999999885
                    ],
                    [
                        80.6479166666663,
                        6.297916666666573
                    ],
                    [
                        80.65208333333297,
                        6.29375
                    ],
                    [
                        80.67291666666634,
                        6.29375
                    ],
                    [
                        80.677083333333,
                        6.289583333333248
                    ],
                    [
                        80.68124999999966,
                        6.289583333333248
                    ],
                    [
                        80.68541666666638,
                        6.29375
                    ],
                    [
                        80.68958333333305,
                        6.29375
                    ],
                    [
                        80.69791666666637,
                        6.285416666666556
                    ],
                    [
                        80.6937499999996,
                        6.281249999999893
                    ],
                    [
                        80.6937499999996,
                        6.260416666666565
                    ]
                ]
            }
        },
        {
            "type": "Feature",
            "properties": {
                "HYRIV_ID": 41408947,
                "NEXT_DOWN": 41408992,
                "MAIN_RIV": 41409952,
                "LENGTH_KM": 4.5100002,
                "DIST_DN_KM": 40.3,
                "DIST_UP_KM": 6.5,
                "CATCH_SKM": 13.23,
                "UPLAND_SKM": 13.2,
                "ENDORHEIC": 0,
                "DIS_AV_CMS": 0.5,
                "ORD_STRA": 1,
                "ORD_CLAS": 2,
                "ORD_FLOW": 7,
                "HYBAS_L12": 4121602560.0,
                "Shape_Length": 0.0407423941376797
            },
            "geometry": {
                "type": "LineString",
                "coordinates": [
                    [
                        80.6624999999996,
                        6.254166666666571
                    ],
                    [
                        80.67291666666634,
                        6.264583333333213
                    ],
                    [
                        80.677083333333,
                        6.264583333333213
                    ],
                    [
                        80.68124999999966,
                        6.268749999999876
                    ],
                    [
                        80.68541666666638,
                        6.264583333333213
                    ],
                    [
                        80.68958333333305,
                        6.264583333333213
                    ],
                    [
                        80.6937499999996,
                        6.260416666666565
                    ]
                ]
            }
        },
        {
            "type": "Feature",
            "properties": {
                "HYRIV_ID": 41408991,
                "NEXT_DOWN": 41409182,
                "MAIN_RIV": 41409952,
                "LENGTH_KM": 0.69,
                "DIST_DN_KM": 38.5,
                "DIST_UP_KM": 2.7,
                "CATCH_SKM": 3.2,
                "UPLAND_SKM": 3.2,
                "ENDORHEIC": 0,
                "DIS_AV_CMS": 0.12,
                "ORD_STRA": 1,
                "ORD_CLAS": 2,
                "ORD_FLOW": 7,
                "HYBAS_L12": 4121602560.0,
                "Shape_Length": 0.006250000000079581
            },
            "geometry": {
                "type": "LineString",
                "coordinates": [
                    [
                        80.68333333333297,
                        6.247916666666576
                    ],
                    [
                        80.68958333333305,
                        6.247916666666576
                    ]
                ]
            }
        },
        {
            "type": "Feature",
            "properties": {
                "HYRIV_ID": 41408992,
                "NEXT_DOWN": 41409182,
                "MAIN_RIV": 41409952,
                "LENGTH_KM": 1.58,
                "DIST_DN_KM": 38.5,
                "DIST_UP_KM": 17.3,
                "CATCH_SKM": 3.4100001,
                "UPLAND_SKM": 59.700001,
                "ENDORHEIC": 0,
                "DIS_AV_CMS": 2.2490001,
                "ORD_STRA": 2,
                "ORD_CLAS": 1,
                "ORD_FLOW": 6,
                "HYBAS_L12": 4121602560.0,
                "Shape_Length": 0.014225889843127903
            },
            "geometry": {
                "type": "LineString",
                "coordinates": [
                    [
                        80.6937499999996,
                        6.260416666666565
                    ],
                    [
                        80.6937499999996,
                        6.25625
                    ],
                    [
                        80.68958333333305,
                        6.252083333333239
                    ],
                    [
                        80.68958333333305,
                        6.247916666666576
                    ]
                ]
            }
        },
        {
            "type": "Feature",
            "properties": {
                "HYRIV_ID": 41409050,
                "NEXT_DOWN": 41409118,
                "MAIN_RIV": 41409952,
                "LENGTH_KM": 7.12,
                "DIST_DN_KM": 35.0,
                "DIST_UP_KM": 9.3,
                "CATCH_SKM": 23.26,
                "UPLAND_SKM": 23.3,
                "ENDORHEIC": 0,
                "DIS_AV_CMS": 0.839,
                "ORD_STRA": 1,
                "ORD_CLAS": 2,
                "ORD_FLOW": 7,
                "HYBAS_L12": 4121602560.0,
                "Shape_Length": 0.06416456223594731
            },
            "geometry": {
                "type": "LineString",
                "coordinates": [
                    [
                        80.74166666666636,
                        6.281249999999893
                    ],
                    [
                        80.73541666666628,
                        6.281249999999893
                    ],
                    [
                        80.72708333333296,
                        6.272916666666582
                    ],
                    [
                        80.73124999999962,
                        6.268749999999876
                    ],
                    [
                        80.7229166666663,
                        6.260416666666565
                    ],
                    [
                        80.7229166666663,
                        6.252083333333239
                    ],
                    [
                        80.72708333333296,
                        6.247916666666576
                    ],
                    [
                        80.72708333333296,
                        6.239583333333222
                    ],
                    [
                        80.73124999999962,
                        6.235416666666559
                    ]
                ]
            }
        },
        {
            "type": "Feature",
            "properties": {
                "HYRIV_ID": 41409051,
                "NEXT_DOWN": 41409118,
                "MAIN_RIV": 41409952,
                "LENGTH_KM": 2.1,
                "DIST_DN_KM": 34.8,
                "DIST_UP_KM": 4.7,
                "CATCH_SKM": 5.9699998,
                "UPLAND_SKM": 6.0,
                "ENDORHEIC": 0,
                "DIS_AV_CMS": 0.213,
                "ORD_STRA": 1,
                "ORD_CLAS": 3,
                "ORD_FLOW": 7,
                "HYBAS_L12": 4121602560.0,
                "Shape_Length": 0.01889805794144961
            },
            "geometry": {
                "type": "LineString",
                "coordinates": [
                    [
                        80.74166666666636,
                        6.25
                    ],
                    [
                        80.73124999999962,
                        6.239583333333222
                    ],
                    [
                        80.73124999999962,
                        6.235416666666559
                    ]
                ]
            }
        },
        {
            "type": "Feature",
            "properties": {
                "HYRIV_ID": 41409118,
                "NEXT_DOWN": 41409183,
                "MAIN_RIV": 41409952,
                "LENGTH_KM": 1.58,
                "DIST_DN_KM": 33.200001,
                "DIST_UP_KM": 11.1,
                "CATCH_SKM": 2.35,
                "UPLAND_SKM": 31.6,
                "ENDORHEIC": 0,
                "DIS_AV_CMS": 1.135,
                "ORD_STRA": 2,
                "ORD_CLAS": 2,
                "ORD_FLOW": 6,
                "HYBAS_L12": 4121602560.0,
                "Shape_Length": 0.014225889843194079
            },
            "geometry": {
                "type": "LineString",
                "coordinates": [
                    [
                        80.73124999999962,
                        6.235416666666559
                    ],
                    [
                        80.73124999999962,
                        6.23125
                    ],
                    [
                        80.73541666666628,
                        6.227083333333248
                    ],
                    [
                        80.73541666666628,
                        6.222916666666585
                    ]
                ]
            }
        },
        {
            "type": "Feature",
            "properties": {
                "HYRIV_ID": 41409119,
                "NEXT_DOWN": 41409183,
                "MAIN_RIV": 41409952,
                "LENGTH_KM": 1.15,
                "DIST_DN_KM": 33.200001,
                "DIST_UP_KM": 3.1,
                "CATCH_SKM": 5.5500002,
                "UPLAND_SKM": 5.5,
                "ENDORHEIC": 0,
                "DIS_AV_CMS": 0.195,
                "ORD_STRA": 1,
                "ORD_CLAS": 3,
                "ORD_FLOW": 7,
                "HYBAS_L12": 4121602560.0,
                "Shape_Length": 0.010416666666742458
            },
            "geometry": {
                "type": "LineString",
                "coordinates": [
                    [
                        80.74583333333302,
                        6.222916666666585
                    ],
                    [
                        80.73541666666628,
                        6.222916666666585
                    ]
                ]
            }
        },
        {
            "type": "Feature",
            "properties": {
                "HYRIV_ID": 41409182,
                "NEXT_DOWN": 41409352,
                "MAIN_RIV": 41409952,
                "LENGTH_KM": 6.8800001,
                "DIST_DN_KM": 31.6,
                "DIST_UP_KM": 24.200001,
                "CATCH_SKM": 23.26,
                "UPLAND_SKM": 86.199997,
                "ENDORHEIC": 0,
                "DIS_AV_CMS": 3.2190001,
                "ORD_STRA": 2,
                "ORD_CLAS": 1,
                "ORD_FLOW": 6,
                "HYBAS_L12": 4121602560.0,
                "Shape_Length": 0.06208122890251123
            },
            "geometry": {
                "type": "LineString",
                "coordinates": [
                    [
                        80.68958333333305,
                        6.247916666666576
                    ],
                    [
                        80.70208333333292,
                        6.235416666666559
                    ],
                    [
                        80.70208333333292,
                        6.23125
                    ],
                    [
                        80.7062499999997,
                        6.23125
                    ],
                    [
                        80.71041666666642,
                        6.227083333333248
                    ],
                    [
                        80.71041666666642,
                        6.222916666666585
                    ],
                    [
                        80.7229166666663,
                        6.210416666666568
                    ],
                    [
                        80.73124999999962,
                        6.210416666666568
                    ]
                ]
            }
        },
        {
            "type": "Feature",
            "properties": {
                "HYRIV_ID": 41409183,
                "NEXT_DOWN": 41409352,
                "MAIN_RIV": 41409952,
                "LENGTH_KM": 1.58,
                "DIST_DN_KM": 31.8,
                "DIST_UP_KM": 12.5,
                "CATCH_SKM": 2.56,
                "UPLAND_SKM": 39.700001,
                "ENDORHEIC": 0,
                "DIS_AV_CMS": 1.4220001,
                "ORD_STRA": 2,
                "ORD_CLAS": 2,
                "ORD_FLOW": 6,
                "HYBAS_L12": 4121602560.0,
                "Shape_Length": 0.014225889843236712
            },
            "geometry": {
                "type": "LineString",
                "coordinates": [
                    [
                        80.73541666666628,
                        6.222916666666585
                    ],
                    [
                        80.73541666666628,
                        6.214583333333231
                    ],
                    [
                        80.73124999999962,
                        6.210416666666568
                    ]
                ]
            }
        },
        {
            "type": "Feature",
            "properties": {
                "HYRIV_ID": 41409184,
                "NEXT_DOWN": 41409396,
                "MAIN_RIV": 41409952,
                "LENGTH_KM": 6.29,
                "DIST_DN_KM": 26.700001,
                "DIST_UP_KM": 8.0,
                "CATCH_SKM": 21.129999,
                "UPLAND_SKM": 21.1,
                "ENDORHEIC": 0,
                "DIS_AV_CMS": 0.73,
                "ORD_STRA": 1,
                "ORD_CLAS": 2,
                "ORD_FLOW": 7,
                "HYBAS_L12": 4121602590.0,
                "Shape_Length": 0.056694173824130195
            },
            "geometry": {
                "type": "LineString",
                "coordinates": [
                    [
                        80.76249999999973,
                        6.25
                    ],
                    [
                        80.76874999999964,
                        6.24375
                    ],
                    [
                        80.7729166666663,
                        6.24375
                    ],
                    [
                        80.7729166666663,
                        6.239583333333222
                    ],
                    [
                        80.7854166666663,
                        6.227083333333248
                    ],
                    [
                        80.7854166666663,
                        6.222916666666585
                    ],
                    [
                        80.79791666666634,
                        6.210416666666568
                    ]
                ]
            }
        },
        {
            "type": "Feature",
            "properties": {
                "HYRIV_ID": 41409185,
                "NEXT_DOWN": 41409396,
                "MAIN_RIV": 41409952,
                "LENGTH_KM": 1.9,
                "DIST_DN_KM": 26.5,
                "DIST_UP_KM": 3.8,
                "CATCH_SKM": 6.4,
                "UPLAND_SKM": 6.4,
                "ENDORHEIC": 0,
                "DIS_AV_CMS": 0.215,
                "ORD_STRA": 1,
                "ORD_CLAS": 3,
                "ORD_FLOW": 7,
                "HYBAS_L12": 4121602590.0,
                "Shape_Length": 0.017172168098159607
            },
            "geometry": {
                "type": "LineString",
                "coordinates": [
                    [
                        80.80833333333297,
                        6.220833333333267
                    ],
                    [
                        80.802083333333,
                        6.214583333333231
                    ],
                    [
                        80.79791666666634,
                        6.214583333333231
                    ],
                    [
                        80.79791666666634,
                        6.210416666666568
                    ]
                ]
            }
        },
        {
            "type": "Feature",
            "properties": {
                "HYRIV_ID": 41409277,
                "NEXT_DOWN": 41409441,
                "MAIN_RIV": 41409952,
                "LENGTH_KM": 2.73,
                "DIST_DN_KM": 37.5,
                "DIST_UP_KM": 5.0,
                "CATCH_SKM": 8.96,
                "UPLAND_SKM": 9.0,
                "ENDORHEIC": 0,
                "DIS_AV_CMS": 0.33500001,
                "ORD_STRA": 1,
                "ORD_CLAS": 3,
                "ORD_FLOW": 7,
                "HYBAS_L12": 4121602590.0,
                "Shape_Length": 0.02464255650977017
            },
            "geometry": {
                "type": "LineString",
                "coordinates": [
                    [
                        80.6583333333331,
                        6.197916666666551
                    ],
                    [
                        80.66458333333301,
                        6.197916666666551
                    ],
                    [
                        80.66874999999968,
                        6.19375
                    ],
                    [
                        80.68124999999966,
                        6.19375
                    ]
                ]
            }
        },
        {
            "type": "Feature",
            "properties": {
                "HYRIV_ID": 41409278,
                "NEXT_DOWN": 41409441,
                "MAIN_RIV": 41409952,
                "LENGTH_KM": 4.06,
                "DIST_DN_KM": 37.700001,
                "DIST_UP_KM": 6.0,
                "CATCH_SKM": 8.3199997,
                "UPLAND_SKM": 8.3,
                "ENDORHEIC": 0,
                "DIS_AV_CMS": 0.31,
                "ORD_STRA": 1,
                "ORD_CLAS": 2,
                "ORD_FLOW": 7,
                "HYBAS_L12": 4121602590.0,
                "Shape_Length": 0.03657572747099673
            },
            "geometry": {
                "type": "LineString",
                "coordinates": [
                    [
                        80.67083333333292,
                        6.220833333333267
                    ],
                    [
                        80.66458333333301,
                        6.214583333333231
                    ],
                    [
                        80.66458333333301,
                        6.210416666666568
                    ],
                    [
                        80.68124999999966,
                        6.19375
                    ]
                ]
            }
        },
        {
            "type": "Feature",
            "properties": {
                "HYRIV_ID": 41409351,
                "NEXT_DOWN": 41409353,
                "MAIN_RIV": 41409952,
                "LENGTH_KM": 0.69,
                "DIST_DN_KM": 26.8,
                "DIST_UP_KM": 2.9,
                "CATCH_SKM": 3.6300001,
                "UPLAND_SKM": 3.6,
                "ENDORHEIC": 0,
                "DIS_AV_CMS": 0.129,
                "ORD_STRA": 1,
                "ORD_CLAS": 2,
                "ORD_FLOW": 7,
                "HYBAS_L12": 4121602590.0,
                "Shape_Length": 0.0062499999999090505
            },
            "geometry": {
                "type": "LineString",
                "coordinates": [
                    [
                        80.74166666666636,
                        6.177083333333222
                    ],
                    [
                        80.74791666666627,
                        6.177083333333222
                    ]
                ]
            }
        },
        {
            "type": "Feature",
            "properties": {
                "HYRIV_ID": 41409352,
                "NEXT_DOWN": 41409353,
                "MAIN_RIV": 41409952,
                "LENGTH_KM": 4.85,
                "DIST_DN_KM": 27.0,
                "DIST_UP_KM": 28.9,
                "CATCH_SKM": 10.24,
                "UPLAND_SKM": 136.10001,
                "ENDORHEIC": 0,
                "DIS_AV_CMS": 5.0029998,
                "ORD_STRA": 3,
                "ORD_CLAS": 1,
                "ORD_FLOW": 6,
                "HYBAS_L12": 4121602590.0,
                "Shape_Length": 0.04368867239264696
            },
            "geometry": {
                "type": "LineString",
                "coordinates": [
                    [
                        80.73124999999962,
                        6.210416666666568
                    ],
                    [
                        80.73958333333294,
                        6.202083333333213
                    ],
                    [
                        80.73958333333294,
                        6.197916666666551
                    ],
                    [
                        80.74791666666627,
                        6.189583333333239
                    ],
                    [
                        80.74374999999961,
                        6.185416666666576
                    ],
                    [
                        80.74374999999961,
                        6.18125
                    ],
                    [
                        80.74791666666627,
                        6.177083333333222
                    ]
                ]
            }
        },
        {
            "type": "Feature",
            "properties": {
                "HYRIV_ID": 41409353,
                "NEXT_DOWN": 41409443,
                "MAIN_RIV": 41409952,
                "LENGTH_KM": 1.84,
                "DIST_DN_KM": 24.9,
                "DIST_UP_KM": 30.9,
                "CATCH_SKM": 3.2,
                "UPLAND_SKM": 143.0,
                "ENDORHEIC": 0,
                "DIS_AV_CMS": 5.243,
                "ORD_STRA": 3,
                "ORD_CLAS": 1,
                "ORD_FLOW": 6,
                "HYBAS_L12": 4121602590.0,
                "Shape_Length": 0.016666666666708352
            },
            "geometry": {
                "type": "LineString",
                "coordinates": [
                    [
                        80.74791666666627,
                        6.177083333333222
                    ],
                    [
                        80.76458333333298,
                        6.177083333333222
                    ]
                ]
            }
        },
        {
            "type": "Feature",
            "properties": {
                "HYRIV_ID": 41409354,
                "NEXT_DOWN": 41409443,
                "MAIN_RIV": 41409952,
                "LENGTH_KM": 2.9300001,
                "DIST_DN_KM": 25.1,
                "DIST_UP_KM": 4.7,
                "CATCH_SKM": 9.6,
                "UPLAND_SKM": 9.6,
                "ENDORHEIC": 0,
                "DIS_AV_CMS": 0.332,
                "ORD_STRA": 1,
                "ORD_CLAS": 2,
                "ORD_FLOW": 7,
                "HYBAS_L12": 4121602590.0,
                "Shape_Length": 0.026368446353086866
            },
            "geometry": {
                "type": "LineString",
                "coordinates": [
                    [
                        80.76458333333298,
                        6.199999999999882
                    ],
                    [
                        80.76458333333298,
                        6.19375
                    ],
                    [
                        80.76874999999964,
                        6.189583333333239
                    ],
                    [
                        80.76874999999964,
                        6.18125
                    ],
                    [
                        80.76458333333298,
                        6.177083333333222
                    ]
                ]
            }
        },
        {
            "type": "Feature",
            "properties": {
                "HYRIV_ID": 41409355,
                "NEXT_DOWN": 41409485,
                "MAIN_RIV": 41409952,
                "LENGTH_KM": 1.4400001,
                "DIST_DN_KM": 19.0,
                "DIST_UP_KM": 4.4,
                "CATCH_SKM": 4.27,
                "UPLAND_SKM": 4.3,
                "ENDORHEIC": 0,
                "DIS_AV_CMS": 0.142,
                "ORD_STRA": 1,
                "ORD_CLAS": 3,
                "ORD_FLOW": 7,
                "HYBAS_L12": 4120050120.0,
                "Shape_Length": 0.013005501431567071
            },
            "geometry": {
                "type": "LineString",
                "coordinates": [
                    [
                        80.81249999999963,
                        6.183333333333245
                    ],
                    [
                        80.81874999999971,
                        6.177083333333222
                    ],
                    [
                        80.82291666666637,
                        6.177083333333222
                    ]
                ]
            }
        },
        {
            "type": "Feature",
            "properties": {
                "HYRIV_ID": 41409356,
                "NEXT_DOWN": 41409485,
                "MAIN_RIV": 41409952,
                "LENGTH_KM": 1.62,
                "DIST_DN_KM": 19.0,
                "DIST_UP_KM": 5.6,
                "CATCH_SKM": 6.62,
                "UPLAND_SKM": 6.6,
                "ENDORHEIC": 0,
                "DIS_AV_CMS": 0.218,
                "ORD_STRA": 1,
                "ORD_CLAS": 2,
                "ORD_FLOW": 7,
                "HYBAS_L12": 4120050120.0,
                "Shape_Length": 0.014583333333348492
            },
            "geometry": {
                "type": "LineString",
                "coordinates": [
                    [
                        80.82291666666637,
                        6.191666666666571
                    ],
                    [
                        80.82291666666637,
                        6.177083333333222
                    ]
                ]
            }
        },
        {
            "type": "Feature",
            "properties": {
                "HYRIV_ID": 41409395,
                "NEXT_DOWN": 41409464,
                "MAIN_RIV": 41409952,
                "LENGTH_KM": 0.69,
                "DIST_DN_KM": 21.1,
                "DIST_UP_KM": 4.0,
                "CATCH_SKM": 3.84,
                "UPLAND_SKM": 3.8,
                "ENDORHEIC": 0,
                "DIS_AV_CMS": 0.131,
                "ORD_STRA": 1,
                "ORD_CLAS": 3,
                "ORD_FLOW": 7,
                "HYBAS_L12": 4121602590.0,
                "Shape_Length": 0.006249999999980105
            },
            "geometry": {
                "type": "LineString",
                "coordinates": [
                    [
                        80.78958333333301,
                        6.174999999999891
                    ],
                    [
                        80.78958333333301,
                        6.16875
                    ]
                ]
            }
        },
        {
            "type": "Feature",
            "properties": {
                "HYRIV_ID": 41409396,
                "NEXT_DOWN": 41409464,
                "MAIN_RIV": 41409952,
                "LENGTH_KM": 5.39,
                "DIST_DN_KM": 21.3,
                "DIST_UP_KM": 13.4,
                "CATCH_SKM": 11.31,
                "UPLAND_SKM": 38.8,
                "ENDORHEIC": 0,
                "DIS_AV_CMS": 1.327,
                "ORD_STRA": 2,
                "ORD_CLAS": 2,
                "ORD_FLOW": 6,
                "HYBAS_L12": 4121602590.0,
                "Shape_Length": 0.0485702260395275
            },
            "geometry": {
                "type": "LineString",
                "coordinates": [
                    [
                        80.79791666666634,
                        6.210416666666568
                    ],
                    [
                        80.79791666666634,
                        6.189583333333239
                    ],
                    [
                        80.802083333333,
                        6.185416666666576
                    ],
                    [
                        80.802083333333,
                        6.18125
                    ],
                    [
                        80.78958333333301,
                        6.16875
                    ]
                ]
            }
        },
        {
            "type": "Feature",
            "properties": {
                "HYRIV_ID": 41409441,
                "NEXT_DOWN": 41409482,
                "MAIN_RIV": 41409952,
                "LENGTH_KM": 7.8800001,
                "DIST_DN_KM": 29.6,
                "DIST_UP_KM": 14.0,
                "CATCH_SKM": 26.459999,
                "UPLAND_SKM": 43.700001,
                "ENDORHEIC": 0,
                "DIS_AV_CMS": 1.614,
                "ORD_STRA": 2,
                "ORD_CLAS": 2,
                "ORD_FLOW": 6,
                "HYBAS_L12": 4121602590.0,
                "Shape_Length": 0.07112944921607618
            },
            "geometry": {
                "type": "LineString",
                "coordinates": [
                    [
                        80.68124999999966,
                        6.19375
                    ],
                    [
                        80.68958333333305,
                        6.19375
                    ],
                    [
                        80.6937499999996,
                        6.189583333333239
                    ],
                    [
                        80.6937499999996,
                        6.177083333333222
                    ],
                    [
                        80.68541666666638,
                        6.16875
                    ],
                    [
                        80.6937499999996,
                        6.160416666666542
                    ],
                    [
                        80.71458333333308,
                        6.160416666666542
                    ]
                ]
            }
        },
        {
            "type": "Feature",
            "properties": {
                "HYRIV_ID": 41409442,
                "NEXT_DOWN": 41409482,
                "MAIN_RIV": 41409952,
                "LENGTH_KM": 1.16,
                "DIST_DN_KM": 29.6,
                "DIST_UP_KM": 4.5,
                "CATCH_SKM": 6.62,
                "UPLAND_SKM": 6.6,
                "ENDORHEIC": 0,
                "DIS_AV_CMS": 0.23800001,
                "ORD_STRA": 1,
                "ORD_CLAS": 3,
                "ORD_FLOW": 7,
                "HYBAS_L12": 4121602590.0,
                "Shape_Length": 0.010416666666685614
            },
            "geometry": {
                "type": "LineString",
                "coordinates": [
                    [
                        80.71458333333308,
                        6.170833333333228
                    ],
                    [
                        80.71458333333308,
                        6.160416666666542
                    ]
                ]
            }
        },
        {
            "type": "Feature",
            "properties": {
                "HYRIV_ID": 41409443,
                "NEXT_DOWN": 41409483,
                "MAIN_RIV": 41409952,
                "LENGTH_KM": 2.04,
                "DIST_DN_KM": 22.9,
                "DIST_UP_KM": 33.0,
                "CATCH_SKM": 4.0500002,
                "UPLAND_SKM": 156.60001,
                "ENDORHEIC": 0,
                "DIS_AV_CMS": 5.7150002,
                "ORD_STRA": 3,
                "ORD_CLAS": 1,
                "ORD_FLOW": 6,
                "HYBAS_L12": 4121602590.0,
                "Shape_Length": 0.01839255650989959
            },
            "geometry": {
                "type": "LineString",
                "coordinates": [
                    [
                        80.76458333333298,
                        6.177083333333222
                    ],
                    [
                        80.76874999999964,
                        6.172916666666559
                    ],
                    [
                        80.76874999999964,
                        6.160416666666542
                    ]
                ]
            }
        },
        {
            "type": "Feature",
            "properties": {
                "HYRIV_ID": 41409464,
                "NEXT_DOWN": 41409484,
                "MAIN_RIV": 41409952,
                "LENGTH_KM": 1.58,
                "DIST_DN_KM": 19.5,
                "DIST_UP_KM": 15.2,
                "CATCH_SKM": 1.71,
                "UPLAND_SKM": 44.400002,
                "ENDORHEIC": 0,
                "DIS_AV_CMS": 1.515,
                "ORD_STRA": 2,
                "ORD_CLAS": 2,
                "ORD_FLOW": 6,
                "HYBAS_L12": 4121602590.0,
                "Shape_Length": 0.014225889843181592
            },
            "geometry": {
                "type": "LineString",
                "coordinates": [
                    [
                        80.78958333333301,
                        6.16875
                    ],
                    [
                        80.78958333333301,
                        6.164583333333248
                    ],
                    [
                        80.79374999999968,
                        6.160416666666542
                    ],
                    [
                        80.79374999999968,
                        6.15625
                    ]
                ]
            }
        },
        {
            "type": "Feature",
            "properties": {
                "HYRIV_ID": 41409482,
                "NEXT_DOWN": 41409483,
                "MAIN_RIV": 41409952,
                "LENGTH_KM": 6.7600002,
                "DIST_DN_KM": 23.1,
                "DIST_UP_KM": 20.6,
                "CATCH_SKM": 17.5,
                "UPLAND_SKM": 67.900002,
                "ENDORHEIC": 0,
                "DIS_AV_CMS": 2.4679999,
                "ORD_STRA": 2,
                "ORD_CLAS": 2,
                "ORD_FLOW": 6,
                "HYBAS_L12": 4121602590.0,
                "Shape_Length": 0.06107022603940245
            },
            "geometry": {
                "type": "LineString",
                "coordinates": [
                    [
                        80.71458333333308,
                        6.160416666666542
                    ],
                    [
                        80.73124999999962,
                        6.160416666666542
                    ],
                    [
                        80.73541666666628,
                        6.15625
                    ],
                    [
                        80.74374999999961,
                        6.15625
                    ],
                    [
                        80.74791666666627,
                        6.152083333333231
                    ],
                    [
                        80.75208333333299,
                        6.15625
                    ],
                    [
                        80.76458333333298,
                        6.15625
                    ],
                    [
                        80.76874999999964,
                        6.160416666666542
                    ]
                ]
            }
        },
        {
            "type": "Feature",
            "properties": {
                "HYRIV_ID": 41409483,
                "NEXT_DOWN": 41409484,
                "MAIN_RIV": 41409952,
                "LENGTH_KM": 3.34,
                "DIST_DN_KM": 19.5,
                "DIST_UP_KM": 36.3,
                "CATCH_SKM": 8.96,
                "UPLAND_SKM": 233.39999,
                "ENDORHEIC": 0,
                "DIS_AV_CMS": 8.4879999,
                "ORD_STRA": 3,
                "ORD_CLAS": 1,
                "ORD_FLOW": 6,
                "HYBAS_L12": 4121602590.0,
                "Shape_Length": 0.030177669529713184
            },
            "geometry": {
                "type": "LineString",
                "coordinates": [
                    [
                        80.76874999999964,
                        6.160416666666542
                    ],
                    [
                        80.77708333333297,
                        6.152083333333231
                    ],
                    [
                        80.78124999999963,
                        6.15625
                    ],
                    [
                        80.79374999999968,
                        6.15625
                    ]
                ]
            }
        },
        {
            "type": "Feature",
            "properties": {
                "HYRIV_ID": 41409484,
                "NEXT_DOWN": 41409540,
                "MAIN_RIV": 41409952,
                "LENGTH_KM": 3.8800001,
                "DIST_DN_KM": 15.7,
                "DIST_UP_KM": 40.200001,
                "CATCH_SKM": 11.31,
                "UPLAND_SKM": 289.10001,
                "ENDORHEIC": 0,
                "DIS_AV_CMS": 10.379,
                "ORD_STRA": 3,
                "ORD_CLAS": 1,
                "ORD_FLOW": 5,
                "HYBAS_L12": 4120050120.0,
                "Shape_Length": 0.03505922317649598
            },
            "geometry": {
                "type": "LineString",
                "coordinates": [
                    [
                        80.79374999999968,
                        6.15625
                    ],
                    [
                        80.802083333333,
                        6.15625
                    ],
                    [
                        80.80624999999966,
                        6.152083333333231
                    ],
                    [
                        80.82708333333292,
                        6.152083333333231
                    ]
                ]
            }
        },
        {
            "type": "Feature",
            "properties": {
                "HYRIV_ID": 41409485,
                "NEXT_DOWN": 41409540,
                "MAIN_RIV": 41409952,
                "LENGTH_KM": 3.35,
                "DIST_DN_KM": 15.7,
                "DIST_UP_KM": 8.9,
                "CATCH_SKM": 8.75,
                "UPLAND_SKM": 19.6,
                "ENDORHEIC": 0,
                "DIS_AV_CMS": 0.64700001,
                "ORD_STRA": 2,
                "ORD_CLAS": 2,
                "ORD_FLOW": 7,
                "HYBAS_L12": 4120050120.0,
                "Shape_Length": 0.03017766952941761
            },
            "geometry": {
                "type": "LineString",
                "coordinates": [
                    [
                        80.82291666666637,
                        6.177083333333222
                    ],
                    [
                        80.82291666666637,
                        6.172916666666559
                    ],
                    [
                        80.82708333333292,
                        6.16875
                    ],
                    [
                        80.82708333333292,
                        6.164583333333248
                    ],
                    [
                        80.82291666666637,
                        6.160416666666542
                    ],
                    [
                        80.82708333333292,
                        6.15625
                    ],
                    [
                        80.82708333333292,
                        6.152083333333231
                    ]
                ]
            }
        },
        {
            "type": "Feature",
            "properties": {
                "HYRIV_ID": 41409540,
                "NEXT_DOWN": 41409645,
                "MAIN_RIV": 41409952,
                "LENGTH_KM": 3.54,
                "DIST_DN_KM": 12.1,
                "DIST_UP_KM": 43.700001,
                "CATCH_SKM": 6.1900001,
                "UPLAND_SKM": 315.0,
                "ENDORHEIC": 0,
                "DIS_AV_CMS": 11.227,
                "ORD_STRA": 3,
                "ORD_CLAS": 1,
                "ORD_FLOW": 5,
                "HYBAS_L12": 4120050120.0,
                "Shape_Length": 0.03190355937288189
            },
            "geometry": {
                "type": "LineString",
                "coordinates": [
                    [
                        80.82708333333292,
                        6.152083333333231
                    ],
                    [
                        80.8312499999997,
                        6.147916666666568
                    ],
                    [
                        80.83541666666625,
                        6.152083333333231
                    ],
                    [
                        80.83958333333308,
                        6.147916666666568
                    ],
                    [
                        80.84374999999974,
                        6.147916666666568
                    ],
                    [
                        80.8479166666663,
                        6.14375
                    ],
                    [
                        80.8479166666663,
                        6.139583333333256
                    ]
                ]
            }
        },
        {
            "type": "Feature",
            "properties": {
                "HYRIV_ID": 41409541,
                "NEXT_DOWN": 41409645,
                "MAIN_RIV": 41409952,
                "LENGTH_KM": 2.75,
                "DIST_DN_KM": 12.3,
                "DIST_UP_KM": 5.9,
                "CATCH_SKM": 10.46,
                "UPLAND_SKM": 10.5,
                "ENDORHEIC": 0,
                "DIS_AV_CMS": 0.334,
                "ORD_STRA": 1,
                "ORD_CLAS": 2,
                "ORD_FLOW": 7,
                "HYBAS_L12": 4120050120.0,
                "Shape_Length": 0.024790614451211564
            },
            "geometry": {
                "type": "LineString",
                "coordinates": [
                    [
                        80.84999999999965,
                        6.158333333333211
                    ],
                    [
                        80.85624999999962,
                        6.152083333333231
                    ],
                    [
                        80.85624999999962,
                        6.147916666666568
                    ],
                    [
                        80.8479166666663,
                        6.139583333333256
                    ]
                ]
            }
        },
        {
            "type": "Feature",
            "properties": {
                "HYRIV_ID": 41409645,
                "NEXT_DOWN": 41409794,
                "MAIN_RIV": 41409952,
                "LENGTH_KM": 2.7,
                "DIST_DN_KM": 9.4,
                "DIST_UP_KM": 46.400002,
                "CATCH_SKM": 7.04,
                "UPLAND_SKM": 332.5,
                "ENDORHEIC": 0,
                "DIS_AV_CMS": 11.788,
                "ORD_STRA": 3,
                "ORD_CLAS": 1,
                "ORD_FLOW": 5,
                "HYBAS_L12": 4120050120.0,
                "Shape_Length": 0.0242851130197059
            },
            "geometry": {
                "type": "LineString",
                "coordinates": [
                    [
                        80.8479166666663,
                        6.139583333333256
                    ],
                    [
                        80.8479166666663,
                        6.131249999999888
                    ],
                    [
                        80.83958333333308,
                        6.122916666666576
                    ],
                    [
                        80.83958333333308,
                        6.11875
                    ]
                ]
            }
        },
        {
            "type": "Feature",
            "properties": {
                "HYRIV_ID": 41409676,
                "NEXT_DOWN": 41409794,
                "MAIN_RIV": 41409952,
                "LENGTH_KM": 2.29,
                "DIST_DN_KM": 9.6,
                "DIST_UP_KM": 4.2,
                "CATCH_SKM": 7.2600002,
                "UPLAND_SKM": 7.3,
                "ENDORHEIC": 0,
                "DIS_AV_CMS": 0.23800001,
                "ORD_STRA": 1,
                "ORD_CLAS": 2,
                "ORD_FLOW": 7,
                "HYBAS_L12": 4120050120.0,
                "Shape_Length": 0.020623947784669267
            },
            "geometry": {
                "type": "LineString",
                "coordinates": [
                    [
                        80.82499999999962,
                        6.125
                    ],
                    [
                        80.83541666666625,
                        6.114583333333265
                    ],
                    [
                        80.83958333333308,
                        6.11875
                    ]
                ]
            }
        },
        {
            "type": "Feature",
            "properties": {
                "HYRIV_ID": 41409794,
                "NEXT_DOWN": 41409952,
                "MAIN_RIV": 41409952,
                "LENGTH_KM": 5.1100001,
                "DIST_DN_KM": 4.5,
                "DIST_UP_KM": 51.3,
                "CATCH_SKM": 14.3,
                "UPLAND_SKM": 354.0,
                "ENDORHEIC": 0,
                "DIS_AV_CMS": 12.48,
                "ORD_STRA": 3,
                "ORD_CLAS": 1,
                "ORD_FLOW": 5,
                "HYBAS_L12": 4120050120.0,
                "Shape_Length": 0.04612944921603405
            },
            "geometry": {
                "type": "LineString",
                "coordinates": [
                    [
                        80.83958333333308,
                        6.11875
                    ],
                    [
                        80.84374999999974,
                        6.11875
                    ],
                    [
                        80.8479166666663,
                        6.114583333333265
                    ],
                    [
                        80.85208333333296,
                        6.114583333333265
                    ],
                    [
                        80.86041666666628,
                        6.106249999999896
                    ],
                    [
                        80.86458333333294,
                        6.106249999999896
                    ],
                    [
                        80.86874999999961,
                        6.102083333333248
                    ],
                    [
                        80.87291666666627,
                        6.102083333333248
                    ],
                    [
                        80.87708333333299,
                        6.097916666666585
                    ]
                ]
            }
        },
        {
            "type": "Feature",
            "properties": {
                "HYRIV_ID": 41409795,
                "NEXT_DOWN": 41409952,
                "MAIN_RIV": 41409952,
                "LENGTH_KM": 4.6900001,
                "DIST_DN_KM": 4.3,
                "DIST_UP_KM": 6.9,
                "CATCH_SKM": 20.059999,
                "UPLAND_SKM": 20.1,
                "ENDORHEIC": 0,
                "DIS_AV_CMS": 0.62300003,
                "ORD_STRA": 1,
                "ORD_CLAS": 2,
                "ORD_FLOW": 7,
                "HYBAS_L12": 4120050120.0,
                "Shape_Length": 0.04217216809814692
            },
            "geometry": {
                "type": "LineString",
                "coordinates": [
                    [
                        80.88333333333301,
                        6.137499999999882
                    ],
                    [
                        80.87708333333299,
                        6.131249999999888
                    ],
                    [
                        80.87708333333299,
                        6.097916666666585
                    ]
                ]
            }
        },
        {
            "type": "Feature",
            "properties": {
                "HYRIV_ID": 41409952,
                "NEXT_DOWN": 0,
                "MAIN_RIV": 41409952,
                "LENGTH_KM": 4.0900002,
                "DIST_DN_KM": 0.0,
                "DIST_UP_KM": 55.599998,
                "CATCH_SKM": 13.45,
                "UPLAND_SKM": 386.5,
                "ENDORHEIC": 0,
                "DIS_AV_CMS": 13.489,
                "ORD_STRA": 3,
                "ORD_CLAS": 1,
                "ORD_FLOW": 5,
                "HYBAS_L12": 4120050120.0,
                "Shape_Length": 0.03678511301977665
            },
            "geometry": {
                "type": "LineString",
                "coordinates": [
                    [
                        80.87708333333299,
                        6.097916666666585
                    ],
                    [
                        80.87708333333299,
                        6.08125
                    ],
                    [
                        80.88541666666632,
                        6.072916666666551
                    ],
                    [
                        80.88541666666632,
                        6.064583333333239
                    ]
                ]
            }
        }
    ]
}