{
    "type": "FeatureCollection",
    "features": [
        {
            "type": "Feature",
            "properties": {
                "HYRIV_ID": 41408553,
                "NEXT_DOWN": 0,
                "MAIN_RIV": 41408553,
                "LENGTH_KM": 0.98,
                "DIST_DN_KM": 0.0,
                "DIST_UP_KM": 2.2,
                "CATCH_SKM": 4.6900001,
                "UPLAND_SKM": 4.3,
                "ENDORHEIC": 0,
                "DIS_AV_CMS": 0.197,
                "ORD_STRA": 1,
                "ORD_CLAS": 1,
                "ORD_FLOW": 7,
                "HYBAS_L12": 4120048980.0,
                "Shape_Length": 0.008838834764803707
            },
            "geometry": {
                "type": "LineString",
                "coordinates": [
                    [
                        80.03333333333299,
                        6.345833333333225
                    ],
                    [
                        80.02708333333302,
                        6.339583333333231
                    ]
                ]
            }
        }
    ]
}