{
    "type": "FeatureCollection",
    "features": [
        {
            "type": "Feature",
            "properties": {
                "HYRIV_ID": 41404235,
                "NEXT_DOWN": 41404317,
                "MAIN_RIV": 41404317,
                "LENGTH_KM": 3.01,
                "DIST_DN_KM": 7.4,
                "DIST_UP_KM": 5.4,
                "CATCH_SKM": 9.58,
                "UPLAND_SKM": 9.6,
                "ENDORHEIC": 0,
                "DIS_AV_CMS": 0.267,
                "ORD_STRA": 1,
                "ORD_CLAS": 1,
                "ORD_FLOW": 7,
                "HYBAS_L12": 4120049100.0,
                "Shape_Length": 0.027231391274703295
            },
            "geometry": {
                "type": "LineString",
                "coordinates": [
                    [
                        79.91249999999965,
                        7.329166666666559
                    ],
                    [
                        79.90624999999974,
                        7.322916666666522
                    ],
                    [
                        79.90208333333308,
                        7.322916666666522
                    ],
                    [
                        79.89791666666636,
                        7.31875
                    ],
                    [
                        79.8937499999997,
                        7.31875
                    ],
                    [
                        79.8937499999997,
                        7.314583333333211
                    ]
                ]
            }
        },
        {
            "type": "Feature",
            "properties": {
                "HYRIV_ID": 41404254,
                "NEXT_DOWN": 41404317,
                "MAIN_RIV": 41404317,
                "LENGTH_KM": 0.98,
                "DIST_DN_KM": 7.6,
                "DIST_UP_KM": 3.0,
                "CATCH_SKM": 4.04,
                "UPLAND_SKM": 4.0,
                "ENDORHEIC": 0,
                "DIS_AV_CMS": 0.114,
                "ORD_STRA": 1,
                "ORD_CLAS": 2,
                "ORD_FLOW": 7,
                "HYBAS_L12": 4120049100.0,
                "Shape_Length": 0.008838834764803707
            },
            "geometry": {
                "type": "LineString",
                "coordinates": [
                    [
                        79.89999999999966,
                        7.308333333333216
                    ],
                    [
                        79.8937499999997,
                        7.314583333333211
                    ]
                ]
            }
        },
        {
            "type": "Feature",
            "properties": {
                "HYRIV_ID": 41404317,
                "NEXT_DOWN": 0,
                "MAIN_RIV": 41404317,
                "LENGTH_KM": 7.1300001,
                "DIST_DN_KM": 0.0,
                "DIST_UP_KM": 12.5,
                "CATCH_SKM": 13.84,
                "UPLAND_SKM": 27.3,
                "ENDORHEIC": 0,
                "DIS_AV_CMS": 0.76599997,
                "ORD_STRA": 2,
                "ORD_CLAS": 1,
                "ORD_FLOW": 7,
                "HYBAS_L12": 4120049100.0,
                "Shape_Length": 0.06452200572600915
            },
            "geometry": {
                "type": "LineString",
                "coordinates": [
                    [
                        79.8937499999997,
                        7.314583333333211
                    ],
                    [
                        79.88958333333304,
                        7.310416666666548
                    ],
                    [
                        79.88541666666637,
                        7.310416666666548
                    ],
                    [
                        79.8812499999996,
                        7.306249999999885
                    ],
                    [
                        79.87708333333305,
                        7.306249999999885
                    ],
                    [
                        79.86874999999966,
                        7.297916666666531
                    ],
                    [
                        79.864583333333,
                        7.297916666666531
                    ],
                    [
                        79.86041666666634,
                        7.29375
                    ],
                    [
                        79.8479166666663,
                        7.29375
                    ],
                    [
                        79.84374999999963,
                        7.289583333333219
                    ],
                    [
                        79.83958333333297,
                        7.289583333333219
                    ]
                ]
            }
        }
    ]
}