{
    "type": "FeatureCollection",
    "features": [
        {
            "type": "Feature",
            "properties": {
                "HYRIV_ID": 41409845,
                "NEXT_DOWN": 0,
                "MAIN_RIV": 41409845,
                "LENGTH_KM": 2.0,
                "DIST_DN_KM": 0.0,
                "DIST_UP_KM": 4.7,
                "CATCH_SKM": 7.4699998,
                "UPLAND_SKM": 7.0,
                "ENDORHEIC": 0,
                "DIS_AV_CMS": 0.199,
                "ORD_STRA": 1,
                "ORD_CLAS": 1,
                "ORD_FLOW": 7,
                "HYBAS_L12": 4120050090.0,
                "Shape_Length": 0.01803511301977461
            },
            "geometry": {
                "type": "LineString",
                "coordinates": [
                    [
                        80.97916666666632,
                        6.097916666666585
                    ],
                    [
                        80.9729166666664,
                        6.097916666666585
                    ],
                    [
                        80.96874999999969,
                        6.093749999999879
                    ],
                    [
                        80.9729166666664,
                        6.089583333333231
                    ]
                ]
            }
        }
    ]
}