{
    "type": "FeatureCollection",
    "features": [
        {
            "type": "Feature",
            "properties": {
                "HYRIV_ID": 41409612,
                "NEXT_DOWN": 41409644,
                "MAIN_RIV": 41410114,
                "LENGTH_KM": 2.75,
                "DIST_DN_KM": 19.9,
                "DIST_UP_KM": 4.7,
                "CATCH_SKM": 5.5500002,
                "UPLAND_SKM": 5.5,
                "ENDORHEIC": 0,
                "DIS_AV_CMS": 0.20100001,
                "ORD_STRA": 1,
                "ORD_CLAS": 3,
                "ORD_FLOW": 7,
                "HYBAS_L12": 4120050140.0,
                "Shape_Length": 0.024790614451412535
            },
            "geometry": {
                "type": "LineString",
                "coordinates": [
                    [
                        80.68749999999963,
                        6.141666666666588
                    ],
                    [
                        80.69791666666637,
                        6.131249999999888
                    ],
                    [
                        80.6937499999996,
                        6.127083333333239
                    ],
                    [
                        80.6937499999996,
                        6.122916666666576
                    ]
                ]
            }
        },
        {
            "type": "Feature",
            "properties": {
                "HYRIV_ID": 41409613,
                "NEXT_DOWN": 41409644,
                "MAIN_RIV": 41410114,
                "LENGTH_KM": 3.3800001,
                "DIST_DN_KM": 20.1,
                "DIST_UP_KM": 5.2,
                "CATCH_SKM": 11.95,
                "UPLAND_SKM": 12.0,
                "ENDORHEIC": 0,
                "DIS_AV_CMS": 0.42500001,
                "ORD_STRA": 1,
                "ORD_CLAS": 2,
                "ORD_FLOW": 7,
                "HYBAS_L12": 4120050140.0,
                "Shape_Length": 0.030535113019823236
            },
            "geometry": {
                "type": "LineString",
                "coordinates": [
                    [
                        80.72083333333299,
                        6.131249999999888
                    ],
                    [
                        80.70208333333292,
                        6.131249999999888
                    ],
                    [
                        80.6937499999996,
                        6.122916666666576
                    ]
                ]
            }
        },
        {
            "type": "Feature",
            "properties": {
                "HYRIV_ID": 41409643,
                "NEXT_DOWN": 41409843,
                "MAIN_RIV": 41410114,
                "LENGTH_KM": 0.69,
                "DIST_DN_KM": 19.3,
                "DIST_UP_KM": 3.2,
                "CATCH_SKM": 4.48,
                "UPLAND_SKM": 4.5,
                "ENDORHEIC": 0,
                "DIS_AV_CMS": 0.162,
                "ORD_STRA": 1,
                "ORD_CLAS": 2,
                "ORD_FLOW": 7,
                "HYBAS_L12": 4120050140.0,
                "Shape_Length": 0.006250000000079581
            },
            "geometry": {
                "type": "LineString",
                "coordinates": [
                    [
                        80.6916666666663,
                        6.11875
                    ],
                    [
                        80.69791666666637,
                        6.11875
                    ]
                ]
            }
        },
        {
            "type": "Feature",
            "properties": {
                "HYRIV_ID": 41409644,
                "NEXT_DOWN": 41409843,
                "MAIN_RIV": 41410114,
                "LENGTH_KM": 0.65,
                "DIST_DN_KM": 19.5,
                "DIST_UP_KM": 9.8,
                "CATCH_SKM": 0.64,
                "UPLAND_SKM": 38.400002,
                "ENDORHEIC": 0,
                "DIS_AV_CMS": 1.396,
                "ORD_STRA": 2,
                "ORD_CLAS": 1,
                "ORD_FLOW": 6,
                "HYBAS_L12": 4120050140.0,
                "Shape_Length": 0.005892556509962925
            },
            "geometry": {
                "type": "LineString",
                "coordinates": [
                    [
                        80.6937499999996,
                        6.122916666666576
                    ],
                    [
                        80.69791666666637,
                        6.11875
                    ]
                ]
            }
        },
        {
            "type": "Feature",
            "properties": {
                "HYRIV_ID": 41409701,
                "NEXT_DOWN": 41409644,
                "MAIN_RIV": 41410114,
                "LENGTH_KM": 6.3600001,
                "DIST_DN_KM": 20.1,
                "DIST_UP_KM": 9.2,
                "CATCH_SKM": 20.280001,
                "UPLAND_SKM": 20.3,
                "ENDORHEIC": 0,
                "DIS_AV_CMS": 0.74699998,
                "ORD_STRA": 1,
                "ORD_CLAS": 1,
                "ORD_FLOW": 7,
                "HYBAS_L12": 4120050140.0,
                "Shape_Length": 0.0574090608043714
            },
            "geometry": {
                "type": "LineString",
                "coordinates": [
                    [
                        80.64583333333294,
                        6.108333333333228
                    ],
                    [
                        80.65208333333297,
                        6.114583333333265
                    ],
                    [
                        80.65624999999963,
                        6.114583333333265
                    ],
                    [
                        80.66041666666635,
                        6.11875
                    ],
                    [
                        80.66458333333301,
                        6.11875
                    ],
                    [
                        80.66874999999968,
                        6.122916666666576
                    ],
                    [
                        80.68124999999966,
                        6.122916666666576
                    ],
                    [
                        80.68541666666638,
                        6.127083333333239
                    ],
                    [
                        80.68958333333305,
                        6.127083333333239
                    ],
                    [
                        80.6937499999996,
                        6.122916666666576
                    ]
                ]
            }
        },
        {
            "type": "Feature",
            "properties": {
                "HYRIV_ID": 41409843,
                "NEXT_DOWN": 41409916,
                "MAIN_RIV": 41410114,
                "LENGTH_KM": 4.6500001,
                "DIST_DN_KM": 14.8,
                "DIST_UP_KM": 14.5,
                "CATCH_SKM": 13.66,
                "UPLAND_SKM": 56.599998,
                "ENDORHEIC": 0,
                "DIS_AV_CMS": 2.043,
                "ORD_STRA": 2,
                "ORD_CLAS": 1,
                "ORD_FLOW": 6,
                "HYBAS_L12": 4120050140.0,
                "Shape_Length": 0.04196278254951327
            },
            "geometry": {
                "type": "LineString",
                "coordinates": [
                    [
                        80.69791666666637,
                        6.11875
                    ],
                    [
                        80.70208333333292,
                        6.114583333333265
                    ],
                    [
                        80.7062499999997,
                        6.114583333333265
                    ],
                    [
                        80.71458333333308,
                        6.106249999999896
                    ],
                    [
                        80.71458333333308,
                        6.102083333333248
                    ],
                    [
                        80.71041666666642,
                        6.097916666666585
                    ],
                    [
                        80.71041666666642,
                        6.093749999999879
                    ],
                    [
                        80.71458333333308,
                        6.089583333333231
                    ]
                ]
            }
        },
        {
            "type": "Feature",
            "properties": {
                "HYRIV_ID": 41409844,
                "NEXT_DOWN": 41409916,
                "MAIN_RIV": 41410114,
                "LENGTH_KM": 3.02,
                "DIST_DN_KM": 14.6,
                "DIST_UP_KM": 4.7,
                "CATCH_SKM": 7.04,
                "UPLAND_SKM": 7.0,
                "ENDORHEIC": 0,
                "DIS_AV_CMS": 0.247,
                "ORD_STRA": 1,
                "ORD_CLAS": 2,
                "ORD_FLOW": 7,
                "HYBAS_L12": 4120050140.0,
                "Shape_Length": 0.027231391274633965
            },
            "geometry": {
                "type": "LineString",
                "coordinates": [
                    [
                        80.73333333333298,
                        6.104166666666579
                    ],
                    [
                        80.72708333333296,
                        6.097916666666585
                    ],
                    [
                        80.72708333333296,
                        6.093749999999879
                    ],
                    [
                        80.7229166666663,
                        6.093749999999879
                    ],
                    [
                        80.71874999999963,
                        6.089583333333231
                    ],
                    [
                        80.71458333333308,
                        6.089583333333231
                    ]
                ]
            }
        },
        {
            "type": "Feature",
            "properties": {
                "HYRIV_ID": 41409891,
                "NEXT_DOWN": 41409951,
                "MAIN_RIV": 41410114,
                "LENGTH_KM": 2.73,
                "DIST_DN_KM": 20.3,
                "DIST_UP_KM": 5.2,
                "CATCH_SKM": 11.31,
                "UPLAND_SKM": 11.3,
                "ENDORHEIC": 0,
                "DIS_AV_CMS": 0.42,
                "ORD_STRA": 1,
                "ORD_CLAS": 2,
                "ORD_FLOW": 7,
                "HYBAS_L12": 4120050140.0,
                "Shape_Length": 0.0246425565099407
            },
            "geometry": {
                "type": "LineString",
                "coordinates": [
                    [
                        80.63749999999962,
                        6.08125
                    ],
                    [
                        80.65208333333297,
                        6.08125
                    ],
                    [
                        80.65624999999963,
                        6.077083333333256
                    ],
                    [
                        80.66041666666635,
                        6.077083333333256
                    ]
                ]
            }
        },
        {
            "type": "Feature",
            "properties": {
                "HYRIV_ID": 41409892,
                "NEXT_DOWN": 41409951,
                "MAIN_RIV": 41410114,
                "LENGTH_KM": 2.29,
                "DIST_DN_KM": 20.5,
                "DIST_UP_KM": 4.7,
                "CATCH_SKM": 4.7,
                "UPLAND_SKM": 4.7,
                "ENDORHEIC": 0,
                "DIS_AV_CMS": 0.17200001,
                "ORD_STRA": 1,
                "ORD_CLAS": 3,
                "ORD_FLOW": 7,
                "HYBAS_L12": 4120050140.0,
                "Shape_Length": 0.02062394778471951
            },
            "geometry": {
                "type": "LineString",
                "coordinates": [
                    [
                        80.65416666666627,
                        6.091666666666562
                    ],
                    [
                        80.66041666666635,
                        6.085416666666568
                    ],
                    [
                        80.65624999999963,
                        6.08125
                    ],
                    [
                        80.66041666666635,
                        6.077083333333256
                    ]
                ]
            }
        },
        {
            "type": "Feature",
            "properties": {
                "HYRIV_ID": 41409916,
                "NEXT_DOWN": 41409936,
                "MAIN_RIV": 41410114,
                "LENGTH_KM": 2.23,
                "DIST_DN_KM": 12.6,
                "DIST_UP_KM": 16.700001,
                "CATCH_SKM": 2.77,
                "UPLAND_SKM": 66.400002,
                "ENDORHEIC": 0,
                "DIS_AV_CMS": 2.388,
                "ORD_STRA": 2,
                "ORD_CLAS": 1,
                "ORD_FLOW": 6,
                "HYBAS_L12": 4120050140.0,
                "Shape_Length": 0.020118446353026374
            },
            "geometry": {
                "type": "LineString",
                "coordinates": [
                    [
                        80.71458333333308,
                        6.089583333333231
                    ],
                    [
                        80.71874999999963,
                        6.085416666666568
                    ],
                    [
                        80.71874999999963,
                        6.077083333333256
                    ],
                    [
                        80.7229166666663,
                        6.072916666666551
                    ]
                ]
            }
        },
        {
            "type": "Feature",
            "properties": {
                "HYRIV_ID": 41409936,
                "NEXT_DOWN": 41410000,
                "MAIN_RIV": 41410114,
                "LENGTH_KM": 4.2600002,
                "DIST_DN_KM": 8.3,
                "DIST_UP_KM": 21.0,
                "CATCH_SKM": 11.53,
                "UPLAND_SKM": 119.5,
                "ENDORHEIC": 0,
                "DIS_AV_CMS": 4.2969999,
                "ORD_STRA": 3,
                "ORD_CLAS": 1,
                "ORD_FLOW": 6,
                "HYBAS_L12": 4120050140.0,
                "Shape_Length": 0.038511002862961996
            },
            "geometry": {
                "type": "LineString",
                "coordinates": [
                    [
                        80.7229166666663,
                        6.072916666666551
                    ],
                    [
                        80.73124999999962,
                        6.072916666666551
                    ],
                    [
                        80.73541666666628,
                        6.068749999999888
                    ],
                    [
                        80.74791666666627,
                        6.068749999999888
                    ],
                    [
                        80.75208333333299,
                        6.072916666666551
                    ],
                    [
                        80.7562499999996,
                        6.068749999999888
                    ]
                ]
            }
        },
        {
            "type": "Feature",
            "properties": {
                "HYRIV_ID": 41409937,
                "NEXT_DOWN": 41410000,
                "MAIN_RIV": 41410114,
                "LENGTH_KM": 3.02,
                "DIST_DN_KM": 8.1,
                "DIST_UP_KM": 5.4,
                "CATCH_SKM": 8.75,
                "UPLAND_SKM": 8.8,
                "ENDORHEIC": 0,
                "DIS_AV_CMS": 0.301,
                "ORD_STRA": 1,
                "ORD_CLAS": 2,
                "ORD_FLOW": 7,
                "HYBAS_L12": 4120050140.0,
                "Shape_Length": 0.02723139127471406
            },
            "geometry": {
                "type": "LineString",
                "coordinates": [
                    [
                        80.74166666666636,
                        6.0875
                    ],
                    [
                        80.74791666666627,
                        6.08125
                    ],
                    [
                        80.75208333333299,
                        6.08125
                    ],
                    [
                        80.7562499999996,
                        6.077083333333256
                    ],
                    [
                        80.7562499999996,
                        6.068749999999888
                    ]
                ]
            }
        },
        {
            "type": "Feature",
            "properties": {
                "HYRIV_ID": 41409951,
                "NEXT_DOWN": 41409936,
                "MAIN_RIV": 41410114,
                "LENGTH_KM": 7.87,
                "DIST_DN_KM": 12.6,
                "DIST_UP_KM": 12.9,
                "CATCH_SKM": 25.610001,
                "UPLAND_SKM": 41.599998,
                "ENDORHEIC": 0,
                "DIS_AV_CMS": 1.5089999,
                "ORD_STRA": 2,
                "ORD_CLAS": 2,
                "ORD_FLOW": 6,
                "HYBAS_L12": 4120050140.0,
                "Shape_Length": 0.07112944921610145
            },
            "geometry": {
                "type": "LineString",
                "coordinates": [
                    [
                        80.66041666666635,
                        6.077083333333256
                    ],
                    [
                        80.67291666666634,
                        6.077083333333256
                    ],
                    [
                        80.677083333333,
                        6.072916666666551
                    ],
                    [
                        80.68958333333305,
                        6.072916666666551
                    ],
                    [
                        80.6937499999996,
                        6.068749999999888
                    ],
                    [
                        80.7062499999997,
                        6.068749999999888
                    ],
                    [
                        80.71041666666642,
                        6.064583333333239
                    ],
                    [
                        80.71458333333308,
                        6.064583333333239
                    ],
                    [
                        80.7229166666663,
                        6.072916666666551
                    ]
                ]
            }
        },
        {
            "type": "Feature",
            "properties": {
                "HYRIV_ID": 41410000,
                "NEXT_DOWN": 41410026,
                "MAIN_RIV": 41410114,
                "LENGTH_KM": 3.35,
                "DIST_DN_KM": 4.8,
                "DIST_UP_KM": 24.5,
                "CATCH_SKM": 10.25,
                "UPLAND_SKM": 138.5,
                "ENDORHEIC": 0,
                "DIS_AV_CMS": 4.9450002,
                "ORD_STRA": 3,
                "ORD_CLAS": 1,
                "ORD_FLOW": 6,
                "HYBAS_L12": 4120050140.0,
                "Shape_Length": 0.030177669529668827
            },
            "geometry": {
                "type": "LineString",
                "coordinates": [
                    [
                        80.7562499999996,
                        6.068749999999888
                    ],
                    [
                        80.76458333333298,
                        6.068749999999888
                    ],
                    [
                        80.77708333333297,
                        6.05625
                    ],
                    [
                        80.77708333333297,
                        6.052083333333265
                    ]
                ]
            }
        },
        {
            "type": "Feature",
            "properties": {
                "HYRIV_ID": 41410001,
                "NEXT_DOWN": 41410058,
                "MAIN_RIV": 41410114,
                "LENGTH_KM": 4.98,
                "DIST_DN_KM": 3.2,
                "DIST_UP_KM": 7.2,
                "CATCH_SKM": 12.59,
                "UPLAND_SKM": 12.6,
                "ENDORHEIC": 0,
                "DIS_AV_CMS": 0.421,
                "ORD_STRA": 1,
                "ORD_CLAS": 2,
                "ORD_FLOW": 7,
                "HYBAS_L12": 4120050140.0,
                "Shape_Length": 0.04490906080435679
            },
            "geometry": {
                "type": "LineString",
                "coordinates": [
                    [
                        80.78333333333305,
                        6.0875
                    ],
                    [
                        80.78958333333301,
                        6.08125
                    ],
                    [
                        80.78958333333301,
                        6.072916666666551
                    ],
                    [
                        80.79374999999968,
                        6.068749999999888
                    ],
                    [
                        80.79374999999968,
                        6.064583333333239
                    ],
                    [
                        80.78958333333301,
                        6.060416666666576
                    ],
                    [
                        80.79374999999968,
                        6.05625
                    ],
                    [
                        80.78958333333301,
                        6.052083333333265
                    ]
                ]
            }
        },
        {
            "type": "Feature",
            "properties": {
                "HYRIV_ID": 41410026,
                "NEXT_DOWN": 41410058,
                "MAIN_RIV": 41410114,
                "LENGTH_KM": 1.77,
                "DIST_DN_KM": 3.2,
                "DIST_UP_KM": 26.1,
                "CATCH_SKM": 2.77,
                "UPLAND_SKM": 160.10001,
                "ENDORHEIC": 0,
                "DIS_AV_CMS": 5.6810002,
                "ORD_STRA": 3,
                "ORD_CLAS": 1,
                "ORD_FLOW": 6,
                "HYBAS_L12": 4120050140.0,
                "Shape_Length": 0.015951779686528438
            },
            "geometry": {
                "type": "LineString",
                "coordinates": [
                    [
                        80.77708333333297,
                        6.052083333333265
                    ],
                    [
                        80.78124999999963,
                        6.047916666666559
                    ],
                    [
                        80.7854166666663,
                        6.047916666666559
                    ],
                    [
                        80.78958333333301,
                        6.052083333333265
                    ]
                ]
            }
        },
        {
            "type": "Feature",
            "properties": {
                "HYRIV_ID": 41410058,
                "NEXT_DOWN": 41410114,
                "MAIN_RIV": 41410114,
                "LENGTH_KM": 1.31,
                "DIST_DN_KM": 1.9,
                "DIST_UP_KM": 27.4,
                "CATCH_SKM": 4.7,
                "UPLAND_SKM": 177.39999,
                "ENDORHEIC": 0,
                "DIS_AV_CMS": 6.2579999,
                "ORD_STRA": 3,
                "ORD_CLAS": 1,
                "ORD_FLOW": 6,
                "HYBAS_L12": 4120050140.0,
                "Shape_Length": 0.011785113019795219
            },
            "geometry": {
                "type": "LineString",
                "coordinates": [
                    [
                        80.78958333333301,
                        6.052083333333265
                    ],
                    [
                        80.79791666666634,
                        6.043749999999896
                    ]
                ]
            }
        },
        {
            "type": "Feature",
            "properties": {
                "HYRIV_ID": 41410088,
                "NEXT_DOWN": 41410026,
                "MAIN_RIV": 41410114,
                "LENGTH_KM": 5.2399998,
                "DIST_DN_KM": 4.8,
                "DIST_UP_KM": 7.8,
                "CATCH_SKM": 18.790001,
                "UPLAND_SKM": 18.8,
                "ENDORHEIC": 0,
                "DIS_AV_CMS": 0.64300001,
                "ORD_STRA": 1,
                "ORD_CLAS": 2,
                "ORD_FLOW": 7,
                "HYBAS_L12": 4120050140.0,
                "Shape_Length": 0.0473498376278125
            },
            "geometry": {
                "type": "LineString",
                "coordinates": [
                    [
                        80.7374999999997,
                        6.045833333333228
                    ],
                    [
                        80.74374999999961,
                        6.039583333333233
                    ],
                    [
                        80.76041666666632,
                        6.039583333333233
                    ],
                    [
                        80.7729166666663,
                        6.052083333333265
                    ],
                    [
                        80.77708333333297,
                        6.052083333333265
                    ]
                ]
            }
        },
        {
            "type": "Feature",
            "properties": {
                "HYRIV_ID": 41410113,
                "NEXT_DOWN": 41410114,
                "MAIN_RIV": 41410114,
                "LENGTH_KM": 1.63,
                "DIST_DN_KM": 1.9,
                "DIST_UP_KM": 2.9,
                "CATCH_SKM": 4.06,
                "UPLAND_SKM": 4.1,
                "ENDORHEIC": 0,
                "DIS_AV_CMS": 0.13600001,
                "ORD_STRA": 1,
                "ORD_CLAS": 2,
                "ORD_FLOW": 7,
                "HYBAS_L12": 4120050140.0,
                "Shape_Length": 0.014731391274756585
            },
            "geometry": {
                "type": "LineString",
                "coordinates": [
                    [
                        80.7874999999996,
                        6.033333333333253
                    ],
                    [
                        80.79791666666634,
                        6.043749999999896
                    ]
                ]
            }
        },
        {
            "type": "Feature",
            "properties": {
                "HYRIV_ID": 41410114,
                "NEXT_DOWN": 0,
                "MAIN_RIV": 41410114,
                "LENGTH_KM": 1.58,
                "DIST_DN_KM": 0.0,
                "DIST_UP_KM": 29.0,
                "CATCH_SKM": 1.71,
                "UPLAND_SKM": 182.89999,
                "ENDORHEIC": 0,
                "DIS_AV_CMS": 6.4439998,
                "ORD_STRA": 3,
                "ORD_CLAS": 1,
                "ORD_FLOW": 6,
                "HYBAS_L12": 4120050140.0,
                "Shape_Length": 0.014225889843198242
            },
            "geometry": {
                "type": "LineString",
                "coordinates": [
                    [
                        80.79791666666634,
                        6.043749999999896
                    ],
                    [
                        80.802083333333,
                        6.043749999999896
                    ],
                    [
                        80.802083333333,
                        6.039583333333233
                    ],
                    [
                        80.80624999999966,
                        6.035416666666585
                    ]
                ]
            }
        }
    ]
}