{
    "type": "FeatureCollection",
    "features": [
        {
            "type": "Feature",
            "properties": {
                "HYRIV_ID": 41410347,
                "NEXT_DOWN": 41410440,
                "MAIN_RIV": 41410440,
                "LENGTH_KM": 2.9200001,
                "DIST_DN_KM": 3.3,
                "DIST_UP_KM": 4.9,
                "CATCH_SKM": 11.53,
                "UPLAND_SKM": 11.5,
                "ENDORHEIC": 0,
                "DIS_AV_CMS": 0.41,
                "ORD_STRA": 1,
                "ORD_CLAS": 1,
                "ORD_FLOW": 7,
                "HYBAS_L12": 4120048900.0,
                "Shape_Length": 0.02636844635316969
            },
            "geometry": {
                "type": "LineString",
                "coordinates": [
                    [
                        80.67499999999964,
                        6.002083333333225
                    ],
                    [
                        80.68124999999966,
                        6.002083333333225
                    ],
                    [
                        80.68541666666638,
                        5.997916666666576
                    ],
                    [
                        80.68541666666638,
                        5.99375
                    ],
                    [
                        80.68124999999966,
                        5.98958333333325
                    ],
                    [
                        80.68124999999966,
                        5.985416666666602
                    ]
                ]
            }
        },
        {
            "type": "Feature",
            "properties": {
                "HYRIV_ID": 41410348,
                "NEXT_DOWN": 41410440,
                "MAIN_RIV": 41410440,
                "LENGTH_KM": 2.46,
                "DIST_DN_KM": 3.3,
                "DIST_UP_KM": 4.5,
                "CATCH_SKM": 6.62,
                "UPLAND_SKM": 6.6,
                "ENDORHEIC": 0,
                "DIS_AV_CMS": 0.233,
                "ORD_STRA": 1,
                "ORD_CLAS": 2,
                "ORD_FLOW": 7,
                "HYBAS_L12": 4120048900.0,
                "Shape_Length": 0.022201779686388673
            },
            "geometry": {
                "type": "LineString",
                "coordinates": [
                    [
                        80.6937499999996,
                        6.0
                    ],
                    [
                        80.6937499999996,
                        5.99375
                    ],
                    [
                        80.68541666666638,
                        5.985416666666602
                    ],
                    [
                        80.68124999999966,
                        5.985416666666602
                    ]
                ]
            }
        },
        {
            "type": "Feature",
            "properties": {
                "HYRIV_ID": 41410440,
                "NEXT_DOWN": 0,
                "MAIN_RIV": 41410440,
                "LENGTH_KM": 3.08,
                "DIST_DN_KM": 0.0,
                "DIST_UP_KM": 8.0,
                "CATCH_SKM": 6.1900001,
                "UPLAND_SKM": 23.9,
                "ENDORHEIC": 0,
                "DIS_AV_CMS": 0.84600002,
                "ORD_STRA": 2,
                "ORD_CLAS": 1,
                "ORD_FLOW": 7,
                "HYBAS_L12": 4120048900.0,
                "Shape_Length": 0.02773689270628346
            },
            "geometry": {
                "type": "LineString",
                "coordinates": [
                    [
                        80.68124999999966,
                        5.985416666666602
                    ],
                    [
                        80.68958333333305,
                        5.977083333333233
                    ],
                    [
                        80.68541666666638,
                        5.972916666666585
                    ],
                    [
                        80.68958333333305,
                        5.968749999999879
                    ],
                    [
                        80.68958333333305,
                        5.964583333333216
                    ]
                ]
            }
        }
    ]
}