{
    "type": "FeatureCollection",
    "features": [
        {
            "type": "Feature",
            "properties": {
                "HYRIV_ID": 41410164,
                "NEXT_DOWN": 41410256,
                "MAIN_RIV": 41410329,
                "LENGTH_KM": 4.0300002,
                "DIST_DN_KM": 4.7,
                "DIST_UP_KM": 5.6,
                "CATCH_SKM": 12.17,
                "UPLAND_SKM": 12.2,
                "ENDORHEIC": 0,
                "DIS_AV_CMS": 0.538,
                "ORD_STRA": 1,
                "ORD_CLAS": 2,
                "ORD_FLOW": 7,
                "HYBAS_L12": 4120048940.0,
                "Shape_Length": 0.03642766952971927
            },
            "geometry": {
                "type": "LineString",
                "coordinates": [
                    [
                        80.28333333333299,
                        6.035416666666585
                    ],
                    [
                        80.28958333333301,
                        6.035416666666585
                    ],
                    [
                        80.2979166666664,
                        6.027083333333259
                    ],
                    [
                        80.30208333333294,
                        6.027083333333259
                    ],
                    [
                        80.30624999999961,
                        6.022916666666568
                    ],
                    [
                        80.31458333333305,
                        6.022916666666568
                    ]
                ]
            }
        },
        {
            "type": "Feature",
            "properties": {
                "HYRIV_ID": 41410165,
                "NEXT_DOWN": 41410256,
                "MAIN_RIV": 41410329,
                "LENGTH_KM": 5.2399998,
                "DIST_DN_KM": 4.9,
                "DIST_UP_KM": 7.0,
                "CATCH_SKM": 14.3,
                "UPLAND_SKM": 14.3,
                "ENDORHEIC": 0,
                "DIS_AV_CMS": 0.634,
                "ORD_STRA": 1,
                "ORD_CLAS": 1,
                "ORD_FLOW": 7,
                "HYBAS_L12": 4120048940.0,
                "Shape_Length": 0.04720177968652112
            },
            "geometry": {
                "type": "LineString",
                "coordinates": [
                    [
                        80.32916666666634,
                        6.043749999999896
                    ],
                    [
                        80.32291666666643,
                        6.043749999999896
                    ],
                    [
                        80.3187499999996,
                        6.047916666666559
                    ],
                    [
                        80.31041666666627,
                        6.047916666666559
                    ],
                    [
                        80.31041666666627,
                        6.027083333333259
                    ],
                    [
                        80.31458333333305,
                        6.022916666666568
                    ]
                ]
            }
        },
        {
            "type": "Feature",
            "properties": {
                "HYRIV_ID": 41410189,
                "NEXT_DOWN": 41410257,
                "MAIN_RIV": 41410329,
                "LENGTH_KM": 2.27,
                "DIST_DN_KM": 4.7,
                "DIST_UP_KM": 4.5,
                "CATCH_SKM": 5.12,
                "UPLAND_SKM": 5.1,
                "ENDORHEIC": 0,
                "DIS_AV_CMS": 0.222,
                "ORD_STRA": 1,
                "ORD_CLAS": 2,
                "ORD_FLOW": 7,
                "HYBAS_L12": 4120048940.0,
                "Shape_Length": 0.02047588984330797
            },
            "geometry": {
                "type": "LineString",
                "coordinates": [
                    [
                        80.34999999999971,
                        6.027083333333259
                    ],
                    [
                        80.34374999999963,
                        6.027083333333259
                    ],
                    [
                        80.33958333333297,
                        6.022916666666568
                    ],
                    [
                        80.33958333333297,
                        6.01875
                    ],
                    [
                        80.3354166666663,
                        6.01875
                    ]
                ]
            }
        },
        {
            "type": "Feature",
            "properties": {
                "HYRIV_ID": 41410204,
                "NEXT_DOWN": 41410257,
                "MAIN_RIV": 41410329,
                "LENGTH_KM": 2.27,
                "DIST_DN_KM": 4.9,
                "DIST_UP_KM": 4.1,
                "CATCH_SKM": 5.5500002,
                "UPLAND_SKM": 5.5,
                "ENDORHEIC": 0,
                "DIS_AV_CMS": 0.23800001,
                "ORD_STRA": 1,
                "ORD_CLAS": 3,
                "ORD_FLOW": 7,
                "HYBAS_L12": 4120048940.0,
                "Shape_Length": 0.02047588984328787
            },
            "geometry": {
                "type": "LineString",
                "coordinates": [
                    [
                        80.35416666666637,
                        6.014583333333242
                    ],
                    [
                        80.33958333333297,
                        6.014583333333242
                    ],
                    [
                        80.3354166666663,
                        6.01875
                    ]
                ]
            }
        },
        {
            "type": "Feature",
            "properties": {
                "HYRIV_ID": 41410256,
                "NEXT_DOWN": 41410280,
                "MAIN_RIV": 41410329,
                "LENGTH_KM": 2.7,
                "DIST_DN_KM": 2.2,
                "DIST_UP_KM": 9.7,
                "CATCH_SKM": 6.83,
                "UPLAND_SKM": 33.3,
                "ENDORHEIC": 0,
                "DIS_AV_CMS": 1.4859999,
                "ORD_STRA": 2,
                "ORD_CLAS": 1,
                "ORD_FLOW": 6,
                "HYBAS_L12": 4120048940.0,
                "Shape_Length": 0.02428511301982232
            },
            "geometry": {
                "type": "LineString",
                "coordinates": [
                    [
                        80.31458333333305,
                        6.022916666666568
                    ],
                    [
                        80.3187499999996,
                        6.01875
                    ],
                    [
                        80.3187499999996,
                        6.006249999999888
                    ],
                    [
                        80.32291666666643,
                        6.002083333333225
                    ]
                ]
            }
        },
        {
            "type": "Feature",
            "properties": {
                "HYRIV_ID": 41410257,
                "NEXT_DOWN": 41410280,
                "MAIN_RIV": 41410329,
                "LENGTH_KM": 2.6900001,
                "DIST_DN_KM": 2.2,
                "DIST_UP_KM": 7.0,
                "CATCH_SKM": 4.48,
                "UPLAND_SKM": 15.2,
                "ENDORHEIC": 0,
                "DIS_AV_CMS": 0.66100001,
                "ORD_STRA": 2,
                "ORD_CLAS": 2,
                "ORD_FLOW": 7,
                "HYBAS_L12": 4120048940.0,
                "Shape_Length": 0.024285113019701737
            },
            "geometry": {
                "type": "LineString",
                "coordinates": [
                    [
                        80.3354166666663,
                        6.01875
                    ],
                    [
                        80.33124999999964,
                        6.01875
                    ],
                    [
                        80.32708333333292,
                        6.014583333333242
                    ],
                    [
                        80.32708333333292,
                        6.006249999999888
                    ],
                    [
                        80.32291666666643,
                        6.002083333333225
                    ]
                ]
            }
        },
        {
            "type": "Feature",
            "properties": {
                "HYRIV_ID": 41410280,
                "NEXT_DOWN": 41410329,
                "MAIN_RIV": 41410329,
                "LENGTH_KM": 0.65,
                "DIST_DN_KM": 1.5,
                "DIST_UP_KM": 10.4,
                "CATCH_SKM": 0.21,
                "UPLAND_SKM": 48.700001,
                "ENDORHEIC": 0,
                "DIS_AV_CMS": 2.1619999,
                "ORD_STRA": 3,
                "ORD_CLAS": 1,
                "ORD_FLOW": 6,
                "HYBAS_L12": 4120048940.0,
                "Shape_Length": 0.005892556509751905
            },
            "geometry": {
                "type": "LineString",
                "coordinates": [
                    [
                        80.32291666666643,
                        6.002083333333225
                    ],
                    [
                        80.32708333333292,
                        5.997916666666576
                    ]
                ]
            }
        },
        {
            "type": "Feature",
            "properties": {
                "HYRIV_ID": 41410281,
                "NEXT_DOWN": 41410329,
                "MAIN_RIV": 41410329,
                "LENGTH_KM": 1.15,
                "DIST_DN_KM": 1.3,
                "DIST_UP_KM": 3.0,
                "CATCH_SKM": 2.99,
                "UPLAND_SKM": 3.0,
                "ENDORHEIC": 0,
                "DIS_AV_CMS": 0.129,
                "ORD_STRA": 1,
                "ORD_CLAS": 3,
                "ORD_FLOW": 7,
                "HYBAS_L12": 4120048940.0,
                "Shape_Length": 0.010416666666728247
            },
            "geometry": {
                "type": "LineString",
                "coordinates": [
                    [
                        80.333333333333,
                        6.002083333333225
                    ],
                    [
                        80.32708333333292,
                        6.002083333333225
                    ],
                    [
                        80.32708333333292,
                        5.997916666666576
                    ]
                ]
            }
        },
        {
            "type": "Feature",
            "properties": {
                "HYRIV_ID": 41410305,
                "NEXT_DOWN": 41410329,
                "MAIN_RIV": 41410329,
                "LENGTH_KM": 2.09,
                "DIST_DN_KM": 1.3,
                "DIST_UP_KM": 3.5,
                "CATCH_SKM": 4.27,
                "UPLAND_SKM": 4.3,
                "ENDORHEIC": 0,
                "DIS_AV_CMS": 0.181,
                "ORD_STRA": 1,
                "ORD_CLAS": 2,
                "ORD_FLOW": 7,
                "HYBAS_L12": 4120048940.0,
                "Shape_Length": 0.01889805794144616
            },
            "geometry": {
                "type": "LineString",
                "coordinates": [
                    [
                        80.34166666666633,
                        6.0
                    ],
                    [
                        80.3354166666663,
                        5.99375
                    ],
                    [
                        80.33124999999964,
                        5.997916666666576
                    ],
                    [
                        80.32708333333292,
                        5.997916666666576
                    ]
                ]
            }
        },
        {
            "type": "Feature",
            "properties": {
                "HYRIV_ID": 41410329,
                "NEXT_DOWN": 0,
                "MAIN_RIV": 41410329,
                "LENGTH_KM": 1.12,
                "DIST_DN_KM": 0.0,
                "DIST_UP_KM": 11.7,
                "CATCH_SKM": 1.28,
                "UPLAND_SKM": 56.8,
                "ENDORHEIC": 0,
                "DIS_AV_CMS": 2.5079999,
                "ORD_STRA": 3,
                "ORD_CLAS": 1,
                "ORD_FLOW": 6,
                "HYBAS_L12": 4120048940.0,
                "Shape_Length": 0.01005922317642483
            },
            "geometry": {
                "type": "LineString",
                "coordinates": [
                    [
                        80.32708333333292,
                        5.997916666666576
                    ],
                    [
                        80.32291666666643,
                        5.99375
                    ],
                    [
                        80.32291666666643,
                        5.98958333333325
                    ]
                ]
            }
        }
    ]
}