{
    "type": "FeatureCollection",
    "features": [
        {
            "type": "Feature",
            "properties": {
                "HYRIV_ID": 41410112,
                "NEXT_DOWN": 0,
                "MAIN_RIV": 41410112,
                "LENGTH_KM": 2.08,
                "DIST_DN_KM": 0.0,
                "DIST_UP_KM": 4.9,
                "CATCH_SKM": 8.54,
                "UPLAND_SKM": 8.1,
                "ENDORHEIC": 0,
                "DIS_AV_CMS": 0.36500001,
                "ORD_STRA": 1,
                "ORD_CLAS": 1,
                "ORD_FLOW": 7,
                "HYBAS_L12": 4120048940.0,
                "Shape_Length": 0.018749999999997158
            },
            "geometry": {
                "type": "LineString",
                "coordinates": [
                    [
                        80.2229166666663,
                        6.054166666666582
                    ],
                    [
                        80.2229166666663,
                        6.035416666666585
                    ]
                ]
            }
        }
    ]
}