{
    "type": "FeatureCollection",
    "features": [
        {
            "type": "Feature",
            "properties": {
                "HYRIV_ID": 41409702,
                "NEXT_DOWN": 41409703,
                "MAIN_RIV": 41410060,
                "LENGTH_KM": 4.23,
                "DIST_DN_KM": 11.8,
                "DIST_UP_KM": 5.6,
                "CATCH_SKM": 13.87,
                "UPLAND_SKM": 13.9,
                "ENDORHEIC": 0,
                "DIS_AV_CMS": 0.47600001,
                "ORD_STRA": 1,
                "ORD_CLAS": 1,
                "ORD_FLOW": 7,
                "HYBAS_L12": 4120050130.0,
                "Shape_Length": 0.03815355937283184
            },
            "geometry": {
                "type": "LineString",
                "coordinates": [
                    [
                        80.75416666666635,
                        6.131249999999888
                    ],
                    [
                        80.76041666666632,
                        6.131249999999888
                    ],
                    [
                        80.76458333333298,
                        6.127083333333239
                    ],
                    [
                        80.76874999999964,
                        6.127083333333239
                    ],
                    [
                        80.7729166666663,
                        6.122916666666576
                    ],
                    [
                        80.7729166666663,
                        6.11875
                    ],
                    [
                        80.78124999999963,
                        6.110416666666559
                    ]
                ]
            }
        },
        {
            "type": "Feature",
            "properties": {
                "HYRIV_ID": 41409703,
                "NEXT_DOWN": 41410060,
                "MAIN_RIV": 41410060,
                "LENGTH_KM": 1.38,
                "DIST_DN_KM": 10.2,
                "DIST_UP_KM": 7.1,
                "CATCH_SKM": 2.56,
                "UPLAND_SKM": 20.9,
                "ENDORHEIC": 0,
                "DIS_AV_CMS": 0.71600002,
                "ORD_STRA": 2,
                "ORD_CLAS": 1,
                "ORD_FLOW": 7,
                "HYBAS_L12": 4120050130.0,
                "Shape_Length": 0.012500000000045475
            },
            "geometry": {
                "type": "LineString",
                "coordinates": [
                    [
                        80.78124999999963,
                        6.110416666666559
                    ],
                    [
                        80.79374999999968,
                        6.110416666666559
                    ]
                ]
            }
        },
        {
            "type": "Feature",
            "properties": {
                "HYRIV_ID": 41409704,
                "NEXT_DOWN": 41410060,
                "MAIN_RIV": 41410060,
                "LENGTH_KM": 2.29,
                "DIST_DN_KM": 10.4,
                "DIST_UP_KM": 4.2,
                "CATCH_SKM": 6.1900001,
                "UPLAND_SKM": 6.2,
                "ENDORHEIC": 0,
                "DIS_AV_CMS": 0.207,
                "ORD_STRA": 1,
                "ORD_CLAS": 2,
                "ORD_FLOW": 7,
                "HYBAS_L12": 4120050130.0,
                "Shape_Length": 0.020623947784588877
            },
            "geometry": {
                "type": "LineString",
                "coordinates": [
                    [
                        80.79999999999964,
                        6.125
                    ],
                    [
                        80.79374999999968,
                        6.11875
                    ],
                    [
                        80.79791666666634,
                        6.114583333333265
                    ],
                    [
                        80.79374999999968,
                        6.110416666666559
                    ]
                ]
            }
        },
        {
            "type": "Feature",
            "properties": {
                "HYRIV_ID": 41409738,
                "NEXT_DOWN": 41409703,
                "MAIN_RIV": 41410060,
                "LENGTH_KM": 1.34,
                "DIST_DN_KM": 11.8,
                "DIST_UP_KM": 4.5,
                "CATCH_SKM": 4.48,
                "UPLAND_SKM": 4.5,
                "ENDORHEIC": 0,
                "DIS_AV_CMS": 0.154,
                "ORD_STRA": 1,
                "ORD_CLAS": 2,
                "ORD_FLOW": 7,
                "HYBAS_L12": 4120050130.0,
                "Shape_Length": 0.012142556509905273
            },
            "geometry": {
                "type": "LineString",
                "coordinates": [
                    [
                        80.77083333333294,
                        6.106249999999896
                    ],
                    [
                        80.77708333333297,
                        6.106249999999896
                    ],
                    [
                        80.78124999999963,
                        6.110416666666559
                    ]
                ]
            }
        },
        {
            "type": "Feature",
            "properties": {
                "HYRIV_ID": 41410060,
                "NEXT_DOWN": 0,
                "MAIN_RIV": 41410060,
                "LENGTH_KM": 9.96,
                "DIST_DN_KM": 0.0,
                "DIST_UP_KM": 17.1,
                "CATCH_SKM": 29.67,
                "UPLAND_SKM": 56.599998,
                "ENDORHEIC": 0,
                "DIS_AV_CMS": 1.885,
                "ORD_STRA": 2,
                "ORD_CLAS": 1,
                "ORD_FLOW": 6,
                "HYBAS_L12": 4120050130.0,
                "Shape_Length": 0.08981812160891384
            },
            "geometry": {
                "type": "LineString",
                "coordinates": [
                    [
                        80.79374999999968,
                        6.110416666666559
                    ],
                    [
                        80.81874999999971,
                        6.085416666666568
                    ],
                    [
                        80.82291666666637,
                        6.085416666666568
                    ],
                    [
                        80.82708333333292,
                        6.08125
                    ],
                    [
                        80.82708333333292,
                        6.077083333333256
                    ],
                    [
                        80.83541666666625,
                        6.068749999999888
                    ],
                    [
                        80.83541666666625,
                        6.060416666666576
                    ],
                    [
                        80.83958333333308,
                        6.05625
                    ],
                    [
                        80.83958333333308,
                        6.052083333333265
                    ],
                    [
                        80.83541666666625,
                        6.047916666666559
                    ],
                    [
                        80.83541666666625,
                        6.043749999999896
                    ]
                ]
            }
        }
    ]
}