{
    "type": "FeatureCollection",
    "features": [
        {
            "type": "Feature",
            "properties": {
                "HYRIV_ID": 41410059,
                "NEXT_DOWN": 0,
                "MAIN_RIV": 41410059,
                "LENGTH_KM": 1.4400001,
                "DIST_DN_KM": 0.0,
                "DIST_UP_KM": 5.6,
                "CATCH_SKM": 4.7,
                "UPLAND_SKM": 4.5,
                "ENDORHEIC": 0,
                "DIS_AV_CMS": 0.147,
                "ORD_STRA": 1,
                "ORD_CLAS": 1,
                "ORD_FLOW": 7,
                "HYBAS_L12": 4120050130.0,
                "Shape_Length": 0.013005501431567071
            },
            "geometry": {
                "type": "LineString",
                "coordinates": [
                    [
                        80.82499999999962,
                        6.054166666666582
                    ],
                    [
                        80.8312499999997,
                        6.047916666666559
                    ],
                    [
                        80.8312499999997,
                        6.043749999999896
                    ]
                ]
            }
        }
    ]
}