{
    "type": "FeatureCollection",
    "features": [
        {
            "type": "Feature",
            "properties": {
                "HYRIV_ID": 41410057,
                "NEXT_DOWN": 41410262,
                "MAIN_RIV": 41410262,
                "LENGTH_KM": 1.15,
                "DIST_DN_KM": 10.2,
                "DIST_UP_KM": 3.8,
                "CATCH_SKM": 5.98,
                "UPLAND_SKM": 6.0,
                "ENDORHEIC": 0,
                "DIS_AV_CMS": 0.215,
                "ORD_STRA": 1,
                "ORD_CLAS": 1,
                "ORD_FLOW": 7,
                "HYBAS_L12": 4120048900.0,
                "Shape_Length": 0.010416666666742458
            },
            "geometry": {
                "type": "LineString",
                "coordinates": [
                    [
                        80.67499999999964,
                        6.043749999999896
                    ],
                    [
                        80.68541666666638,
                        6.043749999999896
                    ]
                ]
            }
        },
        {
            "type": "Feature",
            "properties": {
                "HYRIV_ID": 41410087,
                "NEXT_DOWN": 41410262,
                "MAIN_RIV": 41410262,
                "LENGTH_KM": 0.98,
                "DIST_DN_KM": 10.4,
                "DIST_UP_KM": 2.4,
                "CATCH_SKM": 4.9099998,
                "UPLAND_SKM": 4.9,
                "ENDORHEIC": 0,
                "DIS_AV_CMS": 0.175,
                "ORD_STRA": 1,
                "ORD_CLAS": 2,
                "ORD_FLOW": 7,
                "HYBAS_L12": 4120048900.0,
                "Shape_Length": 0.008838834764874048
            },
            "geometry": {
                "type": "LineString",
                "coordinates": [
                    [
                        80.6791666666663,
                        6.0375
                    ],
                    [
                        80.68541666666638,
                        6.043749999999896
                    ]
                ]
            }
        },
        {
            "type": "Feature",
            "properties": {
                "HYRIV_ID": 41410262,
                "NEXT_DOWN": 0,
                "MAIN_RIV": 41410262,
                "LENGTH_KM": 10.03,
                "DIST_DN_KM": 0.0,
                "DIST_UP_KM": 13.6,
                "CATCH_SKM": 26.040001,
                "UPLAND_SKM": 36.5,
                "ENDORHEIC": 0,
                "DIS_AV_CMS": 1.284,
                "ORD_STRA": 2,
                "ORD_CLAS": 1,
                "ORD_FLOW": 6,
                "HYBAS_L12": 4120048900.0,
                "Shape_Length": 0.09053300858888202
            },
            "geometry": {
                "type": "LineString",
                "coordinates": [
                    [
                        80.68541666666638,
                        6.043749999999896
                    ],
                    [
                        80.69791666666637,
                        6.043749999999896
                    ],
                    [
                        80.7062499999997,
                        6.035416666666585
                    ],
                    [
                        80.71041666666642,
                        6.035416666666585
                    ],
                    [
                        80.71458333333308,
                        6.03125
                    ],
                    [
                        80.71874999999963,
                        6.03125
                    ],
                    [
                        80.7229166666663,
                        6.027083333333259
                    ],
                    [
                        80.73124999999962,
                        6.027083333333259
                    ],
                    [
                        80.73541666666628,
                        6.022916666666568
                    ],
                    [
                        80.73541666666628,
                        6.01875
                    ],
                    [
                        80.73958333333294,
                        6.014583333333242
                    ],
                    [
                        80.74374999999961,
                        6.014583333333242
                    ],
                    [
                        80.7562499999996,
                        6.002083333333225
                    ]
                ]
            }
        }
    ]
}