{
    "type": "FeatureCollection",
    "features": [
        {
            "type": "Feature",
            "properties": {
                "HYRIV_ID": 41410438,
                "NEXT_DOWN": 0,
                "MAIN_RIV": 41410438,
                "LENGTH_KM": 4.79,
                "DIST_DN_KM": 0.0,
                "DIST_UP_KM": 7.2,
                "CATCH_SKM": 17.290001,
                "UPLAND_SKM": 17.1,
                "ENDORHEIC": 0,
                "DIS_AV_CMS": 0.71200001,
                "ORD_STRA": 1,
                "ORD_CLAS": 1,
                "ORD_FLOW": 7,
                "HYBAS_L12": 4120048940.0,
                "Shape_Length": 0.04318317096116383
            },
            "geometry": {
                "type": "LineString",
                "coordinates": [
                    [
                        80.3791666666663,
                        6.0
                    ],
                    [
                        80.37291666666633,
                        5.99375
                    ],
                    [
                        80.37708333333299,
                        5.98958333333325
                    ],
                    [
                        80.37708333333299,
                        5.981249999999896
                    ],
                    [
                        80.38541666666632,
                        5.972916666666585
                    ],
                    [
                        80.38541666666632,
                        5.964583333333216
                    ]
                ]
            }
        }
    ]
}