{
    "type": "FeatureCollection",
    "features": [
        {
            "type": "Feature",
            "properties": {
                "HYRIV_ID": 41410027,
                "NEXT_DOWN": 0,
                "MAIN_RIV": 41410027,
                "LENGTH_KM": 1.81,
                "DIST_DN_KM": 0.0,
                "DIST_UP_KM": 3.6,
                "CATCH_SKM": 6.1900001,
                "UPLAND_SKM": 5.1,
                "ENDORHEIC": 0,
                "DIS_AV_CMS": 0.162,
                "ORD_STRA": 1,
                "ORD_CLAS": 1,
                "ORD_FLOW": 7,
                "HYBAS_L12": 4120050130.0,
                "Shape_Length": 0.016309223176572313
            },
            "geometry": {
                "type": "LineString",
                "coordinates": [
                    [
                        80.85624999999962,
                        6.0625
                    ],
                    [
                        80.85624999999962,
                        6.05625
                    ],
                    [
                        80.85208333333296,
                        6.052083333333265
                    ],
                    [
                        80.85208333333296,
                        6.047916666666559
                    ]
                ]
            }
        }
    ]
}