{
    "type": "FeatureCollection",
    "features": [
        {
            "type": "Feature",
            "properties": {
                "HYRIV_ID": 41410331,
                "NEXT_DOWN": 0,
                "MAIN_RIV": 41410331,
                "LENGTH_KM": 2.09,
                "DIST_DN_KM": 0.0,
                "DIST_UP_KM": 5.6,
                "CATCH_SKM": 9.6099997,
                "UPLAND_SKM": 9.4,
                "ENDORHEIC": 0,
                "DIS_AV_CMS": 0.32600001,
                "ORD_STRA": 1,
                "ORD_CLAS": 1,
                "ORD_FLOW": 7,
                "HYBAS_L12": 4120048900.0,
                "Shape_Length": 0.01889805794134912
            },
            "geometry": {
                "type": "LineString",
                "coordinates": [
                    [
                        80.72916666666632,
                        5.9875
                    ],
                    [
                        80.73541666666628,
                        5.99375
                    ],
                    [
                        80.73958333333294,
                        5.99375
                    ],
                    [
                        80.74374999999961,
                        5.98958333333325
                    ]
                ]
            }
        }
    ]
}