{
"type": "FeatureCollection",
"name": "main_river_41393139",
"crs": { "type": "name", "properties": { "name": "urn:ogc:def:crs:OGC:1.3:CRS84" } },
"features": [
{ "type": "Feature", "properties": { "HYRIV_ID": 41393139, "NEXT_DOWN": 0, "MAIN_RIV": 41393139, "LENGTH_KM": 3.1, "DIST_DN_KM": 0.0, "DIST_UP_KM": 7.0, "CATCH_SKM": 19.049999, "UPLAND_SKM": 17.8, "ENDORHEIC": 0, "DIS_AV_CMS": 0.242, "ORD_STRA": 1, "ORD_CLAS": 1, "ORD_FLOW": 7, "HYBAS_L12": 4120050150.0, "Shape_Length": 0.028094336196320738 }, "geometry": { "type": "MultiLineString", "coordinates": [ [ [ 80.393749999999642, 9.549999999999834 ], [ 80.393749999999642, 9.543749999999854 ], [ 80.406249999999687, 9.531249999999879 ], [ 80.41041666666635, 9.531249999999879 ] ] ] } }
]
}
