{
"type": "FeatureCollection",
"name": "main_river_41404802",
"crs": { "type": "name", "properties": { "name": "urn:ogc:def:crs:OGC:1.3:CRS84" } },
"features": [
{ "type": "Feature", "properties": { "HYRIV_ID": 41404673, "NEXT_DOWN": 41404801, "MAIN_RIV": 41404802, "LENGTH_KM": 1.15, "DIST_DN_KM": 8.5, "DIST_UP_KM": 5.2, "CATCH_SKM": 9.8, "UPLAND_SKM": 9.8, "ENDORHEIC": 0, "DIS_AV_CMS": 0.213, "ORD_STRA": 1, "ORD_CLAS": 3, "ORD_FLOW": 7, "HYBAS_L12": 4120049860.0, "Shape_Length": 0.010416666666628771 }, "geometry": { "type": "MultiLineString", "coordinates": [ [ [ 81.787499999999653, 7.202083333333213 ], [ 81.797916666666282, 7.202083333333213 ] ] ] } },
{ "type": "Feature", "properties": { "HYRIV_ID": 41404674, "NEXT_DOWN": 41404801, "MAIN_RIV": 41404802, "LENGTH_KM": 0.98, "DIST_DN_KM": 8.7, "DIST_UP_KM": 5.1, "CATCH_SKM": 4.9, "UPLAND_SKM": 4.9, "ENDORHEIC": 0, "DIS_AV_CMS": 0.107, "ORD_STRA": 1, "ORD_CLAS": 2, "ORD_FLOW": 7, "HYBAS_L12": 4120049860.0, "Shape_Length": 0.0088388347649142433 }, "geometry": { "type": "MultiLineString", "coordinates": [ [ [ 81.804166666666362, 7.20833333333325 ], [ 81.797916666666282, 7.202083333333213 ] ] ] } },
{ "type": "Feature", "properties": { "HYRIV_ID": 41404800, "NEXT_DOWN": 41404845, "MAIN_RIV": 41404802, "LENGTH_KM": 8.2200003, "DIST_DN_KM": 12.5, "DIST_UP_KM": 10.9, "CATCH_SKM": 26.83, "UPLAND_SKM": 26.8, "ENDORHEIC": 0, "DIS_AV_CMS": 0.583, "ORD_STRA": 1, "ORD_CLAS": 3, "ORD_FLOW": 7, "HYBAS_L12": 4121158340.0, "Shape_Length": 0.074223785412492735 }, "geometry": { "type": "MultiLineString", "coordinates": [ [ [ 81.720833333332934, 7.19375 ], [ 81.731249999999676, 7.19375 ], [ 81.743749999999665, 7.206249999999876 ], [ 81.747916666666328, 7.206249999999876 ], [ 81.75624999999971, 7.197916666666565 ], [ 81.75624999999971, 7.19375 ], [ 81.760416666666259, 7.189583333333239 ], [ 81.760416666666259, 7.185416666666548 ], [ 81.764583333332922, 7.181249999999885 ], [ 81.764583333332922, 7.177083333333222 ], [ 81.768749999999699, 7.172916666666573 ] ] ] } },
{ "type": "Feature", "properties": { "HYRIV_ID": 41404801, "NEXT_DOWN": 41404802, "MAIN_RIV": 41404802, "LENGTH_KM": 7.79, "DIST_DN_KM": 0.9, "DIST_UP_KM": 12.9, "CATCH_SKM": 25.559999, "UPLAND_SKM": 40.3, "ENDORHEIC": 0, "DIS_AV_CMS": 0.866, "ORD_STRA": 2, "ORD_CLAS": 2, "ORD_FLOW": 7, "HYBAS_L12": 4120049860.0, "Shape_Length": 0.070414562235858083 }, "geometry": { "type": "MultiLineString", "coordinates": [ [ [ 81.797916666666282, 7.202083333333213 ], [ 81.802083333332945, 7.197916666666565 ], [ 81.818749999999596, 7.197916666666565 ], [ 81.822916666666316, 7.19375 ], [ 81.831249999999642, 7.19375 ], [ 81.847916666666293, 7.177083333333222 ], [ 81.852083333332956, 7.177083333333222 ], [ 81.856249999999619, 7.172916666666573 ] ] ] } },
{ "type": "Feature", "properties": { "HYRIV_ID": 41404802, "NEXT_DOWN": 0, "MAIN_RIV": 41404802, "LENGTH_KM": 0.46, "DIST_DN_KM": 0.0, "DIST_UP_KM": 40.700001, "CATCH_SKM": 0.43, "UPLAND_SKM": 369.10001, "ENDORHEIC": 0, "DIS_AV_CMS": 7.638, "ORD_STRA": 3, "ORD_CLAS": 1, "ORD_FLOW": 6, "HYBAS_L12": 4120049860.0, "Shape_Length": 0.0041666666667197205 }, "geometry": { "type": "MultiLineString", "coordinates": [ [ [ 81.856249999999619, 7.172916666666573 ], [ 81.860416666666339, 7.172916666666573 ] ] ] } },
{ "type": "Feature", "properties": { "HYRIV_ID": 41404845, "NEXT_DOWN": 41404861, "MAIN_RIV": 41404802, "LENGTH_KM": 5.64, "DIST_DN_KM": 6.6, "DIST_UP_KM": 23.700001, "CATCH_SKM": 14.48, "UPLAND_SKM": 106.7, "ENDORHEIC": 0, "DIS_AV_CMS": 2.2709999, "ORD_STRA": 2, "ORD_CLAS": 2, "ORD_FLOW": 6, "HYBAS_L12": 4121158340.0, "Shape_Length": 0.051011002862897233 }, "geometry": { "type": "MultiLineString", "coordinates": [ [ [ 81.768749999999699, 7.172916666666573 ], [ 81.789583333332899, 7.172916666666573 ], [ 81.802083333332945, 7.160416666666556 ], [ 81.814583333332934, 7.160416666666556 ] ] ] } },
{ "type": "Feature", "properties": { "HYRIV_ID": 41404861, "NEXT_DOWN": 41404862, "MAIN_RIV": 41404802, "LENGTH_KM": 2.8800001, "DIST_DN_KM": 4.0, "DIST_UP_KM": 26.4, "CATCH_SKM": 9.1599998, "UPLAND_SKM": 122.3, "ENDORHEIC": 0, "DIS_AV_CMS": 2.592, "ORD_STRA": 2, "ORD_CLAS": 2, "ORD_FLOW": 6, "HYBAS_L12": 4121158340.0, "Shape_Length": 0.02601100286299346 }, "geometry": { "type": "MultiLineString", "coordinates": [ [ [ 81.814583333332934, 7.160416666666556 ], [ 81.818749999999596, 7.164583333333205 ], [ 81.827083333332922, 7.164583333333205 ], [ 81.835416666666305, 7.156249999999893 ] ] ] } },
{ "type": "Feature", "properties": { "HYRIV_ID": 41404862, "NEXT_DOWN": 41404802, "MAIN_RIV": 41404802, "LENGTH_KM": 3.07, "DIST_DN_KM": 0.9, "DIST_UP_KM": 40.099998, "CATCH_SKM": 6.8200002, "UPLAND_SKM": 328.70001, "ENDORHEIC": 0, "DIS_AV_CMS": 6.7729998, "ORD_STRA": 3, "ORD_CLAS": 1, "ORD_FLOW": 6, "HYBAS_L12": 4120049860.0, "Shape_Length": 0.027736892706213122 }, "geometry": { "type": "MultiLineString", "coordinates": [ [ [ 81.835416666666305, 7.156249999999893 ], [ 81.839583333332968, 7.156249999999893 ], [ 81.856249999999619, 7.172916666666573 ] ] ] } },
{ "type": "Feature", "properties": { "HYRIV_ID": 41404875, "NEXT_DOWN": 41404845, "MAIN_RIV": 41404802, "LENGTH_KM": 8.3199997, "DIST_DN_KM": 12.5, "DIST_UP_KM": 17.9, "CATCH_SKM": 28.969999, "UPLAND_SKM": 65.400002, "ENDORHEIC": 0, "DIS_AV_CMS": 1.3940001, "ORD_STRA": 2, "ORD_CLAS": 2, "ORD_FLOW": 6, "HYBAS_L12": 4121158340.0, "Shape_Length": 0.075296115882771519 }, "geometry": { "type": "MultiLineString", "coordinates": [ [ [ 81.702083333332979, 7.152083333333231 ], [ 81.706249999999642, 7.156249999999893 ], [ 81.722916666666293, 7.156249999999893 ], [ 81.727083333333013, 7.160416666666556 ], [ 81.739583333333002, 7.160416666666556 ], [ 81.743749999999665, 7.164583333333205 ], [ 81.747916666666328, 7.164583333333205 ], [ 81.752083333333047, 7.16875 ], [ 81.764583333332922, 7.16875 ], [ 81.768749999999699, 7.172916666666573 ] ] ] } },
{ "type": "Feature", "properties": { "HYRIV_ID": 41404876, "NEXT_DOWN": 41404861, "MAIN_RIV": 41404802, "LENGTH_KM": 2.27, "DIST_DN_KM": 6.6, "DIST_UP_KM": 6.4, "CATCH_SKM": 6.39, "UPLAND_SKM": 6.4, "ENDORHEIC": 0, "DIS_AV_CMS": 0.13500001, "ORD_STRA": 1, "ORD_CLAS": 3, "ORD_FLOW": 7, "HYBAS_L12": 4121158340.0, "Shape_Length": 0.020475889843174184 }, "geometry": { "type": "MultiLineString", "coordinates": [ [ [ 81.799999999999642, 7.152083333333231 ], [ 81.810416666666271, 7.152083333333231 ], [ 81.814583333332934, 7.156249999999893 ], [ 81.814583333332934, 7.160416666666556 ] ] ] } },
{ "type": "Feature", "properties": { "HYRIV_ID": 41404877, "NEXT_DOWN": 41404862, "MAIN_RIV": 41404802, "LENGTH_KM": 0.65, "DIST_DN_KM": 4.0, "DIST_UP_KM": 37.0, "CATCH_SKM": 1.49, "UPLAND_SKM": 199.60001, "ENDORHEIC": 0, "DIS_AV_CMS": 4.0609999, "ORD_STRA": 2, "ORD_CLAS": 1, "ORD_FLOW": 6, "HYBAS_L12": 4121158370.0, "Shape_Length": 0.0058925565098825365 }, "geometry": { "type": "MultiLineString", "coordinates": [ [ [ 81.831249999999642, 7.152083333333231 ], [ 81.835416666666305, 7.156249999999893 ] ] ] } },
{ "type": "Feature", "properties": { "HYRIV_ID": 41404913, "NEXT_DOWN": 41404875, "MAIN_RIV": 41404802, "LENGTH_KM": 1.63, "DIST_DN_KM": 20.8, "DIST_UP_KM": 4.9, "CATCH_SKM": 10.86, "UPLAND_SKM": 10.9, "ENDORHEIC": 0, "DIS_AV_CMS": 0.232, "ORD_STRA": 1, "ORD_CLAS": 3, "ORD_FLOW": 7, "HYBAS_L12": 4121158340.0, "Shape_Length": 0.014731391274706343 }, "geometry": { "type": "MultiLineString", "coordinates": [ [ [ 81.69166666666635, 7.141666666666545 ], [ 81.702083333332979, 7.152083333333231 ] ] ] } },
{ "type": "Feature", "properties": { "HYRIV_ID": 41404932, "NEXT_DOWN": 41404875, "MAIN_RIV": 41404802, "LENGTH_KM": 6.73, "DIST_DN_KM": 20.8, "DIST_UP_KM": 9.6, "CATCH_SKM": 25.559999, "UPLAND_SKM": 25.6, "ENDORHEIC": 0, "DIS_AV_CMS": 0.551, "ORD_STRA": 1, "ORD_CLAS": 2, "ORD_FLOW": 7, "HYBAS_L12": 4121158340.0, "Shape_Length": 0.060860840490810732 }, "geometry": { "type": "MultiLineString", "coordinates": [ [ [ 81.654166666666328, 7.137499999999882 ], [ 81.668749999999619, 7.152083333333231 ], [ 81.672916666666282, 7.152083333333231 ], [ 81.677083333332945, 7.156249999999893 ], [ 81.681249999999608, 7.156249999999893 ], [ 81.685416666666271, 7.160416666666556 ], [ 81.693749999999596, 7.160416666666556 ], [ 81.702083333332979, 7.152083333333231 ] ] ] } },
{ "type": "Feature", "properties": { "HYRIV_ID": 41404958, "NEXT_DOWN": 41404959, "MAIN_RIV": 41404802, "LENGTH_KM": 2.6900001, "DIST_DN_KM": 10.0, "DIST_UP_KM": 31.0, "CATCH_SKM": 4.0500002, "UPLAND_SKM": 157.0, "ENDORHEIC": 0, "DIS_AV_CMS": 3.2079999, "ORD_STRA": 2, "ORD_CLAS": 1, "ORD_FLOW": 6, "HYBAS_L12": 4121158370.0, "Shape_Length": 0.024285113019636571 }, "geometry": { "type": "MultiLineString", "coordinates": [ [ [ 81.768749999999699, 7.13125 ], [ 81.772916666666248, 7.135416666666551 ], [ 81.781249999999574, 7.135416666666551 ], [ 81.785416666666293, 7.13125 ], [ 81.789583333332899, 7.13125 ] ] ] } },
{ "type": "Feature", "properties": { "HYRIV_ID": 41404959, "NEXT_DOWN": 41404877, "MAIN_RIV": 41404802, "LENGTH_KM": 5.56, "DIST_DN_KM": 4.6, "DIST_UP_KM": 36.3, "CATCH_SKM": 12.99, "UPLAND_SKM": 177.0, "ENDORHEIC": 0, "DIS_AV_CMS": 3.599, "ORD_STRA": 2, "ORD_CLAS": 1, "ORD_FLOW": 6, "HYBAS_L12": 4121158370.0, "Shape_Length": 0.050296115882834155 }, "geometry": { "type": "MultiLineString", "coordinates": [ [ [ 81.789583333332899, 7.13125 ], [ 81.793749999999619, 7.13125 ], [ 81.802083333332945, 7.139583333333213 ], [ 81.810416666666271, 7.139583333333213 ], [ 81.818749999999596, 7.147916666666539 ], [ 81.827083333332922, 7.147916666666539 ], [ 81.831249999999642, 7.152083333333231 ] ] ] } },
{ "type": "Feature", "properties": { "HYRIV_ID": 41404968, "NEXT_DOWN": 41404959, "MAIN_RIV": 41404802, "LENGTH_KM": 0.69, "DIST_DN_KM": 10.0, "DIST_UP_KM": 4.9, "CATCH_SKM": 7.0300002, "UPLAND_SKM": 7.0, "ENDORHEIC": 0, "DIS_AV_CMS": 0.145, "ORD_STRA": 1, "ORD_CLAS": 2, "ORD_FLOW": 7, "HYBAS_L12": 4121158370.0, "Shape_Length": 0.0062499999999943157 }, "geometry": { "type": "MultiLineString", "coordinates": [ [ [ 81.789583333332899, 7.125 ], [ 81.789583333332899, 7.13125 ] ] ] } },
{ "type": "Feature", "properties": { "HYRIV_ID": 41404969, "NEXT_DOWN": 41404877, "MAIN_RIV": 41404802, "LENGTH_KM": 3.86, "DIST_DN_KM": 4.6, "DIST_UP_KM": 6.3, "CATCH_SKM": 21.09, "UPLAND_SKM": 21.1, "ENDORHEIC": 0, "DIS_AV_CMS": 0.433, "ORD_STRA": 1, "ORD_CLAS": 2, "ORD_FLOW": 7, "HYBAS_L12": 4121158370.0, "Shape_Length": 0.034849837627782952 }, "geometry": { "type": "MultiLineString", "coordinates": [ [ [ 81.841666666666271, 7.125 ], [ 81.835416666666305, 7.13125 ], [ 81.835416666666305, 7.135416666666551 ], [ 81.839583333332968, 7.139583333333213 ], [ 81.835416666666305, 7.143749999999876 ], [ 81.835416666666305, 7.147916666666539 ], [ 81.831249999999642, 7.152083333333231 ] ] ] } },
{ "type": "Feature", "properties": { "HYRIV_ID": 41405043, "NEXT_DOWN": 41404958, "MAIN_RIV": 41404802, "LENGTH_KM": 12.51, "DIST_DN_KM": 12.8, "DIST_UP_KM": 28.1, "CATCH_SKM": 39.189999, "UPLAND_SKM": 114.6, "ENDORHEIC": 0, "DIS_AV_CMS": 2.355, "ORD_STRA": 2, "ORD_CLAS": 1, "ORD_FLOW": 6, "HYBAS_L12": 4121158370.0, "Shape_Length": 0.11309223176552906 }, "geometry": { "type": "MultiLineString", "coordinates": [ [ [ 81.681249999999608, 7.10625 ], [ 81.685416666666271, 7.110416666666559 ], [ 81.697916666666316, 7.110416666666559 ], [ 81.702083333332979, 7.10625 ], [ 81.714583333332968, 7.10625 ], [ 81.718749999999631, 7.110416666666559 ], [ 81.718749999999631, 7.114583333333222 ], [ 81.722916666666293, 7.118749999999885 ], [ 81.722916666666293, 7.122916666666534 ], [ 81.731249999999676, 7.122916666666534 ], [ 81.743749999999665, 7.135416666666551 ], [ 81.747916666666328, 7.135416666666551 ], [ 81.752083333333047, 7.139583333333213 ], [ 81.75624999999971, 7.135416666666551 ], [ 81.764583333332922, 7.135416666666551 ], [ 81.768749999999699, 7.13125 ] ] ] } },
{ "type": "Feature", "properties": { "HYRIV_ID": 41405116, "NEXT_DOWN": 41405043, "MAIN_RIV": 41404802, "LENGTH_KM": 2.37, "DIST_DN_KM": 25.200001, "DIST_UP_KM": 5.0, "CATCH_SKM": 7.0300002, "UPLAND_SKM": 7.0, "ENDORHEIC": 0, "DIS_AV_CMS": 0.144, "ORD_STRA": 1, "ORD_CLAS": 2, "ORD_FLOW": 7, "HYBAS_L12": 4121158370.0, "Shape_Length": 0.021338834764780566 }, "geometry": { "type": "MultiLineString", "coordinates": [ [ [ 81.674999999999699, 7.087499999999899 ], [ 81.681249999999608, 7.093749999999893 ], [ 81.681249999999608, 7.10625 ] ] ] } },
{ "type": "Feature", "properties": { "HYRIV_ID": 41405145, "NEXT_DOWN": 41405146, "MAIN_RIV": 41404802, "LENGTH_KM": 3.4, "DIST_DN_KM": 31.1, "DIST_UP_KM": 7.0, "CATCH_SKM": 15.98, "UPLAND_SKM": 16.0, "ENDORHEIC": 0, "DIS_AV_CMS": 0.338, "ORD_STRA": 1, "ORD_CLAS": 2, "ORD_FLOW": 7, "HYBAS_L12": 4121158370.0, "Shape_Length": 0.030683170961134293 }, "geometry": { "type": "MultiLineString", "coordinates": [ [ [ 81.616666666666248, 7.099999999999874 ], [ 81.622916666666384, 7.093749999999893 ], [ 81.627083333333047, 7.093749999999893 ], [ 81.639583333332922, 7.08125 ] ] ] } },
{ "type": "Feature", "properties": { "HYRIV_ID": 41405146, "NEXT_DOWN": 41405043, "MAIN_RIV": 41404802, "LENGTH_KM": 5.75, "DIST_DN_KM": 25.200001, "DIST_UP_KM": 15.8, "CATCH_SKM": 26.41, "UPLAND_SKM": 68.400002, "ENDORHEIC": 0, "DIS_AV_CMS": 1.423, "ORD_STRA": 2, "ORD_CLAS": 1, "ORD_FLOW": 6, "HYBAS_L12": 4121158370.0, "Shape_Length": 0.052022005725996974 }, "geometry": { "type": "MultiLineString", "coordinates": [ [ [ 81.639583333332922, 7.08125 ], [ 81.647916666666248, 7.08125 ], [ 81.672916666666282, 7.10625 ], [ 81.681249999999608, 7.10625 ] ] ] } },
{ "type": "Feature", "properties": { "HYRIV_ID": 41405191, "NEXT_DOWN": 41405146, "MAIN_RIV": 41404802, "LENGTH_KM": 6.25, "DIST_DN_KM": 31.1, "DIST_UP_KM": 9.8, "CATCH_SKM": 25.99, "UPLAND_SKM": 26.0, "ENDORHEIC": 0, "DIS_AV_CMS": 0.54100001, "ORD_STRA": 1, "ORD_CLAS": 1, "ORD_FLOW": 7, "HYBAS_L12": 4121158370.0, "Shape_Length": 0.056546115882733158 }, "geometry": { "type": "MultiLineString", "coordinates": [ [ [ 81.591666666666271, 7.06875 ], [ 81.59791666666635, 7.06875 ], [ 81.602083333333013, 7.072916666666551 ], [ 81.606249999999676, 7.072916666666551 ], [ 81.610416666666339, 7.06875 ], [ 81.618749999999665, 7.06875 ], [ 81.627083333333047, 7.077083333333213 ], [ 81.635416666666259, 7.077083333333213 ], [ 81.639583333332922, 7.08125 ] ] ] } },
{ "type": "Feature", "properties": { "HYRIV_ID": 41405192, "NEXT_DOWN": 41404958, "MAIN_RIV": 41404802, "LENGTH_KM": 10.72, "DIST_DN_KM": 12.7, "DIST_UP_KM": 14.5, "CATCH_SKM": 38.34, "UPLAND_SKM": 38.3, "ENDORHEIC": 0, "DIS_AV_CMS": 0.77899998, "ORD_STRA": 1, "ORD_CLAS": 2, "ORD_FLOW": 7, "HYBAS_L12": 4121158370.0, "Shape_Length": 0.096783008589081176 }, "geometry": { "type": "MultiLineString", "coordinates": [ [ [ 81.712499999999608, 7.06875 ], [ 81.718749999999631, 7.06875 ], [ 81.718749999999631, 7.072916666666551 ], [ 81.722916666666293, 7.077083333333213 ], [ 81.722916666666293, 7.085416666666568 ], [ 81.735416666666339, 7.097916666666542 ], [ 81.739583333333002, 7.097916666666542 ], [ 81.747916666666328, 7.10625 ], [ 81.75624999999971, 7.10625 ], [ 81.764583333332922, 7.114583333333222 ], [ 81.764583333332922, 7.122916666666534 ], [ 81.768749999999699, 7.127083333333196 ], [ 81.768749999999699, 7.13125 ] ] ] } }
]
}
