{
"type": "FeatureCollection",
"name": "main_river_41407214",
"crs": { "type": "name", "properties": { "name": "urn:ogc:def:crs:OGC:1.3:CRS84" } },
"features": [
{ "type": "Feature", "properties": { "HYRIV_ID": 41407214, "NEXT_DOWN": 0, "MAIN_RIV": 41407214, "LENGTH_KM": 4.3, "DIST_DN_KM": 0.0, "DIST_UP_KM": 8.3, "CATCH_SKM": 15.99, "UPLAND_SKM": 15.8, "ENDORHEIC": 0, "DIS_AV_CMS": 0.219, "ORD_STRA": 1, "ORD_CLAS": 1, "ORD_FLOW": 7, "HYBAS_L12": 4120049970.0, "Shape_Length": 0.038868446353212731 }, "geometry": { "type": "MultiLineString", "coordinates": [ [ [ 81.733333333332922, 6.635416666666579 ], [ 81.739583333333002, 6.635416666666579 ], [ 81.743749999999665, 6.631249999999874 ], [ 81.764583333332922, 6.631249999999874 ], [ 81.768749999999699, 6.627083333333211 ] ] ] } }
]
}
