{
"type": "FeatureCollection",
"name": "main_river_41407959",
"crs": { "type": "name", "properties": { "name": "urn:ogc:def:crs:OGC:1.3:CRS84" } },
"features": [
{ "type": "Feature", "properties": { "HYRIV_ID": 41407738, "NEXT_DOWN": 41407777, "MAIN_RIV": 41407959, "LENGTH_KM": 1.4400001, "DIST_DN_KM": 10.2, "DIST_UP_KM": 2.9, "CATCH_SKM": 4.2600002, "UPLAND_SKM": 4.3, "ENDORHEIC": 0, "DIS_AV_CMS": 0.195, "ORD_STRA": 1, "ORD_CLAS": 2, "ORD_FLOW": 7, "HYBAS_L12": 4120049000.0, "Shape_Length": 0.013005501431446487 }, "geometry": { "type": "Polygon", "coordinates": [ ] } },
{ "type": "Feature", "properties": { "HYRIV_ID": 41407739, "NEXT_DOWN": 41407777, "MAIN_RIV": 41407959, "LENGTH_KM": 0.46, "DIST_DN_KM": 10.2, "DIST_UP_KM": 3.6, "CATCH_SKM": 0.21, "UPLAND_SKM": 6.4, "ENDORHEIC": 0, "DIS_AV_CMS": 0.295, "ORD_STRA": 2, "ORD_CLAS": 1, "ORD_FLOW": 7, "HYBAS_L12": 4120049000.0, "Shape_Length": 0.0041666666666628771 }, "geometry": { "type": "Polygon", "coordinates": [ ] } },
{ "type": "Feature", "properties": { "HYRIV_ID": 41407740, "NEXT_DOWN": 41407739, "MAIN_RIV": 41407959, "LENGTH_KM": 0.69, "DIST_DN_KM": 10.6, "DIST_UP_KM": 3.1, "CATCH_SKM": 2.99, "UPLAND_SKM": 3.0, "ENDORHEIC": 0, "DIS_AV_CMS": 0.138, "ORD_STRA": 1, "ORD_CLAS": 1, "ORD_FLOW": 7, "HYBAS_L12": 4120049000.0, "Shape_Length": 0.0062499999999658939 }, "geometry": { "type": "Polygon", "coordinates": [ ] } },
{ "type": "Feature", "properties": { "HYRIV_ID": 41407767, "NEXT_DOWN": 41407739, "MAIN_RIV": 41407959, "LENGTH_KM": 0.98, "DIST_DN_KM": 10.8, "DIST_UP_KM": 2.0, "CATCH_SKM": 3.2, "UPLAND_SKM": 3.2, "ENDORHEIC": 0, "DIS_AV_CMS": 0.147, "ORD_STRA": 1, "ORD_CLAS": 2, "ORD_FLOW": 7, "HYBAS_L12": 4120049000.0, "Shape_Length": 0.0088388347647936592 }, "geometry": { "type": "Polygon", "coordinates": [ ] } },
{ "type": "Feature", "properties": { "HYRIV_ID": 41407777, "NEXT_DOWN": 41407870, "MAIN_RIV": 41407959, "LENGTH_KM": 1.12, "DIST_DN_KM": 9.2, "DIST_UP_KM": 4.5, "CATCH_SKM": 2.1300001, "UPLAND_SKM": 12.8, "ENDORHEIC": 0, "DIS_AV_CMS": 0.588, "ORD_STRA": 2, "ORD_CLAS": 1, "ORD_FLOW": 7, "HYBAS_L12": 4120049000.0, "Shape_Length": 0.010059223176535365 }, "geometry": { "type": "Polygon", "coordinates": [ ] } },
{ "type": "Feature", "properties": { "HYRIV_ID": 41407794, "NEXT_DOWN": 41407870, "MAIN_RIV": 41407959, "LENGTH_KM": 0.98, "DIST_DN_KM": 9.2, "DIST_UP_KM": 2.9, "CATCH_SKM": 4.0500002, "UPLAND_SKM": 4.1, "ENDORHEIC": 0, "DIS_AV_CMS": 0.184, "ORD_STRA": 1, "ORD_CLAS": 2, "ORD_FLOW": 7, "HYBAS_L12": 4120049000.0, "Shape_Length": 0.0088388347649142433 }, "geometry": { "type": "Polygon", "coordinates": [ ] } },
{ "type": "Feature", "properties": { "HYRIV_ID": 41407870, "NEXT_DOWN": 41407959, "MAIN_RIV": 41407959, "LENGTH_KM": 2.7, "DIST_DN_KM": 6.4, "DIST_UP_KM": 7.4, "CATCH_SKM": 4.6900001, "UPLAND_SKM": 21.5, "ENDORHEIC": 0, "DIS_AV_CMS": 0.996, "ORD_STRA": 2, "ORD_CLAS": 1, "ORD_FLOW": 7, "HYBAS_L12": 4120049000.0, "Shape_Length": 0.024285113019769638 }, "geometry": { "type": "Polygon", "coordinates": [ ] } },
{ "type": "Feature", "properties": { "HYRIV_ID": 41407871, "NEXT_DOWN": 41407959, "MAIN_RIV": 41407959, "LENGTH_KM": 1.9, "DIST_DN_KM": 6.4, "DIST_UP_KM": 3.3, "CATCH_SKM": 5.54, "UPLAND_SKM": 5.5, "ENDORHEIC": 0, "DIS_AV_CMS": 0.25600001, "ORD_STRA": 1, "ORD_CLAS": 2, "ORD_FLOW": 7, "HYBAS_L12": 4120049000.0, "Shape_Length": 0.017172168098129461 }, "geometry": { "type": "Polygon", "coordinates": [ ] } },
{ "type": "Feature", "properties": { "HYRIV_ID": 41407959, "NEXT_DOWN": 0, "MAIN_RIV": 41407959, "LENGTH_KM": 6.23, "DIST_DN_KM": 0.0, "DIST_UP_KM": 13.5, "CATCH_SKM": 18.129999, "UPLAND_SKM": 44.8, "ENDORHEIC": 0, "DIS_AV_CMS": 2.079, "ORD_STRA": 2, "ORD_CLAS": 1, "ORD_FLOW": 6, "HYBAS_L12": 4120049000.0, "Shape_Length": 0.05618867239265813 }, "geometry": { "type": "Polygon", "coordinates": [ ] } }
]
}
