{
"type": "FeatureCollection",
"name": "main_river_41393959",
"crs": { "type": "name", "properties": { "name": "urn:ogc:def:crs:OGC:1.3:CRS84" } },
"features": [
{ "type": "Feature", "properties": { "HYRIV_ID": 41393958, "NEXT_DOWN": 41393959, "MAIN_RIV": 41393959, "LENGTH_KM": 5.14, "DIST_DN_KM": 1.3, "DIST_UP_KM": 8.7, "CATCH_SKM": 23.93, "UPLAND_SKM": 23.9, "ENDORHEIC": 0, "DIS_AV_CMS": 0.325, "ORD_STRA": 1, "ORD_CLAS": 1, "ORD_FLOW": 7, "HYBAS_L12": 4120049470.0, "Shape_Length": 0.046486892706212 }, "geometry": { "type": "MultiLineString", "coordinates": [ [ [ 80.635416666666316, 9.408333333333196 ], [ 80.635416666666316, 9.422916666666502 ], [ 80.639583333332979, 9.427083333333208 ], [ 80.643749999999642, 9.427083333333208 ], [ 80.647916666666305, 9.422916666666502 ], [ 80.647916666666305, 9.418749999999839 ], [ 80.656249999999631, 9.410416666666528 ] ] ] } },
{ "type": "Feature", "properties": { "HYRIV_ID": 41393959, "NEXT_DOWN": 0, "MAIN_RIV": 41393959, "LENGTH_KM": 0.91, "DIST_DN_KM": 0.0, "DIST_UP_KM": 9.8, "CATCH_SKM": 0.64, "UPLAND_SKM": 33.900002, "ENDORHEIC": 0, "DIS_AV_CMS": 0.459, "ORD_STRA": 2, "ORD_CLAS": 1, "ORD_FLOW": 7, "HYBAS_L12": 4120049470.0, "Shape_Length": 0.0083333333333825976 }, "geometry": { "type": "MultiLineString", "coordinates": [ [ [ 80.656249999999631, 9.410416666666528 ], [ 80.664583333333013, 9.410416666666528 ] ] ] } },
{ "type": "Feature", "properties": { "HYRIV_ID": 41394067, "NEXT_DOWN": 41393959, "MAIN_RIV": 41393959, "LENGTH_KM": 2.45, "DIST_DN_KM": 1.1, "DIST_UP_KM": 8.6, "CATCH_SKM": 9.5299997, "UPLAND_SKM": 9.5, "ENDORHEIC": 0, "DIS_AV_CMS": 0.129, "ORD_STRA": 1, "ORD_CLAS": 2, "ORD_FLOW": 7, "HYBAS_L12": 4120049470.0, "Shape_Length": 0.022201779686470784 }, "geometry": { "type": "MultiLineString", "coordinates": [ [ [ 80.641666666666282, 9.397916666666511 ], [ 80.647916666666305, 9.397916666666511 ], [ 80.656249999999631, 9.406249999999865 ], [ 80.656249999999631, 9.410416666666528 ] ] ] } }
]
}
