{
"type": "FeatureCollection",
"name": "main_river_41394319",
"crs": { "type": "name", "properties": { "name": "urn:ogc:def:crs:OGC:1.3:CRS84" } },
"features": [
{ "type": "Feature", "properties": { "HYRIV_ID": 41394319, "NEXT_DOWN": 0, "MAIN_RIV": 41394319, "LENGTH_KM": 12.71, "DIST_DN_KM": 0.0, "DIST_UP_KM": 51.200001, "CATCH_SKM": 52.310001, "UPLAND_SKM": 375.0, "ENDORHEIC": 0, "DIS_AV_CMS": 3.2679999, "ORD_STRA": 3, "ORD_CLAS": 1, "ORD_FLOW": 6, "HYBAS_L12": 4120049400.0, "Shape_Length": 0.114818121608721 }, "geometry": { "type": "MultiLineString", "coordinates": [ [ [ 80.210416666666305, 9.360416666666545 ], [ 80.210416666666305, 9.364583333333208 ], [ 80.202083333332979, 9.372916666666519 ], [ 80.202083333332979, 9.385416666666536 ], [ 80.185416666666271, 9.402083333333174 ], [ 80.185416666666271, 9.414583333333191 ], [ 80.181249999999721, 9.418749999999839 ], [ 80.181249999999721, 9.427083333333208 ], [ 80.177083333332945, 9.431249999999856 ], [ 80.172916666666396, 9.431249999999856 ], [ 80.168749999999619, 9.435416666666519 ], [ 80.168749999999619, 9.439583333333225 ], [ 80.16041666666635, 9.447916666666536 ], [ 80.156249999999687, 9.447916666666536 ] ] ] } },
{ "type": "Feature", "properties": { "HYRIV_ID": 41394378, "NEXT_DOWN": 41394319, "MAIN_RIV": 41394319, "LENGTH_KM": 2.22, "DIST_DN_KM": 12.9, "DIST_UP_KM": 17.9, "CATCH_SKM": 6.35, "UPLAND_SKM": 59.099998, "ENDORHEIC": 0, "DIS_AV_CMS": 0.61, "ORD_STRA": 2, "ORD_CLAS": 2, "ORD_FLOW": 7, "HYBAS_L12": 4120049400.0, "Shape_Length": 0.020118446353120972 }, "geometry": { "type": "MultiLineString", "coordinates": [ [ [ 80.227083333332956, 9.352083333333177 ], [ 80.222916666666293, 9.356249999999839 ], [ 80.218749999999631, 9.356249999999839 ], [ 80.214583333332968, 9.360416666666545 ], [ 80.210416666666305, 9.360416666666545 ] ] ] } },
{ "type": "Feature", "properties": { "HYRIV_ID": 41394379, "NEXT_DOWN": 41394378, "MAIN_RIV": 41394319, "LENGTH_KM": 1.14, "DIST_DN_KM": 15.2, "DIST_UP_KM": 6.3, "CATCH_SKM": 13.77, "UPLAND_SKM": 13.8, "ENDORHEIC": 0, "DIS_AV_CMS": 0.149, "ORD_STRA": 1, "ORD_CLAS": 3, "ORD_FLOW": 7, "HYBAS_L12": 4120049400.0, "Shape_Length": 0.010416666666742458 }, "geometry": { "type": "MultiLineString", "coordinates": [ [ [ 80.237499999999699, 9.352083333333177 ], [ 80.227083333332956, 9.352083333333177 ] ] ] } },
{ "type": "Feature", "properties": { "HYRIV_ID": 41394490, "NEXT_DOWN": 41394319, "MAIN_RIV": 41394319, "LENGTH_KM": 2.97, "DIST_DN_KM": 13.1, "DIST_UP_KM": 38.3, "CATCH_SKM": 10.59, "UPLAND_SKM": 264.0, "ENDORHEIC": 0, "DIS_AV_CMS": 2.395, "ORD_STRA": 2, "ORD_CLAS": 1, "ORD_FLOW": 6, "HYBAS_L12": 4120049400.0, "Shape_Length": 0.026725889843241278 }, "geometry": { "type": "MultiLineString", "coordinates": [ [ [ 80.206249999999642, 9.335416666666511 ], [ 80.206249999999642, 9.356249999999839 ], [ 80.210416666666305, 9.360416666666545 ] ] ] } },
{ "type": "Feature", "properties": { "HYRIV_ID": 41394563, "NEXT_DOWN": 41394564, "MAIN_RIV": 41394319, "LENGTH_KM": 4.6700001, "DIST_DN_KM": 17.4, "DIST_UP_KM": 8.3, "CATCH_SKM": 20.76, "UPLAND_SKM": 20.8, "ENDORHEIC": 0, "DIS_AV_CMS": 0.22, "ORD_STRA": 1, "ORD_CLAS": 2, "ORD_FLOW": 7, "HYBAS_L12": 4121599990.0, "Shape_Length": 0.042320226039606682 }, "geometry": { "type": "MultiLineString", "coordinates": [ [ [ 80.168749999999619, 9.349999999999859 ], [ 80.168749999999619, 9.343749999999865 ], [ 80.177083333332945, 9.335416666666511 ], [ 80.181249999999721, 9.335416666666511 ], [ 80.185416666666271, 9.331249999999848 ], [ 80.193749999999596, 9.331249999999848 ], [ 80.197916666666316, 9.327083333333185 ] ] ] } },
{ "type": "Feature", "properties": { "HYRIV_ID": 41394564, "NEXT_DOWN": 41394490, "MAIN_RIV": 41394319, "LENGTH_KM": 1.3, "DIST_DN_KM": 16.1, "DIST_UP_KM": 35.3, "CATCH_SKM": 2.33, "UPLAND_SKM": 239.39999, "ENDORHEIC": 0, "DIS_AV_CMS": 2.1960001, "ORD_STRA": 2, "ORD_CLAS": 1, "ORD_FLOW": 6, "HYBAS_L12": 4121599990.0, "Shape_Length": 0.011785113019765073 }, "geometry": { "type": "MultiLineString", "coordinates": [ [ [ 80.197916666666316, 9.327083333333185 ], [ 80.206249999999642, 9.335416666666511 ] ] ] } },
{ "type": "Feature", "properties": { "HYRIV_ID": 41394565, "NEXT_DOWN": 41394490, "MAIN_RIV": 41394319, "LENGTH_KM": 2.08, "DIST_DN_KM": 15.9, "DIST_UP_KM": 7.1, "CATCH_SKM": 13.98, "UPLAND_SKM": 14.0, "ENDORHEIC": 0, "DIS_AV_CMS": 0.146, "ORD_STRA": 1, "ORD_CLAS": 2, "ORD_FLOW": 7, "HYBAS_L12": 4121599990.0, "Shape_Length": 0.018898057941419463 }, "geometry": { "type": "MultiLineString", "coordinates": [ [ [ 80.220833333333047, 9.324999999999868 ], [ 80.210416666666305, 9.335416666666511 ], [ 80.206249999999642, 9.335416666666511 ] ] ] } },
{ "type": "Feature", "properties": { "HYRIV_ID": 41394828, "NEXT_DOWN": 41394378, "MAIN_RIV": 41394319, "LENGTH_KM": 9.4200001, "DIST_DN_KM": 15.2, "DIST_UP_KM": 15.7, "CATCH_SKM": 38.98, "UPLAND_SKM": 39.0, "ENDORHEIC": 0, "DIS_AV_CMS": 0.4, "ORD_STRA": 1, "ORD_CLAS": 2, "ORD_FLOW": 7, "HYBAS_L12": 4120049400.0, "Shape_Length": 0.085145953510601183 }, "geometry": { "type": "MultiLineString", "coordinates": [ [ [ 80.262499999999619, 9.287499999999845 ], [ 80.25208333333299, 9.297916666666545 ], [ 80.25208333333299, 9.306249999999856 ], [ 80.256249999999653, 9.310416666666519 ], [ 80.25208333333299, 9.314583333333168 ], [ 80.25208333333299, 9.318749999999831 ], [ 80.243749999999665, 9.327083333333185 ], [ 80.239583333332945, 9.327083333333185 ], [ 80.235416666666282, 9.331249999999848 ], [ 80.235416666666282, 9.339583333333202 ], [ 80.227083333332956, 9.347916666666528 ], [ 80.227083333332956, 9.352083333333177 ] ] ] } },
{ "type": "Feature", "properties": { "HYRIV_ID": 41394915, "NEXT_DOWN": 41394564, "MAIN_RIV": 41394319, "LENGTH_KM": 9.08, "DIST_DN_KM": 17.200001, "DIST_UP_KM": 34.200001, "CATCH_SKM": 27.33, "UPLAND_SKM": 216.3, "ENDORHEIC": 0, "DIS_AV_CMS": 1.97, "ORD_STRA": 2, "ORD_CLAS": 1, "ORD_FLOW": 6, "HYBAS_L12": 4121599990.0, "Shape_Length": 0.082199675255448884 }, "geometry": { "type": "MultiLineString", "coordinates": [ [ [ 80.222916666666293, 9.272916666666553 ], [ 80.218749999999631, 9.277083333333159 ], [ 80.214583333332968, 9.277083333333159 ], [ 80.210416666666305, 9.281249999999865 ], [ 80.202083333332979, 9.281249999999865 ], [ 80.189583333333104, 9.293749999999839 ], [ 80.189583333333104, 9.297916666666545 ], [ 80.202083333332979, 9.310416666666519 ], [ 80.202083333332979, 9.314583333333168 ], [ 80.197916666666316, 9.318749999999831 ], [ 80.197916666666316, 9.327083333333185 ] ] ] } },
{ "type": "Feature", "properties": { "HYRIV_ID": 41395069, "NEXT_DOWN": 41394915, "MAIN_RIV": 41394319, "LENGTH_KM": 6.46, "DIST_DN_KM": 26.3, "DIST_UP_KM": 25.200001, "CATCH_SKM": 14.62, "UPLAND_SKM": 103.0, "ENDORHEIC": 0, "DIS_AV_CMS": 0.991, "ORD_STRA": 2, "ORD_CLAS": 1, "ORD_FLOW": 7, "HYBAS_L12": 4121600070.0, "Shape_Length": 0.058629449216200107 }, "geometry": { "type": "MultiLineString", "coordinates": [ [ [ 80.272916666666362, 9.252083333333168 ], [ 80.268749999999699, 9.252083333333168 ], [ 80.25208333333299, 9.268749999999848 ], [ 80.235416666666282, 9.268749999999848 ], [ 80.231249999999619, 9.272916666666553 ], [ 80.222916666666293, 9.272916666666553 ] ] ] } },
{ "type": "Feature", "properties": { "HYRIV_ID": 41395232, "NEXT_DOWN": 41395069, "MAIN_RIV": 41394319, "LENGTH_KM": 4.4499998, "DIST_DN_KM": 32.700001, "DIST_UP_KM": 11.8, "CATCH_SKM": 9.75, "UPLAND_SKM": 33.5, "ENDORHEIC": 0, "DIS_AV_CMS": 0.336, "ORD_STRA": 2, "ORD_CLAS": 2, "ORD_FLOW": 7, "HYBAS_L12": 4121600070.0, "Shape_Length": 0.040236892706231896 }, "geometry": { "type": "MultiLineString", "coordinates": [ [ [ 80.297916666666396, 9.227083333333177 ], [ 80.293749999999733, 9.231249999999882 ], [ 80.289583333333013, 9.231249999999882 ], [ 80.289583333333013, 9.235416666666531 ], [ 80.28541666666635, 9.239583333333194 ], [ 80.281249999999687, 9.239583333333194 ], [ 80.272916666666362, 9.247916666666548 ], [ 80.272916666666362, 9.252083333333168 ] ] ] } },
{ "type": "Feature", "properties": { "HYRIV_ID": 41395233, "NEXT_DOWN": 41395232, "MAIN_RIV": 41394319, "LENGTH_KM": 1.14, "DIST_DN_KM": 37.200001, "DIST_UP_KM": 7.4, "CATCH_SKM": 11.44, "UPLAND_SKM": 11.4, "ENDORHEIC": 0, "DIS_AV_CMS": 0.118, "ORD_STRA": 1, "ORD_CLAS": 2, "ORD_FLOW": 7, "HYBAS_L12": 4121600070.0, "Shape_Length": 0.010416666666571928 }, "geometry": { "type": "MultiLineString", "coordinates": [ [ [ 80.308333333332968, 9.227083333333177 ], [ 80.297916666666396, 9.227083333333177 ] ] ] } },
{ "type": "Feature", "properties": { "HYRIV_ID": 41395260, "NEXT_DOWN": 41395232, "MAIN_RIV": 41394319, "LENGTH_KM": 0.98, "DIST_DN_KM": 37.400002, "DIST_UP_KM": 5.5, "CATCH_SKM": 12.29, "UPLAND_SKM": 12.3, "ENDORHEIC": 0, "DIS_AV_CMS": 0.126, "ORD_STRA": 1, "ORD_CLAS": 3, "ORD_FLOW": 7, "HYBAS_L12": 4121600070.0, "Shape_Length": 0.0088388347648740481 }, "geometry": { "type": "MultiLineString", "coordinates": [ [ [ 80.291666666666316, 9.220833333333196 ], [ 80.297916666666396, 9.227083333333177 ] ] ] } },
{ "type": "Feature", "properties": { "HYRIV_ID": 41395556, "NEXT_DOWN": 41395069, "MAIN_RIV": 41394319, "LENGTH_KM": 14.57, "DIST_DN_KM": 32.700001, "DIST_UP_KM": 18.700001, "CATCH_SKM": 54.880001, "UPLAND_SKM": 54.900002, "ENDORHEIC": 0, "DIS_AV_CMS": 0.54799998, "ORD_STRA": 1, "ORD_CLAS": 1, "ORD_FLOW": 7, "HYBAS_L12": 4121600070.0, "Shape_Length": 0.13199028970691074 }, "geometry": { "type": "MultiLineString", "coordinates": [ [ [ 80.362499999999699, 9.179166666666525 ], [ 80.352083333332956, 9.189583333333168 ], [ 80.352083333332956, 9.193749999999874 ], [ 80.335416666666305, 9.210416666666497 ], [ 80.335416666666305, 9.218749999999865 ], [ 80.331249999999642, 9.222916666666514 ], [ 80.331249999999642, 9.227083333333177 ], [ 80.32291666666643, 9.235416666666531 ], [ 80.32291666666643, 9.239583333333194 ], [ 80.318749999999596, 9.243749999999856 ], [ 80.314583333333047, 9.243749999999856 ], [ 80.310416666666271, 9.247916666666548 ], [ 80.302083333332945, 9.247916666666548 ], [ 80.297916666666396, 9.252083333333168 ], [ 80.272916666666362, 9.252083333333168 ] ] ] } },
{ "type": "Feature", "properties": { "HYRIV_ID": 41395619, "NEXT_DOWN": 41394915, "MAIN_RIV": 41394319, "LENGTH_KM": 19.49, "DIST_DN_KM": 26.3, "DIST_UP_KM": 22.9, "CATCH_SKM": 86.029999, "UPLAND_SKM": 86.0, "ENDORHEIC": 0, "DIS_AV_CMS": 0.81900001, "ORD_STRA": 1, "ORD_CLAS": 2, "ORD_FLOW": 7, "HYBAS_L12": 4121600070.0, "Shape_Length": 0.17639384907991235 }, "geometry": { "type": "MultiLineString", "coordinates": [ [ [ 80.329166666666339, 9.170833333333199 ], [ 80.32291666666643, 9.177083333333194 ], [ 80.310416666666271, 9.177083333333194 ], [ 80.306249999999608, 9.172916666666531 ], [ 80.289583333333013, 9.172916666666531 ], [ 80.281249999999687, 9.181249999999856 ], [ 80.281249999999687, 9.185416666666505 ], [ 80.277083333333024, 9.185416666666505 ], [ 80.268749999999699, 9.193749999999874 ], [ 80.264583333332979, 9.193749999999874 ], [ 80.260416666666316, 9.197916666666522 ], [ 80.260416666666316, 9.202083333333185 ], [ 80.25208333333299, 9.210416666666497 ], [ 80.25208333333299, 9.218749999999865 ], [ 80.247916666666328, 9.222916666666514 ], [ 80.247916666666328, 9.235416666666531 ], [ 80.243749999999665, 9.239583333333194 ], [ 80.243749999999665, 9.243749999999856 ], [ 80.227083333332956, 9.260416666666536 ], [ 80.227083333332956, 9.264583333333185 ], [ 80.222916666666293, 9.268749999999848 ], [ 80.222916666666293, 9.272916666666553 ] ] ] } }
]
}
