{
"type": "FeatureCollection",
"name": "main_river_41392322",
"crs": { "type": "name", "properties": { "name": "urn:ogc:def:crs:OGC:1.3:CRS84" } },
"features": [
{ "type": "Feature", "properties": { "HYRIV_ID": 41391490, "NEXT_DOWN": 41391491, "MAIN_RIV": 41392322, "LENGTH_KM": 4.4899998, "DIST_DN_KM": 25.200001, "DIST_UP_KM": 9.0, "CATCH_SKM": 18.610001, "UPLAND_SKM": 18.6, "ENDORHEIC": 0, "DIS_AV_CMS": 0.27900001, "ORD_STRA": 1, "ORD_CLAS": 2, "ORD_FLOW": 7, "HYBAS_L12": 4121599360.0, "Shape_Length": 0.040594336196352006 }, "geometry": { "type": "Polygon", "coordinates": [ ] } },
{ "type": "Feature", "properties": { "HYRIV_ID": 41391491, "NEXT_DOWN": 41391550, "MAIN_RIV": 41392322, "LENGTH_KM": 1.83, "DIST_DN_KM": 23.200001, "DIST_UP_KM": 11.1, "CATCH_SKM": 2.75, "UPLAND_SKM": 40.0, "ENDORHEIC": 0, "DIS_AV_CMS": 0.59899998, "ORD_STRA": 2, "ORD_CLAS": 2, "ORD_FLOW": 7, "HYBAS_L12": 4121599360.0, "Shape_Length": 0.016666666666708352 }, "geometry": { "type": "Polygon", "coordinates": [ ] } },
{ "type": "Feature", "properties": { "HYRIV_ID": 41391492, "NEXT_DOWN": 41391550, "MAIN_RIV": 41392322, "LENGTH_KM": 1.4400001, "DIST_DN_KM": 23.200001, "DIST_UP_KM": 5.3, "CATCH_SKM": 10.15, "UPLAND_SKM": 10.2, "ENDORHEIC": 0, "DIS_AV_CMS": 0.152, "ORD_STRA": 1, "ORD_CLAS": 3, "ORD_FLOW": 7, "HYBAS_L12": 4121599360.0, "Shape_Length": 0.013005501431536925 }, "geometry": { "type": "Polygon", "coordinates": [ ] } },
{ "type": "Feature", "properties": { "HYRIV_ID": 41391526, "NEXT_DOWN": 41391527, "MAIN_RIV": 41392322, "LENGTH_KM": 0.69, "DIST_DN_KM": 26.6, "DIST_UP_KM": 4.6, "CATCH_SKM": 8.8800001, "UPLAND_SKM": 8.9, "ENDORHEIC": 0, "DIS_AV_CMS": 0.132, "ORD_STRA": 1, "ORD_CLAS": 4, "ORD_FLOW": 7, "HYBAS_L12": 4121599360.0, "Shape_Length": 0.0062500000000795808 }, "geometry": { "type": "Polygon", "coordinates": [ ] } },
{ "type": "Feature", "properties": { "HYRIV_ID": 41391527, "NEXT_DOWN": 41391491, "MAIN_RIV": 41392322, "LENGTH_KM": 1.56, "DIST_DN_KM": 25.200001, "DIST_UP_KM": 8.6, "CATCH_SKM": 1.27, "UPLAND_SKM": 18.6, "ENDORHEIC": 0, "DIS_AV_CMS": 0.27700001, "ORD_STRA": 2, "ORD_CLAS": 3, "ORD_FLOW": 7, "HYBAS_L12": 4121599360.0, "Shape_Length": 0.014225889843198242 }, "geometry": { "type": "Polygon", "coordinates": [ ] } },
{ "type": "Feature", "properties": { "HYRIV_ID": 41391550, "NEXT_DOWN": 41391606, "MAIN_RIV": 41392322, "LENGTH_KM": 2.03, "DIST_DN_KM": 21.1, "DIST_UP_KM": 13.1, "CATCH_SKM": 9.9399996, "UPLAND_SKM": 60.099998, "ENDORHEIC": 0, "DIS_AV_CMS": 0.90100002, "ORD_STRA": 2, "ORD_CLAS": 2, "ORD_FLOW": 7, "HYBAS_L12": 4121599360.0, "Shape_Length": 0.018392556509756769 }, "geometry": { "type": "Polygon", "coordinates": [ ] } },
{ "type": "Feature", "properties": { "HYRIV_ID": 41391551, "NEXT_DOWN": 41391606, "MAIN_RIV": 41392322, "LENGTH_KM": 2.09, "DIST_DN_KM": 21.3, "DIST_UP_KM": 6.0, "CATCH_SKM": 11.63, "UPLAND_SKM": 11.6, "ENDORHEIC": 0, "DIS_AV_CMS": 0.175, "ORD_STRA": 1, "ORD_CLAS": 3, "ORD_FLOW": 7, "HYBAS_L12": 4121599360.0, "Shape_Length": 0.018898057941445445 }, "geometry": { "type": "Polygon", "coordinates": [ ] } },
{ "type": "Feature", "properties": { "HYRIV_ID": 41391606, "NEXT_DOWN": 41391649, "MAIN_RIV": 41392322, "LENGTH_KM": 1.3, "DIST_DN_KM": 20.0, "DIST_UP_KM": 14.2, "CATCH_SKM": 1.48, "UPLAND_SKM": 73.199997, "ENDORHEIC": 0, "DIS_AV_CMS": 1.1, "ORD_STRA": 2, "ORD_CLAS": 2, "ORD_FLOW": 6, "HYBAS_L12": 4121599360.0, "Shape_Length": 0.011785113019765073 }, "geometry": { "type": "Polygon", "coordinates": [ ] } },
{ "type": "Feature", "properties": { "HYRIV_ID": 41391607, "NEXT_DOWN": 41391649, "MAIN_RIV": 41392322, "LENGTH_KM": 3.3900001, "DIST_DN_KM": 20.0, "DIST_UP_KM": 7.7, "CATCH_SKM": 11.63, "UPLAND_SKM": 11.6, "ENDORHEIC": 0, "DIS_AV_CMS": 0.175, "ORD_STRA": 1, "ORD_CLAS": 3, "ORD_FLOW": 7, "HYBAS_L12": 4121599360.0, "Shape_Length": 0.030683170961210517 }, "geometry": { "type": "Polygon", "coordinates": [ ] } },
{ "type": "Feature", "properties": { "HYRIV_ID": 41391648, "NEXT_DOWN": 41391527, "MAIN_RIV": 41392322, "LENGTH_KM": 2.08, "DIST_DN_KM": 26.6, "DIST_UP_KM": 7.2, "CATCH_SKM": 8.46, "UPLAND_SKM": 8.5, "ENDORHEIC": 0, "DIS_AV_CMS": 0.125, "ORD_STRA": 1, "ORD_CLAS": 3, "ORD_FLOW": 7, "HYBAS_L12": 4121599360.0, "Shape_Length": 0.018750000000054001 }, "geometry": { "type": "Polygon", "coordinates": [ ] } },
{ "type": "Feature", "properties": { "HYRIV_ID": 41391649, "NEXT_DOWN": 41391724, "MAIN_RIV": 41392322, "LENGTH_KM": 0.46, "DIST_DN_KM": 19.4, "DIST_UP_KM": 14.8, "CATCH_SKM": 0.42, "UPLAND_SKM": 85.300003, "ENDORHEIC": 0, "DIS_AV_CMS": 1.2819999, "ORD_STRA": 2, "ORD_CLAS": 2, "ORD_FLOW": 6, "HYBAS_L12": 4121599360.0, "Shape_Length": 0.0041666666666486663 }, "geometry": { "type": "Polygon", "coordinates": [ ] } },
{ "type": "Feature", "properties": { "HYRIV_ID": 41391650, "NEXT_DOWN": 41391724, "MAIN_RIV": 41392322, "LENGTH_KM": 2.74, "DIST_DN_KM": 19.4, "DIST_UP_KM": 39.900002, "CATCH_SKM": 9.3100004, "UPLAND_SKM": 222.0, "ENDORHEIC": 0, "DIS_AV_CMS": 3.257, "ORD_STRA": 2, "ORD_CLAS": 1, "ORD_FLOW": 6, "HYBAS_L12": 4121599360.0, "Shape_Length": 0.025000000000034106 }, "geometry": { "type": "Polygon", "coordinates": [ ] } },
{ "type": "Feature", "properties": { "HYRIV_ID": 41391651, "NEXT_DOWN": 41391650, "MAIN_RIV": 41392322, "LENGTH_KM": 3.2, "DIST_DN_KM": 22.1, "DIST_UP_KM": 6.6, "CATCH_SKM": 18.620001, "UPLAND_SKM": 18.6, "ENDORHEIC": 0, "DIS_AV_CMS": 0.27900001, "ORD_STRA": 1, "ORD_CLAS": 2, "ORD_FLOW": 7, "HYBAS_L12": 4121599360.0, "Shape_Length": 0.028957281117980811 }, "geometry": { "type": "Polygon", "coordinates": [ ] } },
{ "type": "Feature", "properties": { "HYRIV_ID": 41391682, "NEXT_DOWN": 41391776, "MAIN_RIV": 41392322, "LENGTH_KM": 0.98, "DIST_DN_KM": 19.6, "DIST_UP_KM": 4.4, "CATCH_SKM": 14.81, "UPLAND_SKM": 14.8, "ENDORHEIC": 0, "DIS_AV_CMS": 0.219, "ORD_STRA": 1, "ORD_CLAS": 3, "ORD_FLOW": 7, "HYBAS_L12": 4121599440.0, "Shape_Length": 0.0088388347648037068 }, "geometry": { "type": "Polygon", "coordinates": [ ] } },
{ "type": "Feature", "properties": { "HYRIV_ID": 41391724, "NEXT_DOWN": 41391957, "MAIN_RIV": 41392322, "LENGTH_KM": 2.4100001, "DIST_DN_KM": 17.200001, "DIST_UP_KM": 42.099998, "CATCH_SKM": 3.6, "UPLAND_SKM": 310.79999, "ENDORHEIC": 0, "DIS_AV_CMS": 4.6069999, "ORD_STRA": 3, "ORD_CLAS": 1, "ORD_FLOW": 6, "HYBAS_L12": 4121599440.0, "Shape_Length": 0.021844336196363882 }, "geometry": { "type": "Polygon", "coordinates": [ ] } },
{ "type": "Feature", "properties": { "HYRIV_ID": 41391747, "NEXT_DOWN": 41391776, "MAIN_RIV": 41392322, "LENGTH_KM": 3.1900001, "DIST_DN_KM": 19.5, "DIST_UP_KM": 6.9, "CATCH_SKM": 16.5, "UPLAND_SKM": 16.5, "ENDORHEIC": 0, "DIS_AV_CMS": 0.241, "ORD_STRA": 1, "ORD_CLAS": 2, "ORD_FLOW": 7, "HYBAS_L12": 4121599440.0, "Shape_Length": 0.028957281117831388 }, "geometry": { "type": "Polygon", "coordinates": [ ] } },
{ "type": "Feature", "properties": { "HYRIV_ID": 41391776, "NEXT_DOWN": 41391956, "MAIN_RIV": 41392322, "LENGTH_KM": 5.8, "DIST_DN_KM": 13.8, "DIST_UP_KM": 12.5, "CATCH_SKM": 16.709999, "UPLAND_SKM": 48.0, "ENDORHEIC": 0, "DIS_AV_CMS": 0.709, "ORD_STRA": 2, "ORD_CLAS": 2, "ORD_FLOW": 7, "HYBAS_L12": 4121599440.0, "Shape_Length": 0.052736892706247228 }, "geometry": { "type": "Polygon", "coordinates": [ ] } },
{ "type": "Feature", "properties": { "HYRIV_ID": 41391777, "NEXT_DOWN": 41391956, "MAIN_RIV": 41392322, "LENGTH_KM": 3.2, "DIST_DN_KM": 13.7, "DIST_UP_KM": 7.5, "CATCH_SKM": 8.46, "UPLAND_SKM": 8.5, "ENDORHEIC": 0, "DIS_AV_CMS": 0.126, "ORD_STRA": 1, "ORD_CLAS": 3, "ORD_FLOW": 7, "HYBAS_L12": 4121599440.0, "Shape_Length": 0.028957281118047705 }, "geometry": { "type": "Polygon", "coordinates": [ ] } },
{ "type": "Feature", "properties": { "HYRIV_ID": 41391829, "NEXT_DOWN": 41391650, "MAIN_RIV": 41392322, "LENGTH_KM": 6.8400002, "DIST_DN_KM": 22.1, "DIST_UP_KM": 37.200001, "CATCH_SKM": 25.389999, "UPLAND_SKM": 194.10001, "ENDORHEIC": 0, "DIS_AV_CMS": 2.8239999, "ORD_STRA": 2, "ORD_CLAS": 1, "ORD_FLOW": 6, "HYBAS_L12": 4121599360.0, "Shape_Length": 0.062081228902572533 }, "geometry": { "type": "Polygon", "coordinates": [ ] } },
{ "type": "Feature", "properties": { "HYRIV_ID": 41391857, "NEXT_DOWN": 41391957, "MAIN_RIV": 41392322, "LENGTH_KM": 3.71, "DIST_DN_KM": 17.0, "DIST_UP_KM": 11.9, "CATCH_SKM": 9.9399996, "UPLAND_SKM": 46.5, "ENDORHEIC": 0, "DIS_AV_CMS": 0.681, "ORD_STRA": 2, "ORD_CLAS": 2, "ORD_FLOW": 7, "HYBAS_L12": 4121599440.0, "Shape_Length": 0.033629449216128954 }, "geometry": { "type": "Polygon", "coordinates": [ ] } },
{ "type": "Feature", "properties": { "HYRIV_ID": 41391956, "NEXT_DOWN": 41391976, "MAIN_RIV": 41392322, "LENGTH_KM": 3.53, "DIST_DN_KM": 10.3, "DIST_UP_KM": 16.0, "CATCH_SKM": 7.4099998, "UPLAND_SKM": 63.900002, "ENDORHEIC": 0, "DIS_AV_CMS": 0.94800001, "ORD_STRA": 2, "ORD_CLAS": 2, "ORD_FLOW": 7, "HYBAS_L12": 4121599440.0, "Shape_Length": 0.031903559372918631 }, "geometry": { "type": "Polygon", "coordinates": [ ] } },
{ "type": "Feature", "properties": { "HYRIV_ID": 41391957, "NEXT_DOWN": 41391976, "MAIN_RIV": 41392322, "LENGTH_KM": 6.8400002, "DIST_DN_KM": 10.3, "DIST_UP_KM": 49.0, "CATCH_SKM": 22.43, "UPLAND_SKM": 379.79999, "ENDORHEIC": 0, "DIS_AV_CMS": 5.6719999, "ORD_STRA": 3, "ORD_CLAS": 1, "ORD_FLOW": 6, "HYBAS_L12": 4121599440.0, "Shape_Length": 0.062081228902481377 }, "geometry": { "type": "Polygon", "coordinates": [ ] } },
{ "type": "Feature", "properties": { "HYRIV_ID": 41391976, "NEXT_DOWN": 41392182, "MAIN_RIV": 41392322, "LENGTH_KM": 1.11, "DIST_DN_KM": 9.0, "DIST_UP_KM": 50.3, "CATCH_SKM": 3.1700001, "UPLAND_SKM": 446.89999, "ENDORHEIC": 0, "DIS_AV_CMS": 6.677, "ORD_STRA": 3, "ORD_CLAS": 1, "ORD_FLOW": 6, "HYBAS_L12": 4120050160.0, "Shape_Length": 0.010059223176535365 }, "geometry": { "type": "Polygon", "coordinates": [ ] } },
{ "type": "Feature", "properties": { "HYRIV_ID": 41391977, "NEXT_DOWN": 41391857, "MAIN_RIV": 41392322, "LENGTH_KM": 2.9300001, "DIST_DN_KM": 20.9, "DIST_UP_KM": 7.3, "CATCH_SKM": 15.23, "UPLAND_SKM": 15.2, "ENDORHEIC": 0, "DIS_AV_CMS": 0.221, "ORD_STRA": 1, "ORD_CLAS": 3, "ORD_FLOW": 7, "HYBAS_L12": 4121599440.0, "Shape_Length": 0.026516504294461365 }, "geometry": { "type": "Polygon", "coordinates": [ ] } },
{ "type": "Feature", "properties": { "HYRIV_ID": 41391978, "NEXT_DOWN": 41391857, "MAIN_RIV": 41392322, "LENGTH_KM": 3.56, "DIST_DN_KM": 20.700001, "DIST_UP_KM": 8.2, "CATCH_SKM": 21.370001, "UPLAND_SKM": 21.4, "ENDORHEIC": 0, "DIS_AV_CMS": 0.311, "ORD_STRA": 1, "ORD_CLAS": 2, "ORD_FLOW": 7, "HYBAS_L12": 4121599440.0, "Shape_Length": 0.032261002863042898 }, "geometry": { "type": "Polygon", "coordinates": [ ] } },
{ "type": "Feature", "properties": { "HYRIV_ID": 41391979, "NEXT_DOWN": 41391829, "MAIN_RIV": 41392322, "LENGTH_KM": 3.11, "DIST_DN_KM": 29.0, "DIST_UP_KM": 7.1, "CATCH_SKM": 16.5, "UPLAND_SKM": 16.5, "ENDORHEIC": 0, "DIS_AV_CMS": 0.241, "ORD_STRA": 1, "ORD_CLAS": 2, "ORD_FLOW": 7, "HYBAS_L12": 4121599360.0, "Shape_Length": 0.028094336196323177 }, "geometry": { "type": "Polygon", "coordinates": [ ] } },
{ "type": "Feature", "properties": { "HYRIV_ID": 41392181, "NEXT_DOWN": 41392268, "MAIN_RIV": 41392322, "LENGTH_KM": 1.4400001, "DIST_DN_KM": 3.0, "DIST_UP_KM": 6.4, "CATCH_SKM": 7.62, "UPLAND_SKM": 7.6, "ENDORHEIC": 0, "DIS_AV_CMS": 0.11, "ORD_STRA": 1, "ORD_CLAS": 2, "ORD_FLOW": 7, "HYBAS_L12": 4120050160.0, "Shape_Length": 0.013005501431469023 }, "geometry": { "type": "Polygon", "coordinates": [ ] } },
{ "type": "Feature", "properties": { "HYRIV_ID": 41392182, "NEXT_DOWN": 41392268, "MAIN_RIV": 41392322, "LENGTH_KM": 6.0100002, "DIST_DN_KM": 3.2, "DIST_UP_KM": 56.099998, "CATCH_SKM": 25.6, "UPLAND_SKM": 506.29999, "ENDORHEIC": 0, "DIS_AV_CMS": 7.599, "ORD_STRA": 3, "ORD_CLAS": 1, "ORD_FLOW": 6, "HYBAS_L12": 4120050160.0, "Shape_Length": 0.054462782549482822 }, "geometry": { "type": "Polygon", "coordinates": [ ] } },
{ "type": "Feature", "properties": { "HYRIV_ID": 41392267, "NEXT_DOWN": 41392322, "MAIN_RIV": 41392322, "LENGTH_KM": 1.63, "DIST_DN_KM": 1.6, "DIST_UP_KM": 5.7, "CATCH_SKM": 16.290001, "UPLAND_SKM": 16.3, "ENDORHEIC": 0, "DIS_AV_CMS": 0.233, "ORD_STRA": 1, "ORD_CLAS": 2, "ORD_FLOW": 7, "HYBAS_L12": 4120050160.0, "Shape_Length": 0.014731391274676197 }, "geometry": { "type": "Polygon", "coordinates": [ ] } },
{ "type": "Feature", "properties": { "HYRIV_ID": 41392268, "NEXT_DOWN": 41392322, "MAIN_RIV": 41392322, "LENGTH_KM": 1.58, "DIST_DN_KM": 1.4, "DIST_UP_KM": 57.8, "CATCH_SKM": 2.12, "UPLAND_SKM": 516.09998, "ENDORHEIC": 0, "DIS_AV_CMS": 7.7589998, "ORD_STRA": 3, "ORD_CLAS": 1, "ORD_FLOW": 6, "HYBAS_L12": 4120050160.0, "Shape_Length": 0.014225889843194079 }, "geometry": { "type": "Polygon", "coordinates": [ ] } },
{ "type": "Feature", "properties": { "HYRIV_ID": 41392290, "NEXT_DOWN": 41392182, "MAIN_RIV": 41392322, "LENGTH_KM": 6.54, "DIST_DN_KM": 9.0, "DIST_UP_KM": 10.0, "CATCH_SKM": 33.860001, "UPLAND_SKM": 33.900002, "ENDORHEIC": 0, "DIS_AV_CMS": 0.486, "ORD_STRA": 1, "ORD_CLAS": 2, "ORD_FLOW": 7, "HYBAS_L12": 4120050160.0, "Shape_Length": 0.059134950647624376 }, "geometry": { "type": "Polygon", "coordinates": [ ] } },
{ "type": "Feature", "properties": { "HYRIV_ID": 41392322, "NEXT_DOWN": 0, "MAIN_RIV": 41392322, "LENGTH_KM": 1.3, "DIST_DN_KM": 0.0, "DIST_UP_KM": 58.900002, "CATCH_SKM": 3.81, "UPLAND_SKM": 534.90002, "ENDORHEIC": 0, "DIS_AV_CMS": 8.0410004, "ORD_STRA": 3, "ORD_CLAS": 1, "ORD_FLOW": 6, "HYBAS_L12": 4120050160.0, "Shape_Length": 0.011785113019795219 }, "geometry": { "type": "Polygon", "coordinates": [ ] } },
{ "type": "Feature", "properties": { "HYRIV_ID": 41392586, "NEXT_DOWN": 41391829, "MAIN_RIV": 41392322, "LENGTH_KM": 16.91, "DIST_DN_KM": 29.1, "DIST_UP_KM": 30.1, "CATCH_SKM": 94.379997, "UPLAND_SKM": 152.2, "ENDORHEIC": 0, "DIS_AV_CMS": 2.181, "ORD_STRA": 2, "ORD_CLAS": 1, "ORD_FLOW": 6, "HYBAS_L12": 4121599360.0, "Shape_Length": 0.15320646925709669 }, "geometry": { "type": "Polygon", "coordinates": [ ] } },
{ "type": "Feature", "properties": { "HYRIV_ID": 41392666, "NEXT_DOWN": 41392586, "MAIN_RIV": 41392322, "LENGTH_KM": 2.28, "DIST_DN_KM": 46.099998, "DIST_UP_KM": 5.9, "CATCH_SKM": 13.33, "UPLAND_SKM": 13.3, "ENDORHEIC": 0, "DIS_AV_CMS": 0.185, "ORD_STRA": 1, "ORD_CLAS": 2, "ORD_FLOW": 7, "HYBAS_L12": 4121599470.0, "Shape_Length": 0.020623947784719512 }, "geometry": { "type": "Polygon", "coordinates": [ ] } },
{ "type": "Feature", "properties": { "HYRIV_ID": 41392777, "NEXT_DOWN": 41392586, "MAIN_RIV": 41392322, "LENGTH_KM": 9.0900002, "DIST_DN_KM": 45.900002, "DIST_UP_KM": 13.4, "CATCH_SKM": 44.450001, "UPLAND_SKM": 44.400002, "ENDORHEIC": 0, "DIS_AV_CMS": 0.616, "ORD_STRA": 1, "ORD_CLAS": 1, "ORD_FLOW": 7, "HYBAS_L12": 4121599470.0, "Shape_Length": 0.082557118745723163 }, "geometry": { "type": "Polygon", "coordinates": [ ] } }
]
}
