{
"type": "FeatureCollection",
"name": "main_river_41407517",
"crs": { "type": "name", "properties": { "name": "urn:ogc:def:crs:OGC:1.3:CRS84" } },
"features": [
{ "type": "Feature", "properties": { "HYRIV_ID": 41407517, "NEXT_DOWN": 0, "MAIN_RIV": 41407517, "LENGTH_KM": 2.55, "DIST_DN_KM": 0.0, "DIST_UP_KM": 4.5, "CATCH_SKM": 5.33, "UPLAND_SKM": 5.3, "ENDORHEIC": 0, "DIS_AV_CMS": 0.237, "ORD_STRA": 1, "ORD_CLAS": 2, "ORD_FLOW": 7, "HYBAS_L12": 4120049000.0, "Shape_Length": 0.023064724608162727 }, "geometry": { "type": "MultiLineString", "coordinates": [ [ [ 79.983333333333093, 6.566666666666542 ], [ 79.977083333332956, 6.572916666666579 ], [ 79.972916666666293, 6.572916666666579 ], [ 79.968749999999631, 6.56875 ], [ 79.964583333332968, 6.56875 ] ] ] } }
]
}
