{
"type": "FeatureCollection",
"name": "main_river_41392010",
"crs": { "type": "name", "properties": { "name": "urn:ogc:def:crs:OGC:1.3:CRS84" } },
"features": [
{ "type": "Feature", "properties": { "HYRIV_ID": 41391774, "NEXT_DOWN": 41392010, "MAIN_RIV": 41392010, "LENGTH_KM": 2.0, "DIST_DN_KM": 4.8, "DIST_UP_KM": 5.4, "CATCH_SKM": 9.5200005, "UPLAND_SKM": 9.5, "ENDORHEIC": 0, "DIS_AV_CMS": 0.116, "ORD_STRA": 1, "ORD_CLAS": 2, "ORD_FLOW": 7, "HYBAS_L12": 4120050170.0, "Shape_Length": 0.018035113019787809 }, "geometry": { "type": "Polygon", "coordinates": [ ] } },
{ "type": "Feature", "properties": { "HYRIV_ID": 41391775, "NEXT_DOWN": 41392010, "MAIN_RIV": 41392010, "LENGTH_KM": 7.7399998, "DIST_DN_KM": 4.8, "DIST_UP_KM": 10.2, "CATCH_SKM": 35.75, "UPLAND_SKM": 35.8, "ENDORHEIC": 0, "DIS_AV_CMS": 0.456, "ORD_STRA": 1, "ORD_CLAS": 1, "ORD_FLOW": 7, "HYBAS_L12": 4120050170.0, "Shape_Length": 0.070205176687182819 }, "geometry": { "type": "Polygon", "coordinates": [ ] } },
{ "type": "Feature", "properties": { "HYRIV_ID": 41392010, "NEXT_DOWN": 0, "MAIN_RIV": 41392010, "LENGTH_KM": 4.46, "DIST_DN_KM": 0.0, "DIST_UP_KM": 14.6, "CATCH_SKM": 11.85, "UPLAND_SKM": 56.900002, "ENDORHEIC": 0, "DIS_AV_CMS": 0.588, "ORD_STRA": 2, "ORD_CLAS": 1, "ORD_FLOW": 7, "HYBAS_L12": 4120050170.0, "Shape_Length": 0.040236892706203474 }, "geometry": { "type": "Polygon", "coordinates": [ ] } }
]
}
