{
"type": "FeatureCollection",
"name": "main_river_41409952",
"crs": { "type": "name", "properties": { "name": "urn:ogc:def:crs:OGC:1.3:CRS84" } },
"features": [
{ "type": "Feature", "properties": { "HYRIV_ID": 41408922, "NEXT_DOWN": 41408992, "MAIN_RIV": 41409952, "LENGTH_KM": 14.23, "DIST_DN_KM": 40.099998, "DIST_UP_KM": 15.8, "CATCH_SKM": 43.099998, "UPLAND_SKM": 43.099998, "ENDORHEIC": 0, "DIS_AV_CMS": 1.623, "ORD_STRA": 1, "ORD_CLAS": 1, "ORD_FLOW": 6, "HYBAS_L12": 4121602560.0, "Shape_Length": 0.12839045207923244 }, "geometry": { "type": "MultiLineString", "coordinates": [ [ [ 80.679166666666305, 6.314583333333239 ], [ 80.656249999999631, 6.314583333333239 ], [ 80.647916666666305, 6.306249999999885 ], [ 80.647916666666305, 6.297916666666573 ], [ 80.652083333332968, 6.29375 ], [ 80.672916666666339, 6.29375 ], [ 80.677083333333002, 6.289583333333248 ], [ 80.681249999999665, 6.289583333333248 ], [ 80.685416666666384, 6.29375 ], [ 80.689583333333047, 6.29375 ], [ 80.697916666666373, 6.285416666666556 ], [ 80.693749999999596, 6.281249999999893 ], [ 80.693749999999596, 6.260416666666565 ] ] ] } },
{ "type": "Feature", "properties": { "HYRIV_ID": 41408947, "NEXT_DOWN": 41408992, "MAIN_RIV": 41409952, "LENGTH_KM": 4.5100002, "DIST_DN_KM": 40.3, "DIST_UP_KM": 6.5, "CATCH_SKM": 13.23, "UPLAND_SKM": 13.2, "ENDORHEIC": 0, "DIS_AV_CMS": 0.5, "ORD_STRA": 1, "ORD_CLAS": 2, "ORD_FLOW": 7, "HYBAS_L12": 4121602560.0, "Shape_Length": 0.040742394137679702 }, "geometry": { "type": "MultiLineString", "coordinates": [ [ [ 80.662499999999596, 6.254166666666571 ], [ 80.672916666666339, 6.264583333333213 ], [ 80.677083333333002, 6.264583333333213 ], [ 80.681249999999665, 6.268749999999876 ], [ 80.685416666666384, 6.264583333333213 ], [ 80.689583333333047, 6.264583333333213 ], [ 80.693749999999596, 6.260416666666565 ] ] ] } },
{ "type": "Feature", "properties": { "HYRIV_ID": 41408991, "NEXT_DOWN": 41409182, "MAIN_RIV": 41409952, "LENGTH_KM": 0.69, "DIST_DN_KM": 38.5, "DIST_UP_KM": 2.7, "CATCH_SKM": 3.2, "UPLAND_SKM": 3.2, "ENDORHEIC": 0, "DIS_AV_CMS": 0.12, "ORD_STRA": 1, "ORD_CLAS": 2, "ORD_FLOW": 7, "HYBAS_L12": 4121602560.0, "Shape_Length": 0.0062500000000795808 }, "geometry": { "type": "MultiLineString", "coordinates": [ [ [ 80.683333333332968, 6.247916666666576 ], [ 80.689583333333047, 6.247916666666576 ] ] ] } },
{ "type": "Feature", "properties": { "HYRIV_ID": 41408992, "NEXT_DOWN": 41409182, "MAIN_RIV": 41409952, "LENGTH_KM": 1.58, "DIST_DN_KM": 38.5, "DIST_UP_KM": 17.3, "CATCH_SKM": 3.4100001, "UPLAND_SKM": 59.700001, "ENDORHEIC": 0, "DIS_AV_CMS": 2.2490001, "ORD_STRA": 2, "ORD_CLAS": 1, "ORD_FLOW": 6, "HYBAS_L12": 4121602560.0, "Shape_Length": 0.014225889843127903 }, "geometry": { "type": "MultiLineString", "coordinates": [ [ [ 80.693749999999596, 6.260416666666565 ], [ 80.693749999999596, 6.25625 ], [ 80.689583333333047, 6.252083333333239 ], [ 80.689583333333047, 6.247916666666576 ] ] ] } },
{ "type": "Feature", "properties": { "HYRIV_ID": 41409050, "NEXT_DOWN": 41409118, "MAIN_RIV": 41409952, "LENGTH_KM": 7.12, "DIST_DN_KM": 35.0, "DIST_UP_KM": 9.3, "CATCH_SKM": 23.26, "UPLAND_SKM": 23.3, "ENDORHEIC": 0, "DIS_AV_CMS": 0.839, "ORD_STRA": 1, "ORD_CLAS": 2, "ORD_FLOW": 7, "HYBAS_L12": 4121602560.0, "Shape_Length": 0.064164562235947312 }, "geometry": { "type": "MultiLineString", "coordinates": [ [ [ 80.741666666666362, 6.281249999999893 ], [ 80.735416666666282, 6.281249999999893 ], [ 80.727083333332956, 6.272916666666582 ], [ 80.731249999999619, 6.268749999999876 ], [ 80.722916666666293, 6.260416666666565 ], [ 80.722916666666293, 6.252083333333239 ], [ 80.727083333332956, 6.247916666666576 ], [ 80.727083333332956, 6.239583333333222 ], [ 80.731249999999619, 6.235416666666559 ] ] ] } },
{ "type": "Feature", "properties": { "HYRIV_ID": 41409051, "NEXT_DOWN": 41409118, "MAIN_RIV": 41409952, "LENGTH_KM": 2.1, "DIST_DN_KM": 34.8, "DIST_UP_KM": 4.7, "CATCH_SKM": 5.9699998, "UPLAND_SKM": 6.0, "ENDORHEIC": 0, "DIS_AV_CMS": 0.213, "ORD_STRA": 1, "ORD_CLAS": 3, "ORD_FLOW": 7, "HYBAS_L12": 4121602560.0, "Shape_Length": 0.018898057941449609 }, "geometry": { "type": "MultiLineString", "coordinates": [ [ [ 80.741666666666362, 6.25 ], [ 80.731249999999619, 6.239583333333222 ], [ 80.731249999999619, 6.235416666666559 ] ] ] } },
{ "type": "Feature", "properties": { "HYRIV_ID": 41409118, "NEXT_DOWN": 41409183, "MAIN_RIV": 41409952, "LENGTH_KM": 1.58, "DIST_DN_KM": 33.200001, "DIST_UP_KM": 11.1, "CATCH_SKM": 2.35, "UPLAND_SKM": 31.6, "ENDORHEIC": 0, "DIS_AV_CMS": 1.135, "ORD_STRA": 2, "ORD_CLAS": 2, "ORD_FLOW": 6, "HYBAS_L12": 4121602560.0, "Shape_Length": 0.014225889843194079 }, "geometry": { "type": "MultiLineString", "coordinates": [ [ [ 80.731249999999619, 6.235416666666559 ], [ 80.731249999999619, 6.23125 ], [ 80.735416666666282, 6.227083333333248 ], [ 80.735416666666282, 6.222916666666585 ] ] ] } },
{ "type": "Feature", "properties": { "HYRIV_ID": 41409119, "NEXT_DOWN": 41409183, "MAIN_RIV": 41409952, "LENGTH_KM": 1.15, "DIST_DN_KM": 33.200001, "DIST_UP_KM": 3.1, "CATCH_SKM": 5.5500002, "UPLAND_SKM": 5.5, "ENDORHEIC": 0, "DIS_AV_CMS": 0.195, "ORD_STRA": 1, "ORD_CLAS": 3, "ORD_FLOW": 7, "HYBAS_L12": 4121602560.0, "Shape_Length": 0.010416666666742458 }, "geometry": { "type": "MultiLineString", "coordinates": [ [ [ 80.745833333333024, 6.222916666666585 ], [ 80.735416666666282, 6.222916666666585 ] ] ] } },
{ "type": "Feature", "properties": { "HYRIV_ID": 41409182, "NEXT_DOWN": 41409352, "MAIN_RIV": 41409952, "LENGTH_KM": 6.8800001, "DIST_DN_KM": 31.6, "DIST_UP_KM": 24.200001, "CATCH_SKM": 23.26, "UPLAND_SKM": 86.199997, "ENDORHEIC": 0, "DIS_AV_CMS": 3.2190001, "ORD_STRA": 2, "ORD_CLAS": 1, "ORD_FLOW": 6, "HYBAS_L12": 4121602560.0, "Shape_Length": 0.062081228902511228 }, "geometry": { "type": "MultiLineString", "coordinates": [ [ [ 80.689583333333047, 6.247916666666576 ], [ 80.702083333332922, 6.235416666666559 ], [ 80.702083333332922, 6.23125 ], [ 80.706249999999699, 6.23125 ], [ 80.710416666666418, 6.227083333333248 ], [ 80.710416666666418, 6.222916666666585 ], [ 80.722916666666293, 6.210416666666568 ], [ 80.731249999999619, 6.210416666666568 ] ] ] } },
{ "type": "Feature", "properties": { "HYRIV_ID": 41409183, "NEXT_DOWN": 41409352, "MAIN_RIV": 41409952, "LENGTH_KM": 1.58, "DIST_DN_KM": 31.8, "DIST_UP_KM": 12.5, "CATCH_SKM": 2.56, "UPLAND_SKM": 39.700001, "ENDORHEIC": 0, "DIS_AV_CMS": 1.4220001, "ORD_STRA": 2, "ORD_CLAS": 2, "ORD_FLOW": 6, "HYBAS_L12": 4121602560.0, "Shape_Length": 0.014225889843236712 }, "geometry": { "type": "MultiLineString", "coordinates": [ [ [ 80.735416666666282, 6.222916666666585 ], [ 80.735416666666282, 6.214583333333231 ], [ 80.731249999999619, 6.210416666666568 ] ] ] } },
{ "type": "Feature", "properties": { "HYRIV_ID": 41409184, "NEXT_DOWN": 41409396, "MAIN_RIV": 41409952, "LENGTH_KM": 6.29, "DIST_DN_KM": 26.700001, "DIST_UP_KM": 8.0, "CATCH_SKM": 21.129999, "UPLAND_SKM": 21.1, "ENDORHEIC": 0, "DIS_AV_CMS": 0.73, "ORD_STRA": 1, "ORD_CLAS": 2, "ORD_FLOW": 7, "HYBAS_L12": 4121602590.0, "Shape_Length": 0.056694173824130195 }, "geometry": { "type": "MultiLineString", "coordinates": [ [ [ 80.762499999999733, 6.25 ], [ 80.768749999999642, 6.24375 ], [ 80.772916666666305, 6.24375 ], [ 80.772916666666305, 6.239583333333222 ], [ 80.785416666666293, 6.227083333333248 ], [ 80.785416666666293, 6.222916666666585 ], [ 80.797916666666339, 6.210416666666568 ] ] ] } },
{ "type": "Feature", "properties": { "HYRIV_ID": 41409185, "NEXT_DOWN": 41409396, "MAIN_RIV": 41409952, "LENGTH_KM": 1.9, "DIST_DN_KM": 26.5, "DIST_UP_KM": 3.8, "CATCH_SKM": 6.4, "UPLAND_SKM": 6.4, "ENDORHEIC": 0, "DIS_AV_CMS": 0.215, "ORD_STRA": 1, "ORD_CLAS": 3, "ORD_FLOW": 7, "HYBAS_L12": 4121602590.0, "Shape_Length": 0.017172168098159607 }, "geometry": { "type": "MultiLineString", "coordinates": [ [ [ 80.808333333332968, 6.220833333333267 ], [ 80.802083333333002, 6.214583333333231 ], [ 80.797916666666339, 6.214583333333231 ], [ 80.797916666666339, 6.210416666666568 ] ] ] } },
{ "type": "Feature", "properties": { "HYRIV_ID": 41409277, "NEXT_DOWN": 41409441, "MAIN_RIV": 41409952, "LENGTH_KM": 2.73, "DIST_DN_KM": 37.5, "DIST_UP_KM": 5.0, "CATCH_SKM": 8.96, "UPLAND_SKM": 9.0, "ENDORHEIC": 0, "DIS_AV_CMS": 0.33500001, "ORD_STRA": 1, "ORD_CLAS": 3, "ORD_FLOW": 7, "HYBAS_L12": 4121602590.0, "Shape_Length": 0.02464255650977017 }, "geometry": { "type": "MultiLineString", "coordinates": [ [ [ 80.658333333333104, 6.197916666666551 ], [ 80.664583333333013, 6.197916666666551 ], [ 80.668749999999676, 6.19375 ], [ 80.681249999999665, 6.19375 ] ] ] } },
{ "type": "Feature", "properties": { "HYRIV_ID": 41409278, "NEXT_DOWN": 41409441, "MAIN_RIV": 41409952, "LENGTH_KM": 4.06, "DIST_DN_KM": 37.700001, "DIST_UP_KM": 6.0, "CATCH_SKM": 8.3199997, "UPLAND_SKM": 8.3, "ENDORHEIC": 0, "DIS_AV_CMS": 0.31, "ORD_STRA": 1, "ORD_CLAS": 2, "ORD_FLOW": 7, "HYBAS_L12": 4121602590.0, "Shape_Length": 0.03657572747099673 }, "geometry": { "type": "MultiLineString", "coordinates": [ [ [ 80.670833333332922, 6.220833333333267 ], [ 80.664583333333013, 6.214583333333231 ], [ 80.664583333333013, 6.210416666666568 ], [ 80.681249999999665, 6.19375 ] ] ] } },
{ "type": "Feature", "properties": { "HYRIV_ID": 41409351, "NEXT_DOWN": 41409353, "MAIN_RIV": 41409952, "LENGTH_KM": 0.69, "DIST_DN_KM": 26.8, "DIST_UP_KM": 2.9, "CATCH_SKM": 3.6300001, "UPLAND_SKM": 3.6, "ENDORHEIC": 0, "DIS_AV_CMS": 0.129, "ORD_STRA": 1, "ORD_CLAS": 2, "ORD_FLOW": 7, "HYBAS_L12": 4121602590.0, "Shape_Length": 0.0062499999999090505 }, "geometry": { "type": "MultiLineString", "coordinates": [ [ [ 80.741666666666362, 6.177083333333222 ], [ 80.747916666666271, 6.177083333333222 ] ] ] } },
{ "type": "Feature", "properties": { "HYRIV_ID": 41409352, "NEXT_DOWN": 41409353, "MAIN_RIV": 41409952, "LENGTH_KM": 4.85, "DIST_DN_KM": 27.0, "DIST_UP_KM": 28.9, "CATCH_SKM": 10.24, "UPLAND_SKM": 136.10001, "ENDORHEIC": 0, "DIS_AV_CMS": 5.0029998, "ORD_STRA": 3, "ORD_CLAS": 1, "ORD_FLOW": 6, "HYBAS_L12": 4121602590.0, "Shape_Length": 0.043688672392646961 }, "geometry": { "type": "MultiLineString", "coordinates": [ [ [ 80.731249999999619, 6.210416666666568 ], [ 80.739583333332945, 6.202083333333213 ], [ 80.739583333332945, 6.197916666666551 ], [ 80.747916666666271, 6.189583333333239 ], [ 80.743749999999608, 6.185416666666576 ], [ 80.743749999999608, 6.18125 ], [ 80.747916666666271, 6.177083333333222 ] ] ] } },
{ "type": "Feature", "properties": { "HYRIV_ID": 41409353, "NEXT_DOWN": 41409443, "MAIN_RIV": 41409952, "LENGTH_KM": 1.84, "DIST_DN_KM": 24.9, "DIST_UP_KM": 30.9, "CATCH_SKM": 3.2, "UPLAND_SKM": 143.0, "ENDORHEIC": 0, "DIS_AV_CMS": 5.243, "ORD_STRA": 3, "ORD_CLAS": 1, "ORD_FLOW": 6, "HYBAS_L12": 4121602590.0, "Shape_Length": 0.016666666666708352 }, "geometry": { "type": "MultiLineString", "coordinates": [ [ [ 80.747916666666271, 6.177083333333222 ], [ 80.764583333332979, 6.177083333333222 ] ] ] } },
{ "type": "Feature", "properties": { "HYRIV_ID": 41409354, "NEXT_DOWN": 41409443, "MAIN_RIV": 41409952, "LENGTH_KM": 2.9300001, "DIST_DN_KM": 25.1, "DIST_UP_KM": 4.7, "CATCH_SKM": 9.6, "UPLAND_SKM": 9.6, "ENDORHEIC": 0, "DIS_AV_CMS": 0.332, "ORD_STRA": 1, "ORD_CLAS": 2, "ORD_FLOW": 7, "HYBAS_L12": 4121602590.0, "Shape_Length": 0.026368446353086866 }, "geometry": { "type": "MultiLineString", "coordinates": [ [ [ 80.764583333332979, 6.199999999999882 ], [ 80.764583333332979, 6.19375 ], [ 80.768749999999642, 6.189583333333239 ], [ 80.768749999999642, 6.18125 ], [ 80.764583333332979, 6.177083333333222 ] ] ] } },
{ "type": "Feature", "properties": { "HYRIV_ID": 41409355, "NEXT_DOWN": 41409485, "MAIN_RIV": 41409952, "LENGTH_KM": 1.4400001, "DIST_DN_KM": 19.0, "DIST_UP_KM": 4.4, "CATCH_SKM": 4.27, "UPLAND_SKM": 4.3, "ENDORHEIC": 0, "DIS_AV_CMS": 0.142, "ORD_STRA": 1, "ORD_CLAS": 3, "ORD_FLOW": 7, "HYBAS_L12": 4120050120.0, "Shape_Length": 0.013005501431567071 }, "geometry": { "type": "MultiLineString", "coordinates": [ [ [ 80.812499999999631, 6.183333333333245 ], [ 80.81874999999971, 6.177083333333222 ], [ 80.822916666666373, 6.177083333333222 ] ] ] } },
{ "type": "Feature", "properties": { "HYRIV_ID": 41409356, "NEXT_DOWN": 41409485, "MAIN_RIV": 41409952, "LENGTH_KM": 1.62, "DIST_DN_KM": 19.0, "DIST_UP_KM": 5.6, "CATCH_SKM": 6.62, "UPLAND_SKM": 6.6, "ENDORHEIC": 0, "DIS_AV_CMS": 0.218, "ORD_STRA": 1, "ORD_CLAS": 2, "ORD_FLOW": 7, "HYBAS_L12": 4120050120.0, "Shape_Length": 0.014583333333348492 }, "geometry": { "type": "MultiLineString", "coordinates": [ [ [ 80.822916666666373, 6.191666666666571 ], [ 80.822916666666373, 6.177083333333222 ] ] ] } },
{ "type": "Feature", "properties": { "HYRIV_ID": 41409395, "NEXT_DOWN": 41409464, "MAIN_RIV": 41409952, "LENGTH_KM": 0.69, "DIST_DN_KM": 21.1, "DIST_UP_KM": 4.0, "CATCH_SKM": 3.84, "UPLAND_SKM": 3.8, "ENDORHEIC": 0, "DIS_AV_CMS": 0.131, "ORD_STRA": 1, "ORD_CLAS": 3, "ORD_FLOW": 7, "HYBAS_L12": 4121602590.0, "Shape_Length": 0.0062499999999801048 }, "geometry": { "type": "MultiLineString", "coordinates": [ [ [ 80.789583333333013, 6.174999999999891 ], [ 80.789583333333013, 6.16875 ] ] ] } },
{ "type": "Feature", "properties": { "HYRIV_ID": 41409396, "NEXT_DOWN": 41409464, "MAIN_RIV": 41409952, "LENGTH_KM": 5.39, "DIST_DN_KM": 21.3, "DIST_UP_KM": 13.4, "CATCH_SKM": 11.31, "UPLAND_SKM": 38.8, "ENDORHEIC": 0, "DIS_AV_CMS": 1.327, "ORD_STRA": 2, "ORD_CLAS": 2, "ORD_FLOW": 6, "HYBAS_L12": 4121602590.0, "Shape_Length": 0.0485702260395275 }, "geometry": { "type": "MultiLineString", "coordinates": [ [ [ 80.797916666666339, 6.210416666666568 ], [ 80.797916666666339, 6.189583333333239 ], [ 80.802083333333002, 6.185416666666576 ], [ 80.802083333333002, 6.18125 ], [ 80.789583333333013, 6.16875 ] ] ] } },
{ "type": "Feature", "properties": { "HYRIV_ID": 41409441, "NEXT_DOWN": 41409482, "MAIN_RIV": 41409952, "LENGTH_KM": 7.8800001, "DIST_DN_KM": 29.6, "DIST_UP_KM": 14.0, "CATCH_SKM": 26.459999, "UPLAND_SKM": 43.700001, "ENDORHEIC": 0, "DIS_AV_CMS": 1.614, "ORD_STRA": 2, "ORD_CLAS": 2, "ORD_FLOW": 6, "HYBAS_L12": 4121602590.0, "Shape_Length": 0.071129449216076182 }, "geometry": { "type": "MultiLineString", "coordinates": [ [ [ 80.681249999999665, 6.19375 ], [ 80.689583333333047, 6.19375 ], [ 80.693749999999596, 6.189583333333239 ], [ 80.693749999999596, 6.177083333333222 ], [ 80.685416666666384, 6.16875 ], [ 80.693749999999596, 6.160416666666542 ], [ 80.714583333333081, 6.160416666666542 ] ] ] } },
{ "type": "Feature", "properties": { "HYRIV_ID": 41409442, "NEXT_DOWN": 41409482, "MAIN_RIV": 41409952, "LENGTH_KM": 1.16, "DIST_DN_KM": 29.6, "DIST_UP_KM": 4.5, "CATCH_SKM": 6.62, "UPLAND_SKM": 6.6, "ENDORHEIC": 0, "DIS_AV_CMS": 0.23800001, "ORD_STRA": 1, "ORD_CLAS": 3, "ORD_FLOW": 7, "HYBAS_L12": 4121602590.0, "Shape_Length": 0.010416666666685614 }, "geometry": { "type": "MultiLineString", "coordinates": [ [ [ 80.714583333333081, 6.170833333333228 ], [ 80.714583333333081, 6.160416666666542 ] ] ] } },
{ "type": "Feature", "properties": { "HYRIV_ID": 41409443, "NEXT_DOWN": 41409483, "MAIN_RIV": 41409952, "LENGTH_KM": 2.04, "DIST_DN_KM": 22.9, "DIST_UP_KM": 33.0, "CATCH_SKM": 4.0500002, "UPLAND_SKM": 156.60001, "ENDORHEIC": 0, "DIS_AV_CMS": 5.7150002, "ORD_STRA": 3, "ORD_CLAS": 1, "ORD_FLOW": 6, "HYBAS_L12": 4121602590.0, "Shape_Length": 0.018392556509899589 }, "geometry": { "type": "MultiLineString", "coordinates": [ [ [ 80.764583333332979, 6.177083333333222 ], [ 80.768749999999642, 6.172916666666559 ], [ 80.768749999999642, 6.160416666666542 ] ] ] } },
{ "type": "Feature", "properties": { "HYRIV_ID": 41409464, "NEXT_DOWN": 41409484, "MAIN_RIV": 41409952, "LENGTH_KM": 1.58, "DIST_DN_KM": 19.5, "DIST_UP_KM": 15.2, "CATCH_SKM": 1.71, "UPLAND_SKM": 44.400002, "ENDORHEIC": 0, "DIS_AV_CMS": 1.515, "ORD_STRA": 2, "ORD_CLAS": 2, "ORD_FLOW": 6, "HYBAS_L12": 4121602590.0, "Shape_Length": 0.014225889843181592 }, "geometry": { "type": "MultiLineString", "coordinates": [ [ [ 80.789583333333013, 6.16875 ], [ 80.789583333333013, 6.164583333333248 ], [ 80.793749999999676, 6.160416666666542 ], [ 80.793749999999676, 6.15625 ] ] ] } },
{ "type": "Feature", "properties": { "HYRIV_ID": 41409482, "NEXT_DOWN": 41409483, "MAIN_RIV": 41409952, "LENGTH_KM": 6.7600002, "DIST_DN_KM": 23.1, "DIST_UP_KM": 20.6, "CATCH_SKM": 17.5, "UPLAND_SKM": 67.900002, "ENDORHEIC": 0, "DIS_AV_CMS": 2.4679999, "ORD_STRA": 2, "ORD_CLAS": 2, "ORD_FLOW": 6, "HYBAS_L12": 4121602590.0, "Shape_Length": 0.061070226039402452 }, "geometry": { "type": "MultiLineString", "coordinates": [ [ [ 80.714583333333081, 6.160416666666542 ], [ 80.731249999999619, 6.160416666666542 ], [ 80.735416666666282, 6.15625 ], [ 80.743749999999608, 6.15625 ], [ 80.747916666666271, 6.152083333333231 ], [ 80.75208333333299, 6.15625 ], [ 80.764583333332979, 6.15625 ], [ 80.768749999999642, 6.160416666666542 ] ] ] } },
{ "type": "Feature", "properties": { "HYRIV_ID": 41409483, "NEXT_DOWN": 41409484, "MAIN_RIV": 41409952, "LENGTH_KM": 3.34, "DIST_DN_KM": 19.5, "DIST_UP_KM": 36.3, "CATCH_SKM": 8.96, "UPLAND_SKM": 233.39999, "ENDORHEIC": 0, "DIS_AV_CMS": 8.4879999, "ORD_STRA": 3, "ORD_CLAS": 1, "ORD_FLOW": 6, "HYBAS_L12": 4121602590.0, "Shape_Length": 0.030177669529713184 }, "geometry": { "type": "MultiLineString", "coordinates": [ [ [ 80.768749999999642, 6.160416666666542 ], [ 80.777083333332968, 6.152083333333231 ], [ 80.781249999999631, 6.15625 ], [ 80.793749999999676, 6.15625 ] ] ] } },
{ "type": "Feature", "properties": { "HYRIV_ID": 41409484, "NEXT_DOWN": 41409540, "MAIN_RIV": 41409952, "LENGTH_KM": 3.8800001, "DIST_DN_KM": 15.7, "DIST_UP_KM": 40.200001, "CATCH_SKM": 11.31, "UPLAND_SKM": 289.10001, "ENDORHEIC": 0, "DIS_AV_CMS": 10.379, "ORD_STRA": 3, "ORD_CLAS": 1, "ORD_FLOW": 5, "HYBAS_L12": 4120050120.0, "Shape_Length": 0.035059223176495978 }, "geometry": { "type": "MultiLineString", "coordinates": [ [ [ 80.793749999999676, 6.15625 ], [ 80.802083333333002, 6.15625 ], [ 80.806249999999665, 6.152083333333231 ], [ 80.827083333332922, 6.152083333333231 ] ] ] } },
{ "type": "Feature", "properties": { "HYRIV_ID": 41409485, "NEXT_DOWN": 41409540, "MAIN_RIV": 41409952, "LENGTH_KM": 3.35, "DIST_DN_KM": 15.7, "DIST_UP_KM": 8.9, "CATCH_SKM": 8.75, "UPLAND_SKM": 19.6, "ENDORHEIC": 0, "DIS_AV_CMS": 0.64700001, "ORD_STRA": 2, "ORD_CLAS": 2, "ORD_FLOW": 7, "HYBAS_L12": 4120050120.0, "Shape_Length": 0.030177669529417611 }, "geometry": { "type": "MultiLineString", "coordinates": [ [ [ 80.822916666666373, 6.177083333333222 ], [ 80.822916666666373, 6.172916666666559 ], [ 80.827083333332922, 6.16875 ], [ 80.827083333332922, 6.164583333333248 ], [ 80.822916666666373, 6.160416666666542 ], [ 80.827083333332922, 6.15625 ], [ 80.827083333332922, 6.152083333333231 ] ] ] } },
{ "type": "Feature", "properties": { "HYRIV_ID": 41409540, "NEXT_DOWN": 41409645, "MAIN_RIV": 41409952, "LENGTH_KM": 3.54, "DIST_DN_KM": 12.1, "DIST_UP_KM": 43.700001, "CATCH_SKM": 6.1900001, "UPLAND_SKM": 315.0, "ENDORHEIC": 0, "DIS_AV_CMS": 11.227, "ORD_STRA": 3, "ORD_CLAS": 1, "ORD_FLOW": 5, "HYBAS_L12": 4120050120.0, "Shape_Length": 0.03190355937288189 }, "geometry": { "type": "MultiLineString", "coordinates": [ [ [ 80.827083333332922, 6.152083333333231 ], [ 80.831249999999699, 6.147916666666568 ], [ 80.835416666666248, 6.152083333333231 ], [ 80.839583333333081, 6.147916666666568 ], [ 80.843749999999744, 6.147916666666568 ], [ 80.847916666666293, 6.14375 ], [ 80.847916666666293, 6.139583333333256 ] ] ] } },
{ "type": "Feature", "properties": { "HYRIV_ID": 41409541, "NEXT_DOWN": 41409645, "MAIN_RIV": 41409952, "LENGTH_KM": 2.75, "DIST_DN_KM": 12.3, "DIST_UP_KM": 5.9, "CATCH_SKM": 10.46, "UPLAND_SKM": 10.5, "ENDORHEIC": 0, "DIS_AV_CMS": 0.334, "ORD_STRA": 1, "ORD_CLAS": 2, "ORD_FLOW": 7, "HYBAS_L12": 4120050120.0, "Shape_Length": 0.024790614451211564 }, "geometry": { "type": "MultiLineString", "coordinates": [ [ [ 80.849999999999653, 6.158333333333211 ], [ 80.856249999999619, 6.152083333333231 ], [ 80.856249999999619, 6.147916666666568 ], [ 80.847916666666293, 6.139583333333256 ] ] ] } },
{ "type": "Feature", "properties": { "HYRIV_ID": 41409645, "NEXT_DOWN": 41409794, "MAIN_RIV": 41409952, "LENGTH_KM": 2.7, "DIST_DN_KM": 9.4, "DIST_UP_KM": 46.400002, "CATCH_SKM": 7.04, "UPLAND_SKM": 332.5, "ENDORHEIC": 0, "DIS_AV_CMS": 11.788, "ORD_STRA": 3, "ORD_CLAS": 1, "ORD_FLOW": 5, "HYBAS_L12": 4120050120.0, "Shape_Length": 0.024285113019705901 }, "geometry": { "type": "MultiLineString", "coordinates": [ [ [ 80.847916666666293, 6.139583333333256 ], [ 80.847916666666293, 6.131249999999888 ], [ 80.839583333333081, 6.122916666666576 ], [ 80.839583333333081, 6.11875 ] ] ] } },
{ "type": "Feature", "properties": { "HYRIV_ID": 41409676, "NEXT_DOWN": 41409794, "MAIN_RIV": 41409952, "LENGTH_KM": 2.29, "DIST_DN_KM": 9.6, "DIST_UP_KM": 4.2, "CATCH_SKM": 7.2600002, "UPLAND_SKM": 7.3, "ENDORHEIC": 0, "DIS_AV_CMS": 0.23800001, "ORD_STRA": 1, "ORD_CLAS": 2, "ORD_FLOW": 7, "HYBAS_L12": 4120050120.0, "Shape_Length": 0.020623947784669267 }, "geometry": { "type": "MultiLineString", "coordinates": [ [ [ 80.824999999999619, 6.125 ], [ 80.835416666666248, 6.114583333333265 ], [ 80.839583333333081, 6.11875 ] ] ] } },
{ "type": "Feature", "properties": { "HYRIV_ID": 41409794, "NEXT_DOWN": 41409952, "MAIN_RIV": 41409952, "LENGTH_KM": 5.1100001, "DIST_DN_KM": 4.5, "DIST_UP_KM": 51.3, "CATCH_SKM": 14.3, "UPLAND_SKM": 354.0, "ENDORHEIC": 0, "DIS_AV_CMS": 12.48, "ORD_STRA": 3, "ORD_CLAS": 1, "ORD_FLOW": 5, "HYBAS_L12": 4120050120.0, "Shape_Length": 0.046129449216034048 }, "geometry": { "type": "MultiLineString", "coordinates": [ [ [ 80.839583333333081, 6.11875 ], [ 80.843749999999744, 6.11875 ], [ 80.847916666666293, 6.114583333333265 ], [ 80.852083333332956, 6.114583333333265 ], [ 80.860416666666282, 6.106249999999896 ], [ 80.864583333332945, 6.106249999999896 ], [ 80.868749999999608, 6.102083333333248 ], [ 80.872916666666271, 6.102083333333248 ], [ 80.87708333333299, 6.097916666666585 ] ] ] } },
{ "type": "Feature", "properties": { "HYRIV_ID": 41409795, "NEXT_DOWN": 41409952, "MAIN_RIV": 41409952, "LENGTH_KM": 4.6900001, "DIST_DN_KM": 4.3, "DIST_UP_KM": 6.9, "CATCH_SKM": 20.059999, "UPLAND_SKM": 20.1, "ENDORHEIC": 0, "DIS_AV_CMS": 0.62300003, "ORD_STRA": 1, "ORD_CLAS": 2, "ORD_FLOW": 7, "HYBAS_L12": 4120050120.0, "Shape_Length": 0.042172168098146917 }, "geometry": { "type": "MultiLineString", "coordinates": [ [ [ 80.883333333333013, 6.137499999999882 ], [ 80.87708333333299, 6.131249999999888 ], [ 80.87708333333299, 6.097916666666585 ] ] ] } },
{ "type": "Feature", "properties": { "HYRIV_ID": 41409952, "NEXT_DOWN": 0, "MAIN_RIV": 41409952, "LENGTH_KM": 4.0900002, "DIST_DN_KM": 0.0, "DIST_UP_KM": 55.599998, "CATCH_SKM": 13.45, "UPLAND_SKM": 386.5, "ENDORHEIC": 0, "DIS_AV_CMS": 13.489, "ORD_STRA": 3, "ORD_CLAS": 1, "ORD_FLOW": 5, "HYBAS_L12": 4120050120.0, "Shape_Length": 0.036785113019776647 }, "geometry": { "type": "MultiLineString", "coordinates": [ [ [ 80.87708333333299, 6.097916666666585 ], [ 80.87708333333299, 6.08125 ], [ 80.885416666666316, 6.072916666666551 ], [ 80.885416666666316, 6.064583333333239 ] ] ] } }
]
}
