{
"type": "FeatureCollection",
"name": "main_river_41403239",
"crs": { "type": "name", "properties": { "name": "urn:ogc:def:crs:OGC:1.3:CRS84" } },
"features": [
{ "type": "Feature", "properties": { "HYRIV_ID": 41403239, "NEXT_DOWN": 0, "MAIN_RIV": 41403239, "LENGTH_KM": 1.99, "DIST_DN_KM": 0.0, "DIST_UP_KM": 4.6, "CATCH_SKM": 11.7, "UPLAND_SKM": 10.9, "ENDORHEIC": 0, "DIS_AV_CMS": 0.257, "ORD_STRA": 1, "ORD_CLAS": 1, "ORD_FLOW": 7, "HYBAS_L12": 4120049790.0, "Shape_Length": 0.018035113019817958 }, "geometry": { "type": "MultiLineString", "coordinates": [ [ [ 81.737499999999642, 7.585416666666553 ], [ 81.743749999999665, 7.585416666666553 ], [ 81.752083333333047, 7.593749999999865 ] ] ] } }
]
}
