{
"type": "FeatureCollection",
"name": "main_river_41395991",
"crs": { "type": "name", "properties": { "name": "urn:ogc:def:crs:OGC:1.3:CRS84" } },
"features": [
{ "type": "Feature", "properties": { "HYRIV_ID": 41395990, "NEXT_DOWN": 41395991, "MAIN_RIV": 41395991, "LENGTH_KM": 0.69, "DIST_DN_KM": 2.5, "DIST_UP_KM": 4.8, "CATCH_SKM": 11.66, "UPLAND_SKM": 11.7, "ENDORHEIC": 0, "DIS_AV_CMS": 0.171, "ORD_STRA": 1, "ORD_CLAS": 2, "ORD_FLOW": 7, "HYBAS_L12": 4120049530.0, "Shape_Length": 0.0062499999999090505 }, "geometry": { "type": "MultiLineString", "coordinates": [ [ [ 80.866666666666362, 9.110416666666531 ], [ 80.872916666666271, 9.110416666666531 ] ] ] } },
{ "type": "Feature", "properties": { "HYRIV_ID": 41395991, "NEXT_DOWN": 0, "MAIN_RIV": 41395991, "LENGTH_KM": 2.4200001, "DIST_DN_KM": 0.0, "DIST_UP_KM": 10.9, "CATCH_SKM": 2.54, "UPLAND_SKM": 31.200001, "ENDORHEIC": 0, "DIS_AV_CMS": 0.454, "ORD_STRA": 2, "ORD_CLAS": 1, "ORD_FLOW": 7, "HYBAS_L12": 4120049530.0, "Shape_Length": 0.021844336196366616 }, "geometry": { "type": "MultiLineString", "coordinates": [ [ [ 80.872916666666271, 9.110416666666531 ], [ 80.87708333333299, 9.114583333333194 ], [ 80.87708333333299, 9.118749999999842 ], [ 80.885416666666316, 9.127083333333211 ] ] ] } },
{ "type": "Feature", "properties": { "HYRIV_ID": 41396151, "NEXT_DOWN": 41395991, "MAIN_RIV": 41395991, "LENGTH_KM": 4.1300001, "DIST_DN_KM": 2.7, "DIST_UP_KM": 8.4, "CATCH_SKM": 17.17, "UPLAND_SKM": 17.200001, "ENDORHEIC": 0, "DIS_AV_CMS": 0.251, "ORD_STRA": 1, "ORD_CLAS": 1, "ORD_FLOW": 7, "HYBAS_L12": 4120049530.0, "Shape_Length": 0.03729061445119531 }, "geometry": { "type": "MultiLineString", "coordinates": [ [ [ 80.870833333333024, 9.083333333333165 ], [ 80.87708333333299, 9.089583333333202 ], [ 80.881249999999596, 9.089583333333202 ], [ 80.881249999999596, 9.097916666666514 ], [ 80.87708333333299, 9.102083333333219 ], [ 80.87708333333299, 9.106249999999868 ], [ 80.872916666666271, 9.110416666666531 ] ] ] } }
]
}
