{
"type": "FeatureCollection",
"name": "main_river_41405524",
"crs": { "type": "name", "properties": { "name": "urn:ogc:def:crs:OGC:1.3:CRS84" } },
"features": [
{ "type": "Feature", "properties": { "HYRIV_ID": 41405524, "NEXT_DOWN": 0, "MAIN_RIV": 41405524, "LENGTH_KM": 3.02, "DIST_DN_KM": 0.0, "DIST_UP_KM": 6.0, "CATCH_SKM": 20.450001, "UPLAND_SKM": 20.200001, "ENDORHEIC": 0, "DIS_AV_CMS": 0.369, "ORD_STRA": 1, "ORD_CLAS": 1, "ORD_FLOW": 7, "HYBAS_L12": 4120049890.0, "Shape_Length": 0.027231391274761863 }, "geometry": { "type": "Polygon", "coordinates": [ ] } }
]
}
