{
"type": "FeatureCollection",
"name": "main_river_41409948",
"crs": { "type": "name", "properties": { "name": "urn:ogc:def:crs:OGC:1.3:CRS84" } },
"features": [
{ "type": "Feature", "properties": { "HYRIV_ID": 41408335, "NEXT_DOWN": 41408380, "MAIN_RIV": 41409948, "LENGTH_KM": 1.16, "DIST_DN_KM": 63.5, "DIST_UP_KM": 3.4, "CATCH_SKM": 6.83, "UPLAND_SKM": 6.8, "ENDORHEIC": 0, "DIS_AV_CMS": 0.32100001, "ORD_STRA": 1, "ORD_CLAS": 2, "ORD_FLOW": 7, "HYBAS_L12": 4121602360.0, "Shape_Length": 0.010416666666685614 }, "geometry": { "type": "Polygon", "coordinates": [ ] } },
{ "type": "Feature", "properties": { "HYRIV_ID": 41408377, "NEXT_DOWN": 41408484, "MAIN_RIV": 41409948, "LENGTH_KM": 2.27, "DIST_DN_KM": 59.400002, "DIST_UP_KM": 4.5, "CATCH_SKM": 9.8100004, "UPLAND_SKM": 9.8, "ENDORHEIC": 0, "DIS_AV_CMS": 0.473, "ORD_STRA": 1, "ORD_CLAS": 2, "ORD_FLOW": 7, "HYBAS_L12": 4121602450.0, "Shape_Length": 0.020475889843174184 }, "geometry": { "type": "Polygon", "coordinates": [ ] } },
{ "type": "Feature", "properties": { "HYRIV_ID": 41408378, "NEXT_DOWN": 41408426, "MAIN_RIV": 41409948, "LENGTH_KM": 8.5, "DIST_DN_KM": 59.5, "DIST_UP_KM": 10.5, "CATCH_SKM": 18.559999, "UPLAND_SKM": 18.6, "ENDORHEIC": 0, "DIS_AV_CMS": 0.898, "ORD_STRA": 1, "ORD_CLAS": 2, "ORD_FLOW": 7, "HYBAS_L12": 4121602360.0, "Shape_Length": 0.076664562235921732 }, "geometry": { "type": "Polygon", "coordinates": [ ] } },
{ "type": "Feature", "properties": { "HYRIV_ID": 41408379, "NEXT_DOWN": 41408426, "MAIN_RIV": 41409948, "LENGTH_KM": 1.77, "DIST_DN_KM": 59.5, "DIST_UP_KM": 44.200001, "CATCH_SKM": 3.4100001, "UPLAND_SKM": 260.29999, "ENDORHEIC": 0, "DIS_AV_CMS": 12.23, "ORD_STRA": 3, "ORD_CLAS": 1, "ORD_FLOW": 5, "HYBAS_L12": 4121602360.0, "Shape_Length": 0.015951779686407853 }, "geometry": { "type": "Polygon", "coordinates": [ ] } },
{ "type": "Feature", "properties": { "HYRIV_ID": 41408380, "NEXT_DOWN": 41408379, "MAIN_RIV": 41409948, "LENGTH_KM": 2.23, "DIST_DN_KM": 61.400002, "DIST_UP_KM": 42.3, "CATCH_SKM": 3.2, "UPLAND_SKM": 249.39999, "ENDORHEIC": 0, "DIS_AV_CMS": 11.625, "ORD_STRA": 3, "ORD_CLAS": 1, "ORD_FLOW": 5, "HYBAS_L12": 4121602360.0, "Shape_Length": 0.020118446353120972 }, "geometry": { "type": "Polygon", "coordinates": [ ] } },
{ "type": "Feature", "properties": { "HYRIV_ID": 41408381, "NEXT_DOWN": 41408430, "MAIN_RIV": 41409948, "LENGTH_KM": 0.98, "DIST_DN_KM": 78.400002, "DIST_UP_KM": 2.6, "CATCH_SKM": 4.0500002, "UPLAND_SKM": 4.1, "ENDORHEIC": 0, "DIS_AV_CMS": 0.18, "ORD_STRA": 1, "ORD_CLAS": 3, "ORD_FLOW": 7, "HYBAS_L12": 4121602360.0, "Shape_Length": 0.0088388347647534657 }, "geometry": { "type": "Polygon", "coordinates": [ ] } },
{ "type": "Feature", "properties": { "HYRIV_ID": 41408382, "NEXT_DOWN": 41408430, "MAIN_RIV": 41409948, "LENGTH_KM": 3.48, "DIST_DN_KM": 78.199997, "DIST_UP_KM": 5.2, "CATCH_SKM": 8.5299997, "UPLAND_SKM": 8.5, "ENDORHEIC": 0, "DIS_AV_CMS": 0.37400001, "ORD_STRA": 1, "ORD_CLAS": 2, "ORD_FLOW": 7, "HYBAS_L12": 4121602360.0, "Shape_Length": 0.03139805794141743 }, "geometry": { "type": "Polygon", "coordinates": [ ] } },
{ "type": "Feature", "properties": { "HYRIV_ID": 41408408, "NEXT_DOWN": 41408428, "MAIN_RIV": 41409948, "LENGTH_KM": 0.69, "DIST_DN_KM": 73.5, "DIST_UP_KM": 4.0, "CATCH_SKM": 3.84, "UPLAND_SKM": 3.8, "ENDORHEIC": 0, "DIS_AV_CMS": 0.174, "ORD_STRA": 1, "ORD_CLAS": 2, "ORD_FLOW": 7, "HYBAS_L12": 4121602360.0, "Shape_Length": 0.0062500000000227374 }, "geometry": { "type": "Polygon", "coordinates": [ ] } },
{ "type": "Feature", "properties": { "HYRIV_ID": 41408425, "NEXT_DOWN": 41408484, "MAIN_RIV": 41409948, "LENGTH_KM": 1.35, "DIST_DN_KM": 59.599998, "DIST_UP_KM": 3.4, "CATCH_SKM": 4.6900001, "UPLAND_SKM": 4.7, "ENDORHEIC": 0, "DIS_AV_CMS": 0.225, "ORD_STRA": 1, "ORD_CLAS": 3, "ORD_FLOW": 7, "HYBAS_L12": 4121602450.0, "Shape_Length": 0.012142556509906997 }, "geometry": { "type": "Polygon", "coordinates": [ ] } },
{ "type": "Feature", "properties": { "HYRIV_ID": 41408426, "NEXT_DOWN": 41408485, "MAIN_RIV": 41409948, "LENGTH_KM": 0.93, "DIST_DN_KM": 58.5, "DIST_UP_KM": 45.099998, "CATCH_SKM": 2.56, "UPLAND_SKM": 281.39999, "ENDORHEIC": 0, "DIS_AV_CMS": 13.317, "ORD_STRA": 3, "ORD_CLAS": 1, "ORD_FLOW": 5, "HYBAS_L12": 4121602450.0, "Shape_Length": 0.0083333333333683868 }, "geometry": { "type": "Polygon", "coordinates": [ ] } },
{ "type": "Feature", "properties": { "HYRIV_ID": 41408427, "NEXT_DOWN": 41408380, "MAIN_RIV": 41409948, "LENGTH_KM": 4.8400002, "DIST_DN_KM": 63.700001, "DIST_UP_KM": 40.0, "CATCH_SKM": 14.72, "UPLAND_SKM": 239.39999, "ENDORHEIC": 0, "DIS_AV_CMS": 11.034, "ORD_STRA": 3, "ORD_CLAS": 1, "ORD_FLOW": 5, "HYBAS_L12": 4121602360.0, "Shape_Length": 0.043688672392657002 }, "geometry": { "type": "Polygon", "coordinates": [ ] } },
{ "type": "Feature", "properties": { "HYRIV_ID": 41408428, "NEXT_DOWN": 41408427, "MAIN_RIV": 41409948, "LENGTH_KM": 5.1799998, "DIST_DN_KM": 68.5, "DIST_UP_KM": 35.200001, "CATCH_SKM": 13.65, "UPLAND_SKM": 183.0, "ENDORHEIC": 0, "DIS_AV_CMS": 8.21, "ORD_STRA": 3, "ORD_CLAS": 1, "ORD_FLOW": 6, "HYBAS_L12": 4121602360.0, "Shape_Length": 0.046844336196461729 }, "geometry": { "type": "Polygon", "coordinates": [ ] } },
{ "type": "Feature", "properties": { "HYRIV_ID": 41408429, "NEXT_DOWN": 41408428, "MAIN_RIV": 41409948, "LENGTH_KM": 2.96, "DIST_DN_KM": 73.5, "DIST_UP_KM": 30.200001, "CATCH_SKM": 10.88, "UPLAND_SKM": 165.5, "ENDORHEIC": 0, "DIS_AV_CMS": 7.2059999, "ORD_STRA": 3, "ORD_CLAS": 1, "ORD_FLOW": 6, "HYBAS_L12": 4121602360.0, "Shape_Length": 0.026725889843066584 }, "geometry": { "type": "Polygon", "coordinates": [ ] } },
{ "type": "Feature", "properties": { "HYRIV_ID": 41408430, "NEXT_DOWN": 41408429, "MAIN_RIV": 41409948, "LENGTH_KM": 1.77, "DIST_DN_KM": 76.400002, "DIST_UP_KM": 7.0, "CATCH_SKM": 4.0500002, "UPLAND_SKM": 16.6, "ENDORHEIC": 0, "DIS_AV_CMS": 0.737, "ORD_STRA": 2, "ORD_CLAS": 2, "ORD_FLOW": 7, "HYBAS_L12": 4121602360.0, "Shape_Length": 0.015951779686458098 }, "geometry": { "type": "Polygon", "coordinates": [ ] } },
{ "type": "Feature", "properties": { "HYRIV_ID": 41408431, "NEXT_DOWN": 41408449, "MAIN_RIV": 41409948, "LENGTH_KM": 1.16, "DIST_DN_KM": 86.5, "DIST_UP_KM": 3.7, "CATCH_SKM": 7.25, "UPLAND_SKM": 7.3, "ENDORHEIC": 0, "DIS_AV_CMS": 0.303, "ORD_STRA": 1, "ORD_CLAS": 3, "ORD_FLOW": 7, "HYBAS_L12": 4121602390.0, "Shape_Length": 0.010416666666685614 }, "geometry": { "type": "Polygon", "coordinates": [ ] } },
{ "type": "Feature", "properties": { "HYRIV_ID": 41408432, "NEXT_DOWN": 41408449, "MAIN_RIV": 41409948, "LENGTH_KM": 2.53, "DIST_DN_KM": 86.5, "DIST_UP_KM": 4.8, "CATCH_SKM": 9.6, "UPLAND_SKM": 9.6, "ENDORHEIC": 0, "DIS_AV_CMS": 0.396, "ORD_STRA": 1, "ORD_CLAS": 2, "ORD_FLOW": 7, "HYBAS_L12": 4121602390.0, "Shape_Length": 0.022916666666617402 }, "geometry": { "type": "Polygon", "coordinates": [ ] } },
{ "type": "Feature", "properties": { "HYRIV_ID": 41408447, "NEXT_DOWN": 41408379, "MAIN_RIV": 41409948, "LENGTH_KM": 2.75, "DIST_DN_KM": 61.200001, "DIST_UP_KM": 4.8, "CATCH_SKM": 7.4699998, "UPLAND_SKM": 7.5, "ENDORHEIC": 0, "DIS_AV_CMS": 0.34900001, "ORD_STRA": 1, "ORD_CLAS": 2, "ORD_FLOW": 7, "HYBAS_L12": 4121602360.0, "Shape_Length": 0.024790614451308601 }, "geometry": { "type": "Polygon", "coordinates": [ ] } },
{ "type": "Feature", "properties": { "HYRIV_ID": 41408448, "NEXT_DOWN": 41408503, "MAIN_RIV": 41409948, "LENGTH_KM": 1.81, "DIST_DN_KM": 84.0, "DIST_UP_KM": 3.8, "CATCH_SKM": 5.12, "UPLAND_SKM": 5.1, "ENDORHEIC": 0, "DIS_AV_CMS": 0.218, "ORD_STRA": 1, "ORD_CLAS": 3, "ORD_FLOW": 7, "HYBAS_L12": 4121602390.0, "Shape_Length": 0.016309223176594133 }, "geometry": { "type": "Polygon", "coordinates": [ ] } },
{ "type": "Feature", "properties": { "HYRIV_ID": 41408449, "NEXT_DOWN": 41408503, "MAIN_RIV": 41409948, "LENGTH_KM": 2.5, "DIST_DN_KM": 84.0, "DIST_UP_KM": 7.3, "CATCH_SKM": 6.4, "UPLAND_SKM": 23.3, "ENDORHEIC": 0, "DIS_AV_CMS": 0.968, "ORD_STRA": 2, "ORD_CLAS": 2, "ORD_FLOW": 7, "HYBAS_L12": 4121602390.0, "Shape_Length": 0.022559223176523997 }, "geometry": { "type": "Polygon", "coordinates": [ ] } },
{ "type": "Feature", "properties": { "HYRIV_ID": 41408468, "NEXT_DOWN": 41408506, "MAIN_RIV": 41409948, "LENGTH_KM": 1.4400001, "DIST_DN_KM": 98.800003, "DIST_UP_KM": 3.2, "CATCH_SKM": 5.33, "UPLAND_SKM": 5.3, "ENDORHEIC": 0, "DIS_AV_CMS": 0.211, "ORD_STRA": 1, "ORD_CLAS": 2, "ORD_FLOW": 7, "HYBAS_L12": 4121602390.0, "Shape_Length": 0.013005501431536925 }, "geometry": { "type": "Polygon", "coordinates": [ ] } },
{ "type": "Feature", "properties": { "HYRIV_ID": 41408469, "NEXT_DOWN": 41408506, "MAIN_RIV": 41409948, "LENGTH_KM": 2.0, "DIST_DN_KM": 99.0, "DIST_UP_KM": 4.7, "CATCH_SKM": 8.75, "UPLAND_SKM": 8.7, "ENDORHEIC": 0, "DIS_AV_CMS": 0.34200001, "ORD_STRA": 1, "ORD_CLAS": 1, "ORD_FLOW": 7, "HYBAS_L12": 4121602390.0, "Shape_Length": 0.018035113019771162 }, "geometry": { "type": "Polygon", "coordinates": [ ] } },
{ "type": "Feature", "properties": { "HYRIV_ID": 41408484, "NEXT_DOWN": 41408540, "MAIN_RIV": 41409948, "LENGTH_KM": 3.73, "DIST_DN_KM": 55.700001, "DIST_UP_KM": 8.2, "CATCH_SKM": 11.52, "UPLAND_SKM": 26.0, "ENDORHEIC": 0, "DIS_AV_CMS": 1.263, "ORD_STRA": 2, "ORD_CLAS": 2, "ORD_FLOW": 6, "HYBAS_L12": 4121602450.0, "Shape_Length": 0.033629449216152504 }, "geometry": { "type": "Polygon", "coordinates": [ ] } },
{ "type": "Feature", "properties": { "HYRIV_ID": 41408485, "NEXT_DOWN": 41408540, "MAIN_RIV": 41409948, "LENGTH_KM": 2.8800001, "DIST_DN_KM": 55.900002, "DIST_UP_KM": 47.8, "CATCH_SKM": 6.83, "UPLAND_SKM": 304.39999, "ENDORHEIC": 0, "DIS_AV_CMS": 14.589, "ORD_STRA": 3, "ORD_CLAS": 1, "ORD_FLOW": 5, "HYBAS_L12": 4121602450.0, "Shape_Length": 0.026011002862963317 }, "geometry": { "type": "Polygon", "coordinates": [ ] } },
{ "type": "Feature", "properties": { "HYRIV_ID": 41408486, "NEXT_DOWN": 41408655, "MAIN_RIV": 41409948, "LENGTH_KM": 0.69, "DIST_DN_KM": 92.400002, "DIST_UP_KM": 4.5, "CATCH_SKM": 5.12, "UPLAND_SKM": 5.1, "ENDORHEIC": 0, "DIS_AV_CMS": 0.20900001, "ORD_STRA": 1, "ORD_CLAS": 2, "ORD_FLOW": 7, "HYBAS_L12": 4121602390.0, "Shape_Length": 0.0062499999999658939 }, "geometry": { "type": "Polygon", "coordinates": [ ] } },
{ "type": "Feature", "properties": { "HYRIV_ID": 41408502, "NEXT_DOWN": 41408429, "MAIN_RIV": 41409948, "LENGTH_KM": 2.8800001, "DIST_DN_KM": 76.599998, "DIST_UP_KM": 27.1, "CATCH_SKM": 4.48, "UPLAND_SKM": 138.0, "ENDORHEIC": 0, "DIS_AV_CMS": 5.8720002, "ORD_STRA": 3, "ORD_CLAS": 1, "ORD_FLOW": 6, "HYBAS_L12": 4121602360.0, "Shape_Length": 0.026011002862963314 }, "geometry": { "type": "Polygon", "coordinates": [ ] } },
{ "type": "Feature", "properties": { "HYRIV_ID": 41408503, "NEXT_DOWN": 41408502, "MAIN_RIV": 41409948, "LENGTH_KM": 4.7199998, "DIST_DN_KM": 79.300003, "DIST_UP_KM": 12.0, "CATCH_SKM": 14.51, "UPLAND_SKM": 42.900002, "ENDORHEIC": 0, "DIS_AV_CMS": 1.816, "ORD_STRA": 2, "ORD_CLAS": 2, "ORD_FLOW": 6, "HYBAS_L12": 4121602390.0, "Shape_Length": 0.042677669529721907 }, "geometry": { "type": "Polygon", "coordinates": [ ] } },
{ "type": "Feature", "properties": { "HYRIV_ID": 41408504, "NEXT_DOWN": 41408655, "MAIN_RIV": 41409948, "LENGTH_KM": 2.96, "DIST_DN_KM": 92.5, "DIST_UP_KM": 11.1, "CATCH_SKM": 5.5500002, "UPLAND_SKM": 40.099998, "ENDORHEIC": 0, "DIS_AV_CMS": 1.599, "ORD_STRA": 2, "ORD_CLAS": 1, "ORD_FLOW": 6, "HYBAS_L12": 4121602390.0, "Shape_Length": 0.026725889843173378 }, "geometry": { "type": "Polygon", "coordinates": [ ] } },
{ "type": "Feature", "properties": { "HYRIV_ID": 41408505, "NEXT_DOWN": 41408504, "MAIN_RIV": 41409948, "LENGTH_KM": 2.55, "DIST_DN_KM": 95.300003, "DIST_UP_KM": 5.7, "CATCH_SKM": 11.73, "UPLAND_SKM": 11.7, "ENDORHEIC": 0, "DIS_AV_CMS": 0.47400001, "ORD_STRA": 1, "ORD_CLAS": 2, "ORD_FLOW": 7, "HYBAS_L12": 4121602390.0, "Shape_Length": 0.022916666666674246 }, "geometry": { "type": "Polygon", "coordinates": [ ] } },
{ "type": "Feature", "properties": { "HYRIV_ID": 41408506, "NEXT_DOWN": 41408504, "MAIN_RIV": 41409948, "LENGTH_KM": 3.53, "DIST_DN_KM": 95.5, "DIST_UP_KM": 8.2, "CATCH_SKM": 8.75, "UPLAND_SKM": 22.8, "ENDORHEIC": 0, "DIS_AV_CMS": 0.90100002, "ORD_STRA": 2, "ORD_CLAS": 1, "ORD_FLOW": 7, "HYBAS_L12": 4121602390.0, "Shape_Length": 0.031903559372855897 }, "geometry": { "type": "Polygon", "coordinates": [ ] } },
{ "type": "Feature", "properties": { "HYRIV_ID": 41408527, "NEXT_DOWN": 41408528, "MAIN_RIV": 41409948, "LENGTH_KM": 2.07, "DIST_DN_KM": 79.800003, "DIST_UP_KM": 4.9, "CATCH_SKM": 5.5500002, "UPLAND_SKM": 5.5, "ENDORHEIC": 0, "DIS_AV_CMS": 0.24600001, "ORD_STRA": 1, "ORD_CLAS": 2, "ORD_FLOW": 7, "HYBAS_L12": 4121602390.0, "Shape_Length": 0.018749999999954525 }, "geometry": { "type": "Polygon", "coordinates": [ ] } },
{ "type": "Feature", "properties": { "HYRIV_ID": 41408528, "NEXT_DOWN": 41408502, "MAIN_RIV": 41409948, "LENGTH_KM": 0.46, "DIST_DN_KM": 79.300003, "DIST_UP_KM": 24.4, "CATCH_SKM": 1.28, "UPLAND_SKM": 90.699997, "ENDORHEIC": 0, "DIS_AV_CMS": 3.7809999, "ORD_STRA": 2, "ORD_CLAS": 1, "ORD_FLOW": 6, "HYBAS_L12": 4121602390.0, "Shape_Length": 0.0041666666666486663 }, "geometry": { "type": "Polygon", "coordinates": [ ] } },
{ "type": "Feature", "properties": { "HYRIV_ID": 41408540, "NEXT_DOWN": 41408578, "MAIN_RIV": 41409948, "LENGTH_KM": 1.39, "DIST_DN_KM": 54.3, "DIST_UP_KM": 49.400002, "CATCH_SKM": 3.2, "UPLAND_SKM": 333.70001, "ENDORHEIC": 0, "DIS_AV_CMS": 16.128, "ORD_STRA": 3, "ORD_CLAS": 1, "ORD_FLOW": 5, "HYBAS_L12": 4121602450.0, "Shape_Length": 0.012500000000017053 }, "geometry": { "type": "Polygon", "coordinates": [ ] } },
{ "type": "Feature", "properties": { "HYRIV_ID": 41408577, "NEXT_DOWN": 41408741, "MAIN_RIV": 41409948, "LENGTH_KM": 1.4400001, "DIST_DN_KM": 53.0, "DIST_UP_KM": 3.2, "CATCH_SKM": 3.2, "UPLAND_SKM": 3.2, "ENDORHEIC": 0, "DIS_AV_CMS": 0.153, "ORD_STRA": 1, "ORD_CLAS": 2, "ORD_FLOW": 7, "HYBAS_L12": 4121602450.0, "Shape_Length": 0.013005501431572957 }, "geometry": { "type": "Polygon", "coordinates": [ ] } },
{ "type": "Feature", "properties": { "HYRIV_ID": 41408578, "NEXT_DOWN": 41408741, "MAIN_RIV": 41409948, "LENGTH_KM": 1.31, "DIST_DN_KM": 53.200001, "DIST_UP_KM": 50.5, "CATCH_SKM": 1.28, "UPLAND_SKM": 374.60001, "ENDORHEIC": 0, "DIS_AV_CMS": 18.177, "ORD_STRA": 3, "ORD_CLAS": 1, "ORD_FLOW": 5, "HYBAS_L12": 4121602450.0, "Shape_Length": 0.011785113019674637 }, "geometry": { "type": "Polygon", "coordinates": [ ] } },
{ "type": "Feature", "properties": { "HYRIV_ID": 41408579, "NEXT_DOWN": 41408578, "MAIN_RIV": 41409948, "LENGTH_KM": 1.77, "DIST_DN_KM": 54.3, "DIST_UP_KM": 15.7, "CATCH_SKM": 4.48, "UPLAND_SKM": 39.700001, "ENDORHEIC": 0, "DIS_AV_CMS": 1.895, "ORD_STRA": 2, "ORD_CLAS": 2, "ORD_FLOW": 6, "HYBAS_L12": 4121602450.0, "Shape_Length": 0.015951779686417901 }, "geometry": { "type": "Polygon", "coordinates": [ ] } },
{ "type": "Feature", "properties": { "HYRIV_ID": 41408580, "NEXT_DOWN": 41408579, "MAIN_RIV": 41409948, "LENGTH_KM": 1.4400001, "DIST_DN_KM": 56.0, "DIST_UP_KM": 3.7, "CATCH_SKM": 3.6300001, "UPLAND_SKM": 3.6, "ENDORHEIC": 0, "DIS_AV_CMS": 0.17, "ORD_STRA": 1, "ORD_CLAS": 3, "ORD_FLOW": 7, "HYBAS_L12": 4121602450.0, "Shape_Length": 0.013005501431536925 }, "geometry": { "type": "Polygon", "coordinates": [ ] } },
{ "type": "Feature", "properties": { "HYRIV_ID": 41408600, "NEXT_DOWN": 41408485, "MAIN_RIV": 41409948, "LENGTH_KM": 6.02, "DIST_DN_KM": 58.700001, "DIST_UP_KM": 7.7, "CATCH_SKM": 16.209999, "UPLAND_SKM": 16.200001, "ENDORHEIC": 0, "DIS_AV_CMS": 0.76300001, "ORD_STRA": 1, "ORD_CLAS": 2, "ORD_FLOW": 7, "HYBAS_L12": 4121602450.0, "Shape_Length": 0.05425339700072717 }, "geometry": { "type": "Polygon", "coordinates": [ ] } },
{ "type": "Feature", "properties": { "HYRIV_ID": 41408601, "NEXT_DOWN": 41408427, "MAIN_RIV": 41409948, "LENGTH_KM": 5.77, "DIST_DN_KM": 68.5, "DIST_UP_KM": 11.6, "CATCH_SKM": 20.690001, "UPLAND_SKM": 41.599998, "ENDORHEIC": 0, "DIS_AV_CMS": 1.92, "ORD_STRA": 2, "ORD_CLAS": 2, "ORD_FLOW": 6, "HYBAS_L12": 4121602360.0, "Shape_Length": 0.052022005725923179 }, "geometry": { "type": "Polygon", "coordinates": [ ] } },
{ "type": "Feature", "properties": { "HYRIV_ID": 41408602, "NEXT_DOWN": 41408601, "MAIN_RIV": 41409948, "LENGTH_KM": 1.35, "DIST_DN_KM": 74.300003, "DIST_UP_KM": 3.4, "CATCH_SKM": 3.6300001, "UPLAND_SKM": 3.6, "ENDORHEIC": 0, "DIS_AV_CMS": 0.164, "ORD_STRA": 1, "ORD_CLAS": 3, "ORD_FLOW": 7, "HYBAS_L12": 4121602360.0, "Shape_Length": 0.012142556509943031 }, "geometry": { "type": "Polygon", "coordinates": [ ] } },
{ "type": "Feature", "properties": { "HYRIV_ID": 41408624, "NEXT_DOWN": 41408601, "MAIN_RIV": 41409948, "LENGTH_KM": 1.11, "DIST_DN_KM": 74.300003, "DIST_UP_KM": 5.8, "CATCH_SKM": 4.0500002, "UPLAND_SKM": 17.3, "ENDORHEIC": 0, "DIS_AV_CMS": 0.77499998, "ORD_STRA": 2, "ORD_CLAS": 2, "ORD_FLOW": 7, "HYBAS_L12": 4121602360.0, "Shape_Length": 0.010059223176542263 }, "geometry": { "type": "Polygon", "coordinates": [ ] } },
{ "type": "Feature", "properties": { "HYRIV_ID": 41408625, "NEXT_DOWN": 41408624, "MAIN_RIV": 41409948, "LENGTH_KM": 0.69, "DIST_DN_KM": 75.199997, "DIST_UP_KM": 3.2, "CATCH_SKM": 2.77, "UPLAND_SKM": 2.8, "ENDORHEIC": 0, "DIS_AV_CMS": 0.124, "ORD_STRA": 1, "ORD_CLAS": 3, "ORD_FLOW": 7, "HYBAS_L12": 4121602360.0, "Shape_Length": 0.0062500000000369482 }, "geometry": { "type": "Polygon", "coordinates": [ ] } },
{ "type": "Feature", "properties": { "HYRIV_ID": 41408637, "NEXT_DOWN": 41408624, "MAIN_RIV": 41409948, "LENGTH_KM": 2.27, "DIST_DN_KM": 75.199997, "DIST_UP_KM": 4.9, "CATCH_SKM": 10.45, "UPLAND_SKM": 10.5, "ENDORHEIC": 0, "DIS_AV_CMS": 0.465, "ORD_STRA": 1, "ORD_CLAS": 2, "ORD_FLOW": 7, "HYBAS_L12": 4121602360.0, "Shape_Length": 0.020475889843327769 }, "geometry": { "type": "Polygon", "coordinates": [ ] } },
{ "type": "Feature", "properties": { "HYRIV_ID": 41408654, "NEXT_DOWN": 41408528, "MAIN_RIV": 41409948, "LENGTH_KM": 4.3800001, "DIST_DN_KM": 80.0, "DIST_UP_KM": 23.700001, "CATCH_SKM": 12.37, "UPLAND_SKM": 83.800003, "ENDORHEIC": 0, "DIS_AV_CMS": 3.4690001, "ORD_STRA": 2, "ORD_CLAS": 1, "ORD_FLOW": 6, "HYBAS_L12": 4121602390.0, "Shape_Length": 0.039522005726038492 }, "geometry": { "type": "Polygon", "coordinates": [ ] } },
{ "type": "Feature", "properties": { "HYRIV_ID": 41408655, "NEXT_DOWN": 41408654, "MAIN_RIV": 41409948, "LENGTH_KM": 8.1800003, "DIST_DN_KM": 84.400002, "DIST_UP_KM": 19.3, "CATCH_SKM": 17.07, "UPLAND_SKM": 62.3, "ENDORHEIC": 0, "DIS_AV_CMS": 2.5190001, "ORD_STRA": 2, "ORD_CLAS": 1, "ORD_FLOW": 6, "HYBAS_L12": 4121602390.0, "Shape_Length": 0.0738663419224177 }, "geometry": { "type": "Polygon", "coordinates": [ ] } },
{ "type": "Feature", "properties": { "HYRIV_ID": 41408741, "NEXT_DOWN": 41408826, "MAIN_RIV": 41409948, "LENGTH_KM": 4.2800002, "DIST_DN_KM": 48.900002, "DIST_UP_KM": 54.8, "CATCH_SKM": 11.73, "UPLAND_SKM": 389.60001, "ENDORHEIC": 0, "DIS_AV_CMS": 19.27, "ORD_STRA": 3, "ORD_CLAS": 1, "ORD_FLOW": 5, "HYBAS_L12": 4121602450.0, "Shape_Length": 0.038511002862982806 }, "geometry": { "type": "Polygon", "coordinates": [ ] } },
{ "type": "Feature", "properties": { "HYRIV_ID": 41408742, "NEXT_DOWN": 41408826, "MAIN_RIV": 41409948, "LENGTH_KM": 2.55, "DIST_DN_KM": 48.900002, "DIST_UP_KM": 3.6, "CATCH_SKM": 6.83, "UPLAND_SKM": 6.8, "ENDORHEIC": 0, "DIS_AV_CMS": 0.32300001, "ORD_STRA": 1, "ORD_CLAS": 2, "ORD_FLOW": 7, "HYBAS_L12": 4121602450.0, "Shape_Length": 0.02306472460804904 }, "geometry": { "type": "Polygon", "coordinates": [ ] } },
{ "type": "Feature", "properties": { "HYRIV_ID": 41408769, "NEXT_DOWN": 41408654, "MAIN_RIV": 41409948, "LENGTH_KM": 3.6800001, "DIST_DN_KM": 84.199997, "DIST_UP_KM": 5.9, "CATCH_SKM": 9.1700001, "UPLAND_SKM": 9.2, "ENDORHEIC": 0, "DIS_AV_CMS": 0.39, "ORD_STRA": 1, "ORD_CLAS": 2, "ORD_FLOW": 7, "HYBAS_L12": 4121602390.0, "Shape_Length": 0.033123947784603494 }, "geometry": { "type": "Polygon", "coordinates": [ ] } },
{ "type": "Feature", "properties": { "HYRIV_ID": 41408794, "NEXT_DOWN": 41408579, "MAIN_RIV": 41409948, "LENGTH_KM": 12.22, "DIST_DN_KM": 56.200001, "DIST_UP_KM": 13.8, "CATCH_SKM": 31.58, "UPLAND_SKM": 31.6, "ENDORHEIC": 0, "DIS_AV_CMS": 1.499, "ORD_STRA": 1, "ORD_CLAS": 2, "ORD_FLOW": 6, "HYBAS_L12": 4121602450.0, "Shape_Length": 0.1102940114521387 }, "geometry": { "type": "Polygon", "coordinates": [ ] } },
{ "type": "Feature", "properties": { "HYRIV_ID": 41408826, "NEXT_DOWN": 41408988, "MAIN_RIV": 41409948, "LENGTH_KM": 2.7, "DIST_DN_KM": 46.0, "DIST_UP_KM": 57.700001, "CATCH_SKM": 7.89, "UPLAND_SKM": 404.29999, "ENDORHEIC": 0, "DIS_AV_CMS": 20.219, "ORD_STRA": 3, "ORD_CLAS": 1, "ORD_FLOW": 5, "HYBAS_L12": 4121602540.0, "Shape_Length": 0.024285113019611299 }, "geometry": { "type": "Polygon", "coordinates": [ ] } },
{ "type": "Feature", "properties": { "HYRIV_ID": 41408827, "NEXT_DOWN": 41408988, "MAIN_RIV": 41409948, "LENGTH_KM": 3.9400001, "DIST_DN_KM": 46.0, "DIST_UP_KM": 5.8, "CATCH_SKM": 8.75, "UPLAND_SKM": 8.7, "ENDORHEIC": 0, "DIS_AV_CMS": 0.414, "ORD_STRA": 1, "ORD_CLAS": 2, "ORD_FLOW": 7, "HYBAS_L12": 4121602540.0, "Shape_Length": 0.035564724608207907 }, "geometry": { "type": "Polygon", "coordinates": [ ] } },
{ "type": "Feature", "properties": { "HYRIV_ID": 41408988, "NEXT_DOWN": 41409089, "MAIN_RIV": 41409948, "LENGTH_KM": 4.4699998, "DIST_DN_KM": 41.5, "DIST_UP_KM": 62.200001, "CATCH_SKM": 13.66, "UPLAND_SKM": 426.70001, "ENDORHEIC": 0, "DIS_AV_CMS": 21.697001, "ORD_STRA": 3, "ORD_CLAS": 1, "ORD_FLOW": 5, "HYBAS_L12": 4121602540.0, "Shape_Length": 0.04023689270642871 }, "geometry": { "type": "Polygon", "coordinates": [ ] } },
{ "type": "Feature", "properties": { "HYRIV_ID": 41408989, "NEXT_DOWN": 41409089, "MAIN_RIV": 41409948, "LENGTH_KM": 4.7800002, "DIST_DN_KM": 41.5, "DIST_UP_KM": 6.5, "CATCH_SKM": 10.67, "UPLAND_SKM": 10.7, "ENDORHEIC": 0, "DIS_AV_CMS": 0.50199997, "ORD_STRA": 1, "ORD_CLAS": 2, "ORD_FLOW": 7, "HYBAS_L12": 4121602540.0, "Shape_Length": 0.043183170961260155 }, "geometry": { "type": "Polygon", "coordinates": [ ] } },
{ "type": "Feature", "properties": { "HYRIV_ID": 41409043, "NEXT_DOWN": 41409062, "MAIN_RIV": 41409948, "LENGTH_KM": 1.35, "DIST_DN_KM": 25.1, "DIST_UP_KM": 2.7, "CATCH_SKM": 4.0500002, "UPLAND_SKM": 4.1, "ENDORHEIC": 0, "DIS_AV_CMS": 0.192, "ORD_STRA": 1, "ORD_CLAS": 4, "ORD_FLOW": 7, "HYBAS_L12": 4121602610.0, "Shape_Length": 0.012142556509919484 }, "geometry": { "type": "Polygon", "coordinates": [ ] } },
{ "type": "Feature", "properties": { "HYRIV_ID": 41409044, "NEXT_DOWN": 41409062, "MAIN_RIV": 41409948, "LENGTH_KM": 0.69, "DIST_DN_KM": 24.9, "DIST_UP_KM": 3.2, "CATCH_SKM": 2.35, "UPLAND_SKM": 2.3, "ENDORHEIC": 0, "DIS_AV_CMS": 0.112, "ORD_STRA": 1, "ORD_CLAS": 3, "ORD_FLOW": 7, "HYBAS_L12": 4121602610.0, "Shape_Length": 0.0062499999999943157 }, "geometry": { "type": "Polygon", "coordinates": [ ] } },
{ "type": "Feature", "properties": { "HYRIV_ID": 41409045, "NEXT_DOWN": 41409062, "MAIN_RIV": 41409948, "LENGTH_KM": 1.8, "DIST_DN_KM": 25.1, "DIST_UP_KM": 3.4, "CATCH_SKM": 3.84, "UPLAND_SKM": 3.8, "ENDORHEIC": 0, "DIS_AV_CMS": 0.183, "ORD_STRA": 1, "ORD_CLAS": 2, "ORD_FLOW": 7, "HYBAS_L12": 4121602610.0, "Shape_Length": 0.016309223176511307 }, "geometry": { "type": "Polygon", "coordinates": [ ] } },
{ "type": "Feature", "properties": { "HYRIV_ID": 41409046, "NEXT_DOWN": 41409112, "MAIN_RIV": 41409948, "LENGTH_KM": 1.35, "DIST_DN_KM": 26.1, "DIST_UP_KM": 3.0, "CATCH_SKM": 5.5500002, "UPLAND_SKM": 5.5, "ENDORHEIC": 0, "DIS_AV_CMS": 0.264, "ORD_STRA": 1, "ORD_CLAS": 3, "ORD_FLOW": 7, "HYBAS_L12": 4121602580.0, "Shape_Length": 0.012142556509919484 }, "geometry": { "type": "Polygon", "coordinates": [ ] } },
{ "type": "Feature", "properties": { "HYRIV_ID": 41409047, "NEXT_DOWN": 41409112, "MAIN_RIV": 41409948, "LENGTH_KM": 2.27, "DIST_DN_KM": 25.9, "DIST_UP_KM": 4.3, "CATCH_SKM": 4.6900001, "UPLAND_SKM": 4.7, "ENDORHEIC": 0, "DIS_AV_CMS": 0.225, "ORD_STRA": 1, "ORD_CLAS": 2, "ORD_FLOW": 7, "HYBAS_L12": 4121602580.0, "Shape_Length": 0.020475889843235191 }, "geometry": { "type": "Polygon", "coordinates": [ ] } },
{ "type": "Feature", "properties": { "HYRIV_ID": 41409048, "NEXT_DOWN": 41409088, "MAIN_RIV": 41409948, "LENGTH_KM": 3.6800001, "DIST_DN_KM": 36.099998, "DIST_UP_KM": 5.9, "CATCH_SKM": 10.24, "UPLAND_SKM": 10.2, "ENDORHEIC": 0, "DIS_AV_CMS": 0.48800001, "ORD_STRA": 1, "ORD_CLAS": 2, "ORD_FLOW": 7, "HYBAS_L12": 4121602540.0, "Shape_Length": 0.033123947784563297 }, "geometry": { "type": "Polygon", "coordinates": [ ] } },
{ "type": "Feature", "properties": { "HYRIV_ID": 41409049, "NEXT_DOWN": 41409090, "MAIN_RIV": 41409948, "LENGTH_KM": 1.4400001, "DIST_DN_KM": 44.8, "DIST_UP_KM": 3.3, "CATCH_SKM": 5.7600002, "UPLAND_SKM": 5.8, "ENDORHEIC": 0, "DIS_AV_CMS": 0.266, "ORD_STRA": 1, "ORD_CLAS": 3, "ORD_FLOW": 7, "HYBAS_L12": 4121602540.0, "Shape_Length": 0.01300550143149673 }, "geometry": { "type": "Polygon", "coordinates": [ ] } },
{ "type": "Feature", "properties": { "HYRIV_ID": 41409061, "NEXT_DOWN": 41409111, "MAIN_RIV": 41409948, "LENGTH_KM": 0.69, "DIST_DN_KM": 24.4, "DIST_UP_KM": 2.4, "CATCH_SKM": 2.77, "UPLAND_SKM": 2.8, "ENDORHEIC": 0, "DIS_AV_CMS": 0.131, "ORD_STRA": 1, "ORD_CLAS": 3, "ORD_FLOW": 7, "HYBAS_L12": 4121602610.0, "Shape_Length": 0.0062500000000227374 }, "geometry": { "type": "Polygon", "coordinates": [ ] } },
{ "type": "Feature", "properties": { "HYRIV_ID": 41409062, "NEXT_DOWN": 41409111, "MAIN_RIV": 41409948, "LENGTH_KM": 0.46, "DIST_DN_KM": 24.4, "DIST_UP_KM": 4.1, "CATCH_SKM": 0.21, "UPLAND_SKM": 10.5, "ENDORHEIC": 0, "DIS_AV_CMS": 0.498, "ORD_STRA": 2, "ORD_CLAS": 2, "ORD_FLOW": 7, "HYBAS_L12": 4121602610.0, "Shape_Length": 0.0041666666666486663 }, "geometry": { "type": "Polygon", "coordinates": [ ] } },
{ "type": "Feature", "properties": { "HYRIV_ID": 41409084, "NEXT_DOWN": 41409138, "MAIN_RIV": 41409948, "LENGTH_KM": 1.4400001, "DIST_DN_KM": 33.099998, "DIST_UP_KM": 4.2, "CATCH_SKM": 5.12, "UPLAND_SKM": 5.1, "ENDORHEIC": 0, "DIS_AV_CMS": 0.243, "ORD_STRA": 1, "ORD_CLAS": 2, "ORD_FLOW": 7, "HYBAS_L12": 4121602580.0, "Shape_Length": 0.01300550143142639 }, "geometry": { "type": "Polygon", "coordinates": [ ] } },
{ "type": "Feature", "properties": { "HYRIV_ID": 41409085, "NEXT_DOWN": 41409138, "MAIN_RIV": 41409948, "LENGTH_KM": 2.37, "DIST_DN_KM": 33.099998, "DIST_UP_KM": 4.0, "CATCH_SKM": 4.9099998, "UPLAND_SKM": 4.9, "ENDORHEIC": 0, "DIS_AV_CMS": 0.234, "ORD_STRA": 1, "ORD_CLAS": 3, "ORD_FLOW": 7, "HYBAS_L12": 4121602580.0, "Shape_Length": 0.021338834764888664 }, "geometry": { "type": "Polygon", "coordinates": [ ] } },
{ "type": "Feature", "properties": { "HYRIV_ID": 41409086, "NEXT_DOWN": 41409139, "MAIN_RIV": 41409948, "LENGTH_KM": 1.4400001, "DIST_DN_KM": 33.3, "DIST_UP_KM": 3.2, "CATCH_SKM": 4.48, "UPLAND_SKM": 4.5, "ENDORHEIC": 0, "DIS_AV_CMS": 0.212, "ORD_STRA": 1, "ORD_CLAS": 2, "ORD_FLOW": 7, "HYBAS_L12": 4121602580.0, "Shape_Length": 0.01300550143149673 }, "geometry": { "type": "Polygon", "coordinates": [ ] } },
{ "type": "Feature", "properties": { "HYRIV_ID": 41409087, "NEXT_DOWN": 41409139, "MAIN_RIV": 41409948, "LENGTH_KM": 0.92, "DIST_DN_KM": 33.3, "DIST_UP_KM": 70.400002, "CATCH_SKM": 1.28, "UPLAND_SKM": 535.90002, "ENDORHEIC": 0, "DIS_AV_CMS": 27.736, "ORD_STRA": 3, "ORD_CLAS": 1, "ORD_FLOW": 5, "HYBAS_L12": 4121602580.0, "Shape_Length": 0.0083333333333825976 }, "geometry": { "type": "Polygon", "coordinates": [ ] } },
{ "type": "Feature", "properties": { "HYRIV_ID": 41409088, "NEXT_DOWN": 41409087, "MAIN_RIV": 41409948, "LENGTH_KM": 1.77, "DIST_DN_KM": 34.200001, "DIST_UP_KM": 69.5, "CATCH_SKM": 2.77, "UPLAND_SKM": 524.20001, "ENDORHEIC": 0, "DIS_AV_CMS": 27.051001, "ORD_STRA": 3, "ORD_CLAS": 1, "ORD_FLOW": 5, "HYBAS_L12": 4121602540.0, "Shape_Length": 0.015951779686304214 }, "geometry": { "type": "Polygon", "coordinates": [ ] } },
{ "type": "Feature", "properties": { "HYRIV_ID": 41409089, "NEXT_DOWN": 41409115, "MAIN_RIV": 41409948, "LENGTH_KM": 2.51, "DIST_DN_KM": 39.0, "DIST_UP_KM": 64.699997, "CATCH_SKM": 3.2, "UPLAND_SKM": 440.60001, "ENDORHEIC": 0, "DIS_AV_CMS": 22.624001, "ORD_STRA": 3, "ORD_CLAS": 1, "ORD_FLOW": 5, "HYBAS_L12": 4121602540.0, "Shape_Length": 0.022559223176575965 }, "geometry": { "type": "Polygon", "coordinates": [ ] } },
{ "type": "Feature", "properties": { "HYRIV_ID": 41409090, "NEXT_DOWN": 41409115, "MAIN_RIV": 41409948, "LENGTH_KM": 5.7600002, "DIST_DN_KM": 39.200001, "DIST_UP_KM": 10.0, "CATCH_SKM": 10.24, "UPLAND_SKM": 24.8, "ENDORHEIC": 0, "DIS_AV_CMS": 1.161, "ORD_STRA": 2, "ORD_CLAS": 2, "ORD_FLOW": 6, "HYBAS_L12": 4121602540.0, "Shape_Length": 0.052022005725956777 }, "geometry": { "type": "Polygon", "coordinates": [ ] } },
{ "type": "Feature", "properties": { "HYRIV_ID": 41409091, "NEXT_DOWN": 41409090, "MAIN_RIV": 41409948, "LENGTH_KM": 2.27, "DIST_DN_KM": 44.8, "DIST_UP_KM": 4.5, "CATCH_SKM": 8.75, "UPLAND_SKM": 8.7, "ENDORHEIC": 0, "DIS_AV_CMS": 0.399, "ORD_STRA": 1, "ORD_CLAS": 2, "ORD_FLOW": 7, "HYBAS_L12": 4121602540.0, "Shape_Length": 0.020475889843164136 }, "geometry": { "type": "Polygon", "coordinates": [ ] } },
{ "type": "Feature", "properties": { "HYRIV_ID": 41409110, "NEXT_DOWN": 41409212, "MAIN_RIV": 41409948, "LENGTH_KM": 1.15, "DIST_DN_KM": 23.3, "DIST_UP_KM": 2.5, "CATCH_SKM": 2.77, "UPLAND_SKM": 2.8, "ENDORHEIC": 0, "DIS_AV_CMS": 0.131, "ORD_STRA": 1, "ORD_CLAS": 3, "ORD_FLOW": 7, "HYBAS_L12": 4121602610.0, "Shape_Length": 0.010416666666685614 }, "geometry": { "type": "Polygon", "coordinates": [ ] } },
{ "type": "Feature", "properties": { "HYRIV_ID": 41409111, "NEXT_DOWN": 41409212, "MAIN_RIV": 41409948, "LENGTH_KM": 1.12, "DIST_DN_KM": 23.3, "DIST_UP_KM": 5.2, "CATCH_SKM": 1.92, "UPLAND_SKM": 15.2, "ENDORHEIC": 0, "DIS_AV_CMS": 0.722, "ORD_STRA": 2, "ORD_CLAS": 2, "ORD_FLOW": 7, "HYBAS_L12": 4121602610.0, "Shape_Length": 0.010059223176545413 }, "geometry": { "type": "Polygon", "coordinates": [ ] } },
{ "type": "Feature", "properties": { "HYRIV_ID": 41409112, "NEXT_DOWN": 41409137, "MAIN_RIV": 41409948, "LENGTH_KM": 1.39, "DIST_DN_KM": 24.5, "DIST_UP_KM": 5.7, "CATCH_SKM": 2.56, "UPLAND_SKM": 12.8, "ENDORHEIC": 0, "DIS_AV_CMS": 0.61400002, "ORD_STRA": 2, "ORD_CLAS": 2, "ORD_FLOW": 7, "HYBAS_L12": 4121602580.0, "Shape_Length": 0.01249999999997442 }, "geometry": { "type": "Polygon", "coordinates": [ ] } },
{ "type": "Feature", "properties": { "HYRIV_ID": 41409113, "NEXT_DOWN": 41409137, "MAIN_RIV": 41409948, "LENGTH_KM": 2.55, "DIST_DN_KM": 24.5, "DIST_UP_KM": 3.5, "CATCH_SKM": 5.12, "UPLAND_SKM": 5.1, "ENDORHEIC": 0, "DIS_AV_CMS": 0.244, "ORD_STRA": 1, "ORD_CLAS": 3, "ORD_FLOW": 7, "HYBAS_L12": 4121602580.0, "Shape_Length": 0.023064724608092387 }, "geometry": { "type": "Polygon", "coordinates": [ ] } },
{ "type": "Feature", "properties": { "HYRIV_ID": 41409114, "NEXT_DOWN": 41409088, "MAIN_RIV": 41409948, "LENGTH_KM": 2.4200001, "DIST_DN_KM": 35.900002, "DIST_UP_KM": 67.699997, "CATCH_SKM": 3.4100001, "UPLAND_SKM": 511.20001, "ENDORHEIC": 0, "DIS_AV_CMS": 26.235001, "ORD_STRA": 3, "ORD_CLAS": 1, "ORD_FLOW": 5, "HYBAS_L12": 4121602540.0, "Shape_Length": 0.021844336196333736 }, "geometry": { "type": "Polygon", "coordinates": [ ] } },
{ "type": "Feature", "properties": { "HYRIV_ID": 41409115, "NEXT_DOWN": 41409114, "MAIN_RIV": 41409948, "LENGTH_KM": 0.65, "DIST_DN_KM": 38.599998, "DIST_UP_KM": 65.099998, "CATCH_SKM": 0.43, "UPLAND_SKM": 465.70001, "ENDORHEIC": 0, "DIS_AV_CMS": 23.864, "ORD_STRA": 3, "ORD_CLAS": 1, "ORD_FLOW": 5, "HYBAS_L12": 4121602540.0, "Shape_Length": 0.005892556509922731 }, "geometry": { "type": "Polygon", "coordinates": [ ] } },
{ "type": "Feature", "properties": { "HYRIV_ID": 41409137, "NEXT_DOWN": 41409213, "MAIN_RIV": 41409948, "LENGTH_KM": 0.46, "DIST_DN_KM": 24.0, "DIST_UP_KM": 6.1, "CATCH_SKM": 1.0700001, "UPLAND_SKM": 19.0, "ENDORHEIC": 0, "DIS_AV_CMS": 0.91100001, "ORD_STRA": 2, "ORD_CLAS": 2, "ORD_FLOW": 7, "HYBAS_L12": 4121602580.0, "Shape_Length": 0.0041666666666486663 }, "geometry": { "type": "Polygon", "coordinates": [ ] } },
{ "type": "Feature", "properties": { "HYRIV_ID": 41409138, "NEXT_DOWN": 41409254, "MAIN_RIV": 41409948, "LENGTH_KM": 1.12, "DIST_DN_KM": 31.9, "DIST_UP_KM": 5.3, "CATCH_SKM": 0.85, "UPLAND_SKM": 10.9, "ENDORHEIC": 0, "DIS_AV_CMS": 0.52, "ORD_STRA": 2, "ORD_CLAS": 2, "ORD_FLOW": 7, "HYBAS_L12": 4121602580.0, "Shape_Length": 0.010059223176531202 }, "geometry": { "type": "Polygon", "coordinates": [ ] } },
{ "type": "Feature", "properties": { "HYRIV_ID": 41409139, "NEXT_DOWN": 41409254, "MAIN_RIV": 41409948, "LENGTH_KM": 1.31, "DIST_DN_KM": 32.099998, "DIST_UP_KM": 71.5, "CATCH_SKM": 1.49, "UPLAND_SKM": 541.90002, "ENDORHEIC": 0, "DIS_AV_CMS": 28.155001, "ORD_STRA": 3, "ORD_CLAS": 1, "ORD_FLOW": 5, "HYBAS_L12": 4121602580.0, "Shape_Length": 0.011785113019755026 }, "geometry": { "type": "Polygon", "coordinates": [ ] } },
{ "type": "Feature", "properties": { "HYRIV_ID": 41409160, "NEXT_DOWN": 41409213, "MAIN_RIV": 41409948, "LENGTH_KM": 4.1300001, "DIST_DN_KM": 24.0, "DIST_UP_KM": 5.8, "CATCH_SKM": 8.3199997, "UPLAND_SKM": 8.3, "ENDORHEIC": 0, "DIS_AV_CMS": 0.39700001, "ORD_STRA": 1, "ORD_CLAS": 3, "ORD_FLOW": 7, "HYBAS_L12": 4121602580.0, "Shape_Length": 0.037290614451287181 }, "geometry": { "type": "Polygon", "coordinates": [ ] } },
{ "type": "Feature", "properties": { "HYRIV_ID": 41409161, "NEXT_DOWN": 41409114, "MAIN_RIV": 41409948, "LENGTH_KM": 1.58, "DIST_DN_KM": 38.400002, "DIST_UP_KM": 13.4, "CATCH_SKM": 2.1300001, "UPLAND_SKM": 42.0, "ENDORHEIC": 0, "DIS_AV_CMS": 1.955, "ORD_STRA": 2, "ORD_CLAS": 2, "ORD_FLOW": 6, "HYBAS_L12": 4121602540.0, "Shape_Length": 0.014225889843281068 }, "geometry": { "type": "Polygon", "coordinates": [ ] } },
{ "type": "Feature", "properties": { "HYRIV_ID": 41409180, "NEXT_DOWN": 41409161, "MAIN_RIV": 41409948, "LENGTH_KM": 3.57, "DIST_DN_KM": 39.900002, "DIST_UP_KM": 5.6, "CATCH_SKM": 6.83, "UPLAND_SKM": 6.8, "ENDORHEIC": 0, "DIS_AV_CMS": 0.315, "ORD_STRA": 1, "ORD_CLAS": 3, "ORD_FLOW": 7, "HYBAS_L12": 4121602540.0, "Shape_Length": 0.032261002863113231 }, "geometry": { "type": "Polygon", "coordinates": [ ] } },
{ "type": "Feature", "properties": { "HYRIV_ID": 41409212, "NEXT_DOWN": 41409323, "MAIN_RIV": 41409948, "LENGTH_KM": 2.23, "DIST_DN_KM": 21.1, "DIST_UP_KM": 7.4, "CATCH_SKM": 7.25, "UPLAND_SKM": 25.200001, "ENDORHEIC": 0, "DIS_AV_CMS": 1.205, "ORD_STRA": 2, "ORD_CLAS": 2, "ORD_FLOW": 6, "HYBAS_L12": 4121602610.0, "Shape_Length": 0.02011844635305652 }, "geometry": { "type": "Polygon", "coordinates": [ ] } },
{ "type": "Feature", "properties": { "HYRIV_ID": 41409213, "NEXT_DOWN": 41409272, "MAIN_RIV": 41409948, "LENGTH_KM": 1.58, "DIST_DN_KM": 22.5, "DIST_UP_KM": 7.7, "CATCH_SKM": 2.99, "UPLAND_SKM": 30.3, "ENDORHEIC": 0, "DIS_AV_CMS": 1.459, "ORD_STRA": 2, "ORD_CLAS": 2, "ORD_FLOW": 6, "HYBAS_L12": 4121602580.0, "Shape_Length": 0.014225889843224225 }, "geometry": { "type": "Polygon", "coordinates": [ ] } },
{ "type": "Feature", "properties": { "HYRIV_ID": 41409214, "NEXT_DOWN": 41409272, "MAIN_RIV": 41409948, "LENGTH_KM": 0.46, "DIST_DN_KM": 22.5, "DIST_UP_KM": 6.5, "CATCH_SKM": 0.64, "UPLAND_SKM": 17.5, "ENDORHEIC": 0, "DIS_AV_CMS": 0.83499998, "ORD_STRA": 2, "ORD_CLAS": 3, "ORD_FLOW": 7, "HYBAS_L12": 4121602580.0, "Shape_Length": 0.0041666666666628771 }, "geometry": { "type": "Polygon", "coordinates": [ ] } },
{ "type": "Feature", "properties": { "HYRIV_ID": 41409215, "NEXT_DOWN": 41409214, "MAIN_RIV": 41409948, "LENGTH_KM": 3.6700001, "DIST_DN_KM": 23.1, "DIST_UP_KM": 5.8, "CATCH_SKM": 9.3900003, "UPLAND_SKM": 9.4, "ENDORHEIC": 0, "DIS_AV_CMS": 0.44800001, "ORD_STRA": 1, "ORD_CLAS": 3, "ORD_FLOW": 7, "HYBAS_L12": 4121602580.0, "Shape_Length": 0.033123947784624304 }, "geometry": { "type": "Polygon", "coordinates": [ ] } },
{ "type": "Feature", "properties": { "HYRIV_ID": 41409253, "NEXT_DOWN": 41409323, "MAIN_RIV": 41409948, "LENGTH_KM": 2.56, "DIST_DN_KM": 21.1, "DIST_UP_KM": 4.2, "CATCH_SKM": 6.83, "UPLAND_SKM": 6.8, "ENDORHEIC": 0, "DIS_AV_CMS": 0.32100001, "ORD_STRA": 1, "ORD_CLAS": 3, "ORD_FLOW": 7, "HYBAS_L12": 4121602610.0, "Shape_Length": 0.023064724608111476 }, "geometry": { "type": "Polygon", "coordinates": [ ] } },
{ "type": "Feature", "properties": { "HYRIV_ID": 41409254, "NEXT_DOWN": 41409274, "MAIN_RIV": 41409948, "LENGTH_KM": 2.51, "DIST_DN_KM": 29.4, "DIST_UP_KM": 74.199997, "CATCH_SKM": 5.12, "UPLAND_SKM": 557.90002, "ENDORHEIC": 0, "DIS_AV_CMS": 29.267, "ORD_STRA": 3, "ORD_CLAS": 1, "ORD_FLOW": 5, "HYBAS_L12": 4121602580.0, "Shape_Length": 0.022559223176592612 }, "geometry": { "type": "Polygon", "coordinates": [ ] } },
{ "type": "Feature", "properties": { "HYRIV_ID": 41409255, "NEXT_DOWN": 41409087, "MAIN_RIV": 41409948, "LENGTH_KM": 4.33, "DIST_DN_KM": 34.400002, "DIST_UP_KM": 5.6, "CATCH_SKM": 10.46, "UPLAND_SKM": 10.5, "ENDORHEIC": 0, "DIS_AV_CMS": 0.489, "ORD_STRA": 1, "ORD_CLAS": 2, "ORD_FLOW": 7, "HYBAS_L12": 4121602540.0, "Shape_Length": 0.039016504294438224 }, "geometry": { "type": "Polygon", "coordinates": [ ] } },
{ "type": "Feature", "properties": { "HYRIV_ID": 41409271, "NEXT_DOWN": 41409307, "MAIN_RIV": 41409948, "LENGTH_KM": 0.92, "DIST_DN_KM": 20.0, "DIST_UP_KM": 83.699997, "CATCH_SKM": 2.56, "UPLAND_SKM": 679.29999, "ENDORHEIC": 0, "DIS_AV_CMS": 36.297001, "ORD_STRA": 4, "ORD_CLAS": 1, "ORD_FLOW": 5, "HYBAS_L12": 4121602610.0, "Shape_Length": 0.0083333333333257542 }, "geometry": { "type": "Polygon", "coordinates": [ ] } },
{ "type": "Feature", "properties": { "HYRIV_ID": 41409272, "NEXT_DOWN": 41409271, "MAIN_RIV": 41409948, "LENGTH_KM": 1.58, "DIST_DN_KM": 20.9, "DIST_UP_KM": 9.3, "CATCH_SKM": 1.0700001, "UPLAND_SKM": 48.900002, "ENDORHEIC": 0, "DIS_AV_CMS": 2.3629999, "ORD_STRA": 3, "ORD_CLAS": 2, "ORD_FLOW": 6, "HYBAS_L12": 4121602580.0, "Shape_Length": 0.014225889843236712 }, "geometry": { "type": "Polygon", "coordinates": [ ] } },
{ "type": "Feature", "properties": { "HYRIV_ID": 41409273, "NEXT_DOWN": 41409214, "MAIN_RIV": 41409948, "LENGTH_KM": 4.23, "DIST_DN_KM": 23.1, "DIST_UP_KM": 5.4, "CATCH_SKM": 7.4699998, "UPLAND_SKM": 7.5, "ENDORHEIC": 0, "DIS_AV_CMS": 0.355, "ORD_STRA": 1, "ORD_CLAS": 4, "ORD_FLOW": 7, "HYBAS_L12": 4121602580.0, "Shape_Length": 0.038153559372917104 }, "geometry": { "type": "Polygon", "coordinates": [ ] } },
{ "type": "Feature", "properties": { "HYRIV_ID": 41409274, "NEXT_DOWN": 41409344, "MAIN_RIV": 41409948, "LENGTH_KM": 0.65, "DIST_DN_KM": 29.0, "DIST_UP_KM": 74.699997, "CATCH_SKM": 0.43, "UPLAND_SKM": 563.90002, "ENDORHEIC": 0, "DIS_AV_CMS": 29.618, "ORD_STRA": 3, "ORD_CLAS": 1, "ORD_FLOW": 5, "HYBAS_L12": 4121602580.0, "Shape_Length": 0.0058925565098724882 }, "geometry": { "type": "Polygon", "coordinates": [ ] } },
{ "type": "Feature", "properties": { "HYRIV_ID": 41409275, "NEXT_DOWN": 41409274, "MAIN_RIV": 41409948, "LENGTH_KM": 2.29, "DIST_DN_KM": 29.6, "DIST_UP_KM": 4.0, "CATCH_SKM": 5.5500002, "UPLAND_SKM": 5.5, "ENDORHEIC": 0, "DIS_AV_CMS": 0.26, "ORD_STRA": 1, "ORD_CLAS": 2, "ORD_FLOW": 7, "HYBAS_L12": 4121602580.0, "Shape_Length": 0.020623947784548687 }, "geometry": { "type": "Polygon", "coordinates": [ ] } },
{ "type": "Feature", "properties": { "HYRIV_ID": 41409276, "NEXT_DOWN": 41409161, "MAIN_RIV": 41409948, "LENGTH_KM": 2.74, "DIST_DN_KM": 39.900002, "DIST_UP_KM": 4.3, "CATCH_SKM": 7.04, "UPLAND_SKM": 7.0, "ENDORHEIC": 0, "DIS_AV_CMS": 0.327, "ORD_STRA": 1, "ORD_CLAS": 4, "ORD_FLOW": 7, "HYBAS_L12": 4121602540.0, "Shape_Length": 0.024642556509879694 }, "geometry": { "type": "Polygon", "coordinates": [ ] } },
{ "type": "Feature", "properties": { "HYRIV_ID": 41409291, "NEXT_DOWN": 41409307, "MAIN_RIV": 41409948, "LENGTH_KM": 0.98, "DIST_DN_KM": 20.1, "DIST_UP_KM": 2.6, "CATCH_SKM": 2.56, "UPLAND_SKM": 2.6, "ENDORHEIC": 0, "DIS_AV_CMS": 0.12, "ORD_STRA": 1, "ORD_CLAS": 2, "ORD_FLOW": 7, "HYBAS_L12": 4121602610.0, "Shape_Length": 0.0088388347648840973 }, "geometry": { "type": "Polygon", "coordinates": [ ] } },
{ "type": "Feature", "properties": { "HYRIV_ID": 41409306, "NEXT_DOWN": 41409324, "MAIN_RIV": 41409948, "LENGTH_KM": 2.75, "DIST_DN_KM": 17.9, "DIST_UP_KM": 4.5, "CATCH_SKM": 4.7, "UPLAND_SKM": 4.7, "ENDORHEIC": 0, "DIS_AV_CMS": 0.222, "ORD_STRA": 1, "ORD_CLAS": 2, "ORD_FLOW": 7, "HYBAS_L12": 4121602610.0, "Shape_Length": 0.024790614451261801 }, "geometry": { "type": "Polygon", "coordinates": [ ] } },
{ "type": "Feature", "properties": { "HYRIV_ID": 41409307, "NEXT_DOWN": 41409324, "MAIN_RIV": 41409948, "LENGTH_KM": 2.23, "DIST_DN_KM": 17.700001, "DIST_UP_KM": 86.0, "CATCH_SKM": 2.99, "UPLAND_SKM": 684.90002, "ENDORHEIC": 0, "DIS_AV_CMS": 36.905998, "ORD_STRA": 4, "ORD_CLAS": 1, "ORD_FLOW": 5, "HYBAS_L12": 4121602610.0, "Shape_Length": 0.020118446353147669 }, "geometry": { "type": "Polygon", "coordinates": [ ] } },
{ "type": "Feature", "properties": { "HYRIV_ID": 41409323, "NEXT_DOWN": 41409375, "MAIN_RIV": 41409948, "LENGTH_KM": 4.0, "DIST_DN_KM": 17.1, "DIST_UP_KM": 11.4, "CATCH_SKM": 8.1099997, "UPLAND_SKM": 40.099998, "ENDORHEIC": 0, "DIS_AV_CMS": 1.939, "ORD_STRA": 2, "ORD_CLAS": 2, "ORD_FLOW": 6, "HYBAS_L12": 4121602610.0, "Shape_Length": 0.036070226039678549 }, "geometry": { "type": "Polygon", "coordinates": [ ] } },
{ "type": "Feature", "properties": { "HYRIV_ID": 41409324, "NEXT_DOWN": 41409375, "MAIN_RIV": 41409948, "LENGTH_KM": 0.65, "DIST_DN_KM": 17.3, "DIST_UP_KM": 86.400002, "CATCH_SKM": 0.64, "UPLAND_SKM": 690.20001, "ENDORHEIC": 0, "DIS_AV_CMS": 37.245998, "ORD_STRA": 4, "ORD_CLAS": 1, "ORD_FLOW": 5, "HYBAS_L12": 4121602610.0, "Shape_Length": 0.0058925565097519049 }, "geometry": { "type": "Polygon", "coordinates": [ ] } },
{ "type": "Feature", "properties": { "HYRIV_ID": 41409343, "NEXT_DOWN": 41409271, "MAIN_RIV": 41409948, "LENGTH_KM": 3.53, "DIST_DN_KM": 21.1, "DIST_UP_KM": 82.599998, "CATCH_SKM": 5.5500002, "UPLAND_SKM": 627.90002, "ENDORHEIC": 0, "DIS_AV_CMS": 33.640999, "ORD_STRA": 3, "ORD_CLAS": 1, "ORD_FLOW": 5, "HYBAS_L12": 4121602580.0, "Shape_Length": 0.031903559372916189 }, "geometry": { "type": "Polygon", "coordinates": [ ] } },
{ "type": "Feature", "properties": { "HYRIV_ID": 41409344, "NEXT_DOWN": 41409376, "MAIN_RIV": 41409948, "LENGTH_KM": 3.07, "DIST_DN_KM": 25.9, "DIST_UP_KM": 77.800003, "CATCH_SKM": 5.5500002, "UPLAND_SKM": 595.29999, "ENDORHEIC": 0, "DIS_AV_CMS": 31.475, "ORD_STRA": 3, "ORD_CLAS": 1, "ORD_FLOW": 5, "HYBAS_L12": 4121602580.0, "Shape_Length": 0.027736892706253315 }, "geometry": { "type": "Polygon", "coordinates": [ ] } },
{ "type": "Feature", "properties": { "HYRIV_ID": 41409375, "NEXT_DOWN": 41409420, "MAIN_RIV": 41409948, "LENGTH_KM": 1.12, "DIST_DN_KM": 16.1, "DIST_UP_KM": 87.5, "CATCH_SKM": 1.71, "UPLAND_SKM": 732.09998, "ENDORHEIC": 0, "DIS_AV_CMS": 39.451, "ORD_STRA": 4, "ORD_CLAS": 1, "ORD_FLOW": 5, "HYBAS_L12": 4121602610.0, "Shape_Length": 0.010059223176467463 }, "geometry": { "type": "Polygon", "coordinates": [ ] } },
{ "type": "Feature", "properties": { "HYRIV_ID": 41409376, "NEXT_DOWN": 41409343, "MAIN_RIV": 41409948, "LENGTH_KM": 1.31, "DIST_DN_KM": 24.6, "DIST_UP_KM": 79.099998, "CATCH_SKM": 1.71, "UPLAND_SKM": 615.09998, "ENDORHEIC": 0, "DIS_AV_CMS": 32.564999, "ORD_STRA": 3, "ORD_CLAS": 1, "ORD_FLOW": 5, "HYBAS_L12": 4121602580.0, "Shape_Length": 0.011785113019765073 }, "geometry": { "type": "Polygon", "coordinates": [ ] } },
{ "type": "Feature", "properties": { "HYRIV_ID": 41409419, "NEXT_DOWN": 41409520, "MAIN_RIV": 41409948, "LENGTH_KM": 3.1900001, "DIST_DN_KM": 14.6, "DIST_UP_KM": 5.2, "CATCH_SKM": 11.95, "UPLAND_SKM": 12.0, "ENDORHEIC": 0, "DIS_AV_CMS": 0.56, "ORD_STRA": 1, "ORD_CLAS": 2, "ORD_FLOW": 7, "HYBAS_L12": 4121602610.0, "Shape_Length": 0.028809223176433762 }, "geometry": { "type": "Polygon", "coordinates": [ ] } },
{ "type": "Feature", "properties": { "HYRIV_ID": 41409420, "NEXT_DOWN": 41409520, "MAIN_RIV": 41409948, "LENGTH_KM": 1.31, "DIST_DN_KM": 14.8, "DIST_UP_KM": 88.800003, "CATCH_SKM": 1.28, "UPLAND_SKM": 774.09998, "ENDORHEIC": 0, "DIS_AV_CMS": 41.654999, "ORD_STRA": 4, "ORD_CLAS": 1, "ORD_FLOW": 5, "HYBAS_L12": 4121602610.0, "Shape_Length": 0.011785113019755026 }, "geometry": { "type": "Polygon", "coordinates": [ ] } },
{ "type": "Feature", "properties": { "HYRIV_ID": 41409421, "NEXT_DOWN": 41409343, "MAIN_RIV": 41409948, "LENGTH_KM": 2.46, "DIST_DN_KM": 24.6, "DIST_UP_KM": 4.5, "CATCH_SKM": 7.2600002, "UPLAND_SKM": 7.3, "ENDORHEIC": 0, "DIS_AV_CMS": 0.339, "ORD_STRA": 1, "ORD_CLAS": 2, "ORD_FLOW": 7, "HYBAS_L12": 4121602580.0, "Shape_Length": 0.022201779686460019 }, "geometry": { "type": "Polygon", "coordinates": [ ] } },
{ "type": "Feature", "properties": { "HYRIV_ID": 41409462, "NEXT_DOWN": 41409344, "MAIN_RIV": 41409948, "LENGTH_KM": 10.46, "DIST_DN_KM": 28.8, "DIST_UP_KM": 12.4, "CATCH_SKM": 25.82, "UPLAND_SKM": 25.8, "ENDORHEIC": 0, "DIS_AV_CMS": 1.222, "ORD_STRA": 1, "ORD_CLAS": 2, "ORD_FLOW": 6, "HYBAS_L12": 4121602580.0, "Shape_Length": 0.094342231765503159 }, "geometry": { "type": "Polygon", "coordinates": [ ] } },
{ "type": "Feature", "properties": { "HYRIV_ID": 41409463, "NEXT_DOWN": 41409161, "MAIN_RIV": 41409948, "LENGTH_KM": 10.2, "DIST_DN_KM": 40.099998, "DIST_UP_KM": 11.6, "CATCH_SKM": 26.040001, "UPLAND_SKM": 26.0, "ENDORHEIC": 0, "DIS_AV_CMS": 1.199, "ORD_STRA": 1, "ORD_CLAS": 2, "ORD_FLOW": 6, "HYBAS_L12": 4121602540.0, "Shape_Length": 0.092049512883428858 }, "geometry": { "type": "Polygon", "coordinates": [ ] } },
{ "type": "Feature", "properties": { "HYRIV_ID": 41409507, "NEXT_DOWN": 41409376, "MAIN_RIV": 41409948, "LENGTH_KM": 7.48, "DIST_DN_KM": 25.700001, "DIST_UP_KM": 10.0, "CATCH_SKM": 18.139999, "UPLAND_SKM": 18.1, "ENDORHEIC": 0, "DIS_AV_CMS": 0.85399997, "ORD_STRA": 1, "ORD_CLAS": 2, "ORD_FLOW": 7, "HYBAS_L12": 4121602580.0, "Shape_Length": 0.067468283980941082 }, "geometry": { "type": "Polygon", "coordinates": [ ] } },
{ "type": "Feature", "properties": { "HYRIV_ID": 41409520, "NEXT_DOWN": 41409533, "MAIN_RIV": 41409948, "LENGTH_KM": 3.08, "DIST_DN_KM": 11.8, "DIST_UP_KM": 91.900002, "CATCH_SKM": 6.83, "UPLAND_SKM": 792.90002, "ENDORHEIC": 0, "DIS_AV_CMS": 43.036999, "ORD_STRA": 4, "ORD_CLAS": 1, "ORD_FLOW": 5, "HYBAS_L12": 4121602610.0, "Shape_Length": 0.027736892706236669 }, "geometry": { "type": "Polygon", "coordinates": [ ] } },
{ "type": "Feature", "properties": { "HYRIV_ID": 41409533, "NEXT_DOWN": 41409576, "MAIN_RIV": 41409948, "LENGTH_KM": 0.65, "DIST_DN_KM": 11.1, "DIST_UP_KM": 92.599998, "CATCH_SKM": 2.56, "UPLAND_SKM": 821.90002, "ENDORHEIC": 0, "DIS_AV_CMS": 44.499001, "ORD_STRA": 4, "ORD_CLAS": 1, "ORD_FLOW": 5, "HYBAS_L12": 4121602610.0, "Shape_Length": 0.0058925565098724882 }, "geometry": { "type": "Polygon", "coordinates": [ ] } },
{ "type": "Feature", "properties": { "HYRIV_ID": 41409534, "NEXT_DOWN": 41409576, "MAIN_RIV": 41409948, "LENGTH_KM": 0.46, "DIST_DN_KM": 10.9, "DIST_UP_KM": 3.1, "CATCH_SKM": 2.77, "UPLAND_SKM": 2.8, "ENDORHEIC": 0, "DIS_AV_CMS": 0.12800001, "ORD_STRA": 1, "ORD_CLAS": 2, "ORD_FLOW": 7, "HYBAS_L12": 4120048950.0, "Shape_Length": 0.0041666666666628771 }, "geometry": { "type": "Polygon", "coordinates": [ ] } },
{ "type": "Feature", "properties": { "HYRIV_ID": 41409575, "NEXT_DOWN": 41409733, "MAIN_RIV": 41409948, "LENGTH_KM": 1.35, "DIST_DN_KM": 9.3, "DIST_UP_KM": 2.7, "CATCH_SKM": 4.0500002, "UPLAND_SKM": 4.1, "ENDORHEIC": 0, "DIS_AV_CMS": 0.188, "ORD_STRA": 1, "ORD_CLAS": 2, "ORD_FLOW": 7, "HYBAS_L12": 4120048950.0, "Shape_Length": 0.012142556509839097 }, "geometry": { "type": "Polygon", "coordinates": [ ] } },
{ "type": "Feature", "properties": { "HYRIV_ID": 41409576, "NEXT_DOWN": 41409733, "MAIN_RIV": 41409948, "LENGTH_KM": 1.77, "DIST_DN_KM": 9.3, "DIST_UP_KM": 94.300003, "CATCH_SKM": 2.77, "UPLAND_SKM": 827.5, "ENDORHEIC": 0, "DIS_AV_CMS": 45.070999, "ORD_STRA": 4, "ORD_CLAS": 1, "ORD_FLOW": 5, "HYBAS_L12": 4120048950.0, "Shape_Length": 0.015951779686514941 }, "geometry": { "type": "Polygon", "coordinates": [ ] } },
{ "type": "Feature", "properties": { "HYRIV_ID": 41409588, "NEXT_DOWN": 41409420, "MAIN_RIV": 41409948, "LENGTH_KM": 12.56, "DIST_DN_KM": 16.1, "DIST_UP_KM": 16.9, "CATCH_SKM": 25.4, "UPLAND_SKM": 40.8, "ENDORHEIC": 0, "DIS_AV_CMS": 1.946, "ORD_STRA": 2, "ORD_CLAS": 2, "ORD_FLOW": 6, "HYBAS_L12": 4121602610.0, "Shape_Length": 0.11338834764837263 }, "geometry": { "type": "Polygon", "coordinates": [ ] } },
{ "type": "Feature", "properties": { "HYRIV_ID": 41409589, "NEXT_DOWN": 41409588, "MAIN_RIV": 41409948, "LENGTH_KM": 2.82, "DIST_DN_KM": 28.5, "DIST_UP_KM": 4.5, "CATCH_SKM": 7.4699998, "UPLAND_SKM": 7.5, "ENDORHEIC": 0, "DIS_AV_CMS": 0.34200001, "ORD_STRA": 1, "ORD_CLAS": 2, "ORD_FLOW": 7, "HYBAS_L12": 4121602610.0, "Shape_Length": 0.025505501431461818 }, "geometry": { "type": "Polygon", "coordinates": [ ] } },
{ "type": "Feature", "properties": { "HYRIV_ID": 41409667, "NEXT_DOWN": 41409588, "MAIN_RIV": 41409948, "LENGTH_KM": 2.27, "DIST_DN_KM": 28.5, "DIST_UP_KM": 3.6, "CATCH_SKM": 7.9, "UPLAND_SKM": 7.9, "ENDORHEIC": 0, "DIS_AV_CMS": 0.359, "ORD_STRA": 1, "ORD_CLAS": 3, "ORD_FLOW": 7, "HYBAS_L12": 4121602610.0, "Shape_Length": 0.020475889843164136 }, "geometry": { "type": "Polygon", "coordinates": [ ] } },
{ "type": "Feature", "properties": { "HYRIV_ID": 41409733, "NEXT_DOWN": 41409767, "MAIN_RIV": 41409948, "LENGTH_KM": 3.1600001, "DIST_DN_KM": 6.2, "DIST_UP_KM": 97.5, "CATCH_SKM": 6.4, "UPLAND_SKM": 837.90002, "ENDORHEIC": 0, "DIS_AV_CMS": 46.193001, "ORD_STRA": 4, "ORD_CLAS": 1, "ORD_FLOW": 5, "HYBAS_L12": 4120048950.0, "Shape_Length": 0.028451779686430791 }, "geometry": { "type": "Polygon", "coordinates": [ ] } },
{ "type": "Feature", "properties": { "HYRIV_ID": 41409766, "NEXT_DOWN": 41409885, "MAIN_RIV": 41409948, "LENGTH_KM": 5.4400001, "DIST_DN_KM": 5.5, "DIST_UP_KM": 7.5, "CATCH_SKM": 14.09, "UPLAND_SKM": 14.1, "ENDORHEIC": 0, "DIS_AV_CMS": 0.65399998, "ORD_STRA": 1, "ORD_CLAS": 2, "ORD_FLOW": 7, "HYBAS_L12": 4120048950.0, "Shape_Length": 0.049075727471070925 }, "geometry": { "type": "Polygon", "coordinates": [ ] } },
{ "type": "Feature", "properties": { "HYRIV_ID": 41409767, "NEXT_DOWN": 41409885, "MAIN_RIV": 41409948, "LENGTH_KM": 0.65, "DIST_DN_KM": 5.5, "DIST_UP_KM": 98.199997, "CATCH_SKM": 0.43, "UPLAND_SKM": 897.0, "ENDORHEIC": 0, "DIS_AV_CMS": 49.061001, "ORD_STRA": 4, "ORD_CLAS": 1, "ORD_FLOW": 5, "HYBAS_L12": 4120048950.0, "Shape_Length": 0.0058925565097519049 }, "geometry": { "type": "Polygon", "coordinates": [ ] } },
{ "type": "Feature", "properties": { "HYRIV_ID": 41409768, "NEXT_DOWN": 41409767, "MAIN_RIV": 41409948, "LENGTH_KM": 1.11, "DIST_DN_KM": 6.2, "DIST_UP_KM": 18.1, "CATCH_SKM": 1.0700001, "UPLAND_SKM": 58.700001, "ENDORHEIC": 0, "DIS_AV_CMS": 2.734, "ORD_STRA": 2, "ORD_CLAS": 2, "ORD_FLOW": 6, "HYBAS_L12": 4120048950.0, "Shape_Length": 0.010059223176575559 }, "geometry": { "type": "Polygon", "coordinates": [ ] } },
{ "type": "Feature", "properties": { "HYRIV_ID": 41409769, "NEXT_DOWN": 41409768, "MAIN_RIV": 41409948, "LENGTH_KM": 0.69, "DIST_DN_KM": 7.1, "DIST_UP_KM": 2.4, "CATCH_SKM": 2.99, "UPLAND_SKM": 3.0, "ENDORHEIC": 0, "DIS_AV_CMS": 0.13600001, "ORD_STRA": 1, "ORD_CLAS": 3, "ORD_FLOW": 7, "HYBAS_L12": 4120048950.0, "Shape_Length": 0.0062500000000227374 }, "geometry": { "type": "Polygon", "coordinates": [ ] } },
{ "type": "Feature", "properties": { "HYRIV_ID": 41409809, "NEXT_DOWN": 41409768, "MAIN_RIV": 41409948, "LENGTH_KM": 2.6900001, "DIST_DN_KM": 7.3, "DIST_UP_KM": 17.0, "CATCH_SKM": 7.4699998, "UPLAND_SKM": 54.599998, "ENDORHEIC": 0, "DIS_AV_CMS": 2.5339999, "ORD_STRA": 2, "ORD_CLAS": 2, "ORD_FLOW": 6, "HYBAS_L12": 4120048950.0, "Shape_Length": 0.024285113019783849 }, "geometry": { "type": "Polygon", "coordinates": [ ] } },
{ "type": "Feature", "properties": { "HYRIV_ID": 41409810, "NEXT_DOWN": 41409809, "MAIN_RIV": 41409948, "LENGTH_KM": 0.98, "DIST_DN_KM": 10.0, "DIST_UP_KM": 2.4, "CATCH_SKM": 3.2, "UPLAND_SKM": 3.2, "ENDORHEIC": 0, "DIS_AV_CMS": 0.146, "ORD_STRA": 1, "ORD_CLAS": 3, "ORD_FLOW": 7, "HYBAS_L12": 4120048950.0, "Shape_Length": 0.0088388347649142433 }, "geometry": { "type": "Polygon", "coordinates": [ ] } },
{ "type": "Feature", "properties": { "HYRIV_ID": 41409838, "NEXT_DOWN": 41409809, "MAIN_RIV": 41409948, "LENGTH_KM": 0.69, "DIST_DN_KM": 9.8, "DIST_UP_KM": 2.2, "CATCH_SKM": 2.99, "UPLAND_SKM": 3.0, "ENDORHEIC": 0, "DIS_AV_CMS": 0.13500001, "ORD_STRA": 1, "ORD_CLAS": 4, "ORD_FLOW": 7, "HYBAS_L12": 4120048950.0, "Shape_Length": 0.0062499999999374722 }, "geometry": { "type": "Polygon", "coordinates": [ ] } },
{ "type": "Feature", "properties": { "HYRIV_ID": 41409862, "NEXT_DOWN": 41409533, "MAIN_RIV": 41409948, "LENGTH_KM": 13.62, "DIST_DN_KM": 11.8, "DIST_UP_KM": 14.7, "CATCH_SKM": 26.469999, "UPLAND_SKM": 26.5, "ENDORHEIC": 0, "DIS_AV_CMS": 1.238, "ORD_STRA": 1, "ORD_CLAS": 2, "ORD_FLOW": 6, "HYBAS_L12": 4121602610.0, "Shape_Length": 0.12294206939339646 }, "geometry": { "type": "Polygon", "coordinates": [ ] } },
{ "type": "Feature", "properties": { "HYRIV_ID": 41409885, "NEXT_DOWN": 41409948, "MAIN_RIV": 41409948, "LENGTH_KM": 3.62, "DIST_DN_KM": 1.7, "DIST_UP_KM": 102.0, "CATCH_SKM": 8.96, "UPLAND_SKM": 920.09998, "ENDORHEIC": 0, "DIS_AV_CMS": 50.942001, "ORD_STRA": 4, "ORD_CLAS": 1, "ORD_FLOW": 5, "HYBAS_L12": 4120048950.0, "Shape_Length": 0.032618446353185115 }, "geometry": { "type": "Polygon", "coordinates": [ ] } },
{ "type": "Feature", "properties": { "HYRIV_ID": 41409886, "NEXT_DOWN": 41409809, "MAIN_RIV": 41409948, "LENGTH_KM": 3.07, "DIST_DN_KM": 10.0, "DIST_UP_KM": 14.3, "CATCH_SKM": 7.9, "UPLAND_SKM": 41.0, "ENDORHEIC": 0, "DIS_AV_CMS": 1.8839999, "ORD_STRA": 2, "ORD_CLAS": 2, "ORD_FLOW": 6, "HYBAS_L12": 4120048950.0, "Shape_Length": 0.027736892706213122 }, "geometry": { "type": "Polygon", "coordinates": [ ] } },
{ "type": "Feature", "properties": { "HYRIV_ID": 41409887, "NEXT_DOWN": 41409886, "MAIN_RIV": 41409948, "LENGTH_KM": 0.98, "DIST_DN_KM": 13.1, "DIST_UP_KM": 2.4, "CATCH_SKM": 2.77, "UPLAND_SKM": 2.8, "ENDORHEIC": 0, "DIS_AV_CMS": 0.126, "ORD_STRA": 1, "ORD_CLAS": 3, "ORD_FLOW": 7, "HYBAS_L12": 4120048950.0, "Shape_Length": 0.0088388347647936592 }, "geometry": { "type": "Polygon", "coordinates": [ ] } },
{ "type": "Feature", "properties": { "HYRIV_ID": 41409931, "NEXT_DOWN": 41409948, "MAIN_RIV": 41409948, "LENGTH_KM": 2.09, "DIST_DN_KM": 1.7, "DIST_UP_KM": 3.3, "CATCH_SKM": 5.98, "UPLAND_SKM": 6.0, "ENDORHEIC": 0, "DIS_AV_CMS": 0.27, "ORD_STRA": 1, "ORD_CLAS": 2, "ORD_FLOW": 7, "HYBAS_L12": 4120048950.0, "Shape_Length": 0.018898057941492956 }, "geometry": { "type": "Polygon", "coordinates": [ ] } },
{ "type": "Feature", "properties": { "HYRIV_ID": 41409932, "NEXT_DOWN": 41409886, "MAIN_RIV": 41409948, "LENGTH_KM": 2.6900001, "DIST_DN_KM": 13.1, "DIST_UP_KM": 11.2, "CATCH_SKM": 8.75, "UPLAND_SKM": 30.3, "ENDORHEIC": 0, "DIS_AV_CMS": 1.38, "ORD_STRA": 2, "ORD_CLAS": 2, "ORD_FLOW": 6, "HYBAS_L12": 4120048950.0, "Shape_Length": 0.024285113019783849 }, "geometry": { "type": "Polygon", "coordinates": [ ] } },
{ "type": "Feature", "properties": { "HYRIV_ID": 41409933, "NEXT_DOWN": 41409932, "MAIN_RIV": 41409948, "LENGTH_KM": 6.9899998, "DIST_DN_KM": 15.7, "DIST_UP_KM": 8.5, "CATCH_SKM": 17.08, "UPLAND_SKM": 17.1, "ENDORHEIC": 0, "DIS_AV_CMS": 0.77200001, "ORD_STRA": 1, "ORD_CLAS": 2, "ORD_FLOW": 7, "HYBAS_L12": 4120048950.0, "Shape_Length": 0.063153559372926243 }, "geometry": { "type": "Polygon", "coordinates": [ ] } },
{ "type": "Feature", "properties": { "HYRIV_ID": 41409948, "NEXT_DOWN": 0, "MAIN_RIV": 41409948, "LENGTH_KM": 1.58, "DIST_DN_KM": 0.0, "DIST_UP_KM": 103.4, "CATCH_SKM": 1.71, "UPLAND_SKM": 927.29999, "ENDORHEIC": 0, "DIS_AV_CMS": 51.625, "ORD_STRA": 4, "ORD_CLAS": 1, "ORD_FLOW": 5, "HYBAS_L12": 4120048950.0, "Shape_Length": 0.014225889843160486 }, "geometry": { "type": "Polygon", "coordinates": [ ] } },
{ "type": "Feature", "properties": { "HYRIV_ID": 41409963, "NEXT_DOWN": 41409932, "MAIN_RIV": 41409948, "LENGTH_KM": 2.27, "DIST_DN_KM": 15.6, "DIST_UP_KM": 4.3, "CATCH_SKM": 4.48, "UPLAND_SKM": 4.5, "ENDORHEIC": 0, "DIS_AV_CMS": 0.2, "ORD_STRA": 1, "ORD_CLAS": 3, "ORD_FLOW": 7, "HYBAS_L12": 4120048950.0, "Shape_Length": 0.020475889843159973 }, "geometry": { "type": "Polygon", "coordinates": [ ] } }
]
}
