{
"type": "FeatureCollection",
"name": "main_river_41410440",
"crs": { "type": "name", "properties": { "name": "urn:ogc:def:crs:OGC:1.3:CRS84" } },
"features": [
{ "type": "Feature", "properties": { "HYRIV_ID": 41410347, "NEXT_DOWN": 41410440, "MAIN_RIV": 41410440, "LENGTH_KM": 2.9200001, "DIST_DN_KM": 3.3, "DIST_UP_KM": 4.9, "CATCH_SKM": 11.53, "UPLAND_SKM": 11.5, "ENDORHEIC": 0, "DIS_AV_CMS": 0.41, "ORD_STRA": 1, "ORD_CLAS": 1, "ORD_FLOW": 7, "HYBAS_L12": 4120048900.0, "Shape_Length": 0.026368446353169692 }, "geometry": { "type": "Polygon", "coordinates": [ ] } },
{ "type": "Feature", "properties": { "HYRIV_ID": 41410348, "NEXT_DOWN": 41410440, "MAIN_RIV": 41410440, "LENGTH_KM": 2.46, "DIST_DN_KM": 3.3, "DIST_UP_KM": 4.5, "CATCH_SKM": 6.62, "UPLAND_SKM": 6.6, "ENDORHEIC": 0, "DIS_AV_CMS": 0.233, "ORD_STRA": 1, "ORD_CLAS": 2, "ORD_FLOW": 7, "HYBAS_L12": 4120048900.0, "Shape_Length": 0.022201779686388673 }, "geometry": { "type": "Polygon", "coordinates": [ ] } },
{ "type": "Feature", "properties": { "HYRIV_ID": 41410440, "NEXT_DOWN": 0, "MAIN_RIV": 41410440, "LENGTH_KM": 3.08, "DIST_DN_KM": 0.0, "DIST_UP_KM": 8.0, "CATCH_SKM": 6.1900001, "UPLAND_SKM": 23.9, "ENDORHEIC": 0, "DIS_AV_CMS": 0.84600002, "ORD_STRA": 2, "ORD_CLAS": 1, "ORD_FLOW": 7, "HYBAS_L12": 4120048900.0, "Shape_Length": 0.027736892706283461 }, "geometry": { "type": "Polygon", "coordinates": [ ] } }
]
}
