{
"type": "FeatureCollection",
"name": "main_river_41410060",
"crs": { "type": "name", "properties": { "name": "urn:ogc:def:crs:OGC:1.3:CRS84" } },
"features": [
{ "type": "Feature", "properties": { "HYRIV_ID": 41409702, "NEXT_DOWN": 41409703, "MAIN_RIV": 41410060, "LENGTH_KM": 4.23, "DIST_DN_KM": 11.8, "DIST_UP_KM": 5.6, "CATCH_SKM": 13.87, "UPLAND_SKM": 13.9, "ENDORHEIC": 0, "DIS_AV_CMS": 0.47600001, "ORD_STRA": 1, "ORD_CLAS": 1, "ORD_FLOW": 7, "HYBAS_L12": 4120050130.0, "Shape_Length": 0.038153559372831838 }, "geometry": { "type": "Polygon", "coordinates": [ ] } },
{ "type": "Feature", "properties": { "HYRIV_ID": 41409703, "NEXT_DOWN": 41410060, "MAIN_RIV": 41410060, "LENGTH_KM": 1.38, "DIST_DN_KM": 10.2, "DIST_UP_KM": 7.1, "CATCH_SKM": 2.56, "UPLAND_SKM": 20.9, "ENDORHEIC": 0, "DIS_AV_CMS": 0.71600002, "ORD_STRA": 2, "ORD_CLAS": 1, "ORD_FLOW": 7, "HYBAS_L12": 4120050130.0, "Shape_Length": 0.012500000000045475 }, "geometry": { "type": "Polygon", "coordinates": [ ] } },
{ "type": "Feature", "properties": { "HYRIV_ID": 41409704, "NEXT_DOWN": 41410060, "MAIN_RIV": 41410060, "LENGTH_KM": 2.29, "DIST_DN_KM": 10.4, "DIST_UP_KM": 4.2, "CATCH_SKM": 6.1900001, "UPLAND_SKM": 6.2, "ENDORHEIC": 0, "DIS_AV_CMS": 0.207, "ORD_STRA": 1, "ORD_CLAS": 2, "ORD_FLOW": 7, "HYBAS_L12": 4120050130.0, "Shape_Length": 0.020623947784588877 }, "geometry": { "type": "Polygon", "coordinates": [ ] } },
{ "type": "Feature", "properties": { "HYRIV_ID": 41409738, "NEXT_DOWN": 41409703, "MAIN_RIV": 41410060, "LENGTH_KM": 1.34, "DIST_DN_KM": 11.8, "DIST_UP_KM": 4.5, "CATCH_SKM": 4.48, "UPLAND_SKM": 4.5, "ENDORHEIC": 0, "DIS_AV_CMS": 0.154, "ORD_STRA": 1, "ORD_CLAS": 2, "ORD_FLOW": 7, "HYBAS_L12": 4120050130.0, "Shape_Length": 0.012142556509905273 }, "geometry": { "type": "Polygon", "coordinates": [ ] } },
{ "type": "Feature", "properties": { "HYRIV_ID": 41410060, "NEXT_DOWN": 0, "MAIN_RIV": 41410060, "LENGTH_KM": 9.96, "DIST_DN_KM": 0.0, "DIST_UP_KM": 17.1, "CATCH_SKM": 29.67, "UPLAND_SKM": 56.599998, "ENDORHEIC": 0, "DIS_AV_CMS": 1.885, "ORD_STRA": 2, "ORD_CLAS": 1, "ORD_FLOW": 6, "HYBAS_L12": 4120050130.0, "Shape_Length": 0.089818121608913837 }, "geometry": { "type": "Polygon", "coordinates": [ ] } }
]
}
