{
"type": "FeatureCollection",
"name": "main_river_41408892",
"crs": { "type": "name", "properties": { "name": "urn:ogc:def:crs:OGC:1.3:CRS84" } },
"features": [
{ "type": "Feature", "properties": { "HYRIV_ID": 41408727, "NEXT_DOWN": 41408876, "MAIN_RIV": 41408892, "LENGTH_KM": 5.62, "DIST_DN_KM": 7.7, "DIST_UP_KM": 9.2, "CATCH_SKM": 26.030001, "UPLAND_SKM": 26.0, "ENDORHEIC": 0, "DIS_AV_CMS": 0.44400001, "ORD_STRA": 1, "ORD_CLAS": 1, "ORD_FLOW": 7, "HYBAS_L12": 4120050030.0, "Shape_Length": 0.050653559372803823 }, "geometry": { "type": "MultiLineString", "coordinates": [ [ [ 81.352083333333013, 6.341666666666562 ], [ 81.352083333333013, 6.335416666666582 ], [ 81.34791666666635, 6.33125 ], [ 81.356249999999676, 6.322916666666565 ], [ 81.356249999999676, 6.31041666666659 ], [ 81.360416666666396, 6.31041666666659 ], [ 81.364583333333059, 6.306249999999885 ], [ 81.368749999999608, 6.306249999999885 ] ] ] } },
{ "type": "Feature", "properties": { "HYRIV_ID": 41408728, "NEXT_DOWN": 41408876, "MAIN_RIV": 41408892, "LENGTH_KM": 4.52, "DIST_DN_KM": 7.7, "DIST_UP_KM": 7.1, "CATCH_SKM": 24.110001, "UPLAND_SKM": 24.1, "ENDORHEIC": 0, "DIS_AV_CMS": 0.398, "ORD_STRA": 1, "ORD_CLAS": 2, "ORD_FLOW": 7, "HYBAS_L12": 4120050030.0, "Shape_Length": 0.040742394137805171 }, "geometry": { "type": "MultiLineString", "coordinates": [ [ [ 81.391666666666339, 6.3375 ], [ 81.385416666666259, 6.33125 ], [ 81.385416666666259, 6.327083333333213 ], [ 81.368749999999608, 6.31041666666659 ], [ 81.368749999999608, 6.306249999999885 ] ] ] } },
{ "type": "Feature", "properties": { "HYRIV_ID": 41408876, "NEXT_DOWN": 41408892, "MAIN_RIV": 41408892, "LENGTH_KM": 6.4200001, "DIST_DN_KM": 1.2, "DIST_UP_KM": 15.6, "CATCH_SKM": 18.139999, "UPLAND_SKM": 68.300003, "ENDORHEIC": 0, "DIS_AV_CMS": 1.117, "ORD_STRA": 2, "ORD_CLAS": 1, "ORD_FLOW": 6, "HYBAS_L12": 4120050030.0, "Shape_Length": 0.057914562235869466 }, "geometry": { "type": "MultiLineString", "coordinates": [ [ [ 81.368749999999608, 6.306249999999885 ], [ 81.368749999999608, 6.302083333333222 ], [ 81.381249999999596, 6.289583333333248 ], [ 81.385416666666259, 6.289583333333248 ], [ 81.402083333332968, 6.272916666666582 ], [ 81.410416666666293, 6.272916666666582 ] ] ] } },
{ "type": "Feature", "properties": { "HYRIV_ID": 41408877, "NEXT_DOWN": 41408892, "MAIN_RIV": 41408892, "LENGTH_KM": 2.1, "DIST_DN_KM": 1.2, "DIST_UP_KM": 6.2, "CATCH_SKM": 9.3900003, "UPLAND_SKM": 9.4, "ENDORHEIC": 0, "DIS_AV_CMS": 0.154, "ORD_STRA": 1, "ORD_CLAS": 2, "ORD_FLOW": 7, "HYBAS_L12": 4120050030.0, "Shape_Length": 0.018898057941324861 }, "geometry": { "type": "MultiLineString", "coordinates": [ [ [ 81.399999999999665, 6.287499999999874 ], [ 81.410416666666293, 6.277083333333231 ], [ 81.410416666666293, 6.272916666666582 ] ] ] } },
{ "type": "Feature", "properties": { "HYRIV_ID": 41408892, "NEXT_DOWN": 0, "MAIN_RIV": 41408892, "LENGTH_KM": 1.11, "DIST_DN_KM": 0.0, "DIST_UP_KM": 16.5, "CATCH_SKM": 0.85, "UPLAND_SKM": 78.099998, "ENDORHEIC": 0, "DIS_AV_CMS": 1.271, "ORD_STRA": 2, "ORD_CLAS": 1, "ORD_FLOW": 6, "HYBAS_L12": 4120050030.0, "Shape_Length": 0.010059223176575559 }, "geometry": { "type": "MultiLineString", "coordinates": [ [ [ 81.410416666666293, 6.272916666666582 ], [ 81.414583333332956, 6.272916666666582 ], [ 81.418749999999619, 6.268749999999876 ] ] ] } }
]
}
