{
"type": "FeatureCollection",
"name": "main_river_41401246",
"crs": { "type": "name", "properties": { "name": "urn:ogc:def:crs:OGC:1.3:CRS84" } },
"features": [
{ "type": "Feature", "properties": { "HYRIV_ID": 41401246, "NEXT_DOWN": 0, "MAIN_RIV": 41401246, "LENGTH_KM": 3.6300001, "DIST_DN_KM": 0.0, "DIST_UP_KM": 9.2, "CATCH_SKM": 15.3, "UPLAND_SKM": 14.9, "ENDORHEIC": 0, "DIS_AV_CMS": 0.186, "ORD_STRA": 1, "ORD_CLAS": 1, "ORD_FLOW": 7, "HYBAS_L12": 4120049210.0, "Shape_Length": 0.032975889843122622 }, "geometry": { "type": "Polygon", "coordinates": [ ] } }
]
}
