{
"type": "FeatureCollection",
"name": "main_river_41394622",
"crs": { "type": "name", "properties": { "name": "urn:ogc:def:crs:OGC:1.3:CRS84" } },
"features": [
{ "type": "Feature", "properties": { "HYRIV_ID": 41394622, "NEXT_DOWN": 0, "MAIN_RIV": 41394622, "LENGTH_KM": 10.0, "DIST_DN_KM": 0.0, "DIST_UP_KM": 22.4, "CATCH_SKM": 24.15, "UPLAND_SKM": 74.800003, "ENDORHEIC": 0, "DIS_AV_CMS": 0.99800003, "ORD_STRA": 2, "ORD_CLAS": 1, "ORD_FLOW": 7, "HYBAS_L12": 4120049480.0, "Shape_Length": 0.090533008588996433 }, "geometry": { "type": "Polygon", "coordinates": [ ] } },
{ "type": "Feature", "properties": { "HYRIV_ID": 41394852, "NEXT_DOWN": 41394622, "MAIN_RIV": 41394622, "LENGTH_KM": 4.96, "DIST_DN_KM": 10.3, "DIST_UP_KM": 8.8, "CATCH_SKM": 20.549999, "UPLAND_SKM": 20.5, "ENDORHEIC": 0, "DIS_AV_CMS": 0.276, "ORD_STRA": 1, "ORD_CLAS": 2, "ORD_FLOW": 7, "HYBAS_L12": 4120049480.0, "Shape_Length": 0.044761002862960475 }, "geometry": { "type": "Polygon", "coordinates": [ ] } },
{ "type": "Feature", "properties": { "HYRIV_ID": 41394976, "NEXT_DOWN": 41394622, "MAIN_RIV": 41394622, "LENGTH_KM": 8.2200003, "DIST_DN_KM": 10.3, "DIST_UP_KM": 12.4, "CATCH_SKM": 30.08, "UPLAND_SKM": 30.1, "ENDORHEIC": 0, "DIS_AV_CMS": 0.40900001, "ORD_STRA": 1, "ORD_CLAS": 1, "ORD_FLOW": 7, "HYBAS_L12": 4120049480.0, "Shape_Length": 0.074371843353884179 }, "geometry": { "type": "Polygon", "coordinates": [ ] } }
]
}
