{
"type": "FeatureCollection",
"name": "main_river_41407432",
"crs": { "type": "name", "properties": { "name": "urn:ogc:def:crs:OGC:1.3:CRS84" } },
"features": [
{ "type": "Feature", "properties": { "HYRIV_ID": 41407049, "NEXT_DOWN": 41407172, "MAIN_RIV": 41407432, "LENGTH_KM": 2.26, "DIST_DN_KM": 12.1, "DIST_UP_KM": 5.8, "CATCH_SKM": 10.45, "UPLAND_SKM": 10.4, "ENDORHEIC": 0, "DIS_AV_CMS": 0.155, "ORD_STRA": 1, "ORD_CLAS": 1, "ORD_FLOW": 7, "HYBAS_L12": 4120049970.0, "Shape_Length": 0.020475889843174184 }, "geometry": { "type": "MultiLineString", "coordinates": [ [ [ 81.666666666666316, 6.664583333333233 ], [ 81.681249999999608, 6.664583333333233 ], [ 81.685416666666271, 6.660416666666571 ] ] ] } },
{ "type": "Feature", "properties": { "HYRIV_ID": 41407050, "NEXT_DOWN": 41407172, "MAIN_RIV": 41407432, "LENGTH_KM": 2.27, "DIST_DN_KM": 11.9, "DIST_UP_KM": 5.7, "CATCH_SKM": 13.22, "UPLAND_SKM": 13.2, "ENDORHEIC": 0, "DIS_AV_CMS": 0.195, "ORD_STRA": 1, "ORD_CLAS": 2, "ORD_FLOW": 7, "HYBAS_L12": 4120049970.0, "Shape_Length": 0.020475889843216816 }, "geometry": { "type": "MultiLineString", "coordinates": [ [ [ 81.681249999999608, 6.679166666666568 ], [ 81.681249999999608, 6.672916666666545 ], [ 81.685416666666271, 6.668749999999882 ], [ 81.685416666666271, 6.660416666666571 ] ] ] } },
{ "type": "Feature", "properties": { "HYRIV_ID": 41407171, "NEXT_DOWN": 41407432, "MAIN_RIV": 41407432, "LENGTH_KM": 3.6400001, "DIST_DN_KM": 8.5, "DIST_UP_KM": 7.4, "CATCH_SKM": 25.370001, "UPLAND_SKM": 25.4, "ENDORHEIC": 0, "DIS_AV_CMS": 0.364, "ORD_STRA": 1, "ORD_CLAS": 2, "ORD_FLOW": 7, "HYBAS_L12": 4120049970.0, "Shape_Length": 0.032975889843209608 }, "geometry": { "type": "MultiLineString", "coordinates": [ [ [ 81.666666666666316, 6.639583333333228 ], [ 81.672916666666282, 6.639583333333228 ], [ 81.677083333332945, 6.635416666666579 ], [ 81.697916666666316, 6.635416666666579 ] ] ] } },
{ "type": "Feature", "properties": { "HYRIV_ID": 41407172, "NEXT_DOWN": 41407432, "MAIN_RIV": 41407432, "LENGTH_KM": 3.35, "DIST_DN_KM": 8.5, "DIST_UP_KM": 9.3, "CATCH_SKM": 13.01, "UPLAND_SKM": 36.700001, "ENDORHEIC": 0, "DIS_AV_CMS": 0.52899998, "ORD_STRA": 2, "ORD_CLAS": 1, "ORD_FLOW": 7, "HYBAS_L12": 4120049970.0, "Shape_Length": 0.030177669529690643 }, "geometry": { "type": "MultiLineString", "coordinates": [ [ [ 81.685416666666271, 6.660416666666571 ], [ 81.689583333332934, 6.65625 ], [ 81.689583333332934, 6.647916666666553 ], [ 81.697916666666316, 6.639583333333228 ], [ 81.697916666666316, 6.635416666666579 ] ] ] } },
{ "type": "Feature", "properties": { "HYRIV_ID": 41407432, "NEXT_DOWN": 0, "MAIN_RIV": 41407432, "LENGTH_KM": 8.3800001, "DIST_DN_KM": 0.0, "DIST_UP_KM": 17.5, "CATCH_SKM": 32.84, "UPLAND_SKM": 94.699997, "ENDORHEIC": 0, "DIS_AV_CMS": 1.295, "ORD_STRA": 2, "ORD_CLAS": 1, "ORD_FLOW": 6, "HYBAS_L12": 4120049970.0, "Shape_Length": 0.075592231765528858 }, "geometry": { "type": "MultiLineString", "coordinates": [ [ [ 81.697916666666316, 6.635416666666579 ], [ 81.706249999999642, 6.627083333333211 ], [ 81.706249999999642, 6.622916666666562 ], [ 81.710416666666305, 6.618749999999899 ], [ 81.714583333332968, 6.618749999999899 ], [ 81.731249999999676, 6.602083333333219 ], [ 81.731249999999676, 6.597916666666571 ], [ 81.735416666666339, 6.59375 ], [ 81.739583333333002, 6.59375 ], [ 81.747916666666328, 6.585416666666596 ] ] ] } }
]
}
