{
"type": "FeatureCollection",
"name": "main_river_41410114",
"crs": { "type": "name", "properties": { "name": "urn:ogc:def:crs:OGC:1.3:CRS84" } },
"features": [
{ "type": "Feature", "properties": { "HYRIV_ID": 41409612, "NEXT_DOWN": 41409644, "MAIN_RIV": 41410114, "LENGTH_KM": 2.75, "DIST_DN_KM": 19.9, "DIST_UP_KM": 4.7, "CATCH_SKM": 5.5500002, "UPLAND_SKM": 5.5, "ENDORHEIC": 0, "DIS_AV_CMS": 0.20100001, "ORD_STRA": 1, "ORD_CLAS": 3, "ORD_FLOW": 7, "HYBAS_L12": 4120050140.0, "Shape_Length": 0.024790614451412535 }, "geometry": { "type": "Polygon", "coordinates": [ ] } },
{ "type": "Feature", "properties": { "HYRIV_ID": 41409613, "NEXT_DOWN": 41409644, "MAIN_RIV": 41410114, "LENGTH_KM": 3.3800001, "DIST_DN_KM": 20.1, "DIST_UP_KM": 5.2, "CATCH_SKM": 11.95, "UPLAND_SKM": 12.0, "ENDORHEIC": 0, "DIS_AV_CMS": 0.42500001, "ORD_STRA": 1, "ORD_CLAS": 2, "ORD_FLOW": 7, "HYBAS_L12": 4120050140.0, "Shape_Length": 0.030535113019823236 }, "geometry": { "type": "Polygon", "coordinates": [ ] } },
{ "type": "Feature", "properties": { "HYRIV_ID": 41409643, "NEXT_DOWN": 41409843, "MAIN_RIV": 41410114, "LENGTH_KM": 0.69, "DIST_DN_KM": 19.3, "DIST_UP_KM": 3.2, "CATCH_SKM": 4.48, "UPLAND_SKM": 4.5, "ENDORHEIC": 0, "DIS_AV_CMS": 0.162, "ORD_STRA": 1, "ORD_CLAS": 2, "ORD_FLOW": 7, "HYBAS_L12": 4120050140.0, "Shape_Length": 0.0062500000000795808 }, "geometry": { "type": "Polygon", "coordinates": [ ] } },
{ "type": "Feature", "properties": { "HYRIV_ID": 41409644, "NEXT_DOWN": 41409843, "MAIN_RIV": 41410114, "LENGTH_KM": 0.65, "DIST_DN_KM": 19.5, "DIST_UP_KM": 9.8, "CATCH_SKM": 0.64, "UPLAND_SKM": 38.400002, "ENDORHEIC": 0, "DIS_AV_CMS": 1.396, "ORD_STRA": 2, "ORD_CLAS": 1, "ORD_FLOW": 6, "HYBAS_L12": 4120050140.0, "Shape_Length": 0.0058925565099629254 }, "geometry": { "type": "Polygon", "coordinates": [ ] } },
{ "type": "Feature", "properties": { "HYRIV_ID": 41409701, "NEXT_DOWN": 41409644, "MAIN_RIV": 41410114, "LENGTH_KM": 6.3600001, "DIST_DN_KM": 20.1, "DIST_UP_KM": 9.2, "CATCH_SKM": 20.280001, "UPLAND_SKM": 20.3, "ENDORHEIC": 0, "DIS_AV_CMS": 0.74699998, "ORD_STRA": 1, "ORD_CLAS": 1, "ORD_FLOW": 7, "HYBAS_L12": 4120050140.0, "Shape_Length": 0.057409060804371401 }, "geometry": { "type": "Polygon", "coordinates": [ ] } },
{ "type": "Feature", "properties": { "HYRIV_ID": 41409843, "NEXT_DOWN": 41409916, "MAIN_RIV": 41410114, "LENGTH_KM": 4.6500001, "DIST_DN_KM": 14.8, "DIST_UP_KM": 14.5, "CATCH_SKM": 13.66, "UPLAND_SKM": 56.599998, "ENDORHEIC": 0, "DIS_AV_CMS": 2.043, "ORD_STRA": 2, "ORD_CLAS": 1, "ORD_FLOW": 6, "HYBAS_L12": 4120050140.0, "Shape_Length": 0.041962782549513272 }, "geometry": { "type": "Polygon", "coordinates": [ ] } },
{ "type": "Feature", "properties": { "HYRIV_ID": 41409844, "NEXT_DOWN": 41409916, "MAIN_RIV": 41410114, "LENGTH_KM": 3.02, "DIST_DN_KM": 14.6, "DIST_UP_KM": 4.7, "CATCH_SKM": 7.04, "UPLAND_SKM": 7.0, "ENDORHEIC": 0, "DIS_AV_CMS": 0.247, "ORD_STRA": 1, "ORD_CLAS": 2, "ORD_FLOW": 7, "HYBAS_L12": 4120050140.0, "Shape_Length": 0.027231391274633965 }, "geometry": { "type": "Polygon", "coordinates": [ ] } },
{ "type": "Feature", "properties": { "HYRIV_ID": 41409891, "NEXT_DOWN": 41409951, "MAIN_RIV": 41410114, "LENGTH_KM": 2.73, "DIST_DN_KM": 20.3, "DIST_UP_KM": 5.2, "CATCH_SKM": 11.31, "UPLAND_SKM": 11.3, "ENDORHEIC": 0, "DIS_AV_CMS": 0.42, "ORD_STRA": 1, "ORD_CLAS": 2, "ORD_FLOW": 7, "HYBAS_L12": 4120050140.0, "Shape_Length": 0.0246425565099407 }, "geometry": { "type": "Polygon", "coordinates": [ ] } },
{ "type": "Feature", "properties": { "HYRIV_ID": 41409892, "NEXT_DOWN": 41409951, "MAIN_RIV": 41410114, "LENGTH_KM": 2.29, "DIST_DN_KM": 20.5, "DIST_UP_KM": 4.7, "CATCH_SKM": 4.7, "UPLAND_SKM": 4.7, "ENDORHEIC": 0, "DIS_AV_CMS": 0.17200001, "ORD_STRA": 1, "ORD_CLAS": 3, "ORD_FLOW": 7, "HYBAS_L12": 4120050140.0, "Shape_Length": 0.020623947784719512 }, "geometry": { "type": "Polygon", "coordinates": [ ] } },
{ "type": "Feature", "properties": { "HYRIV_ID": 41409916, "NEXT_DOWN": 41409936, "MAIN_RIV": 41410114, "LENGTH_KM": 2.23, "DIST_DN_KM": 12.6, "DIST_UP_KM": 16.700001, "CATCH_SKM": 2.77, "UPLAND_SKM": 66.400002, "ENDORHEIC": 0, "DIS_AV_CMS": 2.388, "ORD_STRA": 2, "ORD_CLAS": 1, "ORD_FLOW": 6, "HYBAS_L12": 4120050140.0, "Shape_Length": 0.020118446353026374 }, "geometry": { "type": "Polygon", "coordinates": [ ] } },
{ "type": "Feature", "properties": { "HYRIV_ID": 41409936, "NEXT_DOWN": 41410000, "MAIN_RIV": 41410114, "LENGTH_KM": 4.2600002, "DIST_DN_KM": 8.3, "DIST_UP_KM": 21.0, "CATCH_SKM": 11.53, "UPLAND_SKM": 119.5, "ENDORHEIC": 0, "DIS_AV_CMS": 4.2969999, "ORD_STRA": 3, "ORD_CLAS": 1, "ORD_FLOW": 6, "HYBAS_L12": 4120050140.0, "Shape_Length": 0.038511002862961996 }, "geometry": { "type": "Polygon", "coordinates": [ ] } },
{ "type": "Feature", "properties": { "HYRIV_ID": 41409937, "NEXT_DOWN": 41410000, "MAIN_RIV": 41410114, "LENGTH_KM": 3.02, "DIST_DN_KM": 8.1, "DIST_UP_KM": 5.4, "CATCH_SKM": 8.75, "UPLAND_SKM": 8.8, "ENDORHEIC": 0, "DIS_AV_CMS": 0.301, "ORD_STRA": 1, "ORD_CLAS": 2, "ORD_FLOW": 7, "HYBAS_L12": 4120050140.0, "Shape_Length": 0.027231391274714061 }, "geometry": { "type": "Polygon", "coordinates": [ ] } },
{ "type": "Feature", "properties": { "HYRIV_ID": 41409951, "NEXT_DOWN": 41409936, "MAIN_RIV": 41410114, "LENGTH_KM": 7.87, "DIST_DN_KM": 12.6, "DIST_UP_KM": 12.9, "CATCH_SKM": 25.610001, "UPLAND_SKM": 41.599998, "ENDORHEIC": 0, "DIS_AV_CMS": 1.5089999, "ORD_STRA": 2, "ORD_CLAS": 2, "ORD_FLOW": 6, "HYBAS_L12": 4120050140.0, "Shape_Length": 0.071129449216101454 }, "geometry": { "type": "Polygon", "coordinates": [ ] } },
{ "type": "Feature", "properties": { "HYRIV_ID": 41410000, "NEXT_DOWN": 41410026, "MAIN_RIV": 41410114, "LENGTH_KM": 3.35, "DIST_DN_KM": 4.8, "DIST_UP_KM": 24.5, "CATCH_SKM": 10.25, "UPLAND_SKM": 138.5, "ENDORHEIC": 0, "DIS_AV_CMS": 4.9450002, "ORD_STRA": 3, "ORD_CLAS": 1, "ORD_FLOW": 6, "HYBAS_L12": 4120050140.0, "Shape_Length": 0.030177669529668827 }, "geometry": { "type": "Polygon", "coordinates": [ ] } },
{ "type": "Feature", "properties": { "HYRIV_ID": 41410001, "NEXT_DOWN": 41410058, "MAIN_RIV": 41410114, "LENGTH_KM": 4.98, "DIST_DN_KM": 3.2, "DIST_UP_KM": 7.2, "CATCH_SKM": 12.59, "UPLAND_SKM": 12.6, "ENDORHEIC": 0, "DIS_AV_CMS": 0.421, "ORD_STRA": 1, "ORD_CLAS": 2, "ORD_FLOW": 7, "HYBAS_L12": 4120050140.0, "Shape_Length": 0.04490906080435679 }, "geometry": { "type": "Polygon", "coordinates": [ ] } },
{ "type": "Feature", "properties": { "HYRIV_ID": 41410026, "NEXT_DOWN": 41410058, "MAIN_RIV": 41410114, "LENGTH_KM": 1.77, "DIST_DN_KM": 3.2, "DIST_UP_KM": 26.1, "CATCH_SKM": 2.77, "UPLAND_SKM": 160.10001, "ENDORHEIC": 0, "DIS_AV_CMS": 5.6810002, "ORD_STRA": 3, "ORD_CLAS": 1, "ORD_FLOW": 6, "HYBAS_L12": 4120050140.0, "Shape_Length": 0.015951779686528438 }, "geometry": { "type": "Polygon", "coordinates": [ ] } },
{ "type": "Feature", "properties": { "HYRIV_ID": 41410058, "NEXT_DOWN": 41410114, "MAIN_RIV": 41410114, "LENGTH_KM": 1.31, "DIST_DN_KM": 1.9, "DIST_UP_KM": 27.4, "CATCH_SKM": 4.7, "UPLAND_SKM": 177.39999, "ENDORHEIC": 0, "DIS_AV_CMS": 6.2579999, "ORD_STRA": 3, "ORD_CLAS": 1, "ORD_FLOW": 6, "HYBAS_L12": 4120050140.0, "Shape_Length": 0.011785113019795219 }, "geometry": { "type": "Polygon", "coordinates": [ ] } },
{ "type": "Feature", "properties": { "HYRIV_ID": 41410088, "NEXT_DOWN": 41410026, "MAIN_RIV": 41410114, "LENGTH_KM": 5.2399998, "DIST_DN_KM": 4.8, "DIST_UP_KM": 7.8, "CATCH_SKM": 18.790001, "UPLAND_SKM": 18.8, "ENDORHEIC": 0, "DIS_AV_CMS": 0.64300001, "ORD_STRA": 1, "ORD_CLAS": 2, "ORD_FLOW": 7, "HYBAS_L12": 4120050140.0, "Shape_Length": 0.047349837627812502 }, "geometry": { "type": "Polygon", "coordinates": [ ] } },
{ "type": "Feature", "properties": { "HYRIV_ID": 41410113, "NEXT_DOWN": 41410114, "MAIN_RIV": 41410114, "LENGTH_KM": 1.63, "DIST_DN_KM": 1.9, "DIST_UP_KM": 2.9, "CATCH_SKM": 4.06, "UPLAND_SKM": 4.1, "ENDORHEIC": 0, "DIS_AV_CMS": 0.13600001, "ORD_STRA": 1, "ORD_CLAS": 2, "ORD_FLOW": 7, "HYBAS_L12": 4120050140.0, "Shape_Length": 0.014731391274756585 }, "geometry": { "type": "Polygon", "coordinates": [ ] } },
{ "type": "Feature", "properties": { "HYRIV_ID": 41410114, "NEXT_DOWN": 0, "MAIN_RIV": 41410114, "LENGTH_KM": 1.58, "DIST_DN_KM": 0.0, "DIST_UP_KM": 29.0, "CATCH_SKM": 1.71, "UPLAND_SKM": 182.89999, "ENDORHEIC": 0, "DIS_AV_CMS": 6.4439998, "ORD_STRA": 3, "ORD_CLAS": 1, "ORD_FLOW": 6, "HYBAS_L12": 4120050140.0, "Shape_Length": 0.014225889843198242 }, "geometry": { "type": "Polygon", "coordinates": [ ] } }
]
}
