{
"type": "FeatureCollection",
"name": "main_river_41400168",
"crs": { "type": "name", "properties": { "name": "urn:ogc:def:crs:OGC:1.3:CRS84" } },
"features": [
{ "type": "Feature", "properties": { "HYRIV_ID": 41400034, "NEXT_DOWN": 41400077, "MAIN_RIV": 41400168, "LENGTH_KM": 0.98, "DIST_DN_KM": 5.2, "DIST_UP_KM": 4.7, "CATCH_SKM": 9.1300001, "UPLAND_SKM": 9.1, "ENDORHEIC": 0, "DIS_AV_CMS": 0.171, "ORD_STRA": 1, "ORD_CLAS": 2, "ORD_FLOW": 7, "HYBAS_L12": 4120049690.0, "Shape_Length": 0.0088388347649142433 }, "geometry": { "type": "Polygon", "coordinates": [ ] } },
{ "type": "Feature", "properties": { "HYRIV_ID": 41400035, "NEXT_DOWN": 41400077, "MAIN_RIV": 41400168, "LENGTH_KM": 3.48, "DIST_DN_KM": 5.0, "DIST_UP_KM": 7.5, "CATCH_SKM": 14.86, "UPLAND_SKM": 14.9, "ENDORHEIC": 0, "DIS_AV_CMS": 0.27700001, "ORD_STRA": 1, "ORD_CLAS": 1, "ORD_FLOW": 7, "HYBAS_L12": 4120049690.0, "Shape_Length": 0.031250000000028422 }, "geometry": { "type": "Polygon", "coordinates": [ ] } },
{ "type": "Feature", "properties": { "HYRIV_ID": 41400077, "NEXT_DOWN": 41400102, "MAIN_RIV": 41400168, "LENGTH_KM": 1.11, "DIST_DN_KM": 4.0, "DIST_UP_KM": 8.4, "CATCH_SKM": 2.97, "UPLAND_SKM": 27.0, "ENDORHEIC": 0, "DIS_AV_CMS": 0.50400001, "ORD_STRA": 2, "ORD_CLAS": 1, "ORD_FLOW": 7, "HYBAS_L12": 4120049690.0, "Shape_Length": 0.010059223176571397 }, "geometry": { "type": "Polygon", "coordinates": [ ] } },
{ "type": "Feature", "properties": { "HYRIV_ID": 41400102, "NEXT_DOWN": 41400167, "MAIN_RIV": 41400168, "LENGTH_KM": 0.65, "DIST_DN_KM": 3.4, "DIST_UP_KM": 9.1, "CATCH_SKM": 1.06, "UPLAND_SKM": 38.900002, "ENDORHEIC": 0, "DIS_AV_CMS": 0.73, "ORD_STRA": 2, "ORD_CLAS": 1, "ORD_FLOW": 7, "HYBAS_L12": 4120049690.0, "Shape_Length": 0.0058925565098825365 }, "geometry": { "type": "Polygon", "coordinates": [ ] } },
{ "type": "Feature", "properties": { "HYRIV_ID": 41400123, "NEXT_DOWN": 41400102, "MAIN_RIV": 41400168, "LENGTH_KM": 2.72, "DIST_DN_KM": 4.0, "DIST_UP_KM": 6.8, "CATCH_SKM": 10.83, "UPLAND_SKM": 10.8, "ENDORHEIC": 0, "DIS_AV_CMS": 0.206, "ORD_STRA": 1, "ORD_CLAS": 2, "ORD_FLOW": 7, "HYBAS_L12": 4120049690.0, "Shape_Length": 0.024642556510005152 }, "geometry": { "type": "Polygon", "coordinates": [ ] } },
{ "type": "Feature", "properties": { "HYRIV_ID": 41400141, "NEXT_DOWN": 41400167, "MAIN_RIV": 41400168, "LENGTH_KM": 1.4400001, "DIST_DN_KM": 3.2, "DIST_UP_KM": 4.8, "CATCH_SKM": 5.73, "UPLAND_SKM": 5.7, "ENDORHEIC": 0, "DIS_AV_CMS": 0.11, "ORD_STRA": 1, "ORD_CLAS": 2, "ORD_FLOW": 7, "HYBAS_L12": 4120049690.0, "Shape_Length": 0.013005501431603103 }, "geometry": { "type": "Polygon", "coordinates": [ ] } },
{ "type": "Feature", "properties": { "HYRIV_ID": 41400167, "NEXT_DOWN": 41400168, "MAIN_RIV": 41400168, "LENGTH_KM": 1.96, "DIST_DN_KM": 1.4, "DIST_UP_KM": 11.0, "CATCH_SKM": 3.4, "UPLAND_SKM": 48.0, "ENDORHEIC": 0, "DIS_AV_CMS": 0.903, "ORD_STRA": 2, "ORD_CLAS": 1, "ORD_FLOW": 7, "HYBAS_L12": 4120049690.0, "Shape_Length": 0.017677669529587318 }, "geometry": { "type": "Polygon", "coordinates": [ ] } },
{ "type": "Feature", "properties": { "HYRIV_ID": 41400168, "NEXT_DOWN": 0, "MAIN_RIV": 41400168, "LENGTH_KM": 1.11, "DIST_DN_KM": 0.0, "DIST_UP_KM": 12.1, "CATCH_SKM": 1.27, "UPLAND_SKM": 70.099998, "ENDORHEIC": 0, "DIS_AV_CMS": 1.33, "ORD_STRA": 2, "ORD_CLAS": 1, "ORD_FLOW": 6, "HYBAS_L12": 4120049690.0, "Shape_Length": 0.010059223176545413 }, "geometry": { "type": "Polygon", "coordinates": [ ] } },
{ "type": "Feature", "properties": { "HYRIV_ID": 41400307, "NEXT_DOWN": 41400168, "MAIN_RIV": 41400168, "LENGTH_KM": 4.4, "DIST_DN_KM": 1.2, "DIST_UP_KM": 8.2, "CATCH_SKM": 21.24, "UPLAND_SKM": 21.200001, "ENDORHEIC": 0, "DIS_AV_CMS": 0.41100001, "ORD_STRA": 1, "ORD_CLAS": 2, "ORD_FLOW": 7, "HYBAS_L12": 4120049690.0, "Shape_Length": 0.039731391274695375 }, "geometry": { "type": "Polygon", "coordinates": [ ] } }
]
}
