{
"type": "FeatureCollection",
"name": "main_river_41393691",
"crs": { "type": "name", "properties": { "name": "urn:ogc:def:crs:OGC:1.3:CRS84" } },
"features": [
{ "type": "Feature", "properties": { "HYRIV_ID": 41393691, "NEXT_DOWN": 0, "MAIN_RIV": 41393691, "LENGTH_KM": 0.69, "DIST_DN_KM": 0.0, "DIST_UP_KM": 6.0, "CATCH_SKM": 9.5299997, "UPLAND_SKM": 9.1, "ENDORHEIC": 0, "DIS_AV_CMS": 0.123, "ORD_STRA": 1, "ORD_CLAS": 1, "ORD_FLOW": 7, "HYBAS_L12": 4120049470.0, "Shape_Length": 0.0062499999999801048 }, "geometry": { "type": "MultiLineString", "coordinates": [ [ [ 80.597916666666293, 9.449999999999868 ], [ 80.597916666666293, 9.456249999999848 ] ] ] } }
]
}
