{
"type": "FeatureCollection",
"name": "main_river_41410438",
"crs": { "type": "name", "properties": { "name": "urn:ogc:def:crs:OGC:1.3:CRS84" } },
"features": [
{ "type": "Feature", "properties": { "HYRIV_ID": 41410438, "NEXT_DOWN": 0, "MAIN_RIV": 41410438, "LENGTH_KM": 4.79, "DIST_DN_KM": 0.0, "DIST_UP_KM": 7.2, "CATCH_SKM": 17.290001, "UPLAND_SKM": 17.1, "ENDORHEIC": 0, "DIS_AV_CMS": 0.71200001, "ORD_STRA": 1, "ORD_CLAS": 1, "ORD_FLOW": 7, "HYBAS_L12": 4120048940.0, "Shape_Length": 0.043183170961163829 }, "geometry": { "type": "Polygon", "coordinates": [ ] } }
]
}
