{
"type": "FeatureCollection",
"name": "main_river_41400715",
"crs": { "type": "name", "properties": { "name": "urn:ogc:def:crs:OGC:1.3:CRS84" } },
"features": [
{ "type": "Feature", "properties": { "HYRIV_ID": 41400609, "NEXT_DOWN": 41400652, "MAIN_RIV": 41400715, "LENGTH_KM": 1.63, "DIST_DN_KM": 7.4, "DIST_UP_KM": 5.7, "CATCH_SKM": 6.58, "UPLAND_SKM": 6.6, "ENDORHEIC": 0, "DIS_AV_CMS": 0.13, "ORD_STRA": 1, "ORD_CLAS": 2, "ORD_FLOW": 7, "HYBAS_L12": 4120049700.0, "Shape_Length": 0.014731391274676197 }, "geometry": { "type": "Polygon", "coordinates": [ ] } },
{ "type": "Feature", "properties": { "HYRIV_ID": 41400628, "NEXT_DOWN": 41400629, "MAIN_RIV": 41400715, "LENGTH_KM": 0.69, "DIST_DN_KM": 8.8, "DIST_UP_KM": 5.3, "CATCH_SKM": 7.2199998, "UPLAND_SKM": 7.2, "ENDORHEIC": 0, "DIS_AV_CMS": 0.142, "ORD_STRA": 1, "ORD_CLAS": 2, "ORD_FLOW": 7, "HYBAS_L12": 4120049700.0, "Shape_Length": 0.0062500000000227374 }, "geometry": { "type": "Polygon", "coordinates": [ ] } },
{ "type": "Feature", "properties": { "HYRIV_ID": 41400629, "NEXT_DOWN": 41400652, "MAIN_RIV": 41400715, "LENGTH_KM": 1.5700001, "DIST_DN_KM": 7.4, "DIST_UP_KM": 25.1, "CATCH_SKM": 6.1599998, "UPLAND_SKM": 146.8, "ENDORHEIC": 0, "DIS_AV_CMS": 2.8989999, "ORD_STRA": 2, "ORD_CLAS": 1, "ORD_FLOW": 6, "HYBAS_L12": 4120049700.0, "Shape_Length": 0.014225889843352123 }, "geometry": { "type": "Polygon", "coordinates": [ ] } },
{ "type": "Feature", "properties": { "HYRIV_ID": 41400652, "NEXT_DOWN": 41400712, "MAIN_RIV": 41400715, "LENGTH_KM": 1.96, "DIST_DN_KM": 5.4, "DIST_UP_KM": 27.1, "CATCH_SKM": 4.46, "UPLAND_SKM": 157.8, "ENDORHEIC": 0, "DIS_AV_CMS": 3.1129999, "ORD_STRA": 2, "ORD_CLAS": 1, "ORD_FLOW": 6, "HYBAS_L12": 4120049700.0, "Shape_Length": 0.017677669529627512 }, "geometry": { "type": "Polygon", "coordinates": [ ] } },
{ "type": "Feature", "properties": { "HYRIV_ID": 41400671, "NEXT_DOWN": 41400712, "MAIN_RIV": 41400715, "LENGTH_KM": 1.4400001, "DIST_DN_KM": 5.2, "DIST_UP_KM": 4.6, "CATCH_SKM": 8.29, "UPLAND_SKM": 8.3, "ENDORHEIC": 0, "DIS_AV_CMS": 0.166, "ORD_STRA": 1, "ORD_CLAS": 2, "ORD_FLOW": 7, "HYBAS_L12": 4120049700.0, "Shape_Length": 0.013005501431473481 }, "geometry": { "type": "Polygon", "coordinates": [ ] } },
{ "type": "Feature", "properties": { "HYRIV_ID": 41400691, "NEXT_DOWN": 41400692, "MAIN_RIV": 41400715, "LENGTH_KM": 3.29, "DIST_DN_KM": 14.8, "DIST_UP_KM": 6.2, "CATCH_SKM": 19.540001, "UPLAND_SKM": 19.5, "ENDORHEIC": 0, "DIS_AV_CMS": 0.383, "ORD_STRA": 1, "ORD_CLAS": 2, "ORD_FLOW": 7, "HYBAS_L12": 4120049700.0, "Shape_Length": 0.029820226039469346 }, "geometry": { "type": "Polygon", "coordinates": [ ] } },
{ "type": "Feature", "properties": { "HYRIV_ID": 41400692, "NEXT_DOWN": 41400629, "MAIN_RIV": 41400715, "LENGTH_KM": 5.8200002, "DIST_DN_KM": 8.7, "DIST_UP_KM": 23.8, "CATCH_SKM": 26.77, "UPLAND_SKM": 133.39999, "ENDORHEIC": 0, "DIS_AV_CMS": 2.638, "ORD_STRA": 2, "ORD_CLAS": 1, "ORD_FLOW": 6, "HYBAS_L12": 4120049700.0, "Shape_Length": 0.052736892706160235 }, "geometry": { "type": "Polygon", "coordinates": [ ] } },
{ "type": "Feature", "properties": { "HYRIV_ID": 41400712, "NEXT_DOWN": 41400714, "MAIN_RIV": 41400715, "LENGTH_KM": 3.33, "DIST_DN_KM": 1.9, "DIST_UP_KM": 30.6, "CATCH_SKM": 9.9799995, "UPLAND_SKM": 176.10001, "ENDORHEIC": 0, "DIS_AV_CMS": 3.47, "ORD_STRA": 2, "ORD_CLAS": 1, "ORD_FLOW": 6, "HYBAS_L12": 4120049700.0, "Shape_Length": 0.030177669529693082 }, "geometry": { "type": "Polygon", "coordinates": [ ] } },
{ "type": "Feature", "properties": { "HYRIV_ID": 41400713, "NEXT_DOWN": 41400714, "MAIN_RIV": 41400715, "LENGTH_KM": 11.27, "DIST_DN_KM": 1.9, "DIST_UP_KM": 14.3, "CATCH_SKM": 28.459999, "UPLAND_SKM": 28.5, "ENDORHEIC": 0, "DIS_AV_CMS": 0.55800003, "ORD_STRA": 1, "ORD_CLAS": 2, "ORD_FLOW": 7, "HYBAS_L12": 4120049700.0, "Shape_Length": 0.10181262017713627 }, "geometry": { "type": "Polygon", "coordinates": [ ] } },
{ "type": "Feature", "properties": { "HYRIV_ID": 41400714, "NEXT_DOWN": 41400715, "MAIN_RIV": 41400715, "LENGTH_KM": 0.46, "DIST_DN_KM": 1.4, "DIST_UP_KM": 31.1, "CATCH_SKM": 0.64, "UPLAND_SKM": 205.2, "ENDORHEIC": 0, "DIS_AV_CMS": 4.039, "ORD_STRA": 2, "ORD_CLAS": 1, "ORD_FLOW": 6, "HYBAS_L12": 4120049700.0, "Shape_Length": 0.0041666666666060337 }, "geometry": { "type": "Polygon", "coordinates": [ ] } },
{ "type": "Feature", "properties": { "HYRIV_ID": 41400715, "NEXT_DOWN": 0, "MAIN_RIV": 41400715, "LENGTH_KM": 1.3, "DIST_DN_KM": 0.0, "DIST_UP_KM": 32.200001, "CATCH_SKM": 1.49, "UPLAND_SKM": 220.3, "ENDORHEIC": 0, "DIS_AV_CMS": 4.3390002, "ORD_STRA": 2, "ORD_CLAS": 1, "ORD_FLOW": 6, "HYBAS_L12": 4120049700.0, "Shape_Length": 0.011785113019765073 }, "geometry": { "type": "Polygon", "coordinates": [ ] } },
{ "type": "Feature", "properties": { "HYRIV_ID": 41400756, "NEXT_DOWN": 41400757, "MAIN_RIV": 41400715, "LENGTH_KM": 2.74, "DIST_DN_KM": 17.0, "DIST_UP_KM": 6.2, "CATCH_SKM": 13.17, "UPLAND_SKM": 13.2, "ENDORHEIC": 0, "DIS_AV_CMS": 0.26, "ORD_STRA": 1, "ORD_CLAS": 2, "ORD_FLOW": 7, "HYBAS_L12": 4120049700.0, "Shape_Length": 0.024790614451194914 }, "geometry": { "type": "Polygon", "coordinates": [ ] } },
{ "type": "Feature", "properties": { "HYRIV_ID": 41400757, "NEXT_DOWN": 41400692, "MAIN_RIV": 41400715, "LENGTH_KM": 2.4100001, "DIST_DN_KM": 14.8, "DIST_UP_KM": 17.700001, "CATCH_SKM": 10.84, "UPLAND_SKM": 87.099998, "ENDORHEIC": 0, "DIS_AV_CMS": 1.735, "ORD_STRA": 2, "ORD_CLAS": 1, "ORD_FLOW": 6, "HYBAS_L12": 4120049700.0, "Shape_Length": 0.02184433619637078 }, "geometry": { "type": "Polygon", "coordinates": [ ] } },
{ "type": "Feature", "properties": { "HYRIV_ID": 41400775, "NEXT_DOWN": 41400757, "MAIN_RIV": 41400715, "LENGTH_KM": 0.65, "DIST_DN_KM": 17.200001, "DIST_UP_KM": 15.3, "CATCH_SKM": 0.64, "UPLAND_SKM": 63.099998, "ENDORHEIC": 0, "DIS_AV_CMS": 1.262, "ORD_STRA": 2, "ORD_CLAS": 1, "ORD_FLOW": 6, "HYBAS_L12": 4120049700.0, "Shape_Length": 0.0058925565098423421 }, "geometry": { "type": "Polygon", "coordinates": [ ] } },
{ "type": "Feature", "properties": { "HYRIV_ID": 41400841, "NEXT_DOWN": 41400715, "MAIN_RIV": 41400715, "LENGTH_KM": 3.47, "DIST_DN_KM": 1.4, "DIST_UP_KM": 7.7, "CATCH_SKM": 14.02, "UPLAND_SKM": 14.0, "ENDORHEIC": 0, "DIS_AV_CMS": 0.28400001, "ORD_STRA": 1, "ORD_CLAS": 2, "ORD_FLOW": 7, "HYBAS_L12": 4120049700.0, "Shape_Length": 0.031249999999943157 }, "geometry": { "type": "Polygon", "coordinates": [ ] } },
{ "type": "Feature", "properties": { "HYRIV_ID": 41400955, "NEXT_DOWN": 41400775, "MAIN_RIV": 41400715, "LENGTH_KM": 7.75, "DIST_DN_KM": 17.8, "DIST_UP_KM": 10.9, "CATCH_SKM": 22.950001, "UPLAND_SKM": 22.9, "ENDORHEIC": 0, "DIS_AV_CMS": 0.461, "ORD_STRA": 1, "ORD_CLAS": 2, "ORD_FLOW": 7, "HYBAS_L12": 4120049700.0, "Shape_Length": 0.070057118745859293 }, "geometry": { "type": "Polygon", "coordinates": [ ] } },
{ "type": "Feature", "properties": { "HYRIV_ID": 41401082, "NEXT_DOWN": 41400775, "MAIN_RIV": 41400715, "LENGTH_KM": 11.84, "DIST_DN_KM": 17.6, "DIST_UP_KM": 14.9, "CATCH_SKM": 39.52, "UPLAND_SKM": 39.5, "ENDORHEIC": 0, "DIS_AV_CMS": 0.79, "ORD_STRA": 1, "ORD_CLAS": 1, "ORD_FLOW": 7, "HYBAS_L12": 4120049700.0, "Shape_Length": 0.10684223176557218 }, "geometry": { "type": "Polygon", "coordinates": [ ] } }
]
}
