{
"type": "FeatureCollection",
"name": "main_river_41410059",
"crs": { "type": "name", "properties": { "name": "urn:ogc:def:crs:OGC:1.3:CRS84" } },
"features": [
{ "type": "Feature", "properties": { "HYRIV_ID": 41410059, "NEXT_DOWN": 0, "MAIN_RIV": 41410059, "LENGTH_KM": 1.4400001, "DIST_DN_KM": 0.0, "DIST_UP_KM": 5.6, "CATCH_SKM": 4.7, "UPLAND_SKM": 4.5, "ENDORHEIC": 0, "DIS_AV_CMS": 0.147, "ORD_STRA": 1, "ORD_CLAS": 1, "ORD_FLOW": 7, "HYBAS_L12": 4120050130.0, "Shape_Length": 0.013005501431567071 }, "geometry": { "type": "Polygon", "coordinates": [ ] } }
]
}
