{
"type": "FeatureCollection",
"name": "main_river_41396222",
"crs": { "type": "name", "properties": { "name": "urn:ogc:def:crs:OGC:1.3:CRS84" } },
"features": [
{ "type": "Feature", "properties": { "HYRIV_ID": 41396184, "NEXT_DOWN": 41396222, "MAIN_RIV": 41396222, "LENGTH_KM": 4.31, "DIST_DN_KM": 1.5, "DIST_UP_KM": 8.2, "CATCH_SKM": 17.17, "UPLAND_SKM": 17.200001, "ENDORHEIC": 0, "DIS_AV_CMS": 0.162, "ORD_STRA": 1, "ORD_CLAS": 2, "ORD_FLOW": 7, "HYBAS_L12": 4120049360.0, "Shape_Length": 0.039016504294562972 }, "geometry": { "type": "Polygon", "coordinates": [ ] } },
{ "type": "Feature", "properties": { "HYRIV_ID": 41396222, "NEXT_DOWN": 0, "MAIN_RIV": 41396222, "LENGTH_KM": 1.11, "DIST_DN_KM": 0.0, "DIST_UP_KM": 85.099998, "CATCH_SKM": 2.54, "UPLAND_SKM": 796.5, "ENDORHEIC": 0, "DIS_AV_CMS": 6.2550001, "ORD_STRA": 3, "ORD_CLAS": 1, "ORD_FLOW": 6, "HYBAS_L12": 4120049360.0, "Shape_Length": 0.010059223176565511 }, "geometry": { "type": "Polygon", "coordinates": [ ] } },
{ "type": "Feature", "properties": { "HYRIV_ID": 41396421, "NEXT_DOWN": 41396222, "MAIN_RIV": 41396222, "LENGTH_KM": 16.709999, "DIST_DN_KM": 1.5, "DIST_UP_KM": 83.800003, "CATCH_SKM": 50.029999, "UPLAND_SKM": 777.20001, "ENDORHEIC": 0, "DIS_AV_CMS": 6.14, "ORD_STRA": 3, "ORD_CLAS": 1, "ORD_FLOW": 6, "HYBAS_L12": 4120049360.0, "Shape_Length": 0.15160323462842171 }, "geometry": { "type": "Polygon", "coordinates": [ ] } },
{ "type": "Feature", "properties": { "HYRIV_ID": 41396422, "NEXT_DOWN": 41396421, "MAIN_RIV": 41396222, "LENGTH_KM": 0.98, "DIST_DN_KM": 18.200001, "DIST_UP_KM": 5.8, "CATCH_SKM": 11.23, "UPLAND_SKM": 11.2, "ENDORHEIC": 0, "DIS_AV_CMS": 0.107, "ORD_STRA": 1, "ORD_CLAS": 2, "ORD_FLOW": 7, "HYBAS_L12": 4120049360.0, "Shape_Length": 0.0088388347648338528 }, "geometry": { "type": "Polygon", "coordinates": [ ] } },
{ "type": "Feature", "properties": { "HYRIV_ID": 41396423, "NEXT_DOWN": 41396465, "MAIN_RIV": 41396222, "LENGTH_KM": 2.08, "DIST_DN_KM": 26.3, "DIST_UP_KM": 7.8, "CATCH_SKM": 20.77, "UPLAND_SKM": 20.8, "ENDORHEIC": 0, "DIS_AV_CMS": 0.203, "ORD_STRA": 1, "ORD_CLAS": 2, "ORD_FLOW": 7, "HYBAS_L12": 4121600340.0, "Shape_Length": 0.018898057941329025 }, "geometry": { "type": "Polygon", "coordinates": [ ] } },
{ "type": "Feature", "properties": { "HYRIV_ID": 41396465, "NEXT_DOWN": 41396421, "MAIN_RIV": 41396222, "LENGTH_KM": 8.0299997, "DIST_DN_KM": 18.200001, "DIST_UP_KM": 67.099998, "CATCH_SKM": 33.490002, "UPLAND_SKM": 716.0, "ENDORHEIC": 0, "DIS_AV_CMS": 6.5500002, "ORD_STRA": 3, "ORD_CLAS": 1, "ORD_FLOW": 6, "HYBAS_L12": 4120049360.0, "Shape_Length": 0.072855339059338053 }, "geometry": { "type": "Polygon", "coordinates": [ ] } },
{ "type": "Feature", "properties": { "HYRIV_ID": 41396665, "NEXT_DOWN": 41396465, "MAIN_RIV": 41396222, "LENGTH_KM": 6.8600001, "DIST_DN_KM": 26.3, "DIST_UP_KM": 59.099998, "CATCH_SKM": 33.5, "UPLAND_SKM": 661.70001, "ENDORHEIC": 0, "DIS_AV_CMS": 6.4749999, "ORD_STRA": 3, "ORD_CLAS": 1, "ORD_FLOW": 6, "HYBAS_L12": 4121600340.0, "Shape_Length": 0.062081228902431139 }, "geometry": { "type": "Polygon", "coordinates": [ ] } },
{ "type": "Feature", "properties": { "HYRIV_ID": 41396689, "NEXT_DOWN": 41396665, "MAIN_RIV": 41396222, "LENGTH_KM": 4.83, "DIST_DN_KM": 32.900002, "DIST_UP_KM": 8.9, "CATCH_SKM": 24.17, "UPLAND_SKM": 24.200001, "ENDORHEIC": 0, "DIS_AV_CMS": 0.241, "ORD_STRA": 1, "ORD_CLAS": 2, "ORD_FLOW": 7, "HYBAS_L12": 4121600340.0, "Shape_Length": 0.043898057941513857 }, "geometry": { "type": "Polygon", "coordinates": [ ] } },
{ "type": "Feature", "properties": { "HYRIV_ID": 41396815, "NEXT_DOWN": 41396665, "MAIN_RIV": 41396222, "LENGTH_KM": 3.53, "DIST_DN_KM": 33.099998, "DIST_UP_KM": 52.200001, "CATCH_SKM": 19.719999, "UPLAND_SKM": 604.09998, "ENDORHEIC": 0, "DIS_AV_CMS": 6.2389998, "ORD_STRA": 3, "ORD_CLAS": 1, "ORD_FLOW": 6, "HYBAS_L12": 4121600340.0, "Shape_Length": 0.031903559372891931 }, "geometry": { "type": "Polygon", "coordinates": [ ] } },
{ "type": "Feature", "properties": { "HYRIV_ID": 41396816, "NEXT_DOWN": 41396815, "MAIN_RIV": 41396222, "LENGTH_KM": 2.06, "DIST_DN_KM": 36.5, "DIST_UP_KM": 8.3, "CATCH_SKM": 14.63, "UPLAND_SKM": 14.6, "ENDORHEIC": 0, "DIS_AV_CMS": 0.15, "ORD_STRA": 1, "ORD_CLAS": 2, "ORD_FLOW": 7, "HYBAS_L12": 4121600340.0, "Shape_Length": 0.018750000000125056 }, "geometry": { "type": "Polygon", "coordinates": [ ] } },
{ "type": "Feature", "properties": { "HYRIV_ID": 41396993, "NEXT_DOWN": 41396815, "MAIN_RIV": 41396222, "LENGTH_KM": 4.6500001, "DIST_DN_KM": 36.5, "DIST_UP_KM": 48.900002, "CATCH_SKM": 23.540001, "UPLAND_SKM": 569.70001, "ENDORHEIC": 0, "DIS_AV_CMS": 6.0009999, "ORD_STRA": 3, "ORD_CLAS": 1, "ORD_FLOW": 6, "HYBAS_L12": 4121600340.0, "Shape_Length": 0.0419627825494817 }, "geometry": { "type": "Polygon", "coordinates": [ ] } },
{ "type": "Feature", "properties": { "HYRIV_ID": 41397027, "NEXT_DOWN": 41396993, "MAIN_RIV": 41396222, "LENGTH_KM": 1.5700001, "DIST_DN_KM": 41.3, "DIST_UP_KM": 44.0, "CATCH_SKM": 5.0900002, "UPLAND_SKM": 407.89999, "ENDORHEIC": 0, "DIS_AV_CMS": 4.4850001, "ORD_STRA": 3, "ORD_CLAS": 1, "ORD_FLOW": 6, "HYBAS_L12": 4121154980.0, "Shape_Length": 0.01422588984320829 }, "geometry": { "type": "Polygon", "coordinates": [ ] } },
{ "type": "Feature", "properties": { "HYRIV_ID": 41397028, "NEXT_DOWN": 41397027, "MAIN_RIV": 41396222, "LENGTH_KM": 3.1900001, "DIST_DN_KM": 42.900002, "DIST_UP_KM": 8.2, "CATCH_SKM": 21.84, "UPLAND_SKM": 21.8, "ENDORHEIC": 0, "DIS_AV_CMS": 0.23100001, "ORD_STRA": 1, "ORD_CLAS": 2, "ORD_FLOW": 7, "HYBAS_L12": 4121154980.0, "Shape_Length": 0.028957281117971478 }, "geometry": { "type": "Polygon", "coordinates": [ ] } },
{ "type": "Feature", "properties": { "HYRIV_ID": 41397154, "NEXT_DOWN": 41397027, "MAIN_RIV": 41396222, "LENGTH_KM": 5.7399998, "DIST_DN_KM": 42.900002, "DIST_UP_KM": 42.5, "CATCH_SKM": 24.809999, "UPLAND_SKM": 380.89999, "ENDORHEIC": 0, "DIS_AV_CMS": 4.2309999, "ORD_STRA": 3, "ORD_CLAS": 1, "ORD_FLOW": 6, "HYBAS_L12": 4121154980.0, "Shape_Length": 0.052022005726037164 }, "geometry": { "type": "Polygon", "coordinates": [ ] } },
{ "type": "Feature", "properties": { "HYRIV_ID": 41397155, "NEXT_DOWN": 41397154, "MAIN_RIV": 41396222, "LENGTH_KM": 2.09, "DIST_DN_KM": 48.400002, "DIST_UP_KM": 5.9, "CATCH_SKM": 13.15, "UPLAND_SKM": 13.1, "ENDORHEIC": 0, "DIS_AV_CMS": 0.144, "ORD_STRA": 1, "ORD_CLAS": 2, "ORD_FLOW": 7, "HYBAS_L12": 4121154980.0, "Shape_Length": 0.018898057941379269 }, "geometry": { "type": "Polygon", "coordinates": [ ] } },
{ "type": "Feature", "properties": { "HYRIV_ID": 41397309, "NEXT_DOWN": 41397154, "MAIN_RIV": 41396222, "LENGTH_KM": 3.1600001, "DIST_DN_KM": 48.599998, "DIST_UP_KM": 36.700001, "CATCH_SKM": 13.78, "UPLAND_SKM": 343.0, "ENDORHEIC": 0, "DIS_AV_CMS": 3.914, "ORD_STRA": 3, "ORD_CLAS": 1, "ORD_FLOW": 6, "HYBAS_L12": 4121154980.0, "Shape_Length": 0.028451779686434954 }, "geometry": { "type": "Polygon", "coordinates": [ ] } },
{ "type": "Feature", "properties": { "HYRIV_ID": 41397456, "NEXT_DOWN": 41397309, "MAIN_RIV": 41396222, "LENGTH_KM": 10.63, "DIST_DN_KM": 51.599998, "DIST_UP_KM": 19.700001, "CATCH_SKM": 50.689999, "UPLAND_SKM": 88.400002, "ENDORHEIC": 0, "DIS_AV_CMS": 1.016, "ORD_STRA": 2, "ORD_CLAS": 2, "ORD_FLOW": 6, "HYBAS_L12": 4121600500.0, "Shape_Length": 0.096425565098784652 }, "geometry": { "type": "Polygon", "coordinates": [ ] } },
{ "type": "Feature", "properties": { "HYRIV_ID": 41397457, "NEXT_DOWN": 41397456, "MAIN_RIV": 41396222, "LENGTH_KM": 1.99, "DIST_DN_KM": 62.400002, "DIST_UP_KM": 5.2, "CATCH_SKM": 11.24, "UPLAND_SKM": 11.2, "ENDORHEIC": 0, "DIS_AV_CMS": 0.137, "ORD_STRA": 1, "ORD_CLAS": 3, "ORD_FLOW": 7, "HYBAS_L12": 4121600500.0, "Shape_Length": 0.018035113019901496 }, "geometry": { "type": "Polygon", "coordinates": [ ] } },
{ "type": "Feature", "properties": { "HYRIV_ID": 41397574, "NEXT_DOWN": 41397456, "MAIN_RIV": 41396222, "LENGTH_KM": 4.31, "DIST_DN_KM": 62.400002, "DIST_UP_KM": 8.9, "CATCH_SKM": 26.51, "UPLAND_SKM": 26.5, "ENDORHEIC": 0, "DIS_AV_CMS": 0.32600001, "ORD_STRA": 1, "ORD_CLAS": 2, "ORD_FLOW": 7, "HYBAS_L12": 4121600500.0, "Shape_Length": 0.039016504294506836 }, "geometry": { "type": "Polygon", "coordinates": [ ] } },
{ "type": "Feature", "properties": { "HYRIV_ID": 41397597, "NEXT_DOWN": 41396993, "MAIN_RIV": 41396222, "LENGTH_KM": 13.28, "DIST_DN_KM": 41.099998, "DIST_UP_KM": 29.9, "CATCH_SKM": 67.650002, "UPLAND_SKM": 138.3, "ENDORHEIC": 0, "DIS_AV_CMS": 1.386, "ORD_STRA": 2, "ORD_CLAS": 2, "ORD_FLOW": 6, "HYBAS_L12": 4121154970.0, "Shape_Length": 0.11969967525569271 }, "geometry": { "type": "Polygon", "coordinates": [ ] } },
{ "type": "Feature", "properties": { "HYRIV_ID": 41397638, "NEXT_DOWN": 41397597, "MAIN_RIV": 41396222, "LENGTH_KM": 1.9, "DIST_DN_KM": 54.400002, "DIST_UP_KM": 6.2, "CATCH_SKM": 13.79, "UPLAND_SKM": 13.8, "ENDORHEIC": 0, "DIS_AV_CMS": 0.141, "ORD_STRA": 1, "ORD_CLAS": 3, "ORD_FLOW": 7, "HYBAS_L12": 4121154970.0, "Shape_Length": 0.01717216809806673 }, "geometry": { "type": "Polygon", "coordinates": [ ] } },
{ "type": "Feature", "properties": { "HYRIV_ID": 41397661, "NEXT_DOWN": 41397309, "MAIN_RIV": 41396222, "LENGTH_KM": 8.9099998, "DIST_DN_KM": 51.8, "DIST_UP_KM": 33.599998, "CATCH_SKM": 40.3, "UPLAND_SKM": 240.8, "ENDORHEIC": 0, "DIS_AV_CMS": 2.799, "ORD_STRA": 2, "ORD_CLAS": 1, "ORD_FLOW": 6, "HYBAS_L12": 4121600500.0, "Shape_Length": 0.080473785412483886 }, "geometry": { "type": "Polygon", "coordinates": [ ] } },
{ "type": "Feature", "properties": { "HYRIV_ID": 41397706, "NEXT_DOWN": 41397661, "MAIN_RIV": 41396222, "LENGTH_KM": 1.35, "DIST_DN_KM": 60.700001, "DIST_UP_KM": 5.7, "CATCH_SKM": 11.67, "UPLAND_SKM": 11.7, "ENDORHEIC": 0, "DIS_AV_CMS": 0.13, "ORD_STRA": 1, "ORD_CLAS": 2, "ORD_FLOW": 7, "HYBAS_L12": 4121600500.0, "Shape_Length": 0.012142556510025857 }, "geometry": { "type": "Polygon", "coordinates": [ ] } },
{ "type": "Feature", "properties": { "HYRIV_ID": 41397790, "NEXT_DOWN": 41397661, "MAIN_RIV": 41396222, "LENGTH_KM": 5.2800002, "DIST_DN_KM": 60.5, "DIST_UP_KM": 24.9, "CATCH_SKM": 32.450001, "UPLAND_SKM": 188.8, "ENDORHEIC": 0, "DIS_AV_CMS": 2.312, "ORD_STRA": 2, "ORD_CLAS": 1, "ORD_FLOW": 6, "HYBAS_L12": 4121600500.0, "Shape_Length": 0.047855339059163567 }, "geometry": { "type": "Polygon", "coordinates": [ ] } },
{ "type": "Feature", "properties": { "HYRIV_ID": 41397791, "NEXT_DOWN": 41397812, "MAIN_RIV": 41396222, "LENGTH_KM": 0.69, "DIST_DN_KM": 73.5, "DIST_UP_KM": 4.5, "CATCH_SKM": 8.9099998, "UPLAND_SKM": 8.9, "ENDORHEIC": 0, "DIS_AV_CMS": 0.116, "ORD_STRA": 1, "ORD_CLAS": 2, "ORD_FLOW": 7, "HYBAS_L12": 4121600590.0, "Shape_Length": 0.0062499999999943157 }, "geometry": { "type": "Polygon", "coordinates": [ ] } },
{ "type": "Feature", "properties": { "HYRIV_ID": 41397811, "NEXT_DOWN": 41397790, "MAIN_RIV": 41396222, "LENGTH_KM": 2.48, "DIST_DN_KM": 65.800003, "DIST_UP_KM": 19.6, "CATCH_SKM": 5.0900002, "UPLAND_SKM": 108.8, "ENDORHEIC": 0, "DIS_AV_CMS": 1.396, "ORD_STRA": 2, "ORD_CLAS": 1, "ORD_FLOW": 6, "HYBAS_L12": 4121600590.0, "Shape_Length": 0.022559223176607537 }, "geometry": { "type": "Polygon", "coordinates": [ ] } },
{ "type": "Feature", "properties": { "HYRIV_ID": 41397812, "NEXT_DOWN": 41397811, "MAIN_RIV": 41396222, "LENGTH_KM": 5.23, "DIST_DN_KM": 68.400002, "DIST_UP_KM": 16.9, "CATCH_SKM": 19.940001, "UPLAND_SKM": 81.199997, "ENDORHEIC": 0, "DIS_AV_CMS": 1.06, "ORD_STRA": 2, "ORD_CLAS": 1, "ORD_FLOW": 6, "HYBAS_L12": 4121600590.0, "Shape_Length": 0.047559223176624997 }, "geometry": { "type": "Polygon", "coordinates": [ ] } },
{ "type": "Feature", "properties": { "HYRIV_ID": 41397813, "NEXT_DOWN": 41397812, "MAIN_RIV": 41396222, "LENGTH_KM": 2.9400001, "DIST_DN_KM": 73.5, "DIST_UP_KM": 11.9, "CATCH_SKM": 7.0, "UPLAND_SKM": 52.400002, "ENDORHEIC": 0, "DIS_AV_CMS": 0.69800001, "ORD_STRA": 2, "ORD_CLAS": 1, "ORD_FLOW": 7, "HYBAS_L12": 4121600590.0, "Shape_Length": 0.026725889843116534 }, "geometry": { "type": "Polygon", "coordinates": [ ] } },
{ "type": "Feature", "properties": { "HYRIV_ID": 41397916, "NEXT_DOWN": 41397811, "MAIN_RIV": 41396222, "LENGTH_KM": 3.6600001, "DIST_DN_KM": 68.199997, "DIST_UP_KM": 8.0, "CATCH_SKM": 22.49, "UPLAND_SKM": 22.5, "ENDORHEIC": 0, "DIS_AV_CMS": 0.285, "ORD_STRA": 1, "ORD_CLAS": 2, "ORD_FLOW": 7, "HYBAS_L12": 4121600590.0, "Shape_Length": 0.033123947784563297 }, "geometry": { "type": "Polygon", "coordinates": [ ] } },
{ "type": "Feature", "properties": { "HYRIV_ID": 41397971, "NEXT_DOWN": 41397597, "MAIN_RIV": 41396222, "LENGTH_KM": 11.45, "DIST_DN_KM": 54.599998, "DIST_UP_KM": 16.4, "CATCH_SKM": 56.849998, "UPLAND_SKM": 56.900002, "ENDORHEIC": 0, "DIS_AV_CMS": 0.60600001, "ORD_STRA": 1, "ORD_CLAS": 2, "ORD_FLOW": 7, "HYBAS_L12": 4121154970.0, "Shape_Length": 0.10353851002056107 }, "geometry": { "type": "Polygon", "coordinates": [ ] } },
{ "type": "Feature", "properties": { "HYRIV_ID": 41397972, "NEXT_DOWN": 41397813, "MAIN_RIV": 41396222, "LENGTH_KM": 4.6799998, "DIST_DN_KM": 76.400002, "DIST_UP_KM": 8.7, "CATCH_SKM": 25.67, "UPLAND_SKM": 25.700001, "ENDORHEIC": 0, "DIS_AV_CMS": 0.347, "ORD_STRA": 1, "ORD_CLAS": 2, "ORD_FLOW": 7, "HYBAS_L12": 4121600590.0, "Shape_Length": 0.04232022603961845 }, "geometry": { "type": "Polygon", "coordinates": [ ] } },
{ "type": "Feature", "properties": { "HYRIV_ID": 41398058, "NEXT_DOWN": 41397813, "MAIN_RIV": 41396222, "LENGTH_KM": 5.1500001, "DIST_DN_KM": 76.400002, "DIST_UP_KM": 8.9, "CATCH_SKM": 19.73, "UPLAND_SKM": 19.700001, "ENDORHEIC": 0, "DIS_AV_CMS": 0.262, "ORD_STRA": 1, "ORD_CLAS": 1, "ORD_FLOW": 7, "HYBAS_L12": 4121600590.0, "Shape_Length": 0.046486892706479148 }, "geometry": { "type": "Polygon", "coordinates": [ ] } },
{ "type": "Feature", "properties": { "HYRIV_ID": 41398166, "NEXT_DOWN": 41397790, "MAIN_RIV": 41396222, "LENGTH_KM": 10.88, "DIST_DN_KM": 65.800003, "DIST_UP_KM": 14.6, "CATCH_SKM": 47.52, "UPLAND_SKM": 47.5, "ENDORHEIC": 0, "DIS_AV_CMS": 0.57700002, "ORD_STRA": 1, "ORD_CLAS": 2, "ORD_FLOW": 7, "HYBAS_L12": 4121600590.0, "Shape_Length": 0.098360840490813367 }, "geometry": { "type": "Polygon", "coordinates": [ ] } }
]
}
