{
"type": "FeatureCollection",
"name": "main_river_41408119",
"crs": { "type": "name", "properties": { "name": "urn:ogc:def:crs:OGC:1.3:CRS84" } },
"features": [
{ "type": "Feature", "properties": { "HYRIV_ID": 41407674, "NEXT_DOWN": 41407717, "MAIN_RIV": 41408119, "LENGTH_KM": 0.69, "DIST_DN_KM": 26.0, "DIST_UP_KM": 3.5, "CATCH_SKM": 3.2, "UPLAND_SKM": 3.2, "ENDORHEIC": 0, "DIS_AV_CMS": 0.15, "ORD_STRA": 1, "ORD_CLAS": 3, "ORD_FLOW": 7, "HYBAS_L12": 4121159480.0, "Shape_Length": 0.0062499999999090505 }, "geometry": { "type": "MultiLineString", "coordinates": [ [ [ 80.087499999999721, 6.527083333333245 ], [ 80.093749999999631, 6.527083333333245 ] ] ] } },
{ "type": "Feature", "properties": { "HYRIV_ID": 41407675, "NEXT_DOWN": 41407717, "MAIN_RIV": 41408119, "LENGTH_KM": 0.69, "DIST_DN_KM": 26.0, "DIST_UP_KM": 2.2, "CATCH_SKM": 3.6300001, "UPLAND_SKM": 3.6, "ENDORHEIC": 0, "DIS_AV_CMS": 0.171, "ORD_STRA": 1, "ORD_CLAS": 4, "ORD_FLOW": 7, "HYBAS_L12": 4121159480.0, "Shape_Length": 0.0062499999999943157 }, "geometry": { "type": "MultiLineString", "coordinates": [ [ [ 80.093749999999631, 6.533333333333239 ], [ 80.093749999999631, 6.527083333333245 ] ] ] } },
{ "type": "Feature", "properties": { "HYRIV_ID": 41407717, "NEXT_DOWN": 41407823, "MAIN_RIV": 41408119, "LENGTH_KM": 1.58, "DIST_DN_KM": 24.4, "DIST_UP_KM": 5.1, "CATCH_SKM": 1.28, "UPLAND_SKM": 8.1, "ENDORHEIC": 0, "DIS_AV_CMS": 0.383, "ORD_STRA": 2, "ORD_CLAS": 3, "ORD_FLOW": 7, "HYBAS_L12": 4121159480.0, "Shape_Length": 0.014225889843224225 }, "geometry": { "type": "MultiLineString", "coordinates": [ [ [ 80.093749999999631, 6.527083333333245 ], [ 80.097916666666293, 6.527083333333245 ], [ 80.102083333332956, 6.522916666666539 ], [ 80.102083333332956, 6.518749999999891 ] ] ] } },
{ "type": "Feature", "properties": { "HYRIV_ID": 41407718, "NEXT_DOWN": 41407823, "MAIN_RIV": 41408119, "LENGTH_KM": 5.4499998, "DIST_DN_KM": 24.6, "DIST_UP_KM": 7.2, "CATCH_SKM": 13.65, "UPLAND_SKM": 13.6, "ENDORHEIC": 0, "DIS_AV_CMS": 0.65200001, "ORD_STRA": 1, "ORD_CLAS": 2, "ORD_FLOW": 7, "HYBAS_L12": 4121159480.0, "Shape_Length": 0.049075727471080674 }, "geometry": { "type": "MultiLineString", "coordinates": [ [ [ 80.104166666666373, 6.558333333333231 ], [ 80.110416666666339, 6.552083333333236 ], [ 80.110416666666339, 6.547916666666573 ], [ 80.114583333333002, 6.54375 ], [ 80.114583333333002, 6.535416666666556 ], [ 80.106249999999619, 6.527083333333245 ], [ 80.106249999999619, 6.522916666666539 ], [ 80.102083333332956, 6.518749999999891 ] ] ] } },
{ "type": "Feature", "properties": { "HYRIV_ID": 41407741, "NEXT_DOWN": 41407824, "MAIN_RIV": 41408119, "LENGTH_KM": 1.4400001, "DIST_DN_KM": 25.5, "DIST_UP_KM": 3.3, "CATCH_SKM": 5.54, "UPLAND_SKM": 5.5, "ENDORHEIC": 0, "DIS_AV_CMS": 0.266, "ORD_STRA": 1, "ORD_CLAS": 3, "ORD_FLOW": 7, "HYBAS_L12": 4121159480.0, "Shape_Length": 0.013005501431486682 }, "geometry": { "type": "MultiLineString", "coordinates": [ [ [ 80.133333333332956, 6.525 ], [ 80.12708333333299, 6.518749999999891 ], [ 80.12708333333299, 6.514583333333228 ] ] ] } },
{ "type": "Feature", "properties": { "HYRIV_ID": 41407742, "NEXT_DOWN": 41407824, "MAIN_RIV": 41408119, "LENGTH_KM": 0.98, "DIST_DN_KM": 25.700001, "DIST_UP_KM": 2.9, "CATCH_SKM": 2.35, "UPLAND_SKM": 2.3, "ENDORHEIC": 0, "DIS_AV_CMS": 0.113, "ORD_STRA": 1, "ORD_CLAS": 4, "ORD_FLOW": 7, "HYBAS_L12": 4121159480.0, "Shape_Length": 0.0088388347648037068 }, "geometry": { "type": "MultiLineString", "coordinates": [ [ [ 80.133333333332956, 6.520833333333222 ], [ 80.12708333333299, 6.514583333333228 ] ] ] } },
{ "type": "Feature", "properties": { "HYRIV_ID": 41407822, "NEXT_DOWN": 41408019, "MAIN_RIV": 41408119, "LENGTH_KM": 3.58, "DIST_DN_KM": 21.5, "DIST_UP_KM": 4.9, "CATCH_SKM": 8.96, "UPLAND_SKM": 9.0, "ENDORHEIC": 0, "DIS_AV_CMS": 0.421, "ORD_STRA": 1, "ORD_CLAS": 3, "ORD_FLOW": 7, "HYBAS_L12": 4121159480.0, "Shape_Length": 0.032261002862983612 }, "geometry": { "type": "MultiLineString", "coordinates": [ [ [ 80.072916666666316, 6.520833333333222 ], [ 80.072916666666316, 6.514583333333228 ], [ 80.077083333332979, 6.510416666666565 ], [ 80.077083333332979, 6.50625 ], [ 80.085416666666305, 6.497916666666548 ], [ 80.089583333332968, 6.497916666666548 ] ] ] } },
{ "type": "Feature", "properties": { "HYRIV_ID": 41407823, "NEXT_DOWN": 41408019, "MAIN_RIV": 41408119, "LENGTH_KM": 2.8900001, "DIST_DN_KM": 21.700001, "DIST_UP_KM": 10.0, "CATCH_SKM": 5.54, "UPLAND_SKM": 27.3, "ENDORHEIC": 0, "DIS_AV_CMS": 1.306, "ORD_STRA": 2, "ORD_CLAS": 2, "ORD_FLOW": 6, "HYBAS_L12": 4121159480.0, "Shape_Length": 0.026011002863005946 }, "geometry": { "type": "MultiLineString", "coordinates": [ [ [ 80.102083333332956, 6.518749999999891 ], [ 80.097916666666293, 6.514583333333228 ], [ 80.097916666666293, 6.510416666666565 ], [ 80.093749999999631, 6.50625 ], [ 80.093749999999631, 6.502083333333211 ], [ 80.089583333332968, 6.497916666666548 ] ] ] } },
{ "type": "Feature", "properties": { "HYRIV_ID": 41407824, "NEXT_DOWN": 41407923, "MAIN_RIV": 41408119, "LENGTH_KM": 2.23, "DIST_DN_KM": 23.5, "DIST_UP_KM": 5.4, "CATCH_SKM": 4.9099998, "UPLAND_SKM": 12.8, "ENDORHEIC": 0, "DIS_AV_CMS": 0.61500001, "ORD_STRA": 2, "ORD_CLAS": 3, "ORD_FLOW": 7, "HYBAS_L12": 4121159480.0, "Shape_Length": 0.020118446353123411 }, "geometry": { "type": "MultiLineString", "coordinates": [ [ [ 80.12708333333299, 6.514583333333228 ], [ 80.12708333333299, 6.510416666666565 ], [ 80.122916666666328, 6.50625 ], [ 80.122916666666328, 6.502083333333211 ], [ 80.118749999999665, 6.497916666666548 ] ] ] } },
{ "type": "Feature", "properties": { "HYRIV_ID": 41407825, "NEXT_DOWN": 41407923, "MAIN_RIV": 41408119, "LENGTH_KM": 0.69, "DIST_DN_KM": 23.3, "DIST_UP_KM": 2.9, "CATCH_SKM": 2.56, "UPLAND_SKM": 2.6, "ENDORHEIC": 0, "DIS_AV_CMS": 0.123, "ORD_STRA": 1, "ORD_CLAS": 4, "ORD_FLOW": 7, "HYBAS_L12": 4121159480.0, "Shape_Length": 0.0062499999999658939 }, "geometry": { "type": "MultiLineString", "coordinates": [ [ [ 80.124999999999631, 6.497916666666548 ], [ 80.118749999999665, 6.497916666666548 ] ] ] } },
{ "type": "Feature", "properties": { "HYRIV_ID": 41407923, "NEXT_DOWN": 41407960, "MAIN_RIV": 41408119, "LENGTH_KM": 2.97, "DIST_DN_KM": 20.3, "DIST_UP_KM": 8.6, "CATCH_SKM": 6.83, "UPLAND_SKM": 22.200001, "ENDORHEIC": 0, "DIS_AV_CMS": 1.077, "ORD_STRA": 2, "ORD_CLAS": 3, "ORD_FLOW": 6, "HYBAS_L12": 4121159480.0, "Shape_Length": 0.026725889843211132 }, "geometry": { "type": "MultiLineString", "coordinates": [ [ [ 80.118749999999665, 6.497916666666548 ], [ 80.118749999999665, 6.493749999999899 ], [ 80.114583333333002, 6.489583333333236 ], [ 80.114583333333002, 6.472916666666556 ] ] ] } },
{ "type": "Feature", "properties": { "HYRIV_ID": 41407924, "NEXT_DOWN": 41407960, "MAIN_RIV": 41408119, "LENGTH_KM": 4.1300001, "DIST_DN_KM": 20.3, "DIST_UP_KM": 6.0, "CATCH_SKM": 7.6799998, "UPLAND_SKM": 7.7, "ENDORHEIC": 0, "DIS_AV_CMS": 0.373, "ORD_STRA": 1, "ORD_CLAS": 4, "ORD_FLOW": 7, "HYBAS_L12": 4121159480.0, "Shape_Length": 0.037290614451309718 }, "geometry": { "type": "MultiLineString", "coordinates": [ [ [ 80.141666666666339, 6.491666666666568 ], [ 80.135416666666373, 6.485416666666573 ], [ 80.131249999999653, 6.485416666666573 ], [ 80.12708333333299, 6.48125 ], [ 80.12708333333299, 6.477083333333219 ], [ 80.122916666666328, 6.477083333333219 ], [ 80.118749999999665, 6.472916666666556 ], [ 80.114583333333002, 6.472916666666556 ] ] ] } },
{ "type": "Feature", "properties": { "HYRIV_ID": 41407943, "NEXT_DOWN": 41407977, "MAIN_RIV": 41408119, "LENGTH_KM": 4.1300001, "DIST_DN_KM": 23.4, "DIST_UP_KM": 5.4, "CATCH_SKM": 13.65, "UPLAND_SKM": 13.7, "ENDORHEIC": 0, "DIS_AV_CMS": 0.66600001, "ORD_STRA": 1, "ORD_CLAS": 5, "ORD_FLOW": 7, "HYBAS_L12": 4121159480.0, "Shape_Length": 0.037290614451246984 }, "geometry": { "type": "MultiLineString", "coordinates": [ [ [ 80.174999999999642, 6.483333333333242 ], [ 80.16458333333307, 6.472916666666556 ], [ 80.147916666666362, 6.472916666666556 ], [ 80.143749999999699, 6.46875 ] ] ] } },
{ "type": "Feature", "properties": { "HYRIV_ID": 41407944, "NEXT_DOWN": 41407963, "MAIN_RIV": 41408119, "LENGTH_KM": 1.62, "DIST_DN_KM": 43.3, "DIST_UP_KM": 3.4, "CATCH_SKM": 6.4, "UPLAND_SKM": 6.4, "ENDORHEIC": 0, "DIS_AV_CMS": 0.313, "ORD_STRA": 1, "ORD_CLAS": 2, "ORD_FLOW": 7, "HYBAS_L12": 4121159600.0, "Shape_Length": 0.014583333333334281 }, "geometry": { "type": "MultiLineString", "coordinates": [ [ [ 80.206249999999642, 6.483333333333242 ], [ 80.206249999999642, 6.46875 ] ] ] } },
{ "type": "Feature", "properties": { "HYRIV_ID": 41407945, "NEXT_DOWN": 41407963, "MAIN_RIV": 41408119, "LENGTH_KM": 1.34, "DIST_DN_KM": 43.5, "DIST_UP_KM": 2.9, "CATCH_SKM": 2.77, "UPLAND_SKM": 2.8, "ENDORHEIC": 0, "DIS_AV_CMS": 0.13500001, "ORD_STRA": 1, "ORD_CLAS": 3, "ORD_FLOW": 7, "HYBAS_L12": 4121159600.0, "Shape_Length": 0.012142556509952069 }, "geometry": { "type": "MultiLineString", "coordinates": [ [ [ 80.216666666666384, 6.472916666666556 ], [ 80.210416666666305, 6.472916666666556 ], [ 80.206249999999642, 6.46875 ] ] ] } },
{ "type": "Feature", "properties": { "HYRIV_ID": 41407960, "NEXT_DOWN": 41407995, "MAIN_RIV": 41408119, "LENGTH_KM": 0.93, "DIST_DN_KM": 19.4, "DIST_UP_KM": 9.5, "CATCH_SKM": 0.85, "UPLAND_SKM": 30.700001, "ENDORHEIC": 0, "DIS_AV_CMS": 1.499, "ORD_STRA": 2, "ORD_CLAS": 3, "ORD_FLOW": 6, "HYBAS_L12": 4121159480.0, "Shape_Length": 0.0083333333333115434 }, "geometry": { "type": "MultiLineString", "coordinates": [ [ [ 80.114583333333002, 6.472916666666556 ], [ 80.114583333333002, 6.464583333333245 ] ] ] } },
{ "type": "Feature", "properties": { "HYRIV_ID": 41407961, "NEXT_DOWN": 41407977, "MAIN_RIV": 41408119, "LENGTH_KM": 1.16, "DIST_DN_KM": 23.200001, "DIST_UP_KM": 2.3, "CATCH_SKM": 2.77, "UPLAND_SKM": 2.8, "ENDORHEIC": 0, "DIS_AV_CMS": 0.134, "ORD_STRA": 1, "ORD_CLAS": 6, "ORD_FLOW": 7, "HYBAS_L12": 4121159480.0, "Shape_Length": 0.010416666666699825 }, "geometry": { "type": "MultiLineString", "coordinates": [ [ [ 80.147916666666362, 6.462499999999871 ], [ 80.147916666666362, 6.46875 ], [ 80.143749999999699, 6.46875 ] ] ] } },
{ "type": "Feature", "properties": { "HYRIV_ID": 41407962, "NEXT_DOWN": 41408022, "MAIN_RIV": 41408119, "LENGTH_KM": 2.56, "DIST_DN_KM": 42.900002, "DIST_UP_KM": 3.8, "CATCH_SKM": 4.9099998, "UPLAND_SKM": 4.9, "ENDORHEIC": 0, "DIS_AV_CMS": 0.239, "ORD_STRA": 1, "ORD_CLAS": 3, "ORD_FLOW": 7, "HYBAS_L12": 4121159600.0, "Shape_Length": 0.023064724607997786 }, "geometry": { "type": "MultiLineString", "coordinates": [ [ [ 80.19166666666635, 6.479166666666551 ], [ 80.197916666666316, 6.472916666666556 ], [ 80.197916666666316, 6.46875 ], [ 80.202083333332979, 6.464583333333245 ], [ 80.206249999999642, 6.464583333333245 ] ] ] } },
{ "type": "Feature", "properties": { "HYRIV_ID": 41407963, "NEXT_DOWN": 41408022, "MAIN_RIV": 41408119, "LENGTH_KM": 0.46, "DIST_DN_KM": 42.900002, "DIST_UP_KM": 3.9, "CATCH_SKM": 1.28, "UPLAND_SKM": 10.5, "ENDORHEIC": 0, "DIS_AV_CMS": 0.51200002, "ORD_STRA": 2, "ORD_CLAS": 2, "ORD_FLOW": 7, "HYBAS_L12": 4121159600.0, "Shape_Length": 0.0041666666666628771 }, "geometry": { "type": "MultiLineString", "coordinates": [ [ [ 80.206249999999642, 6.46875 ], [ 80.206249999999642, 6.464583333333245 ] ] ] } },
{ "type": "Feature", "properties": { "HYRIV_ID": 41407964, "NEXT_DOWN": 41408022, "MAIN_RIV": 41408119, "LENGTH_KM": 1.15, "DIST_DN_KM": 42.900002, "DIST_UP_KM": 3.3, "CATCH_SKM": 2.77, "UPLAND_SKM": 2.8, "ENDORHEIC": 0, "DIS_AV_CMS": 0.13500001, "ORD_STRA": 1, "ORD_CLAS": 4, "ORD_FLOW": 7, "HYBAS_L12": 4121159600.0, "Shape_Length": 0.010416666666742458 }, "geometry": { "type": "MultiLineString", "coordinates": [ [ [ 80.216666666666384, 6.464583333333245 ], [ 80.206249999999642, 6.464583333333245 ] ] ] } },
{ "type": "Feature", "properties": { "HYRIV_ID": 41407976, "NEXT_DOWN": 41407995, "MAIN_RIV": 41408119, "LENGTH_KM": 0.65, "DIST_DN_KM": 19.6, "DIST_UP_KM": 9.2, "CATCH_SKM": 0.64, "UPLAND_SKM": 46.900002, "ENDORHEIC": 0, "DIS_AV_CMS": 2.3080001, "ORD_STRA": 3, "ORD_CLAS": 4, "ORD_FLOW": 6, "HYBAS_L12": 4121159480.0, "Shape_Length": 0.0058925565098825365 }, "geometry": { "type": "MultiLineString", "coordinates": [ [ [ 80.118749999999665, 6.460416666666582 ], [ 80.114583333333002, 6.464583333333245 ] ] ] } },
{ "type": "Feature", "properties": { "HYRIV_ID": 41407977, "NEXT_DOWN": 41407976, "MAIN_RIV": 41408119, "LENGTH_KM": 3.1500001, "DIST_DN_KM": 20.200001, "DIST_UP_KM": 8.5, "CATCH_SKM": 3.84, "UPLAND_SKM": 20.3, "ENDORHEIC": 0, "DIS_AV_CMS": 0.99699998, "ORD_STRA": 2, "ORD_CLAS": 5, "ORD_FLOW": 7, "HYBAS_L12": 4121159480.0, "Shape_Length": 0.028451779686473423 }, "geometry": { "type": "MultiLineString", "coordinates": [ [ [ 80.143749999999699, 6.46875 ], [ 80.12708333333299, 6.46875 ], [ 80.118749999999665, 6.460416666666582 ] ] ] } },
{ "type": "Feature", "properties": { "HYRIV_ID": 41407995, "NEXT_DOWN": 41408020, "MAIN_RIV": 41408119, "LENGTH_KM": 1.77, "DIST_DN_KM": 17.8, "DIST_UP_KM": 11.1, "CATCH_SKM": 2.99, "UPLAND_SKM": 80.599998, "ENDORHEIC": 0, "DIS_AV_CMS": 3.98, "ORD_STRA": 3, "ORD_CLAS": 3, "ORD_FLOW": 6, "HYBAS_L12": 4121159480.0, "Shape_Length": 0.015951779686458098 }, "geometry": { "type": "MultiLineString", "coordinates": [ [ [ 80.114583333333002, 6.464583333333245 ], [ 80.110416666666339, 6.464583333333245 ], [ 80.102083333332956, 6.45625 ] ] ] } },
{ "type": "Feature", "properties": { "HYRIV_ID": 41408019, "NEXT_DOWN": 41408044, "MAIN_RIV": 41408119, "LENGTH_KM": 6.1300001, "DIST_DN_KM": 15.4, "DIST_UP_KM": 16.4, "CATCH_SKM": 13.01, "UPLAND_SKM": 49.3, "ENDORHEIC": 0, "DIS_AV_CMS": 2.4059999, "ORD_STRA": 2, "ORD_CLAS": 2, "ORD_FLOW": 6, "HYBAS_L12": 4121159480.0, "Shape_Length": 0.055177669529650253 }, "geometry": { "type": "MultiLineString", "coordinates": [ [ [ 80.089583333332968, 6.497916666666548 ], [ 80.093749999999631, 6.493749999999899 ], [ 80.093749999999631, 6.46875 ], [ 80.089583333332968, 6.464583333333245 ], [ 80.089583333332968, 6.460416666666582 ], [ 80.085416666666305, 6.45625 ], [ 80.085416666666305, 6.447916666666565 ] ] ] } },
{ "type": "Feature", "properties": { "HYRIV_ID": 41408020, "NEXT_DOWN": 41408044, "MAIN_RIV": 41408119, "LENGTH_KM": 2.23, "DIST_DN_KM": 15.6, "DIST_UP_KM": 13.3, "CATCH_SKM": 2.99, "UPLAND_SKM": 88.699997, "ENDORHEIC": 0, "DIS_AV_CMS": 4.4120002, "ORD_STRA": 3, "ORD_CLAS": 3, "ORD_FLOW": 6, "HYBAS_L12": 4121159480.0, "Shape_Length": 0.020118446353120972 }, "geometry": { "type": "MultiLineString", "coordinates": [ [ [ 80.102083333332956, 6.45625 ], [ 80.097916666666293, 6.45625 ], [ 80.093749999999631, 6.452083333333228 ], [ 80.089583333332968, 6.452083333333228 ], [ 80.085416666666305, 6.447916666666565 ] ] ] } },
{ "type": "Feature", "properties": { "HYRIV_ID": 41408021, "NEXT_DOWN": 41408046, "MAIN_RIV": 41408119, "LENGTH_KM": 2.09, "DIST_DN_KM": 40.599998, "DIST_UP_KM": 3.6, "CATCH_SKM": 6.6100001, "UPLAND_SKM": 6.6, "ENDORHEIC": 0, "DIS_AV_CMS": 0.322, "ORD_STRA": 1, "ORD_CLAS": 3, "ORD_FLOW": 7, "HYBAS_L12": 4121159600.0, "Shape_Length": 0.018898057941385868 }, "geometry": { "type": "MultiLineString", "coordinates": [ [ [ 80.187499999999687, 6.45833333333325 ], [ 80.193749999999596, 6.452083333333228 ], [ 80.197916666666316, 6.452083333333228 ], [ 80.202083333332979, 6.447916666666565 ] ] ] } },
{ "type": "Feature", "properties": { "HYRIV_ID": 41408022, "NEXT_DOWN": 41408046, "MAIN_RIV": 41408119, "LENGTH_KM": 2.4200001, "DIST_DN_KM": 40.599998, "DIST_UP_KM": 6.1, "CATCH_SKM": 7.25, "UPLAND_SKM": 25.4, "ENDORHEIC": 0, "DIS_AV_CMS": 1.25, "ORD_STRA": 2, "ORD_CLAS": 2, "ORD_FLOW": 6, "HYBAS_L12": 4121159600.0, "Shape_Length": 0.021844336196330583 }, "geometry": { "type": "MultiLineString", "coordinates": [ [ [ 80.206249999999642, 6.464583333333245 ], [ 80.206249999999642, 6.460416666666582 ], [ 80.202083333332979, 6.45625 ], [ 80.206249999999642, 6.452083333333228 ], [ 80.202083333332979, 6.447916666666565 ] ] ] } },
{ "type": "Feature", "properties": { "HYRIV_ID": 41408044, "NEXT_DOWN": 41408063, "MAIN_RIV": 41408119, "LENGTH_KM": 0.46, "DIST_DN_KM": 14.9, "DIST_UP_KM": 16.8, "CATCH_SKM": 0.85, "UPLAND_SKM": 138.8, "ENDORHEIC": 0, "DIS_AV_CMS": 6.8759999, "ORD_STRA": 3, "ORD_CLAS": 2, "ORD_FLOW": 6, "HYBAS_L12": 4121159480.0, "Shape_Length": 0.0041666666666628771 }, "geometry": { "type": "MultiLineString", "coordinates": [ [ [ 80.085416666666305, 6.447916666666565 ], [ 80.085416666666305, 6.44375 ] ] ] } },
{ "type": "Feature", "properties": { "HYRIV_ID": 41408045, "NEXT_DOWN": 41408063, "MAIN_RIV": 41408119, "LENGTH_KM": 0.69, "DIST_DN_KM": 14.9, "DIST_UP_KM": 3.0, "CATCH_SKM": 2.77, "UPLAND_SKM": 2.8, "ENDORHEIC": 0, "DIS_AV_CMS": 0.131, "ORD_STRA": 1, "ORD_CLAS": 3, "ORD_FLOW": 7, "HYBAS_L12": 4121159480.0, "Shape_Length": 0.0062499999999658939 }, "geometry": { "type": "MultiLineString", "coordinates": [ [ [ 80.091666666666271, 6.44375 ], [ 80.085416666666305, 6.44375 ] ] ] } },
{ "type": "Feature", "properties": { "HYRIV_ID": 41408046, "NEXT_DOWN": 41408122, "MAIN_RIV": 41408119, "LENGTH_KM": 0.46, "DIST_DN_KM": 40.0, "DIST_UP_KM": 6.8, "CATCH_SKM": 0.85, "UPLAND_SKM": 32.8, "ENDORHEIC": 0, "DIS_AV_CMS": 1.617, "ORD_STRA": 2, "ORD_CLAS": 2, "ORD_FLOW": 6, "HYBAS_L12": 4121159600.0, "Shape_Length": 0.0041666666666628771 }, "geometry": { "type": "MultiLineString", "coordinates": [ [ [ 80.202083333332979, 6.447916666666565 ], [ 80.202083333332979, 6.44375 ] ] ] } },
{ "type": "Feature", "properties": { "HYRIV_ID": 41408062, "NEXT_DOWN": 41408121, "MAIN_RIV": 41408119, "LENGTH_KM": 7.9499998, "DIST_DN_KM": 14.4, "DIST_UP_KM": 9.5, "CATCH_SKM": 23.25, "UPLAND_SKM": 23.200001, "ENDORHEIC": 0, "DIS_AV_CMS": 1.108, "ORD_STRA": 1, "ORD_CLAS": 3, "ORD_FLOW": 6, "HYBAS_L12": 4121159480.0, "Shape_Length": 0.071634950647573817 }, "geometry": { "type": "MultiLineString", "coordinates": [ [ [ 80.054166666666305, 6.499999999999879 ], [ 80.060416666666271, 6.493749999999899 ], [ 80.060416666666271, 6.489583333333236 ], [ 80.06458333333299, 6.485416666666573 ], [ 80.06458333333299, 6.477083333333219 ], [ 80.072916666666316, 6.46875 ], [ 80.072916666666316, 6.45625 ], [ 80.077083333332979, 6.452083333333228 ], [ 80.077083333332979, 6.44375 ], [ 80.081249999999642, 6.439583333333253 ] ] ] } },
{ "type": "Feature", "properties": { "HYRIV_ID": 41408063, "NEXT_DOWN": 41408121, "MAIN_RIV": 41408119, "LENGTH_KM": 0.65, "DIST_DN_KM": 14.4, "DIST_UP_KM": 17.3, "CATCH_SKM": 0.43, "UPLAND_SKM": 142.0, "ENDORHEIC": 0, "DIS_AV_CMS": 7.0469999, "ORD_STRA": 3, "ORD_CLAS": 2, "ORD_FLOW": 6, "HYBAS_L12": 4121159480.0, "Shape_Length": 0.0058925565098724882 }, "geometry": { "type": "MultiLineString", "coordinates": [ [ [ 80.085416666666305, 6.44375 ], [ 80.081249999999642, 6.439583333333253 ] ] ] } },
{ "type": "Feature", "properties": { "HYRIV_ID": 41408064, "NEXT_DOWN": 41408020, "MAIN_RIV": 41408119, "LENGTH_KM": 2.56, "DIST_DN_KM": 17.6, "DIST_UP_KM": 4.0, "CATCH_SKM": 5.12, "UPLAND_SKM": 5.1, "ENDORHEIC": 0, "DIS_AV_CMS": 0.245, "ORD_STRA": 1, "ORD_CLAS": 4, "ORD_FLOW": 7, "HYBAS_L12": 4121159480.0, "Shape_Length": 0.023064724608195312 }, "geometry": { "type": "MultiLineString", "coordinates": [ [ [ 80.112499999999756, 6.437499999999879 ], [ 80.106249999999619, 6.44375 ], [ 80.106249999999619, 6.447916666666565 ], [ 80.102083333332956, 6.452083333333228 ], [ 80.102083333332956, 6.45625 ] ] ] } },
{ "type": "Feature", "properties": { "HYRIV_ID": 41408065, "NEXT_DOWN": 41408084, "MAIN_RIV": 41408119, "LENGTH_KM": 1.8, "DIST_DN_KM": 25.5, "DIST_UP_KM": 3.1, "CATCH_SKM": 5.7600002, "UPLAND_SKM": 5.8, "ENDORHEIC": 0, "DIS_AV_CMS": 0.27900001, "ORD_STRA": 1, "ORD_CLAS": 5, "ORD_FLOW": 7, "HYBAS_L12": 4121159480.0, "Shape_Length": 0.016309223176501259 }, "geometry": { "type": "MultiLineString", "coordinates": [ [ [ 80.166666666666316, 6.44375 ], [ 80.156249999999687, 6.44375 ], [ 80.152083333333024, 6.439583333333253 ] ] ] } },
{ "type": "Feature", "properties": { "HYRIV_ID": 41408066, "NEXT_DOWN": 41408084, "MAIN_RIV": 41408119, "LENGTH_KM": 0.69, "DIST_DN_KM": 25.3, "DIST_UP_KM": 2.9, "CATCH_SKM": 2.77, "UPLAND_SKM": 2.8, "ENDORHEIC": 0, "DIS_AV_CMS": 0.134, "ORD_STRA": 1, "ORD_CLAS": 6, "ORD_FLOW": 7, "HYBAS_L12": 4121159480.0, "Shape_Length": 0.0062499999999658939 }, "geometry": { "type": "MultiLineString", "coordinates": [ [ [ 80.15833333333299, 6.439583333333253 ], [ 80.152083333333024, 6.439583333333253 ] ] ] } },
{ "type": "Feature", "properties": { "HYRIV_ID": 41408067, "NEXT_DOWN": 41408122, "MAIN_RIV": 41408119, "LENGTH_KM": 1.34, "DIST_DN_KM": 40.200001, "DIST_UP_KM": 3.1, "CATCH_SKM": 4.0500002, "UPLAND_SKM": 4.1, "ENDORHEIC": 0, "DIS_AV_CMS": 0.196, "ORD_STRA": 1, "ORD_CLAS": 3, "ORD_FLOW": 7, "HYBAS_L12": 4121159600.0, "Shape_Length": 0.012142556509838382 }, "geometry": { "type": "MultiLineString", "coordinates": [ [ [ 80.19166666666635, 6.439583333333253 ], [ 80.197916666666316, 6.439583333333253 ], [ 80.202083333332979, 6.44375 ] ] ] } },
{ "type": "Feature", "properties": { "HYRIV_ID": 41408083, "NEXT_DOWN": 41407976, "MAIN_RIV": 41408119, "LENGTH_KM": 4.1900001, "DIST_DN_KM": 20.200001, "DIST_UP_KM": 8.6, "CATCH_SKM": 8.5299997, "UPLAND_SKM": 26.0, "ENDORHEIC": 0, "DIS_AV_CMS": 1.274, "ORD_STRA": 2, "ORD_CLAS": 4, "ORD_FLOW": 6, "HYBAS_L12": 4121159480.0, "Shape_Length": 0.03779611588281466 }, "geometry": { "type": "MultiLineString", "coordinates": [ [ [ 80.143749999999699, 6.435416666666548 ], [ 80.139583333333036, 6.435416666666548 ], [ 80.135416666666373, 6.439583333333253 ], [ 80.135416666666373, 6.44375 ], [ 80.118749999999665, 6.460416666666582 ] ] ] } },
{ "type": "Feature", "properties": { "HYRIV_ID": 41408084, "NEXT_DOWN": 41408083, "MAIN_RIV": 41408119, "LENGTH_KM": 1.11, "DIST_DN_KM": 24.200001, "DIST_UP_KM": 4.5, "CATCH_SKM": 1.28, "UPLAND_SKM": 9.8, "ENDORHEIC": 0, "DIS_AV_CMS": 0.477, "ORD_STRA": 2, "ORD_CLAS": 5, "ORD_FLOW": 7, "HYBAS_L12": 4121159480.0, "Shape_Length": 0.010059223176575559 }, "geometry": { "type": "MultiLineString", "coordinates": [ [ [ 80.152083333333024, 6.439583333333253 ], [ 80.147916666666362, 6.435416666666548 ], [ 80.143749999999699, 6.435416666666548 ] ] ] } },
{ "type": "Feature", "properties": { "HYRIV_ID": 41408119, "NEXT_DOWN": 0, "MAIN_RIV": 41408119, "LENGTH_KM": 4.4499998, "DIST_DN_KM": 0.0, "DIST_UP_KM": 49.8, "CATCH_SKM": 10.88, "UPLAND_SKM": 672.59998, "ENDORHEIC": 0, "DIS_AV_CMS": 36.108002, "ORD_STRA": 4, "ORD_CLAS": 1, "ORD_FLOW": 5, "HYBAS_L12": 4120048990.0, "Shape_Length": 0.040236892706201753 }, "geometry": { "type": "MultiLineString", "coordinates": [ [ [ 80.027083333333024, 6.427083333333236 ], [ 80.022916666666362, 6.431249999999885 ], [ 80.018749999999699, 6.431249999999885 ], [ 80.014583333333036, 6.435416666666548 ], [ 80.00624999999971, 6.435416666666548 ], [ 79.997916666666328, 6.427083333333236 ], [ 79.993749999999665, 6.427083333333236 ] ] ] } },
{ "type": "Feature", "properties": { "HYRIV_ID": 41408120, "NEXT_DOWN": 41408119, "MAIN_RIV": 41408119, "LENGTH_KM": 5.7199998, "DIST_DN_KM": 4.9, "DIST_UP_KM": 6.8, "CATCH_SKM": 15.57, "UPLAND_SKM": 15.6, "ENDORHEIC": 0, "DIS_AV_CMS": 0.727, "ORD_STRA": 1, "ORD_CLAS": 2, "ORD_FLOW": 7, "HYBAS_L12": 4120048990.0, "Shape_Length": 0.051516504294533229 }, "geometry": { "type": "MultiLineString", "coordinates": [ [ [ 80.037499999999653, 6.470833333333225 ], [ 80.031249999999744, 6.464583333333245 ], [ 80.031249999999744, 6.45625 ], [ 80.027083333333024, 6.452083333333228 ], [ 80.027083333333024, 6.447916666666565 ], [ 80.031249999999744, 6.44375 ], [ 80.031249999999744, 6.431249999999885 ], [ 80.027083333333024, 6.427083333333236 ] ] ] } },
{ "type": "Feature", "properties": { "HYRIV_ID": 41408121, "NEXT_DOWN": 41408230, "MAIN_RIV": 41408119, "LENGTH_KM": 1.58, "DIST_DN_KM": 12.7, "DIST_UP_KM": 19.1, "CATCH_SKM": 4.6900001, "UPLAND_SKM": 170.0, "ENDORHEIC": 0, "DIS_AV_CMS": 8.441, "ORD_STRA": 3, "ORD_CLAS": 2, "ORD_FLOW": 6, "HYBAS_L12": 4121159480.0, "Shape_Length": 0.014225889843236712 }, "geometry": { "type": "MultiLineString", "coordinates": [ [ [ 80.081249999999642, 6.439583333333253 ], [ 80.081249999999642, 6.435416666666548 ], [ 80.077083333332979, 6.431249999999885 ], [ 80.077083333332979, 6.427083333333236 ] ] ] } },
{ "type": "Feature", "properties": { "HYRIV_ID": 41408122, "NEXT_DOWN": 41408231, "MAIN_RIV": 41408119, "LENGTH_KM": 2.23, "DIST_DN_KM": 37.900002, "DIST_UP_KM": 8.8, "CATCH_SKM": 3.4100001, "UPLAND_SKM": 40.3, "ENDORHEIC": 0, "DIS_AV_CMS": 1.999, "ORD_STRA": 2, "ORD_CLAS": 2, "ORD_FLOW": 6, "HYBAS_L12": 4121159600.0, "Shape_Length": 0.020118446353113363 }, "geometry": { "type": "MultiLineString", "coordinates": [ [ [ 80.202083333332979, 6.44375 ], [ 80.206249999999642, 6.439583333333253 ], [ 80.206249999999642, 6.431249999999885 ], [ 80.210416666666305, 6.427083333333236 ] ] ] } },
{ "type": "Feature", "properties": { "HYRIV_ID": 41408123, "NEXT_DOWN": 41408231, "MAIN_RIV": 41408119, "LENGTH_KM": 0.69, "DIST_DN_KM": 37.700001, "DIST_UP_KM": 2.9, "CATCH_SKM": 2.77, "UPLAND_SKM": 2.8, "ENDORHEIC": 0, "DIS_AV_CMS": 0.13500001, "ORD_STRA": 1, "ORD_CLAS": 4, "ORD_FLOW": 7, "HYBAS_L12": 4121159600.0, "Shape_Length": 0.0062500000000795808 }, "geometry": { "type": "MultiLineString", "coordinates": [ [ [ 80.216666666666384, 6.427083333333236 ], [ 80.210416666666305, 6.427083333333236 ] ] ] } },
{ "type": "Feature", "properties": { "HYRIV_ID": 41408138, "NEXT_DOWN": 41408119, "MAIN_RIV": 41408119, "LENGTH_KM": 0.65, "DIST_DN_KM": 4.9, "DIST_UP_KM": 45.200001, "CATCH_SKM": 1.28, "UPLAND_SKM": 646.40002, "ENDORHEIC": 0, "DIS_AV_CMS": 34.27, "ORD_STRA": 4, "ORD_CLAS": 1, "ORD_FLOW": 5, "HYBAS_L12": 4120048990.0, "Shape_Length": 0.005892556509922731 }, "geometry": { "type": "MultiLineString", "coordinates": [ [ [ 80.031249999999744, 6.422916666666573 ], [ 80.027083333333024, 6.427083333333236 ] ] ] } },
{ "type": "Feature", "properties": { "HYRIV_ID": 41408139, "NEXT_DOWN": 41408230, "MAIN_RIV": 41408119, "LENGTH_KM": 2.36, "DIST_DN_KM": 12.7, "DIST_UP_KM": 4.9, "CATCH_SKM": 6.4, "UPLAND_SKM": 6.4, "ENDORHEIC": 0, "DIS_AV_CMS": 0.304, "ORD_STRA": 1, "ORD_CLAS": 3, "ORD_FLOW": 7, "HYBAS_L12": 4121159480.0, "Shape_Length": 0.021338834764872729 }, "geometry": { "type": "MultiLineString", "coordinates": [ [ [ 80.095833333333047, 6.420833333333242 ], [ 80.089583333332968, 6.427083333333236 ], [ 80.077083333332979, 6.427083333333236 ] ] ] } },
{ "type": "Feature", "properties": { "HYRIV_ID": 41408140, "NEXT_DOWN": 41408083, "MAIN_RIV": 41408119, "LENGTH_KM": 2.29, "DIST_DN_KM": 24.4, "DIST_UP_KM": 4.4, "CATCH_SKM": 7.6799998, "UPLAND_SKM": 7.7, "ENDORHEIC": 0, "DIS_AV_CMS": 0.371, "ORD_STRA": 1, "ORD_CLAS": 4, "ORD_FLOW": 7, "HYBAS_L12": 4121159480.0, "Shape_Length": 0.020623947784558734 }, "geometry": { "type": "MultiLineString", "coordinates": [ [ [ 80.15833333333299, 6.420833333333242 ], [ 80.143749999999699, 6.435416666666548 ] ] ] } },
{ "type": "Feature", "properties": { "HYRIV_ID": 41408141, "NEXT_DOWN": 41408231, "MAIN_RIV": 41408119, "LENGTH_KM": 1.4400001, "DIST_DN_KM": 37.700001, "DIST_UP_KM": 3.5, "CATCH_SKM": 2.77, "UPLAND_SKM": 2.8, "ENDORHEIC": 0, "DIS_AV_CMS": 0.13500001, "ORD_STRA": 1, "ORD_CLAS": 3, "ORD_FLOW": 7, "HYBAS_L12": 4121159600.0, "Shape_Length": 0.013005501431466584 }, "geometry": { "type": "MultiLineString", "coordinates": [ [ [ 80.199999999999676, 6.420833333333242 ], [ 80.206249999999642, 6.427083333333236 ], [ 80.210416666666305, 6.427083333333236 ] ] ] } },
{ "type": "Feature", "properties": { "HYRIV_ID": 41408181, "NEXT_DOWN": 41408138, "MAIN_RIV": 41408119, "LENGTH_KM": 2.23, "DIST_DN_KM": 5.5, "DIST_UP_KM": 44.5, "CATCH_SKM": 4.27, "UPLAND_SKM": 620.09998, "ENDORHEIC": 0, "DIS_AV_CMS": 32.948002, "ORD_STRA": 4, "ORD_CLAS": 1, "ORD_FLOW": 5, "HYBAS_L12": 4120048990.0, "Shape_Length": 0.020118446353080778 }, "geometry": { "type": "MultiLineString", "coordinates": [ [ [ 80.047916666666396, 6.414583333333262 ], [ 80.043749999999619, 6.414583333333262 ], [ 80.039583333332956, 6.41875 ], [ 80.035416666666407, 6.41875 ], [ 80.031249999999744, 6.422916666666573 ] ] ] } },
{ "type": "Feature", "properties": { "HYRIV_ID": 41408182, "NEXT_DOWN": 41408181, "MAIN_RIV": 41408119, "LENGTH_KM": 3.9400001, "DIST_DN_KM": 7.6, "DIST_UP_KM": 6.0, "CATCH_SKM": 9.1700001, "UPLAND_SKM": 9.2, "ENDORHEIC": 0, "DIS_AV_CMS": 0.431, "ORD_STRA": 1, "ORD_CLAS": 2, "ORD_FLOW": 7, "HYBAS_L12": 4120048990.0, "Shape_Length": 0.035564724607912629 }, "geometry": { "type": "MultiLineString", "coordinates": [ [ [ 80.054166666666305, 6.437499999999879 ], [ 80.060416666666271, 6.431249999999885 ], [ 80.056249999999778, 6.427083333333236 ], [ 80.052083333332945, 6.427083333333236 ], [ 80.052083333332945, 6.414583333333262 ], [ 80.047916666666396, 6.414583333333262 ] ] ] } },
{ "type": "Feature", "properties": { "HYRIV_ID": 41408214, "NEXT_DOWN": 41408232, "MAIN_RIV": 41408119, "LENGTH_KM": 2.9300001, "DIST_DN_KM": 37.900002, "DIST_UP_KM": 5.9, "CATCH_SKM": 9.1700001, "UPLAND_SKM": 9.2, "ENDORHEIC": 0, "DIS_AV_CMS": 0.449, "ORD_STRA": 1, "ORD_CLAS": 4, "ORD_FLOW": 7, "HYBAS_L12": 4121159600.0, "Shape_Length": 0.026368446353131222 }, "geometry": { "type": "MultiLineString", "coordinates": [ [ [ 80.243749999999665, 6.433333333333216 ], [ 80.243749999999665, 6.41875 ], [ 80.235416666666282, 6.410416666666556 ] ] ] } },
{ "type": "Feature", "properties": { "HYRIV_ID": 41408229, "NEXT_DOWN": 41408181, "MAIN_RIV": 41408119, "LENGTH_KM": 2.23, "DIST_DN_KM": 7.8, "DIST_UP_KM": 42.3, "CATCH_SKM": 6.83, "UPLAND_SKM": 606.70001, "ENDORHEIC": 0, "DIS_AV_CMS": 31.989, "ORD_STRA": 4, "ORD_CLAS": 1, "ORD_FLOW": 5, "HYBAS_L12": 4120048990.0, "Shape_Length": 0.020118446353080778 }, "geometry": { "type": "MultiLineString", "coordinates": [ [ [ 80.06458333333299, 6.406249999999893 ], [ 80.060416666666271, 6.410416666666556 ], [ 80.052083333332945, 6.410416666666556 ], [ 80.047916666666396, 6.414583333333262 ] ] ] } },
{ "type": "Feature", "properties": { "HYRIV_ID": 41408230, "NEXT_DOWN": 41408229, "MAIN_RIV": 41408119, "LENGTH_KM": 2.8900001, "DIST_DN_KM": 10.0, "DIST_UP_KM": 21.8, "CATCH_SKM": 4.48, "UPLAND_SKM": 180.89999, "ENDORHEIC": 0, "DIS_AV_CMS": 9.0719995, "ORD_STRA": 3, "ORD_CLAS": 2, "ORD_FLOW": 6, "HYBAS_L12": 4121159480.0, "Shape_Length": 0.02601100286299346 }, "geometry": { "type": "MultiLineString", "coordinates": [ [ [ 80.077083333332979, 6.427083333333236 ], [ 80.077083333332979, 6.41875 ], [ 80.06458333333299, 6.406249999999893 ] ] ] } },
{ "type": "Feature", "properties": { "HYRIV_ID": 41408231, "NEXT_DOWN": 41408407, "MAIN_RIV": 41408119, "LENGTH_KM": 2.51, "DIST_DN_KM": 35.200001, "DIST_UP_KM": 11.5, "CATCH_SKM": 6.6100001, "UPLAND_SKM": 52.5, "ENDORHEIC": 0, "DIS_AV_CMS": 2.6229999, "ORD_STRA": 2, "ORD_CLAS": 2, "ORD_FLOW": 6, "HYBAS_L12": 4121159600.0, "Shape_Length": 0.022559223176566629 }, "geometry": { "type": "MultiLineString", "coordinates": [ [ [ 80.210416666666305, 6.427083333333236 ], [ 80.210416666666305, 6.41875 ], [ 80.214583333332968, 6.414583333333262 ], [ 80.214583333332968, 6.406249999999893 ] ] ] } },
{ "type": "Feature", "properties": { "HYRIV_ID": 41408232, "NEXT_DOWN": 41408407, "MAIN_RIV": 41408119, "LENGTH_KM": 2.5, "DIST_DN_KM": 35.200001, "DIST_UP_KM": 9.0, "CATCH_SKM": 4.27, "UPLAND_SKM": 22.8, "ENDORHEIC": 0, "DIS_AV_CMS": 1.128, "ORD_STRA": 2, "ORD_CLAS": 3, "ORD_FLOW": 6, "HYBAS_L12": 4121159600.0, "Shape_Length": 0.022559223176534044 }, "geometry": { "type": "MultiLineString", "coordinates": [ [ [ 80.235416666666282, 6.410416666666556 ], [ 80.222916666666293, 6.410416666666556 ], [ 80.218749999999631, 6.406249999999893 ], [ 80.214583333332968, 6.406249999999893 ] ] ] } },
{ "type": "Feature", "properties": { "HYRIV_ID": 41408303, "NEXT_DOWN": 41408229, "MAIN_RIV": 41408119, "LENGTH_KM": 1.96, "DIST_DN_KM": 10.0, "DIST_UP_KM": 40.099998, "CATCH_SKM": 5.12, "UPLAND_SKM": 419.0, "ENDORHEIC": 0, "DIS_AV_CMS": 22.278, "ORD_STRA": 4, "ORD_CLAS": 1, "ORD_FLOW": 5, "HYBAS_L12": 4121159530.0, "Shape_Length": 0.017677669529667706 }, "geometry": { "type": "MultiLineString", "coordinates": [ [ [ 80.077083333332979, 6.393749999999876 ], [ 80.06458333333299, 6.406249999999893 ] ] ] } },
{ "type": "Feature", "properties": { "HYRIV_ID": 41408304, "NEXT_DOWN": 41408303, "MAIN_RIV": 41408119, "LENGTH_KM": 3.07, "DIST_DN_KM": 11.9, "DIST_UP_KM": 38.099998, "CATCH_SKM": 6.6100001, "UPLAND_SKM": 393.20001, "ENDORHEIC": 0, "DIS_AV_CMS": 20.889999, "ORD_STRA": 4, "ORD_CLAS": 1, "ORD_FLOW": 5, "HYBAS_L12": 4121159530.0, "Shape_Length": 0.027736892706253312 }, "geometry": { "type": "MultiLineString", "coordinates": [ [ [ 80.097916666666293, 6.393749999999876 ], [ 80.093749999999631, 6.397916666666539 ], [ 80.089583333332968, 6.397916666666539 ], [ 80.085416666666305, 6.402083333333245 ], [ 80.077083333332979, 6.393749999999876 ] ] ] } },
{ "type": "Feature", "properties": { "HYRIV_ID": 41408305, "NEXT_DOWN": 41408304, "MAIN_RIV": 41408119, "LENGTH_KM": 4.2199998, "DIST_DN_KM": 15.0, "DIST_UP_KM": 6.0, "CATCH_SKM": 16.43, "UPLAND_SKM": 16.4, "ENDORHEIC": 0, "DIS_AV_CMS": 0.792, "ORD_STRA": 1, "ORD_CLAS": 2, "ORD_FLOW": 7, "HYBAS_L12": 4121159530.0, "Shape_Length": 0.038153559372898736 }, "geometry": { "type": "MultiLineString", "coordinates": [ [ [ 80.129166666666293, 6.410416666666556 ], [ 80.122916666666328, 6.410416666666556 ], [ 80.114583333333002, 6.402083333333245 ], [ 80.106249999999619, 6.402083333333245 ], [ 80.097916666666293, 6.393749999999876 ] ] ] } },
{ "type": "Feature", "properties": { "HYRIV_ID": 41408334, "NEXT_DOWN": 41408375, "MAIN_RIV": 41408119, "LENGTH_KM": 2.29, "DIST_DN_KM": 33.599998, "DIST_UP_KM": 3.5, "CATCH_SKM": 6.6100001, "UPLAND_SKM": 6.6, "ENDORHEIC": 0, "DIS_AV_CMS": 0.32, "ORD_STRA": 1, "ORD_CLAS": 4, "ORD_FLOW": 7, "HYBAS_L12": 4121159600.0, "Shape_Length": 0.020623947784709461 }, "geometry": { "type": "MultiLineString", "coordinates": [ [ [ 80.174999999999642, 6.404166666666576 ], [ 80.189583333333104, 6.389583333333228 ] ] ] } },
{ "type": "Feature", "properties": { "HYRIV_ID": 41408347, "NEXT_DOWN": 41408375, "MAIN_RIV": 41408119, "LENGTH_KM": 1.34, "DIST_DN_KM": 33.599998, "DIST_UP_KM": 2.7, "CATCH_SKM": 3.4100001, "UPLAND_SKM": 3.4, "ENDORHEIC": 0, "DIS_AV_CMS": 0.16500001, "ORD_STRA": 1, "ORD_CLAS": 5, "ORD_FLOW": 7, "HYBAS_L12": 4121159600.0, "Shape_Length": 0.012142556509969014 }, "geometry": { "type": "MultiLineString", "coordinates": [ [ [ 80.179166666666305, 6.385416666666565 ], [ 80.185416666666271, 6.385416666666565 ], [ 80.189583333333104, 6.389583333333228 ] ] ] } },
{ "type": "Feature", "properties": { "HYRIV_ID": 41408348, "NEXT_DOWN": 41408232, "MAIN_RIV": 41408119, "LENGTH_KM": 4.79, "DIST_DN_KM": 37.700001, "DIST_UP_KM": 6.5, "CATCH_SKM": 9.3900003, "UPLAND_SKM": 9.4, "ENDORHEIC": 0, "DIS_AV_CMS": 0.459, "ORD_STRA": 1, "ORD_CLAS": 3, "ORD_FLOW": 7, "HYBAS_L12": 4121159600.0, "Shape_Length": 0.043183170961161393 }, "geometry": { "type": "MultiLineString", "coordinates": [ [ [ 80.262499999999619, 6.383333333333233 ], [ 80.256249999999653, 6.389583333333228 ], [ 80.256249999999653, 6.393749999999876 ], [ 80.247916666666328, 6.402083333333245 ], [ 80.247916666666328, 6.406249999999893 ], [ 80.243749999999665, 6.410416666666556 ], [ 80.235416666666282, 6.410416666666556 ] ] ] } },
{ "type": "Feature", "properties": { "HYRIV_ID": 41408356, "NEXT_DOWN": 41408303, "MAIN_RIV": 41408119, "LENGTH_KM": 1.77, "DIST_DN_KM": 11.9, "DIST_UP_KM": 7.1, "CATCH_SKM": 2.77, "UPLAND_SKM": 20.700001, "ENDORHEIC": 0, "DIS_AV_CMS": 0.98100001, "ORD_STRA": 2, "ORD_CLAS": 2, "ORD_FLOW": 7, "HYBAS_L12": 4121159530.0, "Shape_Length": 0.015951779686417901 }, "geometry": { "type": "MultiLineString", "coordinates": [ [ [ 80.077083333332979, 6.38125 ], [ 80.072916666666316, 6.385416666666565 ], [ 80.072916666666316, 6.389583333333228 ], [ 80.077083333332979, 6.393749999999876 ] ] ] } },
{ "type": "Feature", "properties": { "HYRIV_ID": 41408375, "NEXT_DOWN": 41408406, "MAIN_RIV": 41408119, "LENGTH_KM": 1.96, "DIST_DN_KM": 31.6, "DIST_UP_KM": 5.5, "CATCH_SKM": 3.2, "UPLAND_SKM": 13.2, "ENDORHEIC": 0, "DIS_AV_CMS": 0.64300001, "ORD_STRA": 2, "ORD_CLAS": 4, "ORD_FLOW": 7, "HYBAS_L12": 4121159600.0, "Shape_Length": 0.017677669529557172 }, "geometry": { "type": "MultiLineString", "coordinates": [ [ [ 80.189583333333104, 6.389583333333228 ], [ 80.202083333332979, 6.377083333333253 ] ] ] } },
{ "type": "Feature", "properties": { "HYRIV_ID": 41408376, "NEXT_DOWN": 41408406, "MAIN_RIV": 41408119, "LENGTH_KM": 4.8800001, "DIST_DN_KM": 31.4, "DIST_UP_KM": 6.3, "CATCH_SKM": 7.89, "UPLAND_SKM": 7.9, "ENDORHEIC": 0, "DIS_AV_CMS": 0.385, "ORD_STRA": 1, "ORD_CLAS": 3, "ORD_FLOW": 7, "HYBAS_L12": 4121159600.0, "Shape_Length": 0.043898057941356532 }, "geometry": { "type": "MultiLineString", "coordinates": [ [ [ 80.19166666666635, 6.416666666666593 ], [ 80.202083333332979, 6.406249999999893 ], [ 80.202083333332979, 6.377083333333253 ] ] ] } },
{ "type": "Feature", "properties": { "HYRIV_ID": 41408405, "NEXT_DOWN": 41408304, "MAIN_RIV": 41408119, "LENGTH_KM": 4.0, "DIST_DN_KM": 14.8, "DIST_UP_KM": 35.3, "CATCH_SKM": 9.3900003, "UPLAND_SKM": 370.10001, "ENDORHEIC": 0, "DIS_AV_CMS": 19.525999, "ORD_STRA": 4, "ORD_CLAS": 1, "ORD_FLOW": 5, "HYBAS_L12": 4121159530.0, "Shape_Length": 0.036070226039581509 }, "geometry": { "type": "MultiLineString", "coordinates": [ [ [ 80.122916666666328, 6.372916666666548 ], [ 80.122916666666328, 6.377083333333253 ], [ 80.114583333333002, 6.385416666666565 ], [ 80.110416666666339, 6.385416666666565 ], [ 80.102083333332956, 6.393749999999876 ], [ 80.097916666666293, 6.393749999999876 ] ] ] } },
{ "type": "Feature", "properties": { "HYRIV_ID": 41408406, "NEXT_DOWN": 41408464, "MAIN_RIV": 41408119, "LENGTH_KM": 0.92, "DIST_DN_KM": 30.5, "DIST_UP_KM": 7.2, "CATCH_SKM": 2.77, "UPLAND_SKM": 23.9, "ENDORHEIC": 0, "DIS_AV_CMS": 1.168, "ORD_STRA": 2, "ORD_CLAS": 3, "ORD_FLOW": 6, "HYBAS_L12": 4121159600.0, "Shape_Length": 0.0083333333333683868 }, "geometry": { "type": "MultiLineString", "coordinates": [ [ [ 80.202083333332979, 6.377083333333253 ], [ 80.202083333332979, 6.372916666666548 ], [ 80.206249999999642, 6.372916666666548 ] ] ] } },
{ "type": "Feature", "properties": { "HYRIV_ID": 41408407, "NEXT_DOWN": 41408464, "MAIN_RIV": 41408119, "LENGTH_KM": 4.7399998, "DIST_DN_KM": 30.5, "DIST_UP_KM": 16.3, "CATCH_SKM": 10.24, "UPLAND_SKM": 85.5, "ENDORHEIC": 0, "DIS_AV_CMS": 4.3429999, "ORD_STRA": 3, "ORD_CLAS": 2, "ORD_FLOW": 6, "HYBAS_L12": 4121159600.0, "Shape_Length": 0.042677669529659179 }, "geometry": { "type": "MultiLineString", "coordinates": [ [ [ 80.214583333332968, 6.406249999999893 ], [ 80.214583333332968, 6.389583333333228 ], [ 80.218749999999631, 6.385416666666565 ], [ 80.218749999999631, 6.38125 ], [ 80.210416666666305, 6.372916666666548 ], [ 80.206249999999642, 6.372916666666548 ] ] ] } },
{ "type": "Feature", "properties": { "HYRIV_ID": 41408419, "NEXT_DOWN": 41408138, "MAIN_RIV": 41408119, "LENGTH_KM": 8.9799995, "DIST_DN_KM": 5.3, "DIST_UP_KM": 10.4, "CATCH_SKM": 24.959999, "UPLAND_SKM": 25.0, "ENDORHEIC": 0, "DIS_AV_CMS": 1.177, "ORD_STRA": 1, "ORD_CLAS": 2, "ORD_FLOW": 6, "HYBAS_L12": 4120048990.0, "Shape_Length": 0.080979286843906734 }, "geometry": { "type": "MultiLineString", "coordinates": [ [ [ 80.054166666666305, 6.366666666666553 ], [ 80.043749999999619, 6.377083333333253 ], [ 80.043749999999619, 6.385416666666565 ], [ 80.039583333332956, 6.389583333333228 ], [ 80.031249999999744, 6.389583333333228 ], [ 80.022916666666362, 6.397916666666539 ], [ 80.022916666666362, 6.402083333333245 ], [ 80.018749999999699, 6.406249999999893 ], [ 80.031249999999744, 6.41875 ], [ 80.031249999999744, 6.422916666666573 ] ] ] } },
{ "type": "Feature", "properties": { "HYRIV_ID": 41408420, "NEXT_DOWN": 41408356, "MAIN_RIV": 41408119, "LENGTH_KM": 1.58, "DIST_DN_KM": 13.7, "DIST_UP_KM": 4.5, "CATCH_SKM": 2.56, "UPLAND_SKM": 11.9, "ENDORHEIC": 0, "DIS_AV_CMS": 0.56199998, "ORD_STRA": 2, "ORD_CLAS": 3, "ORD_FLOW": 7, "HYBAS_L12": 4121159530.0, "Shape_Length": 0.014225889843240875 }, "geometry": { "type": "MultiLineString", "coordinates": [ [ [ 80.072916666666316, 6.368749999999885 ], [ 80.072916666666316, 6.377083333333253 ], [ 80.077083333332979, 6.38125 ] ] ] } },
{ "type": "Feature", "properties": { "HYRIV_ID": 41408421, "NEXT_DOWN": 41408356, "MAIN_RIV": 41408119, "LENGTH_KM": 3.4, "DIST_DN_KM": 13.7, "DIST_UP_KM": 5.3, "CATCH_SKM": 5.9699998, "UPLAND_SKM": 6.0, "ENDORHEIC": 0, "DIS_AV_CMS": 0.283, "ORD_STRA": 1, "ORD_CLAS": 2, "ORD_FLOW": 7, "HYBAS_L12": 4121159530.0, "Shape_Length": 0.030683170961210517 }, "geometry": { "type": "MultiLineString", "coordinates": [ [ [ 80.095833333333047, 6.366666666666553 ], [ 80.085416666666305, 6.377083333333253 ], [ 80.085416666666305, 6.38125 ], [ 80.081249999999642, 6.385416666666565 ], [ 80.077083333332979, 6.38125 ] ] ] } },
{ "type": "Feature", "properties": { "HYRIV_ID": 41408422, "NEXT_DOWN": 41408405, "MAIN_RIV": 41408119, "LENGTH_KM": 0.98, "DIST_DN_KM": 19.0, "DIST_UP_KM": 2.2, "CATCH_SKM": 3.4100001, "UPLAND_SKM": 3.4, "ENDORHEIC": 0, "DIS_AV_CMS": 0.162, "ORD_STRA": 1, "ORD_CLAS": 2, "ORD_FLOW": 7, "HYBAS_L12": 4121159530.0, "Shape_Length": 0.008838834764843902 }, "geometry": { "type": "MultiLineString", "coordinates": [ [ [ 80.116666666666305, 6.366666666666553 ], [ 80.122916666666328, 6.372916666666548 ] ] ] } },
{ "type": "Feature", "properties": { "HYRIV_ID": 41408423, "NEXT_DOWN": 41408405, "MAIN_RIV": 41408119, "LENGTH_KM": 0.65, "DIST_DN_KM": 19.0, "DIST_UP_KM": 31.1, "CATCH_SKM": 0.64, "UPLAND_SKM": 357.29999, "ENDORHEIC": 0, "DIS_AV_CMS": 18.577, "ORD_STRA": 4, "ORD_CLAS": 1, "ORD_FLOW": 5, "HYBAS_L12": 4121159530.0, "Shape_Length": 0.0058925565098825365 }, "geometry": { "type": "MultiLineString", "coordinates": [ [ [ 80.12708333333299, 6.368749999999885 ], [ 80.122916666666328, 6.372916666666548 ] ] ] } },
{ "type": "Feature", "properties": { "HYRIV_ID": 41408424, "NEXT_DOWN": 41408423, "MAIN_RIV": 41408119, "LENGTH_KM": 5.1500001, "DIST_DN_KM": 19.5, "DIST_UP_KM": 6.7, "CATCH_SKM": 8.5299997, "UPLAND_SKM": 8.5, "ENDORHEIC": 0, "DIS_AV_CMS": 0.414, "ORD_STRA": 1, "ORD_CLAS": 2, "ORD_FLOW": 7, "HYBAS_L12": 4121159530.0, "Shape_Length": 0.04648689270622966 }, "geometry": { "type": "MultiLineString", "coordinates": [ [ [ 80.145833333332945, 6.397916666666539 ], [ 80.139583333333036, 6.397916666666539 ], [ 80.135416666666373, 6.393749999999876 ], [ 80.135416666666373, 6.385416666666565 ], [ 80.131249999999653, 6.38125 ], [ 80.135416666666373, 6.377083333333253 ], [ 80.135416666666373, 6.372916666666548 ], [ 80.131249999999653, 6.368749999999885 ], [ 80.12708333333299, 6.368749999999885 ] ] ] } },
{ "type": "Feature", "properties": { "HYRIV_ID": 41408445, "NEXT_DOWN": 41408420, "MAIN_RIV": 41408119, "LENGTH_KM": 0.98, "DIST_DN_KM": 15.3, "DIST_UP_KM": 2.5, "CATCH_SKM": 3.2, "UPLAND_SKM": 3.2, "ENDORHEIC": 0, "DIS_AV_CMS": 0.15, "ORD_STRA": 1, "ORD_CLAS": 4, "ORD_FLOW": 7, "HYBAS_L12": 4121159530.0, "Shape_Length": 0.0088388347648338528 }, "geometry": { "type": "MultiLineString", "coordinates": [ [ [ 80.079166666666339, 6.3625 ], [ 80.072916666666316, 6.368749999999885 ] ] ] } },
{ "type": "Feature", "properties": { "HYRIV_ID": 41408446, "NEXT_DOWN": 41408423, "MAIN_RIV": 41408119, "LENGTH_KM": 0.65, "DIST_DN_KM": 19.700001, "DIST_UP_KM": 30.4, "CATCH_SKM": 0.21, "UPLAND_SKM": 348.20001, "ENDORHEIC": 0, "DIS_AV_CMS": 18.084999, "ORD_STRA": 4, "ORD_CLAS": 1, "ORD_FLOW": 5, "HYBAS_L12": 4121159530.0, "Shape_Length": 0.0058925565098724882 }, "geometry": { "type": "MultiLineString", "coordinates": [ [ [ 80.131249999999653, 6.364583333333236 ], [ 80.12708333333299, 6.368749999999885 ] ] ] } },
{ "type": "Feature", "properties": { "HYRIV_ID": 41408462, "NEXT_DOWN": 41408420, "MAIN_RIV": 41408119, "LENGTH_KM": 1.35, "DIST_DN_KM": 15.3, "DIST_UP_KM": 2.9, "CATCH_SKM": 6.1900001, "UPLAND_SKM": 6.2, "ENDORHEIC": 0, "DIS_AV_CMS": 0.289, "ORD_STRA": 1, "ORD_CLAS": 3, "ORD_FLOW": 7, "HYBAS_L12": 4121159530.0, "Shape_Length": 0.012142556509906997 }, "geometry": { "type": "MultiLineString", "coordinates": [ [ [ 80.068749999999596, 6.358333333333242 ], [ 80.068749999999596, 6.364583333333236 ], [ 80.072916666666316, 6.368749999999885 ] ] ] } },
{ "type": "Feature", "properties": { "HYRIV_ID": 41408463, "NEXT_DOWN": 41408446, "MAIN_RIV": 41408119, "LENGTH_KM": 5.64, "DIST_DN_KM": 20.1, "DIST_UP_KM": 30.0, "CATCH_SKM": 16.0, "UPLAND_SKM": 272.0, "ENDORHEIC": 0, "DIS_AV_CMS": 14.266, "ORD_STRA": 4, "ORD_CLAS": 1, "ORD_FLOW": 5, "HYBAS_L12": 4121159530.0, "Shape_Length": 0.051011002862963825 }, "geometry": { "type": "MultiLineString", "coordinates": [ [ [ 80.177083333332945, 6.360416666666573 ], [ 80.168749999999619, 6.360416666666573 ], [ 80.16458333333307, 6.364583333333236 ], [ 80.16041666666635, 6.364583333333236 ], [ 80.156249999999687, 6.368749999999885 ], [ 80.143749999999699, 6.368749999999885 ], [ 80.139583333333036, 6.364583333333236 ], [ 80.131249999999653, 6.364583333333236 ] ] ] } },
{ "type": "Feature", "properties": { "HYRIV_ID": 41408464, "NEXT_DOWN": 41408481, "MAIN_RIV": 41408119, "LENGTH_KM": 1.58, "DIST_DN_KM": 29.1, "DIST_UP_KM": 17.6, "CATCH_SKM": 1.71, "UPLAND_SKM": 111.1, "ENDORHEIC": 0, "DIS_AV_CMS": 5.6370001, "ORD_STRA": 3, "ORD_CLAS": 2, "ORD_FLOW": 6, "HYBAS_L12": 4121159600.0, "Shape_Length": 0.014225889843194079 }, "geometry": { "type": "MultiLineString", "coordinates": [ [ [ 80.206249999999642, 6.372916666666548 ], [ 80.206249999999642, 6.364583333333236 ], [ 80.202083333332979, 6.360416666666573 ] ] ] } },
{ "type": "Feature", "properties": { "HYRIV_ID": 41408465, "NEXT_DOWN": 41408481, "MAIN_RIV": 41408119, "LENGTH_KM": 0.92, "DIST_DN_KM": 28.9, "DIST_UP_KM": 21.200001, "CATCH_SKM": 1.0700001, "UPLAND_SKM": 133.10001, "ENDORHEIC": 0, "DIS_AV_CMS": 6.7059999, "ORD_STRA": 3, "ORD_CLAS": 1, "ORD_FLOW": 6, "HYBAS_L12": 4121159620.0, "Shape_Length": 0.0083333333333257542 }, "geometry": { "type": "MultiLineString", "coordinates": [ [ [ 80.210416666666305, 6.360416666666573 ], [ 80.202083333332979, 6.360416666666573 ] ] ] } },
{ "type": "Feature", "properties": { "HYRIV_ID": 41408466, "NEXT_DOWN": 41408465, "MAIN_RIV": 41408119, "LENGTH_KM": 2.76, "DIST_DN_KM": 29.8, "DIST_UP_KM": 20.200001, "CATCH_SKM": 5.7600002, "UPLAND_SKM": 91.300003, "ENDORHEIC": 0, "DIS_AV_CMS": 4.6069999, "ORD_STRA": 3, "ORD_CLAS": 1, "ORD_FLOW": 6, "HYBAS_L12": 4121159620.0, "Shape_Length": 0.024999999999977263 }, "geometry": { "type": "MultiLineString", "coordinates": [ [ [ 80.235416666666282, 6.360416666666573 ], [ 80.210416666666305, 6.360416666666573 ] ] ] } },
{ "type": "Feature", "properties": { "HYRIV_ID": 41408467, "NEXT_DOWN": 41408466, "MAIN_RIV": 41408119, "LENGTH_KM": 3.6800001, "DIST_DN_KM": 32.599998, "DIST_UP_KM": 4.9, "CATCH_SKM": 8.3199997, "UPLAND_SKM": 8.3, "ENDORHEIC": 0, "DIS_AV_CMS": 0.406, "ORD_STRA": 1, "ORD_CLAS": 2, "ORD_FLOW": 7, "HYBAS_L12": 4121159620.0, "Shape_Length": 0.033123947784683881 }, "geometry": { "type": "MultiLineString", "coordinates": [ [ [ 80.241666666666418, 6.387499999999896 ], [ 80.231249999999619, 6.377083333333253 ], [ 80.235416666666282, 6.372916666666548 ], [ 80.235416666666282, 6.360416666666573 ] ] ] } },
{ "type": "Feature", "properties": { "HYRIV_ID": 41408481, "NEXT_DOWN": 41408463, "MAIN_RIV": 41408119, "LENGTH_KM": 3.1500001, "DIST_DN_KM": 25.8, "DIST_UP_KM": 24.3, "CATCH_SKM": 6.6100001, "UPLAND_SKM": 250.89999, "ENDORHEIC": 0, "DIS_AV_CMS": 12.861, "ORD_STRA": 4, "ORD_CLAS": 1, "ORD_FLOW": 5, "HYBAS_L12": 4121159530.0, "Shape_Length": 0.028451779686490073 }, "geometry": { "type": "MultiLineString", "coordinates": [ [ [ 80.202083333332979, 6.360416666666573 ], [ 80.197916666666316, 6.360416666666573 ], [ 80.193749999999596, 6.35625 ], [ 80.185416666666271, 6.35625 ], [ 80.181249999999721, 6.360416666666573 ], [ 80.177083333332945, 6.360416666666573 ] ] ] } },
{ "type": "Feature", "properties": { "HYRIV_ID": 41408482, "NEXT_DOWN": 41408466, "MAIN_RIV": 41408119, "LENGTH_KM": 0.65, "DIST_DN_KM": 32.8, "DIST_UP_KM": 17.3, "CATCH_SKM": 0.21, "UPLAND_SKM": 77.199997, "ENDORHEIC": 0, "DIS_AV_CMS": 3.8529999, "ORD_STRA": 3, "ORD_CLAS": 1, "ORD_FLOW": 6, "HYBAS_L12": 4121159620.0, "Shape_Length": 0.0058925565098825365 }, "geometry": { "type": "MultiLineString", "coordinates": [ [ [ 80.239583333332945, 6.35625 ], [ 80.235416666666282, 6.360416666666573 ] ] ] } },
{ "type": "Feature", "properties": { "HYRIV_ID": 41408483, "NEXT_DOWN": 41408482, "MAIN_RIV": 41408119, "LENGTH_KM": 2.36, "DIST_DN_KM": 33.3, "DIST_UP_KM": 3.6, "CATCH_SKM": 5.9699998, "UPLAND_SKM": 6.0, "ENDORHEIC": 0, "DIS_AV_CMS": 0.29, "ORD_STRA": 1, "ORD_CLAS": 2, "ORD_FLOW": 7, "HYBAS_L12": 4121159620.0, "Shape_Length": 0.021338834764849181 }, "geometry": { "type": "MultiLineString", "coordinates": [ [ [ 80.258333333332956, 6.3625 ], [ 80.25208333333299, 6.35625 ], [ 80.239583333332945, 6.35625 ] ] ] } },
{ "type": "Feature", "properties": { "HYRIV_ID": 41408501, "NEXT_DOWN": 41408463, "MAIN_RIV": 41408119, "LENGTH_KM": 1.4400001, "DIST_DN_KM": 25.8, "DIST_UP_KM": 3.3, "CATCH_SKM": 5.12, "UPLAND_SKM": 5.1, "ENDORHEIC": 0, "DIS_AV_CMS": 0.247, "ORD_STRA": 1, "ORD_CLAS": 2, "ORD_FLOW": 7, "HYBAS_L12": 4121159530.0, "Shape_Length": 0.013005501431456536 }, "geometry": { "type": "MultiLineString", "coordinates": [ [ [ 80.170833333332979, 6.35 ], [ 80.177083333332945, 6.35625 ], [ 80.177083333332945, 6.360416666666573 ] ] ] } },
{ "type": "Feature", "properties": { "HYRIV_ID": 41408538, "NEXT_DOWN": 41408539, "MAIN_RIV": 41408119, "LENGTH_KM": 2.99, "DIST_DN_KM": 22.6, "DIST_UP_KM": 4.1, "CATCH_SKM": 7.89, "UPLAND_SKM": 7.9, "ENDORHEIC": 0, "DIS_AV_CMS": 0.376, "ORD_STRA": 1, "ORD_CLAS": 3, "ORD_FLOW": 7, "HYBAS_L12": 4121159530.0, "Shape_Length": 0.027083333333280279 }, "geometry": { "type": "MultiLineString", "coordinates": [ [ [ 80.108333333333093, 6.343749999999893 ], [ 80.135416666666373, 6.343749999999893 ] ] ] } },
{ "type": "Feature", "properties": { "HYRIV_ID": 41408539, "NEXT_DOWN": 41408446, "MAIN_RIV": 41408119, "LENGTH_KM": 2.51, "DIST_DN_KM": 20.1, "DIST_UP_KM": 16.8, "CATCH_SKM": 5.5500002, "UPLAND_SKM": 76.0, "ENDORHEIC": 0, "DIS_AV_CMS": 3.7620001, "ORD_STRA": 2, "ORD_CLAS": 2, "ORD_FLOW": 6, "HYBAS_L12": 4121159530.0, "Shape_Length": 0.022559223176602659 }, "geometry": { "type": "MultiLineString", "coordinates": [ [ [ 80.135416666666373, 6.343749999999893 ], [ 80.135416666666373, 6.352083333333248 ], [ 80.131249999999653, 6.35625 ], [ 80.131249999999653, 6.364583333333236 ] ] ] } },
{ "type": "Feature", "properties": { "HYRIV_ID": 41408554, "NEXT_DOWN": 41408465, "MAIN_RIV": 41408119, "LENGTH_KM": 2.7, "DIST_DN_KM": 29.8, "DIST_UP_KM": 12.3, "CATCH_SKM": 3.6300001, "UPLAND_SKM": 40.8, "ENDORHEIC": 0, "DIS_AV_CMS": 2.0120001, "ORD_STRA": 2, "ORD_CLAS": 2, "ORD_FLOW": 6, "HYBAS_L12": 4121159620.0, "Shape_Length": 0.024285113019786288 }, "geometry": { "type": "MultiLineString", "coordinates": [ [ [ 80.218749999999631, 6.339583333333231 ], [ 80.218749999999631, 6.347916666666599 ], [ 80.210416666666305, 6.35625 ], [ 80.210416666666305, 6.360416666666573 ] ] ] } },
{ "type": "Feature", "properties": { "HYRIV_ID": 41408555, "NEXT_DOWN": 41408554, "MAIN_RIV": 41408119, "LENGTH_KM": 0.69, "DIST_DN_KM": 32.5, "DIST_UP_KM": 3.3, "CATCH_SKM": 2.56, "UPLAND_SKM": 2.6, "ENDORHEIC": 0, "DIS_AV_CMS": 0.123, "ORD_STRA": 1, "ORD_CLAS": 4, "ORD_FLOW": 7, "HYBAS_L12": 4121159620.0, "Shape_Length": 0.0062499999999658939 }, "geometry": { "type": "MultiLineString", "coordinates": [ [ [ 80.224999999999596, 6.339583333333231 ], [ 80.218749999999631, 6.339583333333231 ] ] ] } },
{ "type": "Feature", "properties": { "HYRIV_ID": 41408597, "NEXT_DOWN": 41408539, "MAIN_RIV": 41408119, "LENGTH_KM": 1.58, "DIST_DN_KM": 22.8, "DIST_UP_KM": 14.1, "CATCH_SKM": 3.84, "UPLAND_SKM": 62.5, "ENDORHEIC": 0, "DIS_AV_CMS": 3.0739999, "ORD_STRA": 2, "ORD_CLAS": 2, "ORD_FLOW": 6, "HYBAS_L12": 4121159530.0, "Shape_Length": 0.014225889843194079 }, "geometry": { "type": "MultiLineString", "coordinates": [ [ [ 80.139583333333036, 6.33125 ], [ 80.139583333333036, 6.339583333333231 ], [ 80.135416666666373, 6.343749999999893 ] ] ] } },
{ "type": "Feature", "properties": { "HYRIV_ID": 41408598, "NEXT_DOWN": 41408623, "MAIN_RIV": 41408119, "LENGTH_KM": 0.98, "DIST_DN_KM": 39.400002, "DIST_UP_KM": 1.8, "CATCH_SKM": 2.77, "UPLAND_SKM": 2.8, "ENDORHEIC": 0, "DIS_AV_CMS": 0.133, "ORD_STRA": 1, "ORD_CLAS": 3, "ORD_FLOW": 7, "HYBAS_L12": 4121159620.0, "Shape_Length": 0.0088388347648037068 }, "geometry": { "type": "MultiLineString", "coordinates": [ [ [ 80.270833333332945, 6.3375 ], [ 80.264583333332979, 6.33125 ] ] ] } },
{ "type": "Feature", "properties": { "HYRIV_ID": 41408599, "NEXT_DOWN": 41408623, "MAIN_RIV": 41408119, "LENGTH_KM": 0.69, "DIST_DN_KM": 39.200001, "DIST_UP_KM": 3.0, "CATCH_SKM": 4.48, "UPLAND_SKM": 4.5, "ENDORHEIC": 0, "DIS_AV_CMS": 0.215, "ORD_STRA": 1, "ORD_CLAS": 2, "ORD_FLOW": 7, "HYBAS_L12": 4121159620.0, "Shape_Length": 0.0062499999999658939 }, "geometry": { "type": "MultiLineString", "coordinates": [ [ [ 80.270833333332945, 6.33125 ], [ 80.264583333332979, 6.33125 ] ] ] } },
{ "type": "Feature", "properties": { "HYRIV_ID": 41408621, "NEXT_DOWN": 41408554, "MAIN_RIV": 41408119, "LENGTH_KM": 4.7600002, "DIST_DN_KM": 32.5, "DIST_UP_KM": 6.5, "CATCH_SKM": 10.45, "UPLAND_SKM": 10.5, "ENDORHEIC": 0, "DIS_AV_CMS": 0.50800002, "ORD_STRA": 1, "ORD_CLAS": 3, "ORD_FLOW": 7, "HYBAS_L12": 4121159620.0, "Shape_Length": 0.043035113019811867 }, "geometry": { "type": "MultiLineString", "coordinates": [ [ [ 80.185416666666271, 6.324999999999896 ], [ 80.185416666666271, 6.33125 ], [ 80.193749999999596, 6.339583333333231 ], [ 80.218749999999631, 6.339583333333231 ] ] ] } },
{ "type": "Feature", "properties": { "HYRIV_ID": 41408622, "NEXT_DOWN": 41408482, "MAIN_RIV": 41408119, "LENGTH_KM": 3.4300001, "DIST_DN_KM": 33.3, "DIST_UP_KM": 16.8, "CATCH_SKM": 6.83, "UPLAND_SKM": 71.0, "ENDORHEIC": 0, "DIS_AV_CMS": 3.5420001, "ORD_STRA": 3, "ORD_CLAS": 1, "ORD_FLOW": 6, "HYBAS_L12": 4121159620.0, "Shape_Length": 0.030892556509956835 }, "geometry": { "type": "MultiLineString", "coordinates": [ [ [ 80.243749999999665, 6.327083333333213 ], [ 80.243749999999665, 6.339583333333231 ], [ 80.239583333332945, 6.343749999999893 ], [ 80.239583333332945, 6.35625 ] ] ] } },
{ "type": "Feature", "properties": { "HYRIV_ID": 41408623, "NEXT_DOWN": 41408622, "MAIN_RIV": 41408119, "LENGTH_KM": 2.5, "DIST_DN_KM": 36.700001, "DIST_UP_KM": 5.5, "CATCH_SKM": 4.0500002, "UPLAND_SKM": 11.3, "ENDORHEIC": 0, "DIS_AV_CMS": 0.54900002, "ORD_STRA": 2, "ORD_CLAS": 2, "ORD_FLOW": 7, "HYBAS_L12": 4121159620.0, "Shape_Length": 0.02255922317656419 }, "geometry": { "type": "MultiLineString", "coordinates": [ [ [ 80.264583333332979, 6.33125 ], [ 80.260416666666316, 6.33125 ], [ 80.256249999999653, 6.327083333333213 ], [ 80.243749999999665, 6.327083333333213 ] ] ] } },
{ "type": "Feature", "properties": { "HYRIV_ID": 41408636, "NEXT_DOWN": 41408597, "MAIN_RIV": 41408119, "LENGTH_KM": 2.9200001, "DIST_DN_KM": 24.4, "DIST_UP_KM": 4.5, "CATCH_SKM": 6.1900001, "UPLAND_SKM": 6.2, "ENDORHEIC": 0, "DIS_AV_CMS": 0.299, "ORD_STRA": 1, "ORD_CLAS": 3, "ORD_FLOW": 7, "HYBAS_L12": 4121159530.0, "Shape_Length": 0.026368446353076818 }, "geometry": { "type": "MultiLineString", "coordinates": [ [ [ 80.162499999999653, 6.322916666666565 ], [ 80.156249999999687, 6.322916666666565 ], [ 80.152083333333024, 6.327083333333213 ], [ 80.143749999999699, 6.327083333333213 ], [ 80.139583333333036, 6.33125 ] ] ] } },
{ "type": "Feature", "properties": { "HYRIV_ID": 41408679, "NEXT_DOWN": 41408597, "MAIN_RIV": 41408119, "LENGTH_KM": 2.4200001, "DIST_DN_KM": 24.200001, "DIST_UP_KM": 12.7, "CATCH_SKM": 5.9699998, "UPLAND_SKM": 52.5, "ENDORHEIC": 0, "DIS_AV_CMS": 2.5680001, "ORD_STRA": 2, "ORD_CLAS": 2, "ORD_FLOW": 6, "HYBAS_L12": 4121159530.0, "Shape_Length": 0.021844336196343073 }, "geometry": { "type": "MultiLineString", "coordinates": [ [ [ 80.152083333333024, 6.314583333333239 ], [ 80.139583333333036, 6.327083333333213 ], [ 80.139583333333036, 6.33125 ] ] ] } },
{ "type": "Feature", "properties": { "HYRIV_ID": 41408703, "NEXT_DOWN": 41408554, "MAIN_RIV": 41408119, "LENGTH_KM": 3.24, "DIST_DN_KM": 32.5, "DIST_UP_KM": 9.6, "CATCH_SKM": 6.83, "UPLAND_SKM": 24.1, "ENDORHEIC": 0, "DIS_AV_CMS": 1.18, "ORD_STRA": 2, "ORD_CLAS": 2, "ORD_FLOW": 6, "HYBAS_L12": 4121159620.0, "Shape_Length": 0.02916666666664014 }, "geometry": { "type": "MultiLineString", "coordinates": [ [ [ 80.218749999999631, 6.31041666666659 ], [ 80.218749999999631, 6.339583333333231 ] ] ] } },
{ "type": "Feature", "properties": { "HYRIV_ID": 41408719, "NEXT_DOWN": 41408679, "MAIN_RIV": 41408119, "LENGTH_KM": 1.81, "DIST_DN_KM": 26.6, "DIST_UP_KM": 3.5, "CATCH_SKM": 5.12, "UPLAND_SKM": 5.1, "ENDORHEIC": 0, "DIS_AV_CMS": 0.244, "ORD_STRA": 1, "ORD_CLAS": 3, "ORD_FLOW": 7, "HYBAS_L12": 4121159530.0, "Shape_Length": 0.016309223176584085 }, "geometry": { "type": "MultiLineString", "coordinates": [ [ [ 80.141666666666339, 6.306249999999885 ], [ 80.147916666666362, 6.306249999999885 ], [ 80.152083333333024, 6.31041666666659 ], [ 80.152083333333024, 6.314583333333239 ] ] ] } },
{ "type": "Feature", "properties": { "HYRIV_ID": 41408720, "NEXT_DOWN": 41408703, "MAIN_RIV": 41408119, "LENGTH_KM": 1.63, "DIST_DN_KM": 36.0, "DIST_UP_KM": 3.5, "CATCH_SKM": 4.27, "UPLAND_SKM": 4.3, "ENDORHEIC": 0, "DIS_AV_CMS": 0.205, "ORD_STRA": 1, "ORD_CLAS": 3, "ORD_FLOW": 7, "HYBAS_L12": 4121159620.0, "Shape_Length": 0.014731391274746534 }, "geometry": { "type": "MultiLineString", "coordinates": [ [ [ 80.208333333333002, 6.3125 ], [ 80.214583333332968, 6.306249999999885 ], [ 80.218749999999631, 6.31041666666659 ] ] ] } },
{ "type": "Feature", "properties": { "HYRIV_ID": 41408721, "NEXT_DOWN": 41408622, "MAIN_RIV": 41408119, "LENGTH_KM": 2.51, "DIST_DN_KM": 36.700001, "DIST_UP_KM": 13.4, "CATCH_SKM": 6.6100001, "UPLAND_SKM": 52.900002, "ENDORHEIC": 0, "DIS_AV_CMS": 2.602, "ORD_STRA": 2, "ORD_CLAS": 1, "ORD_FLOW": 6, "HYBAS_L12": 4121159620.0, "Shape_Length": 0.022559223176548255 }, "geometry": { "type": "MultiLineString", "coordinates": [ [ [ 80.247916666666328, 6.306249999999885 ], [ 80.247916666666328, 6.31875 ], [ 80.243749999999665, 6.322916666666565 ], [ 80.243749999999665, 6.327083333333213 ] ] ] } },
{ "type": "Feature", "properties": { "HYRIV_ID": 41408722, "NEXT_DOWN": 41408721, "MAIN_RIV": 41408119, "LENGTH_KM": 4.3800001, "DIST_DN_KM": 39.200001, "DIST_UP_KM": 6.8, "CATCH_SKM": 10.88, "UPLAND_SKM": 10.9, "ENDORHEIC": 0, "DIS_AV_CMS": 0.528, "ORD_STRA": 1, "ORD_CLAS": 2, "ORD_FLOW": 7, "HYBAS_L12": 4121159620.0, "Shape_Length": 0.039583333333396808 }, "geometry": { "type": "MultiLineString", "coordinates": [ [ [ 80.281249999999687, 6.3125 ], [ 80.281249999999687, 6.306249999999885 ], [ 80.247916666666328, 6.306249999999885 ] ] ] } },
{ "type": "Feature", "properties": { "HYRIV_ID": 41408740, "NEXT_DOWN": 41408679, "MAIN_RIV": 41408119, "LENGTH_KM": 2.4200001, "DIST_DN_KM": 26.8, "DIST_UP_KM": 10.1, "CATCH_SKM": 7.6799998, "UPLAND_SKM": 41.400002, "ENDORHEIC": 0, "DIS_AV_CMS": 2.0139999, "ORD_STRA": 2, "ORD_CLAS": 2, "ORD_FLOW": 6, "HYBAS_L12": 4121159530.0, "Shape_Length": 0.021844336196257093 }, "geometry": { "type": "MultiLineString", "coordinates": [ [ [ 80.168749999999619, 6.302083333333222 ], [ 80.16458333333307, 6.302083333333222 ], [ 80.152083333333024, 6.314583333333239 ] ] ] } },
{ "type": "Feature", "properties": { "HYRIV_ID": 41408749, "NEXT_DOWN": 41408740, "MAIN_RIV": 41408119, "LENGTH_KM": 0.65, "DIST_DN_KM": 29.200001, "DIST_UP_KM": 7.7, "CATCH_SKM": 1.71, "UPLAND_SKM": 28.0, "ENDORHEIC": 0, "DIS_AV_CMS": 1.352, "ORD_STRA": 2, "ORD_CLAS": 2, "ORD_FLOW": 6, "HYBAS_L12": 4121159530.0, "Shape_Length": 0.005892556509952877 }, "geometry": { "type": "MultiLineString", "coordinates": [ [ [ 80.172916666666396, 6.297916666666573 ], [ 80.168749999999619, 6.302083333333222 ] ] ] } },
{ "type": "Feature", "properties": { "HYRIV_ID": 41408750, "NEXT_DOWN": 41408749, "MAIN_RIV": 41408119, "LENGTH_KM": 1.34, "DIST_DN_KM": 29.9, "DIST_UP_KM": 2.8, "CATCH_SKM": 3.2, "UPLAND_SKM": 3.2, "ENDORHEIC": 0, "DIS_AV_CMS": 0.154, "ORD_STRA": 1, "ORD_CLAS": 3, "ORD_FLOW": 7, "HYBAS_L12": 4121159530.0, "Shape_Length": 0.012142556509814837 }, "geometry": { "type": "MultiLineString", "coordinates": [ [ [ 80.183333333332968, 6.302083333333222 ], [ 80.177083333332945, 6.302083333333222 ], [ 80.172916666666396, 6.297916666666573 ] ] ] } },
{ "type": "Feature", "properties": { "HYRIV_ID": 41408751, "NEXT_DOWN": 41408721, "MAIN_RIV": 41408119, "LENGTH_KM": 1.12, "DIST_DN_KM": 39.200001, "DIST_UP_KM": 10.9, "CATCH_SKM": 2.77, "UPLAND_SKM": 35.400002, "ENDORHEIC": 0, "DIS_AV_CMS": 1.724, "ORD_STRA": 2, "ORD_CLAS": 1, "ORD_FLOW": 6, "HYBAS_L12": 4121159620.0, "Shape_Length": 0.010059223176535365 }, "geometry": { "type": "MultiLineString", "coordinates": [ [ [ 80.25208333333299, 6.297916666666573 ], [ 80.247916666666328, 6.302083333333222 ], [ 80.247916666666328, 6.306249999999885 ] ] ] } },
{ "type": "Feature", "properties": { "HYRIV_ID": 41408793, "NEXT_DOWN": 41408740, "MAIN_RIV": 41408119, "LENGTH_KM": 2.75, "DIST_DN_KM": 29.1, "DIST_UP_KM": 4.4, "CATCH_SKM": 5.7600002, "UPLAND_SKM": 5.8, "ENDORHEIC": 0, "DIS_AV_CMS": 0.276, "ORD_STRA": 1, "ORD_CLAS": 3, "ORD_FLOW": 7, "HYBAS_L12": 4121159530.0, "Shape_Length": 0.02479061445127774 }, "geometry": { "type": "MultiLineString", "coordinates": [ [ [ 80.154166666666271, 6.283333333333225 ], [ 80.168749999999619, 6.297916666666573 ], [ 80.168749999999619, 6.302083333333222 ] ] ] } },
{ "type": "Feature", "properties": { "HYRIV_ID": 41408823, "NEXT_DOWN": 41408749, "MAIN_RIV": 41408119, "LENGTH_KM": 2.23, "DIST_DN_KM": 29.700001, "DIST_UP_KM": 7.2, "CATCH_SKM": 5.12, "UPLAND_SKM": 23.0, "ENDORHEIC": 0, "DIS_AV_CMS": 1.114, "ORD_STRA": 2, "ORD_CLAS": 2, "ORD_FLOW": 6, "HYBAS_L12": 4121159530.0, "Shape_Length": 0.020118446353119251 }, "geometry": { "type": "MultiLineString", "coordinates": [ [ [ 80.181249999999721, 6.281249999999893 ], [ 80.177083333332945, 6.285416666666556 ], [ 80.177083333332945, 6.289583333333248 ], [ 80.172916666666396, 6.29375 ], [ 80.172916666666396, 6.297916666666573 ] ] ] } },
{ "type": "Feature", "properties": { "HYRIV_ID": 41408824, "NEXT_DOWN": 41408823, "MAIN_RIV": 41408119, "LENGTH_KM": 2.46, "DIST_DN_KM": 32.099998, "DIST_UP_KM": 4.2, "CATCH_SKM": 6.6100001, "UPLAND_SKM": 6.6, "ENDORHEIC": 0, "DIS_AV_CMS": 0.317, "ORD_STRA": 1, "ORD_CLAS": 3, "ORD_FLOW": 7, "HYBAS_L12": 4121159530.0, "Shape_Length": 0.022201779686477092 }, "geometry": { "type": "MultiLineString", "coordinates": [ [ [ 80.199999999999676, 6.281249999999893 ], [ 80.193749999999596, 6.281249999999893 ], [ 80.189583333333104, 6.285416666666556 ], [ 80.185416666666271, 6.285416666666556 ], [ 80.181249999999721, 6.281249999999893 ] ] ] } },
{ "type": "Feature", "properties": { "HYRIV_ID": 41408825, "NEXT_DOWN": 41408703, "MAIN_RIV": 41408119, "LENGTH_KM": 4.04, "DIST_DN_KM": 36.0, "DIST_UP_KM": 6.1, "CATCH_SKM": 13.02, "UPLAND_SKM": 13.0, "ENDORHEIC": 0, "DIS_AV_CMS": 0.62900001, "ORD_STRA": 1, "ORD_CLAS": 2, "ORD_FLOW": 7, "HYBAS_L12": 4121159620.0, "Shape_Length": 0.036427669529666591 }, "geometry": { "type": "MultiLineString", "coordinates": [ [ [ 80.231249999999619, 6.279166666666562 ], [ 80.231249999999619, 6.285416666666556 ], [ 80.222916666666293, 6.29375 ], [ 80.222916666666293, 6.306249999999885 ], [ 80.218749999999631, 6.31041666666659 ] ] ] } },
{ "type": "Feature", "properties": { "HYRIV_ID": 41408889, "NEXT_DOWN": 41408751, "MAIN_RIV": 41408119, "LENGTH_KM": 7.77, "DIST_DN_KM": 40.5, "DIST_UP_KM": 9.6, "CATCH_SKM": 15.79, "UPLAND_SKM": 15.8, "ENDORHEIC": 0, "DIS_AV_CMS": 0.76300001, "ORD_STRA": 1, "ORD_CLAS": 1, "ORD_FLOW": 7, "HYBAS_L12": 4121159620.0, "Shape_Length": 0.070057118745830871 }, "geometry": { "type": "MultiLineString", "coordinates": [ [ [ 80.289583333333013, 6.291666666666579 ], [ 80.289583333333013, 6.281249999999893 ], [ 80.28541666666635, 6.277083333333231 ], [ 80.28541666666635, 6.272916666666582 ], [ 80.281249999999687, 6.268749999999876 ], [ 80.277083333333024, 6.272916666666582 ], [ 80.272916666666362, 6.272916666666582 ], [ 80.268749999999699, 6.277083333333231 ], [ 80.268749999999699, 6.281249999999893 ], [ 80.25208333333299, 6.297916666666573 ] ] ] } },
{ "type": "Feature", "properties": { "HYRIV_ID": 41408918, "NEXT_DOWN": 41408823, "MAIN_RIV": 41408119, "LENGTH_KM": 2.51, "DIST_DN_KM": 31.9, "DIST_UP_KM": 5.0, "CATCH_SKM": 5.12, "UPLAND_SKM": 11.3, "ENDORHEIC": 0, "DIS_AV_CMS": 0.54299998, "ORD_STRA": 2, "ORD_CLAS": 2, "ORD_FLOW": 7, "HYBAS_L12": 4121159530.0, "Shape_Length": 0.022559223176467868 }, "geometry": { "type": "MultiLineString", "coordinates": [ [ [ 80.185416666666271, 6.260416666666565 ], [ 80.185416666666271, 6.264583333333213 ], [ 80.181249999999721, 6.268749999999876 ], [ 80.181249999999721, 6.281249999999893 ] ] ] } },
{ "type": "Feature", "properties": { "HYRIV_ID": 41408945, "NEXT_DOWN": 41408918, "MAIN_RIV": 41408119, "LENGTH_KM": 0.69, "DIST_DN_KM": 34.5, "DIST_UP_KM": 2.5, "CATCH_SKM": 3.2, "UPLAND_SKM": 3.2, "ENDORHEIC": 0, "DIS_AV_CMS": 0.152, "ORD_STRA": 1, "ORD_CLAS": 2, "ORD_FLOW": 7, "HYBAS_L12": 4121159530.0, "Shape_Length": 0.0062499999999943157 }, "geometry": { "type": "MultiLineString", "coordinates": [ [ [ 80.185416666666271, 6.254166666666571 ], [ 80.185416666666271, 6.260416666666565 ] ] ] } },
{ "type": "Feature", "properties": { "HYRIV_ID": 41408946, "NEXT_DOWN": 41408918, "MAIN_RIV": 41408119, "LENGTH_KM": 0.98, "DIST_DN_KM": 34.599998, "DIST_UP_KM": 2.0, "CATCH_SKM": 2.99, "UPLAND_SKM": 3.0, "ENDORHEIC": 0, "DIS_AV_CMS": 0.142, "ORD_STRA": 1, "ORD_CLAS": 3, "ORD_FLOW": 7, "HYBAS_L12": 4121159530.0, "Shape_Length": 0.0088388347648840973 }, "geometry": { "type": "MultiLineString", "coordinates": [ [ [ 80.19166666666635, 6.254166666666571 ], [ 80.185416666666271, 6.260416666666565 ] ] ] } },
{ "type": "Feature", "properties": { "HYRIV_ID": 41408970, "NEXT_DOWN": 41408751, "MAIN_RIV": 41408119, "LENGTH_KM": 6.3600001, "DIST_DN_KM": 40.3, "DIST_UP_KM": 8.8, "CATCH_SKM": 16.860001, "UPLAND_SKM": 16.9, "ENDORHEIC": 0, "DIS_AV_CMS": 0.81900001, "ORD_STRA": 1, "ORD_CLAS": 2, "ORD_FLOW": 7, "HYBAS_L12": 4121159620.0, "Shape_Length": 0.05726100286290231 }, "geometry": { "type": "MultiLineString", "coordinates": [ [ [ 80.241666666666418, 6.252083333333239 ], [ 80.247916666666328, 6.252083333333239 ], [ 80.256249999999653, 6.260416666666565 ], [ 80.256249999999653, 6.281249999999893 ], [ 80.25208333333299, 6.285416666666556 ], [ 80.25208333333299, 6.297916666666573 ] ] ] } }
]
}
