{
"type": "FeatureCollection",
"name": "main_river_41398769",
"crs": { "type": "name", "properties": { "name": "urn:ogc:def:crs:OGC:1.3:CRS84" } },
"features": [
{ "type": "Feature", "properties": { "HYRIV_ID": 41398717, "NEXT_DOWN": 41398744, "MAIN_RIV": 41398769, "LENGTH_KM": 5.5500002, "DIST_DN_KM": 18.700001, "DIST_UP_KM": 20.8, "CATCH_SKM": 14.01, "UPLAND_SKM": 96.099998, "ENDORHEIC": 0, "DIS_AV_CMS": 0.91399997, "ORD_STRA": 2, "ORD_CLAS": 1, "ORD_FLOW": 7, "HYBAS_L12": 4120049280.0, "Shape_Length": 0.050296115882857706 }, "geometry": { "type": "MultiLineString", "coordinates": [ [ [ 80.118749999999665, 8.647916666666511 ], [ 80.114583333333002, 8.652083333333216 ], [ 80.110416666666339, 8.647916666666511 ], [ 80.106249999999619, 8.652083333333216 ], [ 80.093749999999631, 8.652083333333216 ], [ 80.089583333332968, 8.656249999999879 ], [ 80.081249999999642, 8.656249999999879 ], [ 80.077083333332979, 8.652083333333216 ] ] ] } },
{ "type": "Feature", "properties": { "HYRIV_ID": 41398744, "NEXT_DOWN": 41398769, "MAIN_RIV": 41398769, "LENGTH_KM": 12.79, "DIST_DN_KM": 6.0, "DIST_UP_KM": 33.599998, "CATCH_SKM": 40.959999, "UPLAND_SKM": 161.10001, "ENDORHEIC": 0, "DIS_AV_CMS": 1.488, "ORD_STRA": 2, "ORD_CLAS": 1, "ORD_FLOW": 6, "HYBAS_L12": 4120049280.0, "Shape_Length": 0.11582912447190255 }, "geometry": { "type": "MultiLineString", "coordinates": [ [ [ 80.077083333332979, 8.652083333333216 ], [ 80.072916666666316, 8.656249999999879 ], [ 80.068749999999596, 8.656249999999879 ], [ 80.06458333333299, 8.660416666666542 ], [ 80.060416666666271, 8.660416666666542 ], [ 80.047916666666396, 8.672916666666559 ], [ 80.039583333332956, 8.672916666666559 ], [ 80.035416666666407, 8.668749999999854 ], [ 80.031249999999744, 8.672916666666559 ], [ 80.027083333333024, 8.672916666666559 ], [ 80.018749999999699, 8.664583333333191 ], [ 80.00624999999971, 8.664583333333191 ], [ 79.985416666666339, 8.643749999999862 ] ] ] } },
{ "type": "Feature", "properties": { "HYRIV_ID": 41398769, "NEXT_DOWN": 0, "MAIN_RIV": 41398769, "LENGTH_KM": 5.5500002, "DIST_DN_KM": 0.0, "DIST_UP_KM": 39.400002, "CATCH_SKM": 16.549999, "UPLAND_SKM": 218.60001, "ENDORHEIC": 0, "DIS_AV_CMS": 2.036, "ORD_STRA": 2, "ORD_CLAS": 1, "ORD_FLOW": 6, "HYBAS_L12": 4120049280.0, "Shape_Length": 0.050296115882844203 }, "geometry": { "type": "MultiLineString", "coordinates": [ [ [ 79.985416666666339, 8.643749999999862 ], [ 79.981249999999676, 8.643749999999862 ], [ 79.977083333332956, 8.639583333333199 ], [ 79.964583333332968, 8.639583333333199 ], [ 79.947916666666316, 8.656249999999879 ], [ 79.943749999999596, 8.656249999999879 ] ] ] } },
{ "type": "Feature", "properties": { "HYRIV_ID": 41398797, "NEXT_DOWN": 41398744, "MAIN_RIV": 41398769, "LENGTH_KM": 2.9200001, "DIST_DN_KM": 18.6, "DIST_UP_KM": 8.4, "CATCH_SKM": 23.98, "UPLAND_SKM": 24.0, "ENDORHEIC": 0, "DIS_AV_CMS": 0.233, "ORD_STRA": 1, "ORD_CLAS": 2, "ORD_FLOW": 7, "HYBAS_L12": 4120049280.0, "Shape_Length": 0.026368446353085141 }, "geometry": { "type": "MultiLineString", "coordinates": [ [ [ 80.091666666666271, 8.635416666666536 ], [ 80.085416666666305, 8.635416666666536 ], [ 80.077083333332979, 8.643749999999862 ], [ 80.077083333332979, 8.652083333333216 ] ] ] } },
{ "type": "Feature", "properties": { "HYRIV_ID": 41398844, "NEXT_DOWN": 41398717, "MAIN_RIV": 41398769, "LENGTH_KM": 3.21, "DIST_DN_KM": 24.1, "DIST_UP_KM": 7.2, "CATCH_SKM": 16.77, "UPLAND_SKM": 16.8, "ENDORHEIC": 0, "DIS_AV_CMS": 0.164, "ORD_STRA": 1, "ORD_CLAS": 2, "ORD_FLOW": 7, "HYBAS_L12": 4120049280.0, "Shape_Length": 0.028957281117900423 }, "geometry": { "type": "MultiLineString", "coordinates": [ [ [ 80.133333333332956, 8.624999999999851 ], [ 80.118749999999665, 8.639583333333199 ], [ 80.118749999999665, 8.647916666666511 ] ] ] } },
{ "type": "Feature", "properties": { "HYRIV_ID": 41398845, "NEXT_DOWN": 41398717, "MAIN_RIV": 41398769, "LENGTH_KM": 5.5500002, "DIST_DN_KM": 24.1, "DIST_UP_KM": 15.5, "CATCH_SKM": 26.1, "UPLAND_SKM": 65.400002, "ENDORHEIC": 0, "DIS_AV_CMS": 0.634, "ORD_STRA": 2, "ORD_CLAS": 1, "ORD_FLOW": 7, "HYBAS_L12": 4120049280.0, "Shape_Length": 0.050296115882793965 }, "geometry": { "type": "MultiLineString", "coordinates": [ [ [ 80.16041666666635, 8.627083333333182 ], [ 80.143749999999699, 8.643749999999862 ], [ 80.131249999999653, 8.643749999999862 ], [ 80.12708333333299, 8.647916666666511 ], [ 80.118749999999665, 8.647916666666511 ] ] ] } },
{ "type": "Feature", "properties": { "HYRIV_ID": 41398870, "NEXT_DOWN": 41398769, "MAIN_RIV": 41398769, "LENGTH_KM": 8.5299997, "DIST_DN_KM": 5.8, "DIST_UP_KM": 14.1, "CATCH_SKM": 41.169998, "UPLAND_SKM": 41.200001, "ENDORHEIC": 0, "DIS_AV_CMS": 0.396, "ORD_STRA": 1, "ORD_CLAS": 2, "ORD_FLOW": 7, "HYBAS_L12": 4120049280.0, "Shape_Length": 0.077379449216067639 }, "geometry": { "type": "MultiLineString", "coordinates": [ [ [ 80.049999999999642, 8.627083333333182 ], [ 80.031249999999744, 8.627083333333182 ], [ 80.027083333333024, 8.622916666666519 ], [ 80.022916666666362, 8.622916666666519 ], [ 80.018749999999699, 8.627083333333182 ], [ 80.014583333333036, 8.627083333333182 ], [ 80.010416666666373, 8.631249999999888 ], [ 79.997916666666328, 8.631249999999888 ], [ 79.993749999999665, 8.635416666666536 ], [ 79.993749999999665, 8.639583333333199 ], [ 79.989583333333002, 8.643749999999862 ], [ 79.985416666666339, 8.643749999999862 ] ] ] } },
{ "type": "Feature", "properties": { "HYRIV_ID": 41398918, "NEXT_DOWN": 41398845, "MAIN_RIV": 41398769, "LENGTH_KM": 2.56, "DIST_DN_KM": 29.8, "DIST_UP_KM": 6.9, "CATCH_SKM": 17.620001, "UPLAND_SKM": 17.6, "ENDORHEIC": 0, "DIS_AV_CMS": 0.175, "ORD_STRA": 1, "ORD_CLAS": 2, "ORD_FLOW": 7, "HYBAS_L12": 4120049280.0, "Shape_Length": 0.023064724607997786 }, "geometry": { "type": "MultiLineString", "coordinates": [ [ [ 80.162499999999653, 8.608333333333213 ], [ 80.156249999999687, 8.614583333333208 ], [ 80.156249999999687, 8.622916666666519 ], [ 80.16041666666635, 8.627083333333182 ] ] ] } },
{ "type": "Feature", "properties": { "HYRIV_ID": 41399013, "NEXT_DOWN": 41398845, "MAIN_RIV": 41398769, "LENGTH_KM": 5.0700002, "DIST_DN_KM": 29.8, "DIST_UP_KM": 9.8, "CATCH_SKM": 21.65, "UPLAND_SKM": 21.6, "ENDORHEIC": 0, "DIS_AV_CMS": 0.217, "ORD_STRA": 1, "ORD_CLAS": 1, "ORD_FLOW": 7, "HYBAS_L12": 4120049280.0, "Shape_Length": 0.045772005725920543 }, "geometry": { "type": "MultiLineString", "coordinates": [ [ [ 80.185416666666271, 8.591666666666548 ], [ 80.185416666666271, 8.597916666666528 ], [ 80.181249999999721, 8.602083333333191 ], [ 80.181249999999721, 8.606249999999896 ], [ 80.16041666666635, 8.627083333333182 ] ] ] } }
]
}
