{
"type": "FeatureCollection",
"name": "main_river_41395814",
"crs": { "type": "name", "properties": { "name": "urn:ogc:def:crs:OGC:1.3:CRS84" } },
"features": [
{ "type": "Feature", "properties": { "HYRIV_ID": 41395814, "NEXT_DOWN": 0, "MAIN_RIV": 41395814, "LENGTH_KM": 16.379999, "DIST_DN_KM": 0.0, "DIST_UP_KM": 65.699997, "CATCH_SKM": 61.25, "UPLAND_SKM": 466.10001, "ENDORHEIC": 0, "DIS_AV_CMS": 3.698, "ORD_STRA": 2, "ORD_CLAS": 1, "ORD_FLOW": 6, "HYBAS_L12": 4120049380.0, "Shape_Length": 0.14886634192230616 }, "geometry": { "type": "MultiLineString", "coordinates": [ [ [ 80.227083333332956, 9.139583333333185 ], [ 80.222916666666293, 9.143749999999834 ], [ 80.210416666666305, 9.143749999999834 ], [ 80.206249999999642, 9.147916666666539 ], [ 80.16458333333307, 9.147916666666539 ], [ 80.16041666666635, 9.152083333333202 ], [ 80.156249999999687, 9.152083333333202 ], [ 80.152083333333024, 9.156249999999865 ], [ 80.147916666666362, 9.152083333333202 ], [ 80.143749999999699, 9.152083333333202 ], [ 80.139583333333036, 9.156249999999865 ], [ 80.131249999999653, 9.156249999999865 ], [ 80.122916666666328, 9.147916666666539 ], [ 80.097916666666293, 9.147916666666539 ], [ 80.093749999999631, 9.152083333333202 ] ] ] } },
{ "type": "Feature", "properties": { "HYRIV_ID": 41395815, "NEXT_DOWN": 41395814, "MAIN_RIV": 41395814, "LENGTH_KM": 1.9, "DIST_DN_KM": 16.5, "DIST_UP_KM": 6.2, "CATCH_SKM": 14.62, "UPLAND_SKM": 14.6, "ENDORHEIC": 0, "DIS_AV_CMS": 0.14300001, "ORD_STRA": 1, "ORD_CLAS": 2, "ORD_FLOW": 7, "HYBAS_L12": 4120049380.0, "Shape_Length": 0.017172168098225787 }, "geometry": { "type": "MultiLineString", "coordinates": [ [ [ 80.237499999999699, 9.149999999999871 ], [ 80.231249999999619, 9.143749999999834 ], [ 80.231249999999619, 9.139583333333185 ], [ 80.227083333332956, 9.139583333333185 ] ] ] } },
{ "type": "Feature", "properties": { "HYRIV_ID": 41395866, "NEXT_DOWN": 41395814, "MAIN_RIV": 41395814, "LENGTH_KM": 1.76, "DIST_DN_KM": 16.700001, "DIST_UP_KM": 49.400002, "CATCH_SKM": 4.2399998, "UPLAND_SKM": 390.5, "ENDORHEIC": 0, "DIS_AV_CMS": 3.5320001, "ORD_STRA": 2, "ORD_CLAS": 1, "ORD_FLOW": 6, "HYBAS_L12": 4120049380.0, "Shape_Length": 0.015951779686427948 }, "geometry": { "type": "MultiLineString", "coordinates": [ [ [ 80.239583333332945, 9.131249999999859 ], [ 80.235416666666282, 9.131249999999859 ], [ 80.227083333332956, 9.139583333333185 ] ] ] } },
{ "type": "Feature", "properties": { "HYRIV_ID": 41395923, "NEXT_DOWN": 41395866, "MAIN_RIV": 41395814, "LENGTH_KM": 3.98, "DIST_DN_KM": 18.5, "DIST_UP_KM": 47.599998, "CATCH_SKM": 16.110001, "UPLAND_SKM": 362.29999, "ENDORHEIC": 0, "DIS_AV_CMS": 3.31, "ORD_STRA": 2, "ORD_CLAS": 1, "ORD_FLOW": 6, "HYBAS_L12": 4120049380.0, "Shape_Length": 0.036070226039589121 }, "geometry": { "type": "MultiLineString", "coordinates": [ [ [ 80.268749999999699, 9.122916666666548 ], [ 80.260416666666316, 9.131249999999859 ], [ 80.256249999999653, 9.131249999999859 ], [ 80.25208333333299, 9.135416666666522 ], [ 80.243749999999665, 9.135416666666522 ], [ 80.239583333332945, 9.131249999999859 ] ] ] } },
{ "type": "Feature", "properties": { "HYRIV_ID": 41395924, "NEXT_DOWN": 41395923, "MAIN_RIV": 41395814, "LENGTH_KM": 3.57, "DIST_DN_KM": 22.4, "DIST_UP_KM": 7.6, "CATCH_SKM": 15.05, "UPLAND_SKM": 15.0, "ENDORHEIC": 0, "DIS_AV_CMS": 0.149, "ORD_STRA": 1, "ORD_CLAS": 2, "ORD_FLOW": 7, "HYBAS_L12": 4120049380.0, "Shape_Length": 0.032261002862986055 }, "geometry": { "type": "MultiLineString", "coordinates": [ [ [ 80.28541666666635, 9.145833333333208 ], [ 80.28541666666635, 9.139583333333185 ], [ 80.281249999999687, 9.135416666666522 ], [ 80.281249999999687, 9.131249999999859 ], [ 80.277083333333024, 9.127083333333211 ], [ 80.272916666666362, 9.127083333333211 ], [ 80.268749999999699, 9.122916666666548 ] ] ] } },
{ "type": "Feature", "properties": { "HYRIV_ID": 41396013, "NEXT_DOWN": 41395923, "MAIN_RIV": 41395814, "LENGTH_KM": 2.87, "DIST_DN_KM": 22.4, "DIST_UP_KM": 43.599998, "CATCH_SKM": 11.66, "UPLAND_SKM": 331.10001, "ENDORHEIC": 0, "DIS_AV_CMS": 3.1040001, "ORD_STRA": 2, "ORD_CLAS": 1, "ORD_FLOW": 6, "HYBAS_L12": 4120049380.0, "Shape_Length": 0.02601100286299346 }, "geometry": { "type": "MultiLineString", "coordinates": [ [ [ 80.28541666666635, 9.106249999999868 ], [ 80.28541666666635, 9.110416666666531 ], [ 80.281249999999687, 9.114583333333194 ], [ 80.277083333333024, 9.114583333333194 ], [ 80.268749999999699, 9.122916666666548 ] ] ] } },
{ "type": "Feature", "properties": { "HYRIV_ID": 41396014, "NEXT_DOWN": 41396013, "MAIN_RIV": 41395814, "LENGTH_KM": 3.46, "DIST_DN_KM": 25.1, "DIST_UP_KM": 8.2, "CATCH_SKM": 15.68, "UPLAND_SKM": 15.7, "ENDORHEIC": 0, "DIS_AV_CMS": 0.15700001, "ORD_STRA": 1, "ORD_CLAS": 2, "ORD_FLOW": 7, "HYBAS_L12": 4121600220.0, "Shape_Length": 0.031398057941304451 }, "geometry": { "type": "MultiLineString", "coordinates": [ [ [ 80.312499999999631, 9.116666666666525 ], [ 80.306249999999608, 9.110416666666531 ], [ 80.293749999999733, 9.110416666666531 ], [ 80.289583333333013, 9.106249999999868 ], [ 80.28541666666635, 9.106249999999868 ] ] ] } },
{ "type": "Feature", "properties": { "HYRIV_ID": 41396036, "NEXT_DOWN": 41395866, "MAIN_RIV": 41395814, "LENGTH_KM": 4.3200002, "DIST_DN_KM": 18.3, "DIST_UP_KM": 7.8, "CATCH_SKM": 23.950001, "UPLAND_SKM": 24.0, "ENDORHEIC": 0, "DIS_AV_CMS": 0.229, "ORD_STRA": 1, "ORD_CLAS": 2, "ORD_FLOW": 7, "HYBAS_L12": 4120049380.0, "Shape_Length": 0.039016504294471815 }, "geometry": { "type": "MultiLineString", "coordinates": [ [ [ 80.237499999999699, 9.099999999999888 ], [ 80.243749999999665, 9.106249999999868 ], [ 80.243749999999665, 9.110416666666531 ], [ 80.247916666666328, 9.114583333333194 ], [ 80.247916666666328, 9.118749999999842 ], [ 80.239583333332945, 9.127083333333211 ], [ 80.239583333332945, 9.131249999999859 ] ] ] } },
{ "type": "Feature", "properties": { "HYRIV_ID": 41396146, "NEXT_DOWN": 41396013, "MAIN_RIV": 41395814, "LENGTH_KM": 4.1700001, "DIST_DN_KM": 25.3, "DIST_UP_KM": 40.8, "CATCH_SKM": 14.2, "UPLAND_SKM": 303.79999, "ENDORHEIC": 0, "DIS_AV_CMS": 2.8989999, "ORD_STRA": 2, "ORD_CLAS": 1, "ORD_FLOW": 6, "HYBAS_L12": 4121600220.0, "Shape_Length": 0.037796115882835477 }, "geometry": { "type": "MultiLineString", "coordinates": [ [ [ 80.314583333333047, 9.085416666666497 ], [ 80.306249999999608, 9.093749999999851 ], [ 80.302083333332945, 9.093749999999851 ], [ 80.293749999999733, 9.102083333333219 ], [ 80.289583333333013, 9.102083333333219 ], [ 80.28541666666635, 9.106249999999868 ] ] ] } },
{ "type": "Feature", "properties": { "HYRIV_ID": 41396147, "NEXT_DOWN": 41396146, "MAIN_RIV": 41395814, "LENGTH_KM": 4.04, "DIST_DN_KM": 29.5, "DIST_UP_KM": 9.3, "CATCH_SKM": 16.74, "UPLAND_SKM": 16.700001, "ENDORHEIC": 0, "DIS_AV_CMS": 0.17, "ORD_STRA": 1, "ORD_CLAS": 2, "ORD_FLOW": 7, "HYBAS_L12": 4121600220.0, "Shape_Length": 0.03657572747104941 }, "geometry": { "type": "MultiLineString", "coordinates": [ [ [ 80.337499999999665, 9.112499999999862 ], [ 80.327083333332922, 9.102083333333219 ], [ 80.327083333332922, 9.097916666666514 ], [ 80.314583333333047, 9.085416666666497 ] ] ] } },
{ "type": "Feature", "properties": { "HYRIV_ID": 41396148, "NEXT_DOWN": 41396186, "MAIN_RIV": 41395814, "LENGTH_KM": 5.4200001, "DIST_DN_KM": 36.900002, "DIST_UP_KM": 8.6, "CATCH_SKM": 24.8, "UPLAND_SKM": 24.8, "ENDORHEIC": 0, "DIS_AV_CMS": 0.26, "ORD_STRA": 1, "ORD_CLAS": 2, "ORD_FLOW": 7, "HYBAS_L12": 4121600220.0, "Shape_Length": 0.048927669529653495 }, "geometry": { "type": "MultiLineString", "coordinates": [ [ [ 80.389583333332979, 9.124999999999837 ], [ 80.389583333332979, 9.110416666666531 ], [ 80.385416666666316, 9.106249999999868 ], [ 80.385416666666316, 9.093749999999851 ], [ 80.37708333333299, 9.085416666666497 ], [ 80.372916666666328, 9.085416666666497 ] ] ] } },
{ "type": "Feature", "properties": { "HYRIV_ID": 41396185, "NEXT_DOWN": 41396146, "MAIN_RIV": 41395814, "LENGTH_KM": 1.11, "DIST_DN_KM": 29.5, "DIST_UP_KM": 36.599998, "CATCH_SKM": 3.3900001, "UPLAND_SKM": 272.79999, "ENDORHEIC": 0, "DIS_AV_CMS": 2.674, "ORD_STRA": 2, "ORD_CLAS": 1, "ORD_FLOW": 6, "HYBAS_L12": 4121600220.0, "Shape_Length": 0.01005922317660541 }, "geometry": { "type": "MultiLineString", "coordinates": [ [ [ 80.32291666666643, 9.081249999999876 ], [ 80.318749999999596, 9.081249999999876 ], [ 80.314583333333047, 9.085416666666497 ] ] ] } },
{ "type": "Feature", "properties": { "HYRIV_ID": 41396186, "NEXT_DOWN": 41396185, "MAIN_RIV": 41395814, "LENGTH_KM": 6.46, "DIST_DN_KM": 30.6, "DIST_UP_KM": 35.5, "CATCH_SKM": 25.860001, "UPLAND_SKM": 246.60001, "ENDORHEIC": 0, "DIS_AV_CMS": 2.4319999, "ORD_STRA": 2, "ORD_CLAS": 1, "ORD_FLOW": 6, "HYBAS_L12": 4121600220.0, "Shape_Length": 0.058629449216039319 }, "geometry": { "type": "MultiLineString", "coordinates": [ [ [ 80.372916666666328, 9.085416666666497 ], [ 80.364583333332945, 9.093749999999851 ], [ 80.352083333332956, 9.093749999999851 ], [ 80.347916666666293, 9.089583333333202 ], [ 80.343749999999631, 9.089583333333202 ], [ 80.339583333332968, 9.085416666666497 ], [ 80.327083333332922, 9.085416666666497 ], [ 80.32291666666643, 9.081249999999876 ] ] ] } },
{ "type": "Feature", "properties": { "HYRIV_ID": 41396223, "NEXT_DOWN": 41396186, "MAIN_RIV": 41395814, "LENGTH_KM": 3.59, "DIST_DN_KM": 37.0, "DIST_UP_KM": 29.0, "CATCH_SKM": 17.379999, "UPLAND_SKM": 195.89999, "ENDORHEIC": 0, "DIS_AV_CMS": 2.0239999, "ORD_STRA": 2, "ORD_CLAS": 1, "ORD_FLOW": 6, "HYBAS_L12": 4121600220.0, "Shape_Length": 0.032618446353126253 }, "geometry": { "type": "MultiLineString", "coordinates": [ [ [ 80.402083333333024, 9.077083333333185 ], [ 80.389583333332979, 9.077083333333185 ], [ 80.385416666666316, 9.081249999999876 ], [ 80.37708333333299, 9.081249999999876 ], [ 80.372916666666328, 9.085416666666497 ] ] ] } },
{ "type": "Feature", "properties": { "HYRIV_ID": 41396260, "NEXT_DOWN": 41396223, "MAIN_RIV": 41395814, "LENGTH_KM": 0.65, "DIST_DN_KM": 40.599998, "DIST_UP_KM": 25.4, "CATCH_SKM": 1.7, "UPLAND_SKM": 159.89999, "ENDORHEIC": 0, "DIS_AV_CMS": 1.699, "ORD_STRA": 2, "ORD_CLAS": 1, "ORD_FLOW": 6, "HYBAS_L12": 4121600310.0, "Shape_Length": 0.0058925565098825365 }, "geometry": { "type": "MultiLineString", "coordinates": [ [ [ 80.406249999999687, 9.072916666666522 ], [ 80.402083333333024, 9.077083333333185 ] ] ] } },
{ "type": "Feature", "properties": { "HYRIV_ID": 41396261, "NEXT_DOWN": 41396260, "MAIN_RIV": 41395814, "LENGTH_KM": 0.98, "DIST_DN_KM": 41.3, "DIST_UP_KM": 4.9, "CATCH_SKM": 10.17, "UPLAND_SKM": 10.2, "ENDORHEIC": 0, "DIS_AV_CMS": 0.112, "ORD_STRA": 1, "ORD_CLAS": 2, "ORD_FLOW": 7, "HYBAS_L12": 4121600310.0, "Shape_Length": 0.0088388347647534657 }, "geometry": { "type": "MultiLineString", "coordinates": [ [ [ 80.412499999999596, 9.079166666666502 ], [ 80.406249999999687, 9.072916666666522 ] ] ] } },
{ "type": "Feature", "properties": { "HYRIV_ID": 41396344, "NEXT_DOWN": 41396185, "MAIN_RIV": 41395814, "LENGTH_KM": 4.48, "DIST_DN_KM": 30.4, "DIST_UP_KM": 8.8, "CATCH_SKM": 22.889999, "UPLAND_SKM": 22.9, "ENDORHEIC": 0, "DIS_AV_CMS": 0.23100001, "ORD_STRA": 1, "ORD_CLAS": 2, "ORD_FLOW": 7, "HYBAS_L12": 4121600220.0, "Shape_Length": 0.040594336196224101 }, "geometry": { "type": "MultiLineString", "coordinates": [ [ [ 80.347916666666293, 9.058333333333174 ], [ 80.347916666666293, 9.064583333333211 ], [ 80.343749999999631, 9.068749999999859 ], [ 80.339583333332968, 9.068749999999859 ], [ 80.335416666666305, 9.072916666666522 ], [ 80.331249999999642, 9.072916666666522 ], [ 80.327083333332922, 9.077083333333185 ], [ 80.327083333332922, 9.081249999999876 ], [ 80.32291666666643, 9.081249999999876 ] ] ] } },
{ "type": "Feature", "properties": { "HYRIV_ID": 41396345, "NEXT_DOWN": 41396260, "MAIN_RIV": 41395814, "LENGTH_KM": 3.33, "DIST_DN_KM": 41.3, "DIST_UP_KM": 24.8, "CATCH_SKM": 7.4200001, "UPLAND_SKM": 148.0, "ENDORHEIC": 0, "DIS_AV_CMS": 1.575, "ORD_STRA": 2, "ORD_CLAS": 1, "ORD_FLOW": 6, "HYBAS_L12": 4121600310.0, "Shape_Length": 0.030177669529552698 }, "geometry": { "type": "MultiLineString", "coordinates": [ [ [ 80.431249999999608, 9.060416666666548 ], [ 80.422916666666396, 9.060416666666548 ], [ 80.418749999999676, 9.064583333333211 ], [ 80.414583333333013, 9.064583333333211 ], [ 80.406249999999687, 9.072916666666522 ] ] ] } },
{ "type": "Feature", "properties": { "HYRIV_ID": 41396346, "NEXT_DOWN": 41396345, "MAIN_RIV": 41395814, "LENGTH_KM": 0.69, "DIST_DN_KM": 44.400002, "DIST_UP_KM": 4.4, "CATCH_SKM": 10.6, "UPLAND_SKM": 10.6, "ENDORHEIC": 0, "DIS_AV_CMS": 0.119, "ORD_STRA": 1, "ORD_CLAS": 2, "ORD_FLOW": 7, "HYBAS_L12": 4121600310.0, "Shape_Length": 0.0062500000000227374 }, "geometry": { "type": "MultiLineString", "coordinates": [ [ [ 80.437499999999631, 9.060416666666548 ], [ 80.431249999999608, 9.060416666666548 ] ] ] } },
{ "type": "Feature", "properties": { "HYRIV_ID": 41396397, "NEXT_DOWN": 41396223, "MAIN_RIV": 41395814, "LENGTH_KM": 3.2, "DIST_DN_KM": 40.400002, "DIST_UP_KM": 8.7, "CATCH_SKM": 18.66, "UPLAND_SKM": 18.700001, "ENDORHEIC": 0, "DIS_AV_CMS": 0.195, "ORD_STRA": 1, "ORD_CLAS": 2, "ORD_FLOW": 7, "HYBAS_L12": 4121600220.0, "Shape_Length": 0.028809223176542571 }, "geometry": { "type": "MultiLineString", "coordinates": [ [ [ 80.397916666666362, 9.049999999999862 ], [ 80.397916666666362, 9.068749999999859 ], [ 80.402083333333024, 9.072916666666522 ], [ 80.402083333333024, 9.077083333333185 ] ] ] } },
{ "type": "Feature", "properties": { "HYRIV_ID": 41396398, "NEXT_DOWN": 41396345, "MAIN_RIV": 41395814, "LENGTH_KM": 1.11, "DIST_DN_KM": 44.599998, "DIST_UP_KM": 21.5, "CATCH_SKM": 1.06, "UPLAND_SKM": 130.0, "ENDORHEIC": 0, "DIS_AV_CMS": 1.4119999, "ORD_STRA": 2, "ORD_CLAS": 1, "ORD_FLOW": 6, "HYBAS_L12": 4121600310.0, "Shape_Length": 0.010059223176575559 }, "geometry": { "type": "MultiLineString", "coordinates": [ [ [ 80.435416666666271, 9.052083333333179 ], [ 80.435416666666271, 9.056249999999842 ], [ 80.431249999999608, 9.060416666666548 ] ] ] } },
{ "type": "Feature", "properties": { "HYRIV_ID": 41396446, "NEXT_DOWN": 41396398, "MAIN_RIV": 41395814, "LENGTH_KM": 1.8, "DIST_DN_KM": 45.5, "DIST_UP_KM": 6.0, "CATCH_SKM": 12.08, "UPLAND_SKM": 12.1, "ENDORHEIC": 0, "DIS_AV_CMS": 0.13600001, "ORD_STRA": 1, "ORD_CLAS": 2, "ORD_FLOW": 7, "HYBAS_L12": 4121600310.0, "Shape_Length": 0.016309223176520643 }, "geometry": { "type": "MultiLineString", "coordinates": [ [ [ 80.445833333332956, 9.043749999999868 ], [ 80.439583333333047, 9.043749999999868 ], [ 80.435416666666271, 9.047916666666531 ], [ 80.435416666666271, 9.052083333333179 ] ] ] } },
{ "type": "Feature", "properties": { "HYRIV_ID": 41396614, "NEXT_DOWN": 41396398, "MAIN_RIV": 41395814, "LENGTH_KM": 4.83, "DIST_DN_KM": 45.700001, "DIST_UP_KM": 20.3, "CATCH_SKM": 18.02, "UPLAND_SKM": 116.8, "ENDORHEIC": 0, "DIS_AV_CMS": 1.275, "ORD_STRA": 2, "ORD_CLAS": 1, "ORD_FLOW": 6, "HYBAS_L12": 4121600310.0, "Shape_Length": 0.043688672392468528 }, "geometry": { "type": "MultiLineString", "coordinates": [ [ [ 80.443749999999596, 9.018749999999876 ], [ 80.439583333333047, 9.022916666666539 ], [ 80.439583333333047, 9.027083333333188 ], [ 80.435416666666271, 9.031249999999851 ], [ 80.435416666666271, 9.035416666666556 ], [ 80.427083333333059, 9.043749999999868 ], [ 80.435416666666271, 9.052083333333179 ] ] ] } },
{ "type": "Feature", "properties": { "HYRIV_ID": 41396666, "NEXT_DOWN": 41396614, "MAIN_RIV": 41395814, "LENGTH_KM": 1.3, "DIST_DN_KM": 50.599998, "DIST_UP_KM": 15.5, "CATCH_SKM": 1.48, "UPLAND_SKM": 84.599998, "ENDORHEIC": 0, "DIS_AV_CMS": 0.96, "ORD_STRA": 2, "ORD_CLAS": 1, "ORD_FLOW": 7, "HYBAS_L12": 4121600310.0, "Shape_Length": 0.011785113019755026 }, "geometry": { "type": "MultiLineString", "coordinates": [ [ [ 80.452083333332922, 9.010416666666565 ], [ 80.443749999999596, 9.018749999999876 ] ] ] } },
{ "type": "Feature", "properties": { "HYRIV_ID": 41396667, "NEXT_DOWN": 41396666, "MAIN_RIV": 41395814, "LENGTH_KM": 2.06, "DIST_DN_KM": 51.700001, "DIST_UP_KM": 5.3, "CATCH_SKM": 13.99, "UPLAND_SKM": 14.0, "ENDORHEIC": 0, "DIS_AV_CMS": 0.161, "ORD_STRA": 1, "ORD_CLAS": 2, "ORD_FLOW": 7, "HYBAS_L12": 4121600310.0, "Shape_Length": 0.018750000000068212 }, "geometry": { "type": "MultiLineString", "coordinates": [ [ [ 80.47083333333299, 9.010416666666565 ], [ 80.452083333332922, 9.010416666666565 ] ] ] } },
{ "type": "Feature", "properties": { "HYRIV_ID": 41396690, "NEXT_DOWN": 41396614, "MAIN_RIV": 41395814, "LENGTH_KM": 2.55, "DIST_DN_KM": 50.400002, "DIST_UP_KM": 7.1, "CATCH_SKM": 14.21, "UPLAND_SKM": 14.2, "ENDORHEIC": 0, "DIS_AV_CMS": 0.155, "ORD_STRA": 1, "ORD_CLAS": 2, "ORD_FLOW": 7, "HYBAS_L12": 4121600310.0, "Shape_Length": 0.023064724608077881 }, "geometry": { "type": "MultiLineString", "coordinates": [ [ [ 80.429166666666305, 9.004166666666528 ], [ 80.435416666666271, 9.010416666666565 ], [ 80.439583333333047, 9.010416666666565 ], [ 80.443749999999596, 9.014583333333171 ], [ 80.443749999999596, 9.018749999999876 ] ] ] } },
{ "type": "Feature", "properties": { "HYRIV_ID": 41396785, "NEXT_DOWN": 41396666, "MAIN_RIV": 41395814, "LENGTH_KM": 2.6900001, "DIST_DN_KM": 51.700001, "DIST_UP_KM": 14.4, "CATCH_SKM": 7.4200001, "UPLAND_SKM": 69.099998, "ENDORHEIC": 0, "DIS_AV_CMS": 0.79, "ORD_STRA": 2, "ORD_CLAS": 1, "ORD_FLOW": 7, "HYBAS_L12": 4121600310.0, "Shape_Length": 0.024285113019852464 }, "geometry": { "type": "MultiLineString", "coordinates": [ [ [ 80.460416666666305, 8.989583333333179 ], [ 80.460416666666305, 8.993749999999842 ], [ 80.456249999999642, 8.997916666666548 ], [ 80.456249999999642, 9.002083333333196 ], [ 80.452083333332922, 9.006249999999859 ], [ 80.452083333332922, 9.010416666666565 ] ] ] } },
{ "type": "Feature", "properties": { "HYRIV_ID": 41397054, "NEXT_DOWN": 41396785, "MAIN_RIV": 41395814, "LENGTH_KM": 5.9899998, "DIST_DN_KM": 54.400002, "DIST_UP_KM": 10.9, "CATCH_SKM": 23.959999, "UPLAND_SKM": 24.0, "ENDORHEIC": 0, "DIS_AV_CMS": 0.27200001, "ORD_STRA": 1, "ORD_CLAS": 2, "ORD_FLOW": 7, "HYBAS_L12": 4121600310.0, "Shape_Length": 0.053957281117948737 }, "geometry": { "type": "MultiLineString", "coordinates": [ [ [ 80.466666666666328, 8.941666666666528 ], [ 80.460416666666305, 8.947916666666508 ], [ 80.460416666666305, 8.956249999999876 ], [ 80.456249999999642, 8.960416666666539 ], [ 80.460416666666305, 8.964583333333188 ], [ 80.460416666666305, 8.989583333333179 ] ] ] } },
{ "type": "Feature", "properties": { "HYRIV_ID": 41397055, "NEXT_DOWN": 41396785, "MAIN_RIV": 41395814, "LENGTH_KM": 7.5700002, "DIST_DN_KM": 54.400002, "DIST_UP_KM": 11.7, "CATCH_SKM": 37.740002, "UPLAND_SKM": 37.700001, "ENDORHEIC": 0, "DIS_AV_CMS": 0.44400001, "ORD_STRA": 1, "ORD_CLAS": 1, "ORD_FLOW": 7, "HYBAS_L12": 4121600310.0, "Shape_Length": 0.068479286844001647 }, "geometry": { "type": "MultiLineString", "coordinates": [ [ [ 80.504166666666407, 8.941666666666528 ], [ 80.477083333332956, 8.968749999999851 ], [ 80.477083333332956, 8.977083333333205 ], [ 80.464583333332968, 8.989583333333179 ], [ 80.460416666666305, 8.989583333333179 ] ] ] } }
]
}
