{
"type": "FeatureCollection",
"name": "main_river_41402876",
"crs": { "type": "name", "properties": { "name": "urn:ogc:def:crs:OGC:1.3:CRS84" } },
"features": [
{ "type": "Feature", "properties": { "HYRIV_ID": 41402876, "NEXT_DOWN": 0, "MAIN_RIV": 41402876, "LENGTH_KM": 8.9300003, "DIST_DN_KM": 0.0, "DIST_UP_KM": 13.3, "CATCH_SKM": 31.91, "UPLAND_SKM": 31.700001, "ENDORHEIC": 0, "DIS_AV_CMS": 0.616, "ORD_STRA": 1, "ORD_CLAS": 1, "ORD_FLOW": 7, "HYBAS_L12": 4120049140.0, "Shape_Length": 0.080831228902359678 }, "geometry": { "type": "MultiLineString", "coordinates": [ [ [ 79.866666666666305, 7.68125 ], [ 79.860416666666339, 7.68125 ], [ 79.856249999999676, 7.685416666666519 ], [ 79.847916666666293, 7.685416666666519 ], [ 79.843749999999631, 7.68125 ], [ 79.839583333332968, 7.68125 ], [ 79.835416666666305, 7.677083333333208 ], [ 79.831249999999642, 7.68125 ], [ 79.818749999999653, 7.68125 ], [ 79.81458333333299, 7.685416666666519 ], [ 79.810416666666271, 7.685416666666519 ], [ 79.802083333332945, 7.693749999999888 ], [ 79.797916666666453, 7.693749999999888 ] ] ] } }
]
}
