{
"type": "FeatureCollection",
"name": "main_river_41398326",
"crs": { "type": "name", "properties": { "name": "urn:ogc:def:crs:OGC:1.3:CRS84" } },
"features": [
{ "type": "Feature", "properties": { "HYRIV_ID": 41398298, "NEXT_DOWN": 41398325, "MAIN_RIV": 41398326, "LENGTH_KM": 2.81, "DIST_DN_KM": 5.0, "DIST_UP_KM": 7.3, "CATCH_SKM": 12.52, "UPLAND_SKM": 12.5, "ENDORHEIC": 0, "DIS_AV_CMS": 0.191, "ORD_STRA": 1, "ORD_CLAS": 2, "ORD_FLOW": 7, "HYBAS_L12": 4120049620.0, "Shape_Length": 0.025505501431452065 }, "geometry": { "type": "MultiLineString", "coordinates": [ [ [ 81.120833333332968, 8.724999999999874 ], [ 81.127083333333104, 8.731249999999854 ], [ 81.143749999999642, 8.731249999999854 ] ] ] } },
{ "type": "Feature", "properties": { "HYRIV_ID": 41398324, "NEXT_DOWN": 41398325, "MAIN_RIV": 41398326, "LENGTH_KM": 1.35, "DIST_DN_KM": 5.2, "DIST_UP_KM": 5.3, "CATCH_SKM": 10.82, "UPLAND_SKM": 10.8, "ENDORHEIC": 0, "DIS_AV_CMS": 0.166, "ORD_STRA": 1, "ORD_CLAS": 3, "ORD_FLOW": 7, "HYBAS_L12": 4120049620.0, "Shape_Length": 0.012142556509902836 }, "geometry": { "type": "MultiLineString", "coordinates": [ [ [ 81.139583333332922, 8.720833333333211 ], [ 81.139583333332922, 8.727083333333191 ], [ 81.143749999999642, 8.731249999999854 ] ] ] } },
{ "type": "Feature", "properties": { "HYRIV_ID": 41398325, "NEXT_DOWN": 41398326, "MAIN_RIV": 41398326, "LENGTH_KM": 4.25, "DIST_DN_KM": 1.0, "DIST_UP_KM": 11.4, "CATCH_SKM": 7.85, "UPLAND_SKM": 31.200001, "ENDORHEIC": 0, "DIS_AV_CMS": 0.47, "ORD_STRA": 2, "ORD_CLAS": 2, "ORD_FLOW": 7, "HYBAS_L12": 4120049620.0, "Shape_Length": 0.03851100286292769 }, "geometry": { "type": "MultiLineString", "coordinates": [ [ [ 81.143749999999642, 8.731249999999854 ], [ 81.152083333332968, 8.731249999999854 ], [ 81.160416666666293, 8.722916666666542 ], [ 81.168749999999619, 8.722916666666542 ], [ 81.168749999999619, 8.727083333333191 ], [ 81.172916666666282, 8.722916666666542 ] ] ] } },
{ "type": "Feature", "properties": { "HYRIV_ID": 41398326, "NEXT_DOWN": 0, "MAIN_RIV": 41398326, "LENGTH_KM": 0.65, "DIST_DN_KM": 0.0, "DIST_UP_KM": 29.6, "CATCH_SKM": 0.64, "UPLAND_SKM": 192.5, "ENDORHEIC": 0, "DIS_AV_CMS": 2.892, "ORD_STRA": 3, "ORD_CLAS": 1, "ORD_FLOW": 6, "HYBAS_L12": 4120049620.0, "Shape_Length": 0.0058925565098724882 }, "geometry": { "type": "MultiLineString", "coordinates": [ [ [ 81.172916666666282, 8.722916666666542 ], [ 81.177083333332945, 8.727083333333191 ] ] ] } },
{ "type": "Feature", "properties": { "HYRIV_ID": 41398621, "NEXT_DOWN": 41398326, "MAIN_RIV": 41398326, "LENGTH_KM": 6.4, "DIST_DN_KM": 0.8, "DIST_UP_KM": 29.1, "CATCH_SKM": 21.01, "UPLAND_SKM": 161.10001, "ENDORHEIC": 0, "DIS_AV_CMS": 2.4230001, "ORD_STRA": 2, "ORD_CLAS": 1, "ORD_FLOW": 6, "HYBAS_L12": 4120049620.0, "Shape_Length": 0.057618446353172134 }, "geometry": { "type": "MultiLineString", "coordinates": [ [ [ 81.181249999999665, 8.668749999999854 ], [ 81.181249999999665, 8.693749999999888 ], [ 81.177083333332945, 8.697916666666551 ], [ 81.177083333332945, 8.710416666666525 ], [ 81.172916666666282, 8.714583333333174 ], [ 81.172916666666282, 8.722916666666542 ] ] ] } },
{ "type": "Feature", "properties": { "HYRIV_ID": 41398648, "NEXT_DOWN": 41398621, "MAIN_RIV": 41398326, "LENGTH_KM": 0.46, "DIST_DN_KM": 7.2, "DIST_UP_KM": 22.700001, "CATCH_SKM": 0.21, "UPLAND_SKM": 121.0, "ENDORHEIC": 0, "DIS_AV_CMS": 1.859, "ORD_STRA": 2, "ORD_CLAS": 1, "ORD_FLOW": 6, "HYBAS_L12": 4120049620.0, "Shape_Length": 0.0041666666666628771 }, "geometry": { "type": "MultiLineString", "coordinates": [ [ [ 81.181249999999665, 8.664583333333191 ], [ 81.181249999999665, 8.668749999999854 ] ] ] } },
{ "type": "Feature", "properties": { "HYRIV_ID": 41398649, "NEXT_DOWN": 41398648, "MAIN_RIV": 41398326, "LENGTH_KM": 0.69, "DIST_DN_KM": 7.6, "DIST_UP_KM": 3.6, "CATCH_SKM": 6.58, "UPLAND_SKM": 6.6, "ENDORHEIC": 0, "DIS_AV_CMS": 0.103, "ORD_STRA": 1, "ORD_CLAS": 2, "ORD_FLOW": 7, "HYBAS_L12": 4120049620.0, "Shape_Length": 0.0062499999999658939 }, "geometry": { "type": "MultiLineString", "coordinates": [ [ [ 81.187499999999631, 8.664583333333191 ], [ 81.181249999999665, 8.664583333333191 ] ] ] } },
{ "type": "Feature", "properties": { "HYRIV_ID": 41398670, "NEXT_DOWN": 41398621, "MAIN_RIV": 41398326, "LENGTH_KM": 5.5100002, "DIST_DN_KM": 7.4, "DIST_UP_KM": 10.8, "CATCH_SKM": 19.1, "UPLAND_SKM": 19.1, "ENDORHEIC": 0, "DIS_AV_CMS": 0.294, "ORD_STRA": 1, "ORD_CLAS": 2, "ORD_FLOW": 7, "HYBAS_L12": 4120049620.0, "Shape_Length": 0.049938672392627059 }, "geometry": { "type": "MultiLineString", "coordinates": [ [ [ 81.141666666666339, 8.677083333333208 ], [ 81.152083333332968, 8.677083333333208 ], [ 81.164583333332956, 8.664583333333191 ], [ 81.168749999999619, 8.664583333333191 ], [ 81.172916666666282, 8.660416666666542 ], [ 81.181249999999665, 8.668749999999854 ] ] ] } },
{ "type": "Feature", "properties": { "HYRIV_ID": 41398702, "NEXT_DOWN": 41398648, "MAIN_RIV": 41398326, "LENGTH_KM": 3.98, "DIST_DN_KM": 7.7, "DIST_UP_KM": 22.3, "CATCH_SKM": 15.7, "UPLAND_SKM": 114.2, "ENDORHEIC": 0, "DIS_AV_CMS": 1.755, "ORD_STRA": 2, "ORD_CLAS": 1, "ORD_FLOW": 6, "HYBAS_L12": 4120049620.0, "Shape_Length": 0.03607022603954476 }, "geometry": { "type": "MultiLineString", "coordinates": [ [ [ 81.156249999999631, 8.652083333333216 ], [ 81.160416666666293, 8.652083333333216 ], [ 81.164583333332956, 8.656249999999879 ], [ 81.168749999999619, 8.656249999999879 ], [ 81.172916666666282, 8.652083333333216 ], [ 81.181249999999665, 8.660416666666542 ], [ 81.181249999999665, 8.664583333333191 ] ] ] } },
{ "type": "Feature", "properties": { "HYRIV_ID": 41398829, "NEXT_DOWN": 41398702, "MAIN_RIV": 41398326, "LENGTH_KM": 2.6900001, "DIST_DN_KM": 11.6, "DIST_UP_KM": 10.9, "CATCH_SKM": 2.76, "UPLAND_SKM": 41.0, "ENDORHEIC": 0, "DIS_AV_CMS": 0.64499998, "ORD_STRA": 2, "ORD_CLAS": 2, "ORD_FLOW": 7, "HYBAS_L12": 4120049620.0, "Shape_Length": 0.024285113019816434 }, "geometry": { "type": "MultiLineString", "coordinates": [ [ [ 81.147916666666248, 8.631249999999888 ], [ 81.152083333332968, 8.635416666666536 ], [ 81.152083333332968, 8.643749999999862 ], [ 81.156249999999631, 8.647916666666511 ], [ 81.156249999999631, 8.652083333333216 ] ] ] } },
{ "type": "Feature", "properties": { "HYRIV_ID": 41398848, "NEXT_DOWN": 41398702, "MAIN_RIV": 41398326, "LENGTH_KM": 14.05, "DIST_DN_KM": 11.6, "DIST_UP_KM": 18.3, "CATCH_SKM": 57.509998, "UPLAND_SKM": 57.5, "ENDORHEIC": 0, "DIS_AV_CMS": 0.88300002, "ORD_STRA": 1, "ORD_CLAS": 1, "ORD_FLOW": 7, "HYBAS_L12": 4120049620.0, "Shape_Length": 0.12710873606001083 }, "geometry": { "type": "MultiLineString", "coordinates": [ [ [ 81.070833333332956, 8.624999999999851 ], [ 81.077083333333036, 8.631249999999888 ], [ 81.077083333333036, 8.635416666666536 ], [ 81.081249999999699, 8.639583333333199 ], [ 81.081249999999699, 8.643749999999862 ], [ 81.085416666666248, 8.647916666666511 ], [ 81.085416666666248, 8.656249999999879 ], [ 81.089583333333024, 8.660416666666542 ], [ 81.093749999999687, 8.660416666666542 ], [ 81.09791666666635, 8.664583333333191 ], [ 81.110416666666282, 8.652083333333216 ], [ 81.114583333332945, 8.652083333333216 ], [ 81.127083333333104, 8.664583333333191 ], [ 81.131249999999596, 8.660416666666542 ], [ 81.135416666666316, 8.660416666666542 ], [ 81.143749999999642, 8.652083333333216 ], [ 81.156249999999631, 8.652083333333216 ] ] ] } },
{ "type": "Feature", "properties": { "HYRIV_ID": 41398849, "NEXT_DOWN": 41398829, "MAIN_RIV": 41398326, "LENGTH_KM": 4.8600001, "DIST_DN_KM": 14.3, "DIST_UP_KM": 8.2, "CATCH_SKM": 16.549999, "UPLAND_SKM": 16.6, "ENDORHEIC": 0, "DIS_AV_CMS": 0.26100001, "ORD_STRA": 1, "ORD_CLAS": 3, "ORD_FLOW": 7, "HYBAS_L12": 4120049620.0, "Shape_Length": 0.044046115882627683 }, "geometry": { "type": "MultiLineString", "coordinates": [ [ [ 81.112499999999642, 8.627083333333182 ], [ 81.118749999999608, 8.627083333333182 ], [ 81.127083333333104, 8.635416666666536 ], [ 81.131249999999596, 8.635416666666536 ], [ 81.135416666666316, 8.631249999999888 ], [ 81.139583333332922, 8.635416666666536 ], [ 81.143749999999642, 8.631249999999888 ], [ 81.147916666666248, 8.631249999999888 ] ] ] } },
{ "type": "Feature", "properties": { "HYRIV_ID": 41398919, "NEXT_DOWN": 41398829, "MAIN_RIV": 41398326, "LENGTH_KM": 3.57, "DIST_DN_KM": 14.5, "DIST_UP_KM": 8.1, "CATCH_SKM": 21.65, "UPLAND_SKM": 21.6, "ENDORHEIC": 0, "DIS_AV_CMS": 0.345, "ORD_STRA": 1, "ORD_CLAS": 2, "ORD_FLOW": 7, "HYBAS_L12": 4120049620.0, "Shape_Length": 0.032261002862995387 }, "geometry": { "type": "MultiLineString", "coordinates": [ [ [ 81.137499999999676, 8.610416666666545 ], [ 81.143749999999642, 8.610416666666545 ], [ 81.147916666666248, 8.614583333333208 ], [ 81.147916666666248, 8.622916666666519 ], [ 81.152083333332968, 8.627083333333182 ], [ 81.147916666666248, 8.631249999999888 ] ] ] } }
]
}
