{
"type": "FeatureCollection",
"name": "main_river_41399404",
"crs": { "type": "name", "properties": { "name": "urn:ogc:def:crs:OGC:1.3:CRS84" } },
"features": [
{ "type": "Feature", "properties": { "HYRIV_ID": 41399404, "NEXT_DOWN": 0, "MAIN_RIV": 41399404, "LENGTH_KM": 8.7299995, "DIST_DN_KM": 0.0, "DIST_UP_KM": 15.2, "CATCH_SKM": 33.75, "UPLAND_SKM": 33.3, "ENDORHEIC": 0, "DIS_AV_CMS": 0.34400001, "ORD_STRA": 1, "ORD_CLAS": 1, "ORD_FLOW": 7, "HYBAS_L12": 4120049250.0, "Shape_Length": 0.079105339059293192 }, "geometry": { "type": "Polygon", "coordinates": [ ] } }
]
}
