{
"type": "FeatureCollection",
"name": "main_river_41399563",
"crs": { "type": "name", "properties": { "name": "urn:ogc:def:crs:OGC:1.3:CRS84" } },
"features": [
{ "type": "Feature", "properties": { "HYRIV_ID": 41399563, "NEXT_DOWN": 0, "MAIN_RIV": 41399563, "LENGTH_KM": 3.3900001, "DIST_DN_KM": 0.0, "DIST_UP_KM": 7.5, "CATCH_SKM": 12.95, "UPLAND_SKM": 12.5, "ENDORHEIC": 0, "DIS_AV_CMS": 0.213, "ORD_STRA": 1, "ORD_CLAS": 1, "ORD_FLOW": 7, "HYBAS_L12": 4120049650.0, "Shape_Length": 0.030683170961141187 }, "geometry": { "type": "MultiLineString", "coordinates": [ [ [ 81.099999999999596, 8.483333333333213 ], [ 81.106249999999733, 8.489583333333208 ], [ 81.110416666666282, 8.489583333333208 ], [ 81.122916666666271, 8.502083333333225 ] ] ] } }
]
}
