{
"type": "FeatureCollection",
"name": "main_river_41407753",
"crs": { "type": "name", "properties": { "name": "urn:ogc:def:crs:OGC:1.3:CRS84" } },
"features": [
{ "type": "Feature", "properties": { "HYRIV_ID": 41405403, "NEXT_DOWN": 41405585, "MAIN_RIV": 41407753, "LENGTH_KM": 1.61, "DIST_DN_KM": 102.4, "DIST_UP_KM": 4.3, "CATCH_SKM": 5.96, "UPLAND_SKM": 6.0, "ENDORHEIC": 0, "DIS_AV_CMS": 0.148, "ORD_STRA": 1, "ORD_CLAS": 2, "ORD_FLOW": 7, "HYBAS_L12": 4121601960.0, "Shape_Length": 0.014583333333405335 }, "geometry": { "type": "MultiLineString", "coordinates": [ [ [ 81.191666666666293, 7.006249999999888 ], [ 81.206249999999699, 7.006249999999888 ] ] ] } },
{ "type": "Feature", "properties": { "HYRIV_ID": 41405404, "NEXT_DOWN": 41405585, "MAIN_RIV": 41407753, "LENGTH_KM": 6.9099998, "DIST_DN_KM": 102.4, "DIST_UP_KM": 9.9, "CATCH_SKM": 27.27, "UPLAND_SKM": 27.3, "ENDORHEIC": 0, "DIS_AV_CMS": 0.67500001, "ORD_STRA": 1, "ORD_CLAS": 1, "ORD_FLOW": 7, "HYBAS_L12": 4121601960.0, "Shape_Length": 0.062290614451314688 }, "geometry": { "type": "MultiLineString", "coordinates": [ [ [ 81.187499999999631, 7.058333333333202 ], [ 81.193749999999653, 7.052083333333222 ], [ 81.193749999999653, 7.047916666666559 ], [ 81.197916666666316, 7.047916666666559 ], [ 81.206249999999699, 7.039583333333248 ], [ 81.206249999999699, 7.006249999999888 ] ] ] } },
{ "type": "Feature", "properties": { "HYRIV_ID": 41405585, "NEXT_DOWN": 41405604, "MAIN_RIV": 41407753, "LENGTH_KM": 5.39, "DIST_DN_KM": 97.099998, "DIST_UP_KM": 15.3, "CATCH_SKM": 12.36, "UPLAND_SKM": 45.599998, "ENDORHEIC": 0, "DIS_AV_CMS": 1.114, "ORD_STRA": 2, "ORD_CLAS": 1, "ORD_FLOW": 6, "HYBAS_L12": 4121601960.0, "Shape_Length": 0.048570226039541718 }, "geometry": { "type": "MultiLineString", "coordinates": [ [ [ 81.206249999999699, 7.006249999999888 ], [ 81.206249999999699, 6.989583333333222 ], [ 81.218749999999687, 6.977083333333248 ], [ 81.22291666666635, 6.977083333333248 ], [ 81.227083333333013, 6.972916666666542 ], [ 81.227083333333013, 6.968749999999879 ] ] ] } },
{ "type": "Feature", "properties": { "HYRIV_ID": 41405603, "NEXT_DOWN": 41405604, "MAIN_RIV": 41407753, "LENGTH_KM": 4.1100001, "DIST_DN_KM": 97.199997, "DIST_UP_KM": 7.2, "CATCH_SKM": 14.49, "UPLAND_SKM": 14.5, "ENDORHEIC": 0, "DIS_AV_CMS": 0.353, "ORD_STRA": 1, "ORD_CLAS": 2, "ORD_FLOW": 7, "HYBAS_L12": 4121601960.0, "Shape_Length": 0.037142556509886696 }, "geometry": { "type": "MultiLineString", "coordinates": [ [ [ 81.197916666666316, 6.970833333333211 ], [ 81.197916666666316, 6.964583333333231 ], [ 81.22291666666635, 6.964583333333231 ], [ 81.227083333333013, 6.968749999999879 ] ] ] } },
{ "type": "Feature", "properties": { "HYRIV_ID": 41405604, "NEXT_DOWN": 41405656, "MAIN_RIV": 41407753, "LENGTH_KM": 1.11, "DIST_DN_KM": 95.900002, "DIST_UP_KM": 16.4, "CATCH_SKM": 4.9, "UPLAND_SKM": 65.0, "ENDORHEIC": 0, "DIS_AV_CMS": 1.581, "ORD_STRA": 2, "ORD_CLAS": 1, "ORD_FLOW": 6, "HYBAS_L12": 4121601960.0, "Shape_Length": 0.010059223176575559 }, "geometry": { "type": "MultiLineString", "coordinates": [ [ [ 81.227083333333013, 6.968749999999879 ], [ 81.231249999999733, 6.964583333333231 ], [ 81.235416666666396, 6.964583333333231 ] ] ] } },
{ "type": "Feature", "properties": { "HYRIV_ID": 41405605, "NEXT_DOWN": 41405656, "MAIN_RIV": 41407753, "LENGTH_KM": 10.08, "DIST_DN_KM": 95.900002, "DIST_UP_KM": 13.4, "CATCH_SKM": 29.610001, "UPLAND_SKM": 29.6, "ENDORHEIC": 0, "DIS_AV_CMS": 0.708, "ORD_STRA": 1, "ORD_CLAS": 2, "ORD_FLOW": 7, "HYBAS_L12": 4121601960.0, "Shape_Length": 0.090742394137661636 }, "geometry": { "type": "MultiLineString", "coordinates": [ [ [ 81.229166666666259, 7.045833333333228 ], [ 81.235416666666396, 7.039583333333248 ], [ 81.235416666666396, 7.022916666666568 ], [ 81.239583333332945, 7.018749999999862 ], [ 81.235416666666396, 7.014583333333256 ], [ 81.235416666666396, 7.006249999999888 ], [ 81.231249999999733, 7.002083333333239 ], [ 81.231249999999733, 6.981249999999896 ], [ 81.235416666666396, 6.977083333333248 ], [ 81.235416666666396, 6.964583333333231 ] ] ] } },
{ "type": "Feature", "properties": { "HYRIV_ID": 41405656, "NEXT_DOWN": 41405755, "MAIN_RIV": 41407753, "LENGTH_KM": 3.8, "DIST_DN_KM": 92.300003, "DIST_UP_KM": 20.0, "CATCH_SKM": 12.36, "UPLAND_SKM": 107.0, "ENDORHEIC": 0, "DIS_AV_CMS": 2.5569999, "ORD_STRA": 2, "ORD_CLAS": 1, "ORD_FLOW": 6, "HYBAS_L12": 4121601960.0, "Shape_Length": 0.034344336196172227 }, "geometry": { "type": "MultiLineString", "coordinates": [ [ [ 81.235416666666396, 6.964583333333231 ], [ 81.243749999999608, 6.964583333333231 ], [ 81.252083333333047, 6.95625 ], [ 81.260416666666259, 6.95625 ], [ 81.264583333332922, 6.952083333333213 ] ] ] } },
{ "type": "Feature", "properties": { "HYRIV_ID": 41405657, "NEXT_DOWN": 41405755, "MAIN_RIV": 41407753, "LENGTH_KM": 1.16, "DIST_DN_KM": 92.099998, "DIST_UP_KM": 4.1, "CATCH_SKM": 7.0300002, "UPLAND_SKM": 7.0, "ENDORHEIC": 0, "DIS_AV_CMS": 0.164, "ORD_STRA": 1, "ORD_CLAS": 2, "ORD_FLOW": 7, "HYBAS_L12": 4121601960.0, "Shape_Length": 0.010416666666685614 }, "geometry": { "type": "MultiLineString", "coordinates": [ [ [ 81.264583333332922, 6.962499999999899 ], [ 81.264583333332922, 6.952083333333213 ] ] ] } },
{ "type": "Feature", "properties": { "HYRIV_ID": 41405733, "NEXT_DOWN": 41405757, "MAIN_RIV": 41407753, "LENGTH_KM": 4.7800002, "DIST_DN_KM": 87.800003, "DIST_UP_KM": 7.9, "CATCH_SKM": 18.32, "UPLAND_SKM": 18.3, "ENDORHEIC": 0, "DIS_AV_CMS": 0.41800001, "ORD_STRA": 1, "ORD_CLAS": 2, "ORD_FLOW": 7, "HYBAS_L12": 4121602030.0, "Shape_Length": 0.043035113019783446 }, "geometry": { "type": "MultiLineString", "coordinates": [ [ [ 81.285416666666293, 6.975 ], [ 81.285416666666293, 6.95625 ], [ 81.289583333332956, 6.952083333333213 ], [ 81.285416666666293, 6.947916666666593 ], [ 81.285416666666293, 6.935416666666576 ] ] ] } },
{ "type": "Feature", "properties": { "HYRIV_ID": 41405734, "NEXT_DOWN": 41405757, "MAIN_RIV": 41407753, "LENGTH_KM": 2.55, "DIST_DN_KM": 87.800003, "DIST_UP_KM": 4.9, "CATCH_SKM": 8.5200005, "UPLAND_SKM": 8.5, "ENDORHEIC": 0, "DIS_AV_CMS": 0.192, "ORD_STRA": 1, "ORD_CLAS": 3, "ORD_FLOW": 7, "HYBAS_L12": 4121602030.0, "Shape_Length": 0.023064724608001949 }, "geometry": { "type": "MultiLineString", "coordinates": [ [ [ 81.304166666666248, 6.945833333333219 ], [ 81.297916666666282, 6.939583333333225 ], [ 81.293749999999619, 6.939583333333225 ], [ 81.289583333332956, 6.935416666666576 ], [ 81.285416666666293, 6.935416666666576 ] ] ] } },
{ "type": "Feature", "properties": { "HYRIV_ID": 41405755, "NEXT_DOWN": 41405756, "MAIN_RIV": 41407753, "LENGTH_KM": 3.08, "DIST_DN_KM": 89.099998, "DIST_UP_KM": 23.3, "CATCH_SKM": 5.1100001, "UPLAND_SKM": 119.1, "ENDORHEIC": 0, "DIS_AV_CMS": 2.82, "ORD_STRA": 2, "ORD_CLAS": 1, "ORD_FLOW": 6, "HYBAS_L12": 4121601960.0, "Shape_Length": 0.027736892706305999 }, "geometry": { "type": "MultiLineString", "coordinates": [ [ [ 81.264583333332922, 6.952083333333213 ], [ 81.268749999999642, 6.947916666666593 ], [ 81.264583333332922, 6.943749999999888 ], [ 81.272916666666248, 6.935416666666576 ], [ 81.272916666666248, 6.931249999999871 ] ] ] } },
{ "type": "Feature", "properties": { "HYRIV_ID": 41405756, "NEXT_DOWN": 41405887, "MAIN_RIV": 41407753, "LENGTH_KM": 1.77, "DIST_DN_KM": 87.5, "DIST_UP_KM": 24.9, "CATCH_SKM": 2.77, "UPLAND_SKM": 141.3, "ENDORHEIC": 0, "DIS_AV_CMS": 3.325, "ORD_STRA": 2, "ORD_CLAS": 1, "ORD_FLOW": 6, "HYBAS_L12": 4121602030.0, "Shape_Length": 0.015951779686545084 }, "geometry": { "type": "MultiLineString", "coordinates": [ [ [ 81.272916666666248, 6.931249999999871 ], [ 81.277083333332968, 6.931249999999871 ], [ 81.281249999999574, 6.935416666666576 ], [ 81.285416666666293, 6.931249999999871 ] ] ] } },
{ "type": "Feature", "properties": { "HYRIV_ID": 41405757, "NEXT_DOWN": 41405887, "MAIN_RIV": 41407753, "LENGTH_KM": 0.46, "DIST_DN_KM": 87.300003, "DIST_UP_KM": 8.4, "CATCH_SKM": 0.21, "UPLAND_SKM": 27.1, "ENDORHEIC": 0, "DIS_AV_CMS": 0.61400002, "ORD_STRA": 2, "ORD_CLAS": 2, "ORD_FLOW": 7, "HYBAS_L12": 4121602030.0, "Shape_Length": 0.0041666666667055097 }, "geometry": { "type": "MultiLineString", "coordinates": [ [ [ 81.285416666666293, 6.935416666666576 ], [ 81.285416666666293, 6.931249999999871 ] ] ] } },
{ "type": "Feature", "properties": { "HYRIV_ID": 41405774, "NEXT_DOWN": 41405756, "MAIN_RIV": 41407753, "LENGTH_KM": 5.21, "DIST_DN_KM": 89.099998, "DIST_UP_KM": 8.7, "CATCH_SKM": 19.389999, "UPLAND_SKM": 19.4, "ENDORHEIC": 0, "DIS_AV_CMS": 0.45500001, "ORD_STRA": 1, "ORD_CLAS": 2, "ORD_FLOW": 7, "HYBAS_L12": 4121601960.0, "Shape_Length": 0.047201779686427948 }, "geometry": { "type": "MultiLineString", "coordinates": [ [ [ 81.229166666666259, 6.931249999999871 ], [ 81.239583333332945, 6.931249999999871 ], [ 81.243749999999608, 6.927083333333208 ], [ 81.260416666666259, 6.927083333333208 ], [ 81.264583333332922, 6.931249999999871 ], [ 81.272916666666248, 6.931249999999871 ] ] ] } },
{ "type": "Feature", "properties": { "HYRIV_ID": 41405835, "NEXT_DOWN": 41405999, "MAIN_RIV": 41407753, "LENGTH_KM": 0.98, "DIST_DN_KM": 75.400002, "DIST_UP_KM": 4.0, "CATCH_SKM": 6.8200002, "UPLAND_SKM": 6.8, "ENDORHEIC": 0, "DIS_AV_CMS": 0.151, "ORD_STRA": 1, "ORD_CLAS": 3, "ORD_FLOW": 7, "HYBAS_L12": 4121602040.0, "Shape_Length": 0.0088388347648037068 }, "geometry": { "type": "MultiLineString", "coordinates": [ [ [ 81.337499999999608, 6.920833333333228 ], [ 81.343749999999574, 6.914583333333233 ] ] ] } },
{ "type": "Feature", "properties": { "HYRIV_ID": 41405836, "NEXT_DOWN": 41405999, "MAIN_RIV": 41407753, "LENGTH_KM": 5.9, "DIST_DN_KM": 75.400002, "DIST_UP_KM": 9.9, "CATCH_SKM": 36.439999, "UPLAND_SKM": 36.400002, "ENDORHEIC": 0, "DIS_AV_CMS": 0.79, "ORD_STRA": 1, "ORD_CLAS": 2, "ORD_FLOW": 7, "HYBAS_L12": 4121602040.0, "Shape_Length": 0.053094336196396766 }, "geometry": { "type": "MultiLineString", "coordinates": [ [ [ 81.356249999999676, 6.962499999999899 ], [ 81.356249999999676, 6.95625 ], [ 81.352083333333013, 6.952083333333213 ], [ 81.352083333333013, 6.931249999999871 ], [ 81.34791666666635, 6.927083333333208 ], [ 81.34791666666635, 6.918749999999896 ], [ 81.343749999999574, 6.914583333333233 ] ] ] } },
{ "type": "Feature", "properties": { "HYRIV_ID": 41405887, "NEXT_DOWN": 41405987, "MAIN_RIV": 41407753, "LENGTH_KM": 3.4300001, "DIST_DN_KM": 83.900002, "DIST_UP_KM": 28.5, "CATCH_SKM": 9.8, "UPLAND_SKM": 178.10001, "ENDORHEIC": 0, "DIS_AV_CMS": 4.1220002, "ORD_STRA": 3, "ORD_CLAS": 1, "ORD_FLOW": 6, "HYBAS_L12": 4121602030.0, "Shape_Length": 0.030892556509878173 }, "geometry": { "type": "MultiLineString", "coordinates": [ [ [ 81.285416666666293, 6.931249999999871 ], [ 81.285416666666293, 6.927083333333208 ], [ 81.289583333332956, 6.922916666666559 ], [ 81.289583333332956, 6.902083333333216 ] ] ] } },
{ "type": "Feature", "properties": { "HYRIV_ID": 41405918, "NEXT_DOWN": 41405919, "MAIN_RIV": 41407753, "LENGTH_KM": 4.4200001, "DIST_DN_KM": 86.699997, "DIST_UP_KM": 8.4, "CATCH_SKM": 14.28, "UPLAND_SKM": 14.3, "ENDORHEIC": 0, "DIS_AV_CMS": 0.334, "ORD_STRA": 1, "ORD_CLAS": 2, "ORD_FLOW": 7, "HYBAS_L12": 4121602030.0, "Shape_Length": 0.039879449216115248 }, "geometry": { "type": "MultiLineString", "coordinates": [ [ [ 81.243749999999608, 6.908333333333211 ], [ 81.243749999999608, 6.914583333333233 ], [ 81.252083333333047, 6.906249999999879 ], [ 81.256249999999596, 6.906249999999879 ], [ 81.268749999999642, 6.89375 ] ] ] } },
{ "type": "Feature", "properties": { "HYRIV_ID": 41405919, "NEXT_DOWN": 41405987, "MAIN_RIV": 41407753, "LENGTH_KM": 2.6900001, "DIST_DN_KM": 83.900002, "DIST_UP_KM": 11.3, "CATCH_SKM": 7.8800001, "UPLAND_SKM": 31.8, "ENDORHEIC": 0, "DIS_AV_CMS": 0.732, "ORD_STRA": 2, "ORD_CLAS": 2, "ORD_FLOW": 7, "HYBAS_L12": 4121602030.0, "Shape_Length": 0.024285113019743655 }, "geometry": { "type": "MultiLineString", "coordinates": [ [ [ 81.268749999999642, 6.89375 ], [ 81.277083333332968, 6.902083333333216 ], [ 81.289583333332956, 6.902083333333216 ] ] ] } },
{ "type": "Feature", "properties": { "HYRIV_ID": 41405985, "NEXT_DOWN": 41405919, "MAIN_RIV": 41407753, "LENGTH_KM": 2.56, "DIST_DN_KM": 86.599998, "DIST_UP_KM": 6.2, "CATCH_SKM": 9.5900002, "UPLAND_SKM": 9.6, "ENDORHEIC": 0, "DIS_AV_CMS": 0.221, "ORD_STRA": 1, "ORD_CLAS": 3, "ORD_FLOW": 7, "HYBAS_L12": 4121602030.0, "Shape_Length": 0.023064724608032095 }, "geometry": { "type": "MultiLineString", "coordinates": [ [ [ 81.258333333333013, 6.874999999999893 ], [ 81.264583333332922, 6.881249999999888 ], [ 81.264583333332922, 6.885416666666551 ], [ 81.268749999999642, 6.889583333333242 ], [ 81.268749999999642, 6.89375 ] ] ] } },
{ "type": "Feature", "properties": { "HYRIV_ID": 41405986, "NEXT_DOWN": 41406174, "MAIN_RIV": 41407753, "LENGTH_KM": 1.9, "DIST_DN_KM": 80.699997, "DIST_UP_KM": 4.9, "CATCH_SKM": 9.3800001, "UPLAND_SKM": 9.4, "ENDORHEIC": 0, "DIS_AV_CMS": 0.212, "ORD_STRA": 1, "ORD_CLAS": 2, "ORD_FLOW": 7, "HYBAS_L12": 4121602030.0, "Shape_Length": 0.017172168098089267 }, "geometry": { "type": "MultiLineString", "coordinates": [ [ [ 81.283333333333047, 6.883333333333219 ], [ 81.289583333332956, 6.877083333333225 ], [ 81.297916666666282, 6.877083333333225 ] ] ] } },
{ "type": "Feature", "properties": { "HYRIV_ID": 41405987, "NEXT_DOWN": 41406174, "MAIN_RIV": 41407753, "LENGTH_KM": 3.1600001, "DIST_DN_KM": 80.699997, "DIST_UP_KM": 31.700001, "CATCH_SKM": 8.3100004, "UPLAND_SKM": 218.2, "ENDORHEIC": 0, "DIS_AV_CMS": 4.9990001, "ORD_STRA": 3, "ORD_CLAS": 1, "ORD_FLOW": 6, "HYBAS_L12": 4121602030.0, "Shape_Length": 0.028451779686434954 }, "geometry": { "type": "MultiLineString", "coordinates": [ [ [ 81.289583333332956, 6.902083333333216 ], [ 81.297916666666282, 6.89375 ], [ 81.297916666666282, 6.877083333333225 ] ] ] } },
{ "type": "Feature", "properties": { "HYRIV_ID": 41405999, "NEXT_DOWN": 41406135, "MAIN_RIV": 41407753, "LENGTH_KM": 5.0100002, "DIST_DN_KM": 70.300003, "DIST_UP_KM": 14.9, "CATCH_SKM": 24.08, "UPLAND_SKM": 67.300003, "ENDORHEIC": 0, "DIS_AV_CMS": 1.451, "ORD_STRA": 2, "ORD_CLAS": 2, "ORD_FLOW": 6, "HYBAS_L12": 4121602040.0, "Shape_Length": 0.045118446352944055 }, "geometry": { "type": "MultiLineString", "coordinates": [ [ [ 81.343749999999574, 6.914583333333233 ], [ 81.339583333333024, 6.910416666666585 ], [ 81.339583333333024, 6.877083333333225 ], [ 81.343749999999574, 6.872916666666576 ] ] ] } },
{ "type": "Feature", "properties": { "HYRIV_ID": 41406000, "NEXT_DOWN": 41406135, "MAIN_RIV": 41407753, "LENGTH_KM": 2.36, "DIST_DN_KM": 70.099998, "DIST_UP_KM": 4.9, "CATCH_SKM": 11.72, "UPLAND_SKM": 11.7, "ENDORHEIC": 0, "DIS_AV_CMS": 0.248, "ORD_STRA": 1, "ORD_CLAS": 3, "ORD_FLOW": 7, "HYBAS_L12": 4121602040.0, "Shape_Length": 0.021338834764895977 }, "geometry": { "type": "MultiLineString", "coordinates": [ [ [ 81.362499999999642, 6.879166666666556 ], [ 81.356249999999676, 6.872916666666576 ], [ 81.343749999999574, 6.872916666666576 ] ] ] } },
{ "type": "Feature", "properties": { "HYRIV_ID": 41406134, "NEXT_DOWN": 41406221, "MAIN_RIV": 41407753, "LENGTH_KM": 1.9, "DIST_DN_KM": 66.5, "DIST_UP_KM": 5.8, "CATCH_SKM": 8.7399998, "UPLAND_SKM": 8.7, "ENDORHEIC": 0, "DIS_AV_CMS": 0.189, "ORD_STRA": 1, "ORD_CLAS": 3, "ORD_FLOW": 7, "HYBAS_L12": 4121602040.0, "Shape_Length": 0.0171721680982331 }, "geometry": { "type": "MultiLineString", "coordinates": [ [ [ 81.337499999999608, 6.85 ], [ 81.343749999999574, 6.84375 ], [ 81.352083333333013, 6.84375 ] ] ] } },
{ "type": "Feature", "properties": { "HYRIV_ID": 41406135, "NEXT_DOWN": 41406221, "MAIN_RIV": 41407753, "LENGTH_KM": 3.62, "DIST_DN_KM": 66.5, "DIST_UP_KM": 18.8, "CATCH_SKM": 9.8, "UPLAND_SKM": 88.900002, "ENDORHEIC": 0, "DIS_AV_CMS": 1.892, "ORD_STRA": 2, "ORD_CLAS": 2, "ORD_FLOW": 6, "HYBAS_L12": 4121602040.0, "Shape_Length": 0.032618446353174055 }, "geometry": { "type": "MultiLineString", "coordinates": [ [ [ 81.343749999999574, 6.872916666666576 ], [ 81.343749999999574, 6.860416666666559 ], [ 81.34791666666635, 6.856249999999896 ], [ 81.34791666666635, 6.852083333333233 ], [ 81.352083333333013, 6.847916666666571 ], [ 81.352083333333013, 6.84375 ] ] ] } },
{ "type": "Feature", "properties": { "HYRIV_ID": 41406174, "NEXT_DOWN": 41406331, "MAIN_RIV": 41407753, "LENGTH_KM": 4.8200002, "DIST_DN_KM": 75.900002, "DIST_UP_KM": 36.5, "CATCH_SKM": 11.08, "UPLAND_SKM": 238.60001, "ENDORHEIC": 0, "DIS_AV_CMS": 5.382, "ORD_STRA": 3, "ORD_CLAS": 1, "ORD_FLOW": 6, "HYBAS_L12": 4121602030.0, "Shape_Length": 0.043392556509878576 }, "geometry": { "type": "MultiLineString", "coordinates": [ [ [ 81.297916666666282, 6.877083333333225 ], [ 81.297916666666282, 6.84375 ], [ 81.302083333332945, 6.839583333333216 ], [ 81.302083333332945, 6.835416666666553 ] ] ] } },
{ "type": "Feature", "properties": { "HYRIV_ID": 41406197, "NEXT_DOWN": 41406331, "MAIN_RIV": 41407753, "LENGTH_KM": 0.98, "DIST_DN_KM": 76.099998, "DIST_UP_KM": 4.0, "CATCH_SKM": 6.1799998, "UPLAND_SKM": 6.2, "ENDORHEIC": 0, "DIS_AV_CMS": 0.13500001, "ORD_STRA": 1, "ORD_CLAS": 2, "ORD_FLOW": 7, "HYBAS_L12": 4121602030.0, "Shape_Length": 0.0088388347649142433 }, "geometry": { "type": "MultiLineString", "coordinates": [ [ [ 81.308333333333081, 6.829166666666573 ], [ 81.302083333332945, 6.835416666666553 ] ] ] } },
{ "type": "Feature", "properties": { "HYRIV_ID": 41406221, "NEXT_DOWN": 41406284, "MAIN_RIV": 41407753, "LENGTH_KM": 2.23, "DIST_DN_KM": 64.300003, "DIST_UP_KM": 21.0, "CATCH_SKM": 6.39, "UPLAND_SKM": 104.0, "ENDORHEIC": 0, "DIS_AV_CMS": 2.204, "ORD_STRA": 2, "ORD_CLAS": 2, "ORD_FLOW": 6, "HYBAS_L12": 4121602040.0, "Shape_Length": 0.02011844635319375 }, "geometry": { "type": "MultiLineString", "coordinates": [ [ [ 81.352083333333013, 6.84375 ], [ 81.356249999999676, 6.839583333333216 ], [ 81.356249999999676, 6.835416666666553 ], [ 81.360416666666396, 6.83125 ], [ 81.360416666666396, 6.827083333333199 ] ] ] } },
{ "type": "Feature", "properties": { "HYRIV_ID": 41406236, "NEXT_DOWN": 41406284, "MAIN_RIV": 41407753, "LENGTH_KM": 2.72, "DIST_DN_KM": 64.300003, "DIST_UP_KM": 5.6, "CATCH_SKM": 12.36, "UPLAND_SKM": 12.4, "ENDORHEIC": 0, "DIS_AV_CMS": 0.26300001, "ORD_STRA": 1, "ORD_CLAS": 3, "ORD_FLOW": 7, "HYBAS_L12": 4121602040.0, "Shape_Length": 0.024642556509977445 }, "geometry": { "type": "MultiLineString", "coordinates": [ [ [ 81.337499999999608, 6.822916666666579 ], [ 81.34791666666635, 6.822916666666579 ], [ 81.352083333333013, 6.827083333333199 ], [ 81.360416666666396, 6.827083333333199 ] ] ] } },
{ "type": "Feature", "properties": { "HYRIV_ID": 41406265, "NEXT_DOWN": 41406285, "MAIN_RIV": 41407753, "LENGTH_KM": 1.81, "DIST_DN_KM": 63.200001, "DIST_UP_KM": 5.7, "CATCH_SKM": 6.6100001, "UPLAND_SKM": 6.6, "ENDORHEIC": 0, "DIS_AV_CMS": 0.137, "ORD_STRA": 1, "ORD_CLAS": 4, "ORD_FLOW": 7, "HYBAS_L12": 4121602040.0, "Shape_Length": 0.016309223176559827 }, "geometry": { "type": "MultiLineString", "coordinates": [ [ [ 81.381249999999596, 6.833333333333236 ], [ 81.381249999999596, 6.822916666666579 ], [ 81.377083333332934, 6.818749999999888 ] ] ] } },
{ "type": "Feature", "properties": { "HYRIV_ID": 41406266, "NEXT_DOWN": 41406285, "MAIN_RIV": 41407753, "LENGTH_KM": 3.21, "DIST_DN_KM": 63.0, "DIST_UP_KM": 7.2, "CATCH_SKM": 10.66, "UPLAND_SKM": 10.7, "ENDORHEIC": 0, "DIS_AV_CMS": 0.218, "ORD_STRA": 1, "ORD_CLAS": 3, "ORD_FLOW": 7, "HYBAS_L12": 4121602040.0, "Shape_Length": 0.028957281117972487 }, "geometry": { "type": "MultiLineString", "coordinates": [ [ [ 81.395833333333002, 6.837499999999885 ], [ 81.385416666666259, 6.827083333333199 ], [ 81.385416666666259, 6.822916666666579 ], [ 81.381249999999596, 6.818749999999888 ], [ 81.377083333332934, 6.818749999999888 ] ] ] } },
{ "type": "Feature", "properties": { "HYRIV_ID": 41406284, "NEXT_DOWN": 41406372, "MAIN_RIV": 41407753, "LENGTH_KM": 1.96, "DIST_DN_KM": 62.5, "DIST_UP_KM": 22.8, "CATCH_SKM": 4.6900001, "UPLAND_SKM": 121.0, "ENDORHEIC": 0, "DIS_AV_CMS": 2.5539999, "ORD_STRA": 2, "ORD_CLAS": 2, "ORD_FLOW": 6, "HYBAS_L12": 4121602040.0, "Shape_Length": 0.017677669529557172 }, "geometry": { "type": "MultiLineString", "coordinates": [ [ [ 81.360416666666396, 6.827083333333199 ], [ 81.372916666666271, 6.814583333333225 ] ] ] } },
{ "type": "Feature", "properties": { "HYRIV_ID": 41406285, "NEXT_DOWN": 41406372, "MAIN_RIV": 41407753, "LENGTH_KM": 0.65, "DIST_DN_KM": 62.5, "DIST_UP_KM": 7.6, "CATCH_SKM": 0.43, "UPLAND_SKM": 17.700001, "ENDORHEIC": 0, "DIS_AV_CMS": 0.36300001, "ORD_STRA": 2, "ORD_CLAS": 3, "ORD_FLOW": 7, "HYBAS_L12": 4121602040.0, "Shape_Length": 0.0058925565098825365 }, "geometry": { "type": "MultiLineString", "coordinates": [ [ [ 81.377083333332934, 6.818749999999888 ], [ 81.372916666666271, 6.814583333333225 ] ] ] } },
{ "type": "Feature", "properties": { "HYRIV_ID": 41406330, "NEXT_DOWN": 41406724, "MAIN_RIV": 41407753, "LENGTH_KM": 3.02, "DIST_DN_KM": 71.400002, "DIST_UP_KM": 6.0, "CATCH_SKM": 10.87, "UPLAND_SKM": 10.9, "ENDORHEIC": 0, "DIS_AV_CMS": 0.243, "ORD_STRA": 1, "ORD_CLAS": 2, "ORD_FLOW": 7, "HYBAS_L12": 4121602030.0, "Shape_Length": 0.027231391274680761 }, "geometry": { "type": "MultiLineString", "coordinates": [ [ [ 81.279166666666328, 6.824999999999868 ], [ 81.285416666666293, 6.818749999999888 ], [ 81.285416666666293, 6.80625 ], [ 81.289583333332956, 6.802083333333208 ] ] ] } },
{ "type": "Feature", "properties": { "HYRIV_ID": 41406331, "NEXT_DOWN": 41406724, "MAIN_RIV": 41407753, "LENGTH_KM": 4.6500001, "DIST_DN_KM": 71.400002, "DIST_UP_KM": 41.0, "CATCH_SKM": 16.41, "UPLAND_SKM": 261.20001, "ENDORHEIC": 0, "DIS_AV_CMS": 5.8119998, "ORD_STRA": 3, "ORD_CLAS": 1, "ORD_FLOW": 6, "HYBAS_L12": 4121602030.0, "Shape_Length": 0.041962782549439789 }, "geometry": { "type": "MultiLineString", "coordinates": [ [ [ 81.302083333332945, 6.835416666666553 ], [ 81.293749999999619, 6.827083333333199 ], [ 81.297916666666282, 6.822916666666579 ], [ 81.297916666666282, 6.810416666666562 ], [ 81.289583333332956, 6.802083333333208 ] ] ] } },
{ "type": "Feature", "properties": { "HYRIV_ID": 41406372, "NEXT_DOWN": 41406556, "MAIN_RIV": 41407753, "LENGTH_KM": 2.7, "DIST_DN_KM": 59.8, "DIST_UP_KM": 25.5, "CATCH_SKM": 10.44, "UPLAND_SKM": 149.2, "ENDORHEIC": 0, "DIS_AV_CMS": 3.1140001, "ORD_STRA": 3, "ORD_CLAS": 2, "ORD_FLOW": 6, "HYBAS_L12": 4121602040.0, "Shape_Length": 0.02428511301975959 }, "geometry": { "type": "MultiLineString", "coordinates": [ [ [ 81.372916666666271, 6.814583333333225 ], [ 81.372916666666271, 6.80625 ], [ 81.368749999999608, 6.802083333333208 ], [ 81.368749999999608, 6.797916666666545 ], [ 81.372916666666271, 6.793749999999896 ] ] ] } },
{ "type": "Feature", "properties": { "HYRIV_ID": 41406373, "NEXT_DOWN": 41406556, "MAIN_RIV": 41407753, "LENGTH_KM": 2.27, "DIST_DN_KM": 59.599998, "DIST_UP_KM": 7.0, "CATCH_SKM": 8.5299997, "UPLAND_SKM": 8.5, "ENDORHEIC": 0, "DIS_AV_CMS": 0.17200001, "ORD_STRA": 1, "ORD_CLAS": 3, "ORD_FLOW": 7, "HYBAS_L12": 4121602040.0, "Shape_Length": 0.020475889843235191 }, "geometry": { "type": "MultiLineString", "coordinates": [ [ [ 81.385416666666259, 6.804166666666582 ], [ 81.385416666666259, 6.797916666666545 ], [ 81.381249999999596, 6.797916666666545 ], [ 81.377083333332934, 6.793749999999896 ], [ 81.372916666666271, 6.793749999999896 ] ] ] } },
{ "type": "Feature", "properties": { "HYRIV_ID": 41406556, "NEXT_DOWN": 41406595, "MAIN_RIV": 41407753, "LENGTH_KM": 4.3600001, "DIST_DN_KM": 55.3, "DIST_UP_KM": 30.0, "CATCH_SKM": 13.64, "UPLAND_SKM": 171.3, "ENDORHEIC": 0, "DIS_AV_CMS": 3.523, "ORD_STRA": 3, "ORD_CLAS": 2, "ORD_FLOW": 6, "HYBAS_L12": 4121158990.0, "Shape_Length": 0.039225889843228182 }, "geometry": { "type": "MultiLineString", "coordinates": [ [ [ 81.372916666666271, 6.793749999999896 ], [ 81.372916666666271, 6.777083333333216 ], [ 81.377083333332934, 6.772916666666553 ], [ 81.377083333332934, 6.756249999999888 ] ] ] } },
{ "type": "Feature", "properties": { "HYRIV_ID": 41406557, "NEXT_DOWN": 41406595, "MAIN_RIV": 41407753, "LENGTH_KM": 6.27, "DIST_DN_KM": 55.3, "DIST_UP_KM": 11.2, "CATCH_SKM": 22.59, "UPLAND_SKM": 22.6, "ENDORHEIC": 0, "DIS_AV_CMS": 0.44800001, "ORD_STRA": 1, "ORD_CLAS": 3, "ORD_FLOW": 7, "HYBAS_L12": 4121158990.0, "Shape_Length": 0.056546115882781675 }, "geometry": { "type": "MultiLineString", "coordinates": [ [ [ 81.402083333332968, 6.799999999999876 ], [ 81.402083333332968, 6.789583333333233 ], [ 81.397916666666248, 6.785416666666571 ], [ 81.397916666666248, 6.781249999999879 ], [ 81.393749999999642, 6.777083333333216 ], [ 81.393749999999642, 6.76875 ], [ 81.381249999999596, 6.756249999999888 ], [ 81.377083333332934, 6.756249999999888 ] ] ] } },
{ "type": "Feature", "properties": { "HYRIV_ID": 41406595, "NEXT_DOWN": 41406741, "MAIN_RIV": 41407753, "LENGTH_KM": 1.12, "DIST_DN_KM": 54.200001, "DIST_UP_KM": 31.1, "CATCH_SKM": 1.0700001, "UPLAND_SKM": 195.0, "ENDORHEIC": 0, "DIS_AV_CMS": 3.9809999, "ORD_STRA": 3, "ORD_CLAS": 2, "ORD_FLOW": 6, "HYBAS_L12": 4121158990.0, "Shape_Length": 0.010059223176545413 }, "geometry": { "type": "MultiLineString", "coordinates": [ [ [ 81.377083333332934, 6.756249999999888 ], [ 81.381249999999596, 6.752083333333225 ], [ 81.381249999999596, 6.747916666666562 ] ] ] } },
{ "type": "Feature", "properties": { "HYRIV_ID": 41406614, "NEXT_DOWN": 41406616, "MAIN_RIV": 41407753, "LENGTH_KM": 1.4400001, "DIST_DN_KM": 59.3, "DIST_UP_KM": 4.2, "CATCH_SKM": 11.3, "UPLAND_SKM": 11.3, "ENDORHEIC": 0, "DIS_AV_CMS": 0.239, "ORD_STRA": 1, "ORD_CLAS": 4, "ORD_FLOW": 7, "HYBAS_L12": 4121158990.0, "Shape_Length": 0.013005501431546974 }, "geometry": { "type": "MultiLineString", "coordinates": [ [ [ 81.329166666666282, 6.749999999999893 ], [ 81.335416666666362, 6.743749999999899 ], [ 81.339583333333024, 6.743749999999899 ] ] ] } },
{ "type": "Feature", "properties": { "HYRIV_ID": 41406615, "NEXT_DOWN": 41406616, "MAIN_RIV": 41407753, "LENGTH_KM": 4.3200002, "DIST_DN_KM": 59.5, "DIST_UP_KM": 7.7, "CATCH_SKM": 15.99, "UPLAND_SKM": 16.0, "ENDORHEIC": 0, "DIS_AV_CMS": 0.336, "ORD_STRA": 1, "ORD_CLAS": 3, "ORD_FLOW": 7, "HYBAS_L12": 4121158990.0, "Shape_Length": 0.038868446353170813 }, "geometry": { "type": "MultiLineString", "coordinates": [ [ [ 81.331249999999642, 6.77916666666659 ], [ 81.331249999999642, 6.76875 ], [ 81.335416666666362, 6.764583333333242 ], [ 81.335416666666362, 6.747916666666562 ], [ 81.339583333333024, 6.743749999999899 ] ] ] } },
{ "type": "Feature", "properties": { "HYRIV_ID": 41406616, "NEXT_DOWN": 41406741, "MAIN_RIV": 41407753, "LENGTH_KM": 5.1799998, "DIST_DN_KM": 54.200001, "DIST_UP_KM": 13.1, "CATCH_SKM": 14.28, "UPLAND_SKM": 41.599998, "ENDORHEIC": 0, "DIS_AV_CMS": 0.85900003, "ORD_STRA": 2, "ORD_CLAS": 3, "ORD_FLOW": 7, "HYBAS_L12": 4121158990.0, "Shape_Length": 0.046844336196214253 }, "geometry": { "type": "MultiLineString", "coordinates": [ [ [ 81.339583333333024, 6.743749999999899 ], [ 81.352083333333013, 6.743749999999899 ], [ 81.356249999999676, 6.747916666666562 ], [ 81.360416666666396, 6.743749999999899 ], [ 81.364583333333059, 6.747916666666562 ], [ 81.381249999999596, 6.747916666666562 ] ] ] } },
{ "type": "Feature", "properties": { "HYRIV_ID": 41406724, "NEXT_DOWN": 41406855, "MAIN_RIV": 41407753, "LENGTH_KM": 10.43, "DIST_DN_KM": 61.0, "DIST_UP_KM": 51.400002, "CATCH_SKM": 39.439999, "UPLAND_SKM": 311.5, "ENDORHEIC": 0, "DIS_AV_CMS": 6.756, "ORD_STRA": 3, "ORD_CLAS": 1, "ORD_FLOW": 6, "HYBAS_L12": 4121158980.0, "Shape_Length": 0.093984788275386505 }, "geometry": { "type": "MultiLineString", "coordinates": [ [ [ 81.289583333332956, 6.802083333333208 ], [ 81.293749999999619, 6.797916666666545 ], [ 81.289583333332956, 6.793749999999896 ], [ 81.289583333332956, 6.789583333333233 ], [ 81.297916666666282, 6.781249999999879 ], [ 81.297916666666282, 6.772916666666553 ], [ 81.289583333332956, 6.764583333333242 ], [ 81.293749999999619, 6.760416666666579 ], [ 81.289583333332956, 6.756249999999888 ], [ 81.293749999999619, 6.752083333333225 ], [ 81.293749999999619, 6.747916666666562 ], [ 81.289583333332956, 6.743749999999899 ], [ 81.289583333332956, 6.731249999999882 ], [ 81.293749999999619, 6.727083333333233 ] ] ] } },
{ "type": "Feature", "properties": { "HYRIV_ID": 41406741, "NEXT_DOWN": 41406975, "MAIN_RIV": 41407753, "LENGTH_KM": 3.9200001, "DIST_DN_KM": 50.400002, "DIST_UP_KM": 34.8, "CATCH_SKM": 14.5, "UPLAND_SKM": 251.10001, "ENDORHEIC": 0, "DIS_AV_CMS": 5.085, "ORD_STRA": 3, "ORD_CLAS": 2, "ORD_FLOW": 6, "HYBAS_L12": 4121158990.0, "Shape_Length": 0.035355339059305269 }, "geometry": { "type": "MultiLineString", "coordinates": [ [ [ 81.381249999999596, 6.747916666666562 ], [ 81.406249999999574, 6.722916666666571 ] ] ] } },
{ "type": "Feature", "properties": { "HYRIV_ID": 41406742, "NEXT_DOWN": 41406975, "MAIN_RIV": 41407753, "LENGTH_KM": 7.58, "DIST_DN_KM": 50.200001, "DIST_UP_KM": 10.4, "CATCH_SKM": 33.68, "UPLAND_SKM": 33.700001, "ENDORHEIC": 0, "DIS_AV_CMS": 0.644, "ORD_STRA": 1, "ORD_CLAS": 3, "ORD_FLOW": 7, "HYBAS_L12": 4121158990.0, "Shape_Length": 0.06833122890257172 }, "geometry": { "type": "MultiLineString", "coordinates": [ [ [ 81.435416666666271, 6.770833333333222 ], [ 81.435416666666271, 6.764583333333242 ], [ 81.427083333332945, 6.756249999999888 ], [ 81.427083333332945, 6.752083333333225 ], [ 81.431249999999608, 6.747916666666562 ], [ 81.431249999999608, 6.743749999999899 ], [ 81.427083333332945, 6.73958333333325 ], [ 81.427083333332945, 6.735416666666545 ], [ 81.422916666666282, 6.731249999999882 ], [ 81.418749999999619, 6.731249999999882 ], [ 81.410416666666293, 6.722916666666571 ], [ 81.406249999999574, 6.722916666666571 ] ] ] } },
{ "type": "Feature", "properties": { "HYRIV_ID": 41406779, "NEXT_DOWN": 41406855, "MAIN_RIV": 41407753, "LENGTH_KM": 2.27, "DIST_DN_KM": 60.8, "DIST_UP_KM": 4.7, "CATCH_SKM": 10.23, "UPLAND_SKM": 10.2, "ENDORHEIC": 0, "DIS_AV_CMS": 0.222, "ORD_STRA": 1, "ORD_CLAS": 2, "ORD_FLOW": 7, "HYBAS_L12": 4121158980.0, "Shape_Length": 0.020475889843231027 }, "geometry": { "type": "MultiLineString", "coordinates": [ [ [ 81.285416666666293, 6.712499999999885 ], [ 81.285416666666293, 6.71875 ], [ 81.289583333332956, 6.722916666666571 ], [ 81.289583333332956, 6.727083333333233 ], [ 81.293749999999619, 6.727083333333233 ] ] ] } },
{ "type": "Feature", "properties": { "HYRIV_ID": 41406780, "NEXT_DOWN": 41407072, "MAIN_RIV": 41407753, "LENGTH_KM": 2.08, "DIST_DN_KM": 48.3, "DIST_UP_KM": 5.5, "CATCH_SKM": 10.66, "UPLAND_SKM": 10.7, "ENDORHEIC": 0, "DIS_AV_CMS": 0.199, "ORD_STRA": 1, "ORD_CLAS": 2, "ORD_FLOW": 7, "HYBAS_L12": 4121602220.0, "Shape_Length": 0.018749999999997158 }, "geometry": { "type": "MultiLineString", "coordinates": [ [ [ 81.456249999999642, 6.733333333333213 ], [ 81.456249999999642, 6.714583333333216 ] ] ] } },
{ "type": "Feature", "properties": { "HYRIV_ID": 41406781, "NEXT_DOWN": 41407072, "MAIN_RIV": 41407753, "LENGTH_KM": 0.69, "DIST_DN_KM": 48.3, "DIST_UP_KM": 3.7, "CATCH_SKM": 8.1, "UPLAND_SKM": 8.1, "ENDORHEIC": 0, "DIS_AV_CMS": 0.148, "ORD_STRA": 1, "ORD_CLAS": 3, "ORD_FLOW": 7, "HYBAS_L12": 4121602220.0, "Shape_Length": 0.0062499999999658939 }, "geometry": { "type": "MultiLineString", "coordinates": [ [ [ 81.462499999999608, 6.714583333333216 ], [ 81.456249999999642, 6.714583333333216 ] ] ] } },
{ "type": "Feature", "properties": { "HYRIV_ID": 41406855, "NEXT_DOWN": 41406856, "MAIN_RIV": 41407753, "LENGTH_KM": 5.9499998, "DIST_DN_KM": 55.0, "DIST_UP_KM": 57.3, "CATCH_SKM": 20.889999, "UPLAND_SKM": 342.70001, "ENDORHEIC": 0, "DIS_AV_CMS": 7.3150001, "ORD_STRA": 3, "ORD_CLAS": 1, "ORD_FLOW": 6, "HYBAS_L12": 4121158980.0, "Shape_Length": 0.053747895569273473 }, "geometry": { "type": "MultiLineString", "coordinates": [ [ [ 81.293749999999619, 6.727083333333233 ], [ 81.306249999999608, 6.714583333333216 ], [ 81.310416666666328, 6.714583333333216 ], [ 81.322916666666316, 6.702083333333242 ], [ 81.331249999999642, 6.702083333333242 ], [ 81.335416666666362, 6.697916666666579 ] ] ] } },
{ "type": "Feature", "properties": { "HYRIV_ID": 41406856, "NEXT_DOWN": 41406906, "MAIN_RIV": 41407753, "LENGTH_KM": 4.0700002, "DIST_DN_KM": 50.8, "DIST_UP_KM": 61.599998, "CATCH_SKM": 10.66, "UPLAND_SKM": 371.20001, "ENDORHEIC": 0, "DIS_AV_CMS": 7.8080001, "ORD_STRA": 3, "ORD_CLAS": 1, "ORD_FLOW": 6, "HYBAS_L12": 4121158980.0, "Shape_Length": 0.036785113019702144 }, "geometry": { "type": "MultiLineString", "coordinates": [ [ [ 81.335416666666362, 6.697916666666579 ], [ 81.339583333333024, 6.697916666666579 ], [ 81.343749999999574, 6.702083333333242 ], [ 81.356249999999676, 6.702083333333242 ], [ 81.360416666666396, 6.697916666666579 ], [ 81.368749999999608, 6.697916666666579 ] ] ] } },
{ "type": "Feature", "properties": { "HYRIV_ID": 41406857, "NEXT_DOWN": 41406906, "MAIN_RIV": 41407753, "LENGTH_KM": 1.63, "DIST_DN_KM": 51.0, "DIST_UP_KM": 5.5, "CATCH_SKM": 7.25, "UPLAND_SKM": 7.2, "ENDORHEIC": 0, "DIS_AV_CMS": 0.147, "ORD_STRA": 1, "ORD_CLAS": 2, "ORD_FLOW": 7, "HYBAS_L12": 4121158980.0, "Shape_Length": 0.014731391274555614 }, "geometry": { "type": "MultiLineString", "coordinates": [ [ [ 81.370833333332968, 6.708333333333222 ], [ 81.364583333333059, 6.702083333333242 ], [ 81.368749999999608, 6.697916666666579 ] ] ] } },
{ "type": "Feature", "properties": { "HYRIV_ID": 41406858, "NEXT_DOWN": 41406883, "MAIN_RIV": 41407753, "LENGTH_KM": 2.1, "DIST_DN_KM": 33.200001, "DIST_UP_KM": 6.2, "CATCH_SKM": 15.14, "UPLAND_SKM": 15.1, "ENDORHEIC": 0, "DIS_AV_CMS": 0.26, "ORD_STRA": 1, "ORD_CLAS": 4, "ORD_FLOW": 7, "HYBAS_L12": 4121159250.0, "Shape_Length": 0.018898057941339072 }, "geometry": { "type": "MultiLineString", "coordinates": [ [ [ 81.524999999999665, 6.712499999999885 ], [ 81.535416666666293, 6.702083333333242 ], [ 81.535416666666293, 6.697916666666579 ] ] ] } },
{ "type": "Feature", "properties": { "HYRIV_ID": 41406883, "NEXT_DOWN": 41407212, "MAIN_RIV": 41407753, "LENGTH_KM": 0.65, "DIST_DN_KM": 32.700001, "DIST_UP_KM": 7.7, "CATCH_SKM": 0.64, "UPLAND_SKM": 29.8, "ENDORHEIC": 0, "DIS_AV_CMS": 0.51099998, "ORD_STRA": 2, "ORD_CLAS": 3, "ORD_FLOW": 7, "HYBAS_L12": 4121159250.0, "Shape_Length": 0.0058925565099126826 }, "geometry": { "type": "MultiLineString", "coordinates": [ [ [ 81.535416666666293, 6.697916666666579 ], [ 81.539583333332956, 6.693749999999874 ] ] ] } },
{ "type": "Feature", "properties": { "HYRIV_ID": 41406884, "NEXT_DOWN": 41407212, "MAIN_RIV": 41407753, "LENGTH_KM": 4.79, "DIST_DN_KM": 32.5, "DIST_UP_KM": 8.2, "CATCH_SKM": 17.049999, "UPLAND_SKM": 17.1, "ENDORHEIC": 0, "DIS_AV_CMS": 0.28600001, "ORD_STRA": 1, "ORD_CLAS": 2, "ORD_FLOW": 7, "HYBAS_L12": 4121159250.0, "Shape_Length": 0.043183170961163836 }, "geometry": { "type": "MultiLineString", "coordinates": [ [ [ 81.537499999999653, 6.729166666666565 ], [ 81.547916666666282, 6.71875 ], [ 81.547916666666282, 6.710416666666553 ], [ 81.539583333332956, 6.702083333333242 ], [ 81.539583333332956, 6.693749999999874 ] ] ] } },
{ "type": "Feature", "properties": { "HYRIV_ID": 41406906, "NEXT_DOWN": 41406974, "MAIN_RIV": 41407753, "LENGTH_KM": 3.1500001, "DIST_DN_KM": 47.8, "DIST_UP_KM": 64.5, "CATCH_SKM": 13.86, "UPLAND_SKM": 392.29999, "ENDORHEIC": 0, "DIS_AV_CMS": 8.158, "ORD_STRA": 3, "ORD_CLAS": 1, "ORD_FLOW": 6, "HYBAS_L12": 4121158980.0, "Shape_Length": 0.028451779686476872 }, "geometry": { "type": "MultiLineString", "coordinates": [ [ [ 81.368749999999608, 6.697916666666579 ], [ 81.385416666666259, 6.697916666666579 ], [ 81.393749999999642, 6.689583333333225 ] ] ] } },
{ "type": "Feature", "properties": { "HYRIV_ID": 41406907, "NEXT_DOWN": 41406883, "MAIN_RIV": 41407753, "LENGTH_KM": 2.09, "DIST_DN_KM": 33.3, "DIST_UP_KM": 7.1, "CATCH_SKM": 14.07, "UPLAND_SKM": 14.1, "ENDORHEIC": 0, "DIS_AV_CMS": 0.242, "ORD_STRA": 1, "ORD_CLAS": 3, "ORD_FLOW": 7, "HYBAS_L12": 4121159250.0, "Shape_Length": 0.018898057941352568 }, "geometry": { "type": "MultiLineString", "coordinates": [ [ [ 81.520833333333002, 6.687499999999893 ], [ 81.527083333332968, 6.693749999999874 ], [ 81.531249999999574, 6.693749999999874 ], [ 81.535416666666293, 6.697916666666579 ] ] ] } },
{ "type": "Feature", "properties": { "HYRIV_ID": 41406973, "NEXT_DOWN": 41406974, "MAIN_RIV": 41407753, "LENGTH_KM": 3.84, "DIST_DN_KM": 47.599998, "DIST_UP_KM": 7.2, "CATCH_SKM": 15.78, "UPLAND_SKM": 15.8, "ENDORHEIC": 0, "DIS_AV_CMS": 0.309, "ORD_STRA": 1, "ORD_CLAS": 2, "ORD_FLOW": 7, "HYBAS_L12": 4121158980.0, "Shape_Length": 0.034701779686412623 }, "geometry": { "type": "MultiLineString", "coordinates": [ [ [ 81.366666666666305, 6.67708333333325 ], [ 81.385416666666259, 6.67708333333325 ], [ 81.393749999999642, 6.685416666666562 ], [ 81.393749999999642, 6.689583333333225 ] ] ] } },
{ "type": "Feature", "properties": { "HYRIV_ID": 41406974, "NEXT_DOWN": 41407071, "MAIN_RIV": 41407753, "LENGTH_KM": 2.8800001, "DIST_DN_KM": 45.0, "DIST_UP_KM": 67.400002, "CATCH_SKM": 4.48, "UPLAND_SKM": 412.60001, "ENDORHEIC": 0, "DIS_AV_CMS": 8.4899998, "ORD_STRA": 3, "ORD_CLAS": 1, "ORD_FLOW": 6, "HYBAS_L12": 4121158980.0, "Shape_Length": 0.026011002862963314 }, "geometry": { "type": "MultiLineString", "coordinates": [ [ [ 81.393749999999642, 6.689583333333225 ], [ 81.397916666666248, 6.689583333333225 ], [ 81.406249999999574, 6.681249999999899 ], [ 81.410416666666293, 6.681249999999899 ], [ 81.414583333332956, 6.67708333333325 ] ] ] } },
{ "type": "Feature", "properties": { "HYRIV_ID": 41406975, "NEXT_DOWN": 41407071, "MAIN_RIV": 41407753, "LENGTH_KM": 5.48, "DIST_DN_KM": 44.8, "DIST_UP_KM": 40.5, "CATCH_SKM": 15.35, "UPLAND_SKM": 300.10001, "ENDORHEIC": 0, "DIS_AV_CMS": 5.9299998, "ORD_STRA": 3, "ORD_CLAS": 2, "ORD_FLOW": 6, "HYBAS_L12": 4121158990.0, "Shape_Length": 0.049285113019795421 }, "geometry": { "type": "MultiLineString", "coordinates": [ [ [ 81.406249999999574, 6.722916666666571 ], [ 81.406249999999574, 6.71875 ], [ 81.410416666666293, 6.714583333333216 ], [ 81.410416666666293, 6.693749999999874 ], [ 81.414583333332956, 6.689583333333225 ], [ 81.414583333332956, 6.67708333333325 ] ] ] } },
{ "type": "Feature", "properties": { "HYRIV_ID": 41406992, "NEXT_DOWN": 41406856, "MAIN_RIV": 41407753, "LENGTH_KM": 3.87, "DIST_DN_KM": 55.0, "DIST_UP_KM": 6.9, "CATCH_SKM": 17.91, "UPLAND_SKM": 17.9, "ENDORHEIC": 0, "DIS_AV_CMS": 0.368, "ORD_STRA": 1, "ORD_CLAS": 2, "ORD_FLOW": 7, "HYBAS_L12": 4121158980.0, "Shape_Length": 0.034849837627978046 }, "geometry": { "type": "MultiLineString", "coordinates": [ [ [ 81.324999999999619, 6.670833333333213 ], [ 81.335416666666362, 6.681249999999899 ], [ 81.335416666666362, 6.689583333333225 ], [ 81.331249999999642, 6.693749999999874 ], [ 81.335416666666362, 6.697916666666579 ] ] ] } },
{ "type": "Feature", "properties": { "HYRIV_ID": 41407035, "NEXT_DOWN": 41407071, "MAIN_RIV": 41407753, "LENGTH_KM": 1.77, "DIST_DN_KM": 45.0, "DIST_UP_KM": 9.0, "CATCH_SKM": 2.35, "UPLAND_SKM": 29.200001, "ENDORHEIC": 0, "DIS_AV_CMS": 0.55699998, "ORD_STRA": 2, "ORD_CLAS": 3, "ORD_FLOW": 7, "HYBAS_L12": 4121602220.0, "Shape_Length": 0.015951779686484077 }, "geometry": { "type": "MultiLineString", "coordinates": [ [ [ 81.406249999999574, 6.664583333333233 ], [ 81.406249999999574, 6.668749999999882 ], [ 81.414583333332956, 6.67708333333325 ] ] ] } },
{ "type": "Feature", "properties": { "HYRIV_ID": 41407048, "NEXT_DOWN": 41407035, "MAIN_RIV": 41407753, "LENGTH_KM": 0.69, "DIST_DN_KM": 46.5, "DIST_UP_KM": 4.1, "CATCH_SKM": 5.9699998, "UPLAND_SKM": 6.0, "ENDORHEIC": 0, "DIS_AV_CMS": 0.112, "ORD_STRA": 1, "ORD_CLAS": 4, "ORD_FLOW": 7, "HYBAS_L12": 4121602220.0, "Shape_Length": 0.0062499999999943157 }, "geometry": { "type": "MultiLineString", "coordinates": [ [ [ 81.406249999999574, 6.658333333333239 ], [ 81.406249999999574, 6.664583333333233 ] ] ] } },
{ "type": "Feature", "properties": { "HYRIV_ID": 41407071, "NEXT_DOWN": 41407192, "MAIN_RIV": 41407753, "LENGTH_KM": 3.73, "DIST_DN_KM": 41.200001, "DIST_UP_KM": 71.099998, "CATCH_SKM": 15.14, "UPLAND_SKM": 757.0, "ENDORHEIC": 0, "DIS_AV_CMS": 15.128, "ORD_STRA": 4, "ORD_CLAS": 1, "ORD_FLOW": 5, "HYBAS_L12": 4121602220.0, "Shape_Length": 0.033629449216135851 }, "geometry": { "type": "MultiLineString", "coordinates": [ [ [ 81.414583333332956, 6.67708333333325 ], [ 81.422916666666282, 6.668749999999882 ], [ 81.427083333332945, 6.668749999999882 ], [ 81.43958333333299, 6.65625 ] ] ] } },
{ "type": "Feature", "properties": { "HYRIV_ID": 41407072, "NEXT_DOWN": 41407192, "MAIN_RIV": 41407753, "LENGTH_KM": 7.25, "DIST_DN_KM": 41.200001, "DIST_UP_KM": 12.5, "CATCH_SKM": 20.889999, "UPLAND_SKM": 39.700001, "ENDORHEIC": 0, "DIS_AV_CMS": 0.72100002, "ORD_STRA": 2, "ORD_CLAS": 2, "ORD_FLOW": 7, "HYBAS_L12": 4121602220.0, "Shape_Length": 0.065236892706187349 }, "geometry": { "type": "MultiLineString", "coordinates": [ [ [ 81.456249999999642, 6.714583333333216 ], [ 81.456249999999642, 6.685416666666562 ], [ 81.452083333332979, 6.681249999999899 ], [ 81.452083333332979, 6.672916666666545 ], [ 81.447916666666316, 6.668749999999882 ], [ 81.447916666666316, 6.664583333333233 ], [ 81.43958333333299, 6.65625 ] ] ] } },
{ "type": "Feature", "properties": { "HYRIV_ID": 41407111, "NEXT_DOWN": 41407035, "MAIN_RIV": 41407753, "LENGTH_KM": 4.2199998, "DIST_DN_KM": 46.700001, "DIST_UP_KM": 7.2, "CATCH_SKM": 20.889999, "UPLAND_SKM": 20.9, "ENDORHEIC": 0, "DIS_AV_CMS": 0.40200001, "ORD_STRA": 1, "ORD_CLAS": 3, "ORD_FLOW": 7, "HYBAS_L12": 4121602220.0, "Shape_Length": 0.038153559372858539 }, "geometry": { "type": "MultiLineString", "coordinates": [ [ [ 81.374999999999631, 6.647916666666553 ], [ 81.385416666666259, 6.647916666666553 ], [ 81.389583333332922, 6.652083333333245 ], [ 81.393749999999642, 6.652083333333245 ], [ 81.406249999999574, 6.664583333333233 ] ] ] } },
{ "type": "Feature", "properties": { "HYRIV_ID": 41407192, "NEXT_DOWN": 41407210, "MAIN_RIV": 41407753, "LENGTH_KM": 4.6500001, "DIST_DN_KM": 36.400002, "DIST_UP_KM": 76.0, "CATCH_SKM": 11.09, "UPLAND_SKM": 807.79999, "ENDORHEIC": 0, "DIS_AV_CMS": 15.862, "ORD_STRA": 4, "ORD_CLAS": 1, "ORD_FLOW": 5, "HYBAS_L12": 4121602220.0, "Shape_Length": 0.041962782549494183 }, "geometry": { "type": "MultiLineString", "coordinates": [ [ [ 81.43958333333299, 6.65625 ], [ 81.443749999999653, 6.652083333333245 ], [ 81.447916666666316, 6.652083333333245 ], [ 81.460416666666305, 6.639583333333228 ], [ 81.464583333332968, 6.639583333333228 ], [ 81.468749999999687, 6.635416666666579 ], [ 81.468749999999687, 6.631249999999874 ] ] ] } },
{ "type": "Feature", "properties": { "HYRIV_ID": 41407209, "NEXT_DOWN": 41407210, "MAIN_RIV": 41407753, "LENGTH_KM": 3.0, "DIST_DN_KM": 36.400002, "DIST_UP_KM": 7.2, "CATCH_SKM": 18.549999, "UPLAND_SKM": 18.6, "ENDORHEIC": 0, "DIS_AV_CMS": 0.333, "ORD_STRA": 1, "ORD_CLAS": 2, "ORD_FLOW": 7, "HYBAS_L12": 4121602220.0, "Shape_Length": 0.027083333333393966 }, "geometry": { "type": "MultiLineString", "coordinates": [ [ [ 81.445833333332956, 6.627083333333211 ], [ 81.468749999999687, 6.627083333333211 ], [ 81.468749999999687, 6.631249999999874 ] ] ] } },
{ "type": "Feature", "properties": { "HYRIV_ID": 41407210, "NEXT_DOWN": 41407325, "MAIN_RIV": 41407753, "LENGTH_KM": 0.65, "DIST_DN_KM": 35.900002, "DIST_UP_KM": 76.400002, "CATCH_SKM": 0.64, "UPLAND_SKM": 827.0, "ENDORHEIC": 0, "DIS_AV_CMS": 16.181, "ORD_STRA": 4, "ORD_CLAS": 1, "ORD_FLOW": 5, "HYBAS_L12": 4121602220.0, "Shape_Length": 0.0058925565098825365 }, "geometry": { "type": "MultiLineString", "coordinates": [ [ [ 81.468749999999687, 6.631249999999874 ], [ 81.47291666666635, 6.627083333333211 ] ] ] } },
{ "type": "Feature", "properties": { "HYRIV_ID": 41407211, "NEXT_DOWN": 41407325, "MAIN_RIV": 41407753, "LENGTH_KM": 7.8400002, "DIST_DN_KM": 35.700001, "DIST_UP_KM": 10.8, "CATCH_SKM": 26.440001, "UPLAND_SKM": 26.4, "ENDORHEIC": 0, "DIS_AV_CMS": 0.463, "ORD_STRA": 1, "ORD_CLAS": 2, "ORD_FLOW": 7, "HYBAS_L12": 4121602220.0, "Shape_Length": 0.070623947784662272 }, "geometry": { "type": "MultiLineString", "coordinates": [ [ [ 81.479166666666259, 6.687499999999893 ], [ 81.485416666666339, 6.681249999999899 ], [ 81.485416666666339, 6.67708333333325 ], [ 81.481249999999676, 6.672916666666545 ], [ 81.481249999999676, 6.647916666666553 ], [ 81.477083333333013, 6.643749999999891 ], [ 81.477083333333013, 6.627083333333211 ], [ 81.47291666666635, 6.627083333333211 ] ] ] } },
{ "type": "Feature", "properties": { "HYRIV_ID": 41407212, "NEXT_DOWN": 41407430, "MAIN_RIV": 41407753, "LENGTH_KM": 11.15, "DIST_DN_KM": 21.5, "DIST_UP_KM": 19.200001, "CATCH_SKM": 36.669998, "UPLAND_SKM": 83.599998, "ENDORHEIC": 0, "DIS_AV_CMS": 1.3150001, "ORD_STRA": 2, "ORD_CLAS": 2, "ORD_FLOW": 6, "HYBAS_L12": 4121159250.0, "Shape_Length": 0.10059223176555115 }, "geometry": { "type": "MultiLineString", "coordinates": [ [ [ 81.539583333332956, 6.693749999999874 ], [ 81.539583333332956, 6.685416666666562 ], [ 81.543749999999619, 6.681249999999899 ], [ 81.552083333332945, 6.681249999999899 ], [ 81.564583333332934, 6.668749999999882 ], [ 81.572916666666316, 6.668749999999882 ], [ 81.577083333332979, 6.664583333333233 ], [ 81.577083333332979, 6.660416666666571 ], [ 81.572916666666316, 6.65625 ], [ 81.577083333332979, 6.652083333333245 ], [ 81.577083333332979, 6.643749999999891 ], [ 81.581249999999642, 6.639583333333228 ], [ 81.581249999999642, 6.635416666666579 ], [ 81.589583333332968, 6.627083333333211 ] ] ] } },
{ "type": "Feature", "properties": { "HYRIV_ID": 41407213, "NEXT_DOWN": 41407430, "MAIN_RIV": 41407753, "LENGTH_KM": 5.2399998, "DIST_DN_KM": 21.5, "DIST_UP_KM": 9.0, "CATCH_SKM": 27.93, "UPLAND_SKM": 27.9, "ENDORHEIC": 0, "DIS_AV_CMS": 0.429, "ORD_STRA": 1, "ORD_CLAS": 3, "ORD_FLOW": 7, "HYBAS_L12": 4121159250.0, "Shape_Length": 0.04720177968643384 }, "geometry": { "type": "MultiLineString", "coordinates": [ [ [ 81.589583333332968, 6.670833333333213 ], [ 81.589583333332968, 6.652083333333245 ], [ 81.593749999999631, 6.647916666666553 ], [ 81.593749999999631, 6.631249999999874 ], [ 81.589583333332968, 6.627083333333211 ] ] ] } },
{ "type": "Feature", "properties": { "HYRIV_ID": 41407260, "NEXT_DOWN": 41407328, "MAIN_RIV": 41407753, "LENGTH_KM": 3.02, "DIST_DN_KM": 30.1, "DIST_UP_KM": 7.0, "CATCH_SKM": 14.29, "UPLAND_SKM": 14.3, "ENDORHEIC": 0, "DIS_AV_CMS": 0.239, "ORD_STRA": 1, "ORD_CLAS": 2, "ORD_FLOW": 7, "HYBAS_L12": 4121159260.0, "Shape_Length": 0.027231391274693248 }, "geometry": { "type": "MultiLineString", "coordinates": [ [ [ 81.508333333332956, 6.641666666666559 ], [ 81.514583333332922, 6.635416666666579 ], [ 81.514583333332922, 6.631249999999874 ], [ 81.510416666666259, 6.627083333333211 ], [ 81.510416666666259, 6.618749999999899 ] ] ] } },
{ "type": "Feature", "properties": { "HYRIV_ID": 41407297, "NEXT_DOWN": 41407298, "MAIN_RIV": 41407753, "LENGTH_KM": 3.85, "DIST_DN_KM": 26.700001, "DIST_UP_KM": 6.6, "CATCH_SKM": 10.66, "UPLAND_SKM": 10.7, "ENDORHEIC": 0, "DIS_AV_CMS": 0.174, "ORD_STRA": 1, "ORD_CLAS": 2, "ORD_FLOW": 7, "HYBAS_L12": 4121159260.0, "Shape_Length": 0.034701779686415059 }, "geometry": { "type": "MultiLineString", "coordinates": [ [ [ 81.527083333332968, 6.641666666666559 ], [ 81.527083333332968, 6.618749999999899 ], [ 81.535416666666293, 6.610416666666588 ] ] ] } },
{ "type": "Feature", "properties": { "HYRIV_ID": 41407298, "NEXT_DOWN": 41407330, "MAIN_RIV": 41407753, "LENGTH_KM": 1.84, "DIST_DN_KM": 24.700001, "DIST_UP_KM": 87.699997, "CATCH_SKM": 3.84, "UPLAND_SKM": 943.40002, "ENDORHEIC": 0, "DIS_AV_CMS": 17.146, "ORD_STRA": 4, "ORD_CLAS": 1, "ORD_FLOW": 5, "HYBAS_L12": 4121159260.0, "Shape_Length": 0.016666666666651508 }, "geometry": { "type": "MultiLineString", "coordinates": [ [ [ 81.535416666666293, 6.610416666666588 ], [ 81.552083333332945, 6.610416666666588 ] ] ] } },
{ "type": "Feature", "properties": { "HYRIV_ID": 41407299, "NEXT_DOWN": 41407330, "MAIN_RIV": 41407753, "LENGTH_KM": 1.81, "DIST_DN_KM": 24.700001, "DIST_UP_KM": 4.5, "CATCH_SKM": 8.1, "UPLAND_SKM": 8.1, "ENDORHEIC": 0, "DIS_AV_CMS": 0.13, "ORD_STRA": 1, "ORD_CLAS": 2, "ORD_FLOW": 7, "HYBAS_L12": 4121159260.0, "Shape_Length": 0.016309223176525518 }, "geometry": { "type": "MultiLineString", "coordinates": [ [ [ 81.547916666666282, 6.624999999999893 ], [ 81.547916666666282, 6.618749999999899 ], [ 81.552083333332945, 6.614583333333236 ], [ 81.552083333332945, 6.610416666666588 ] ] ] } },
{ "type": "Feature", "properties": { "HYRIV_ID": 41407325, "NEXT_DOWN": 41407326, "MAIN_RIV": 41407753, "LENGTH_KM": 3.27, "DIST_DN_KM": 32.700001, "DIST_UP_KM": 79.699997, "CATCH_SKM": 5.33, "UPLAND_SKM": 858.70001, "ENDORHEIC": 0, "DIS_AV_CMS": 16.612, "ORD_STRA": 4, "ORD_CLAS": 1, "ORD_FLOW": 5, "HYBAS_L12": 4121602220.0, "Shape_Length": 0.029462782549462926 }, "geometry": { "type": "MultiLineString", "coordinates": [ [ [ 81.47291666666635, 6.627083333333211 ], [ 81.493749999999721, 6.606249999999882 ] ] ] } },
{ "type": "Feature", "properties": { "HYRIV_ID": 41407326, "NEXT_DOWN": 41407327, "MAIN_RIV": 41407753, "LENGTH_KM": 0.46, "DIST_DN_KM": 32.0, "DIST_UP_KM": 80.400002, "CATCH_SKM": 0.43, "UPLAND_SKM": 871.5, "ENDORHEIC": 0, "DIS_AV_CMS": 16.808001, "ORD_STRA": 4, "ORD_CLAS": 1, "ORD_FLOW": 5, "HYBAS_L12": 4121602220.0, "Shape_Length": 0.0041666666665491903 }, "geometry": { "type": "MultiLineString", "coordinates": [ [ [ 81.493749999999721, 6.606249999999882 ], [ 81.497916666666271, 6.606249999999882 ] ] ] } },
{ "type": "Feature", "properties": { "HYRIV_ID": 41407327, "NEXT_DOWN": 41407328, "MAIN_RIV": 41407753, "LENGTH_KM": 1.96, "DIST_DN_KM": 30.200001, "DIST_UP_KM": 82.099998, "CATCH_SKM": 6.6100001, "UPLAND_SKM": 897.79999, "ENDORHEIC": 0, "DIS_AV_CMS": 17.087999, "ORD_STRA": 4, "ORD_CLAS": 1, "ORD_FLOW": 5, "HYBAS_L12": 4121159260.0, "Shape_Length": 0.017677669529667706 }, "geometry": { "type": "MultiLineString", "coordinates": [ [ [ 81.497916666666271, 6.606249999999882 ], [ 81.510416666666259, 6.618749999999899 ] ] ] } },
{ "type": "Feature", "properties": { "HYRIV_ID": 41407328, "NEXT_DOWN": 41407329, "MAIN_RIV": 41407753, "LENGTH_KM": 2.4200001, "DIST_DN_KM": 27.8, "DIST_UP_KM": 84.599998, "CATCH_SKM": 5.33, "UPLAND_SKM": 917.40002, "ENDORHEIC": 0, "DIS_AV_CMS": 17.142, "ORD_STRA": 4, "ORD_CLAS": 1, "ORD_FLOW": 5, "HYBAS_L12": 4121159260.0, "Shape_Length": 0.02184433619637078 }, "geometry": { "type": "MultiLineString", "coordinates": [ [ [ 81.510416666666259, 6.618749999999899 ], [ 81.514583333332922, 6.618749999999899 ], [ 81.527083333332968, 6.606249999999882 ] ] ] } },
{ "type": "Feature", "properties": { "HYRIV_ID": 41407329, "NEXT_DOWN": 41407298, "MAIN_RIV": 41407753, "LENGTH_KM": 1.11, "DIST_DN_KM": 26.700001, "DIST_UP_KM": 85.699997, "CATCH_SKM": 2.35, "UPLAND_SKM": 928.90002, "ENDORHEIC": 0, "DIS_AV_CMS": 17.190001, "ORD_STRA": 4, "ORD_CLAS": 1, "ORD_FLOW": 5, "HYBAS_L12": 4121159260.0, "Shape_Length": 0.010059223176558911 }, "geometry": { "type": "MultiLineString", "coordinates": [ [ [ 81.527083333332968, 6.606249999999882 ], [ 81.531249999999574, 6.606249999999882 ], [ 81.535416666666293, 6.610416666666588 ] ] ] } },
{ "type": "Feature", "properties": { "HYRIV_ID": 41407330, "NEXT_DOWN": 41407607, "MAIN_RIV": 41407753, "LENGTH_KM": 5.3800001, "DIST_DN_KM": 19.3, "DIST_UP_KM": 93.099998, "CATCH_SKM": 18.34, "UPLAND_SKM": 969.79999, "ENDORHEIC": 0, "DIS_AV_CMS": 16.853001, "ORD_STRA": 4, "ORD_CLAS": 1, "ORD_FLOW": 5, "HYBAS_L12": 4121159260.0, "Shape_Length": 0.048570226039550038 }, "geometry": { "type": "MultiLineString", "coordinates": [ [ [ 81.552083333332945, 6.610416666666588 ], [ 81.556249999999608, 6.610416666666588 ], [ 81.560416666666271, 6.614583333333236 ], [ 81.564583333332934, 6.614583333333236 ], [ 81.568749999999596, 6.610416666666588 ], [ 81.572916666666316, 6.614583333333236 ], [ 81.585416666666305, 6.614583333333236 ], [ 81.589583333332968, 6.610416666666588 ], [ 81.589583333332968, 6.606249999999882 ] ] ] } },
{ "type": "Feature", "properties": { "HYRIV_ID": 41407350, "NEXT_DOWN": 41407326, "MAIN_RIV": 41407753, "LENGTH_KM": 2.36, "DIST_DN_KM": 32.5, "DIST_UP_KM": 6.0, "CATCH_SKM": 12.37, "UPLAND_SKM": 12.4, "ENDORHEIC": 0, "DIS_AV_CMS": 0.214, "ORD_STRA": 1, "ORD_CLAS": 2, "ORD_FLOW": 7, "HYBAS_L12": 4121602220.0, "Shape_Length": 0.021338834764919525 }, "geometry": { "type": "MultiLineString", "coordinates": [ [ [ 81.474999999999596, 6.6 ], [ 81.481249999999676, 6.606249999999882 ], [ 81.493749999999721, 6.606249999999882 ] ] ] } },
{ "type": "Feature", "properties": { "HYRIV_ID": 41407351, "NEXT_DOWN": 41407329, "MAIN_RIV": 41407753, "LENGTH_KM": 0.69, "DIST_DN_KM": 27.6, "DIST_UP_KM": 4.9, "CATCH_SKM": 9.1700001, "UPLAND_SKM": 9.2, "ENDORHEIC": 0, "DIS_AV_CMS": 0.148, "ORD_STRA": 1, "ORD_CLAS": 2, "ORD_FLOW": 7, "HYBAS_L12": 4121159260.0, "Shape_Length": 0.0062499999999801048 }, "geometry": { "type": "MultiLineString", "coordinates": [ [ [ 81.527083333332968, 6.6 ], [ 81.527083333332968, 6.606249999999882 ] ] ] } },
{ "type": "Feature", "properties": { "HYRIV_ID": 41407352, "NEXT_DOWN": 41407607, "MAIN_RIV": 41407753, "LENGTH_KM": 0.98, "DIST_DN_KM": 19.5, "DIST_UP_KM": 4.2, "CATCH_SKM": 8.7399998, "UPLAND_SKM": 8.7, "ENDORHEIC": 0, "DIS_AV_CMS": 0.134, "ORD_STRA": 1, "ORD_CLAS": 2, "ORD_FLOW": 7, "HYBAS_L12": 4121159260.0, "Shape_Length": 0.0088388347648338528 }, "geometry": { "type": "MultiLineString", "coordinates": [ [ [ 81.583333333332945, 6.6 ], [ 81.589583333332968, 6.606249999999882 ] ] ] } },
{ "type": "Feature", "properties": { "HYRIV_ID": 41407430, "NEXT_DOWN": 41407592, "MAIN_RIV": 41407753, "LENGTH_KM": 7.0700002, "DIST_DN_KM": 14.5, "DIST_UP_KM": 26.200001, "CATCH_SKM": 13.01, "UPLAND_SKM": 124.5, "ENDORHEIC": 0, "DIS_AV_CMS": 1.857, "ORD_STRA": 2, "ORD_CLAS": 2, "ORD_FLOW": 6, "HYBAS_L12": 4121159250.0, "Shape_Length": 0.063807118745714236 }, "geometry": { "type": "MultiLineString", "coordinates": [ [ [ 81.589583333332968, 6.627083333333211 ], [ 81.593749999999631, 6.622916666666562 ], [ 81.59791666666635, 6.622916666666562 ], [ 81.602083333333013, 6.618749999999899 ], [ 81.602083333333013, 6.610416666666588 ], [ 81.622916666666384, 6.589583333333202 ], [ 81.627083333333047, 6.589583333333202 ], [ 81.631249999999596, 6.585416666666596 ] ] ] } },
{ "type": "Feature", "properties": { "HYRIV_ID": 41407431, "NEXT_DOWN": 41407592, "MAIN_RIV": 41407753, "LENGTH_KM": 10.17, "DIST_DN_KM": 14.3, "DIST_UP_KM": 13.3, "CATCH_SKM": 35.389999, "UPLAND_SKM": 35.400002, "ENDORHEIC": 0, "DIS_AV_CMS": 0.51099998, "ORD_STRA": 1, "ORD_CLAS": 3, "ORD_FLOW": 7, "HYBAS_L12": 4121159250.0, "Shape_Length": 0.091605339059107546 }, "geometry": { "type": "MultiLineString", "coordinates": [ [ [ 81.631249999999596, 6.666666666666551 ], [ 81.631249999999596, 6.639583333333228 ], [ 81.627083333333047, 6.635416666666579 ], [ 81.631249999999596, 6.631249999999874 ], [ 81.631249999999596, 6.622916666666562 ], [ 81.639583333332922, 6.614583333333236 ], [ 81.639583333332922, 6.602083333333219 ], [ 81.631249999999596, 6.59375 ], [ 81.631249999999596, 6.585416666666596 ] ] ] } },
{ "type": "Feature", "properties": { "HYRIV_ID": 41407461, "NEXT_DOWN": 41407327, "MAIN_RIV": 41407753, "LENGTH_KM": 4.0500002, "DIST_DN_KM": 32.0, "DIST_UP_KM": 7.7, "CATCH_SKM": 19.620001, "UPLAND_SKM": 19.6, "ENDORHEIC": 0, "DIS_AV_CMS": 0.32800001, "ORD_STRA": 1, "ORD_CLAS": 2, "ORD_FLOW": 7, "HYBAS_L12": 4121159260.0, "Shape_Length": 0.036575727471046975 }, "geometry": { "type": "MultiLineString", "coordinates": [ [ [ 81.483333333332922, 6.579166666666559 ], [ 81.489583333333002, 6.585416666666596 ], [ 81.485416666666339, 6.589583333333202 ], [ 81.497916666666271, 6.602083333333219 ], [ 81.497916666666271, 6.606249999999882 ] ] ] } },
{ "type": "Feature", "properties": { "HYRIV_ID": 41407592, "NEXT_DOWN": 41407593, "MAIN_RIV": 41407753, "LENGTH_KM": 5.31, "DIST_DN_KM": 9.2, "DIST_UP_KM": 31.5, "CATCH_SKM": 8.3199997, "UPLAND_SKM": 168.2, "ENDORHEIC": 0, "DIS_AV_CMS": 2.4030001, "ORD_STRA": 2, "ORD_CLAS": 2, "ORD_FLOW": 6, "HYBAS_L12": 4121159250.0, "Shape_Length": 0.047855339059167425 }, "geometry": { "type": "MultiLineString", "coordinates": [ [ [ 81.631249999999596, 6.585416666666596 ], [ 81.639583333332922, 6.577083333333228 ], [ 81.639583333332922, 6.572916666666579 ], [ 81.643749999999699, 6.56875 ], [ 81.643749999999699, 6.560416666666562 ], [ 81.647916666666248, 6.556249999999899 ], [ 81.643749999999699, 6.552083333333236 ], [ 81.647916666666248, 6.547916666666573 ] ] ] } },
{ "type": "Feature", "properties": { "HYRIV_ID": 41407593, "NEXT_DOWN": 41407706, "MAIN_RIV": 41407753, "LENGTH_KM": 0.46, "DIST_DN_KM": 8.5, "DIST_UP_KM": 103.9, "CATCH_SKM": 0.43, "UPLAND_SKM": 1176.7, "ENDORHEIC": 0, "DIS_AV_CMS": 18.509001, "ORD_STRA": 4, "ORD_CLAS": 1, "ORD_FLOW": 5, "HYBAS_L12": 4120049980.0, "Shape_Length": 0.0041666666668334074 }, "geometry": { "type": "MultiLineString", "coordinates": [ [ [ 81.647916666666248, 6.547916666666573 ], [ 81.652083333333081, 6.547916666666573 ] ] ] } },
{ "type": "Feature", "properties": { "HYRIV_ID": 41407594, "NEXT_DOWN": 41407706, "MAIN_RIV": 41407753, "LENGTH_KM": 3.85, "DIST_DN_KM": 8.7, "DIST_UP_KM": 8.3, "CATCH_SKM": 20.26, "UPLAND_SKM": 20.3, "ENDORHEIC": 0, "DIS_AV_CMS": 0.28, "ORD_STRA": 1, "ORD_CLAS": 2, "ORD_FLOW": 7, "HYBAS_L12": 4120049980.0, "Shape_Length": 0.034701779686387352 }, "geometry": { "type": "MultiLineString", "coordinates": [ [ [ 81.666666666666316, 6.572916666666579 ], [ 81.660416666666293, 6.572916666666579 ], [ 81.656249999999574, 6.56875 ], [ 81.656249999999574, 6.552083333333236 ], [ 81.652083333333081, 6.547916666666573 ] ] ] } },
{ "type": "Feature", "properties": { "HYRIV_ID": 41407607, "NEXT_DOWN": 41407593, "MAIN_RIV": 41407753, "LENGTH_KM": 10.34, "DIST_DN_KM": 9.2, "DIST_UP_KM": 103.2, "CATCH_SKM": 29.43, "UPLAND_SKM": 1008.0, "ENDORHEIC": 0, "DIS_AV_CMS": 16.184, "ORD_STRA": 4, "ORD_CLAS": 1, "ORD_FLOW": 5, "HYBAS_L12": 4121159260.0, "Shape_Length": 0.093269901295170293 }, "geometry": { "type": "MultiLineString", "coordinates": [ [ [ 81.589583333332968, 6.606249999999882 ], [ 81.602083333333013, 6.59375 ], [ 81.602083333333013, 6.589583333333202 ], [ 81.610416666666339, 6.581249999999891 ], [ 81.610416666666339, 6.577083333333228 ], [ 81.631249999999596, 6.556249999999899 ], [ 81.631249999999596, 6.552083333333236 ], [ 81.639583333332922, 6.54375 ], [ 81.643749999999699, 6.54375 ], [ 81.647916666666248, 6.547916666666573 ] ] ] } },
{ "type": "Feature", "properties": { "HYRIV_ID": 41407706, "NEXT_DOWN": 41407753, "MAIN_RIV": 41407753, "LENGTH_KM": 4.3800001, "DIST_DN_KM": 4.1, "DIST_UP_KM": 108.3, "CATCH_SKM": 7.89, "UPLAND_SKM": 1204.8, "ENDORHEIC": 0, "DIS_AV_CMS": 18.308001, "ORD_STRA": 4, "ORD_CLAS": 1, "ORD_FLOW": 5, "HYBAS_L12": 4120049980.0, "Shape_Length": 0.039522005725917901 }, "geometry": { "type": "MultiLineString", "coordinates": [ [ [ 81.652083333333081, 6.547916666666573 ], [ 81.677083333332945, 6.522916666666539 ], [ 81.681249999999608, 6.522916666666539 ] ] ] } },
{ "type": "Feature", "properties": { "HYRIV_ID": 41407707, "NEXT_DOWN": 41407753, "MAIN_RIV": 41407753, "LENGTH_KM": 3.2, "DIST_DN_KM": 4.3, "DIST_UP_KM": 5.7, "CATCH_SKM": 15.99, "UPLAND_SKM": 16.0, "ENDORHEIC": 0, "DIS_AV_CMS": 0.218, "ORD_STRA": 1, "ORD_CLAS": 2, "ORD_FLOW": 7, "HYBAS_L12": 4120049980.0, "Shape_Length": 0.028809223176572717 }, "geometry": { "type": "MultiLineString", "coordinates": [ [ [ 81.685416666666271, 6.55 ], [ 81.685416666666271, 6.527083333333245 ], [ 81.681249999999608, 6.522916666666539 ] ] ] } },
{ "type": "Feature", "properties": { "HYRIV_ID": 41407753, "NEXT_DOWN": 0, "MAIN_RIV": 41407753, "LENGTH_KM": 3.99, "DIST_DN_KM": 0.0, "DIST_UP_KM": 112.1, "CATCH_SKM": 8.5299997, "UPLAND_SKM": 1229.1, "ENDORHEIC": 0, "DIS_AV_CMS": 18.040001, "ORD_STRA": 4, "ORD_CLAS": 1, "ORD_FLOW": 5, "HYBAS_L12": 4120049980.0, "Shape_Length": 0.036070226039545475 }, "geometry": { "type": "MultiLineString", "coordinates": [ [ [ 81.681249999999608, 6.522916666666539 ], [ 81.685416666666271, 6.518749999999891 ], [ 81.697916666666316, 6.518749999999891 ], [ 81.702083333332979, 6.522916666666539 ], [ 81.710416666666305, 6.514583333333228 ] ] ] } }
]
}
