{
"type": "FeatureCollection",
"name": "main_river_41406532",
"crs": { "type": "name", "properties": { "name": "urn:ogc:def:crs:OGC:1.3:CRS84" } },
"features": [
{ "type": "Feature", "properties": { "HYRIV_ID": 41406222, "NEXT_DOWN": 41406238, "MAIN_RIV": 41406532, "LENGTH_KM": 0.98, "DIST_DN_KM": 50.599998, "DIST_UP_KM": 4.2, "CATCH_SKM": 8.1, "UPLAND_SKM": 8.1, "ENDORHEIC": 0, "DIS_AV_CMS": 0.16, "ORD_STRA": 1, "ORD_CLAS": 2, "ORD_FLOW": 7, "HYBAS_L12": 4121602050.0, "Shape_Length": 0.0088388347648740481 }, "geometry": { "type": "Polygon", "coordinates": [ ] } },
{ "type": "Feature", "properties": { "HYRIV_ID": 41406237, "NEXT_DOWN": 41406238, "MAIN_RIV": 41406532, "LENGTH_KM": 1.8, "DIST_DN_KM": 50.599998, "DIST_UP_KM": 5.2, "CATCH_SKM": 16.84, "UPLAND_SKM": 16.8, "ENDORHEIC": 0, "DIS_AV_CMS": 0.331, "ORD_STRA": 1, "ORD_CLAS": 1, "ORD_FLOW": 7, "HYBAS_L12": 4121602050.0, "Shape_Length": 0.016309223176424317 }, "geometry": { "type": "Polygon", "coordinates": [ ] } },
{ "type": "Feature", "properties": { "HYRIV_ID": 41406238, "NEXT_DOWN": 41406240, "MAIN_RIV": 41406532, "LENGTH_KM": 2.03, "DIST_DN_KM": 48.400002, "DIST_UP_KM": 7.4, "CATCH_SKM": 6.1799998, "UPLAND_SKM": 31.1, "ENDORHEIC": 0, "DIS_AV_CMS": 0.60799998, "ORD_STRA": 2, "ORD_CLAS": 1, "ORD_FLOW": 7, "HYBAS_L12": 4121602050.0, "Shape_Length": 0.018392556509897864 }, "geometry": { "type": "Polygon", "coordinates": [ ] } },
{ "type": "Feature", "properties": { "HYRIV_ID": 41406239, "NEXT_DOWN": 41406240, "MAIN_RIV": 41406532, "LENGTH_KM": 1.16, "DIST_DN_KM": 48.400002, "DIST_UP_KM": 4.5, "CATCH_SKM": 7.25, "UPLAND_SKM": 7.2, "ENDORHEIC": 0, "DIS_AV_CMS": 0.14, "ORD_STRA": 1, "ORD_CLAS": 2, "ORD_FLOW": 7, "HYBAS_L12": 4121602050.0, "Shape_Length": 0.010416666666657193 }, "geometry": { "type": "Polygon", "coordinates": [ ] } },
{ "type": "Feature", "properties": { "HYRIV_ID": 41406240, "NEXT_DOWN": 41406374, "MAIN_RIV": 41406532, "LENGTH_KM": 0.92, "DIST_DN_KM": 47.400002, "DIST_UP_KM": 8.3, "CATCH_SKM": 2.1300001, "UPLAND_SKM": 40.5, "ENDORHEIC": 0, "DIS_AV_CMS": 0.787, "ORD_STRA": 2, "ORD_CLAS": 1, "ORD_FLOW": 7, "HYBAS_L12": 4121602050.0, "Shape_Length": 0.0083333333333257542 }, "geometry": { "type": "Polygon", "coordinates": [ ] } },
{ "type": "Feature", "properties": { "HYRIV_ID": 41406305, "NEXT_DOWN": 41406374, "MAIN_RIV": 41406532, "LENGTH_KM": 2.1, "DIST_DN_KM": 47.400002, "DIST_UP_KM": 6.0, "CATCH_SKM": 7.0300002, "UPLAND_SKM": 7.0, "ENDORHEIC": 0, "DIS_AV_CMS": 0.133, "ORD_STRA": 1, "ORD_CLAS": 2, "ORD_FLOW": 7, "HYBAS_L12": 4121602050.0, "Shape_Length": 0.018898057941447884 }, "geometry": { "type": "Polygon", "coordinates": [ ] } },
{ "type": "Feature", "properties": { "HYRIV_ID": 41406374, "NEXT_DOWN": 41406411, "MAIN_RIV": 41406532, "LENGTH_KM": 10.02, "DIST_DN_KM": 37.599998, "DIST_UP_KM": 18.200001, "CATCH_SKM": 36.869999, "UPLAND_SKM": 84.400002, "ENDORHEIC": 0, "DIS_AV_CMS": 1.53, "ORD_STRA": 2, "ORD_CLAS": 1, "ORD_FLOW": 6, "HYBAS_L12": 4121602050.0, "Shape_Length": 0.090533008588941616 }, "geometry": { "type": "Polygon", "coordinates": [ ] } },
{ "type": "Feature", "properties": { "HYRIV_ID": 41406375, "NEXT_DOWN": 41406478, "MAIN_RIV": 41406532, "LENGTH_KM": 2.46, "DIST_DN_KM": 28.200001, "DIST_UP_KM": 5.7, "CATCH_SKM": 16.629999, "UPLAND_SKM": 16.6, "ENDORHEIC": 0, "DIS_AV_CMS": 0.27700001, "ORD_STRA": 1, "ORD_CLAS": 2, "ORD_FLOW": 7, "HYBAS_L12": 4121602110.0, "Shape_Length": 0.022201779686521025 }, "geometry": { "type": "Polygon", "coordinates": [ ] } },
{ "type": "Feature", "properties": { "HYRIV_ID": 41406396, "NEXT_DOWN": 41406413, "MAIN_RIV": 41406532, "LENGTH_KM": 2.37, "DIST_DN_KM": 33.599998, "DIST_UP_KM": 6.5, "CATCH_SKM": 13.43, "UPLAND_SKM": 13.4, "ENDORHEIC": 0, "DIS_AV_CMS": 0.232, "ORD_STRA": 1, "ORD_CLAS": 2, "ORD_FLOW": 7, "HYBAS_L12": 4121602110.0, "Shape_Length": 0.02133883476476808 }, "geometry": { "type": "Polygon", "coordinates": [ ] } },
{ "type": "Feature", "properties": { "HYRIV_ID": 41406397, "NEXT_DOWN": 41406398, "MAIN_RIV": 41406532, "LENGTH_KM": 2.27, "DIST_DN_KM": 30.1, "DIST_UP_KM": 4.9, "CATCH_SKM": 10.23, "UPLAND_SKM": 10.2, "ENDORHEIC": 0, "DIS_AV_CMS": 0.174, "ORD_STRA": 1, "ORD_CLAS": 2, "ORD_FLOW": 7, "HYBAS_L12": 4121602110.0, "Shape_Length": 0.020475889843235191 }, "geometry": { "type": "Polygon", "coordinates": [ ] } },
{ "type": "Feature", "properties": { "HYRIV_ID": 41406398, "NEXT_DOWN": 41406478, "MAIN_RIV": 41406532, "LENGTH_KM": 2.03, "DIST_DN_KM": 28.1, "DIST_UP_KM": 27.700001, "CATCH_SKM": 3.4100001, "UPLAND_SKM": 196.10001, "ENDORHEIC": 0, "DIS_AV_CMS": 3.267, "ORD_STRA": 3, "ORD_CLAS": 1, "ORD_FLOW": 6, "HYBAS_L12": 4121602110.0, "Shape_Length": 0.018392556509871167 }, "geometry": { "type": "Polygon", "coordinates": [ ] } },
{ "type": "Feature", "properties": { "HYRIV_ID": 41406410, "NEXT_DOWN": 41406411, "MAIN_RIV": 41406532, "LENGTH_KM": 1.12, "DIST_DN_KM": 37.400002, "DIST_UP_KM": 13.6, "CATCH_SKM": 1.0700001, "UPLAND_SKM": 51.400002, "ENDORHEIC": 0, "DIS_AV_CMS": 0.89700001, "ORD_STRA": 2, "ORD_CLAS": 2, "ORD_FLOW": 7, "HYBAS_L12": 4121602050.0, "Shape_Length": 0.010059223176545413 }, "geometry": { "type": "Polygon", "coordinates": [ ] } },
{ "type": "Feature", "properties": { "HYRIV_ID": 41406411, "NEXT_DOWN": 41406412, "MAIN_RIV": 41406532, "LENGTH_KM": 3.1500001, "DIST_DN_KM": 34.3, "DIST_UP_KM": 21.5, "CATCH_SKM": 6.1799998, "UPLAND_SKM": 142.0, "ENDORHEIC": 0, "DIS_AV_CMS": 2.4790001, "ORD_STRA": 3, "ORD_CLAS": 1, "ORD_FLOW": 6, "HYBAS_L12": 4121602050.0, "Shape_Length": 0.028451779686473423 }, "geometry": { "type": "Polygon", "coordinates": [ ] } },
{ "type": "Feature", "properties": { "HYRIV_ID": 41406412, "NEXT_DOWN": 41406413, "MAIN_RIV": 41406532, "LENGTH_KM": 0.65, "DIST_DN_KM": 33.8, "DIST_UP_KM": 22.0, "CATCH_SKM": 1.0700001, "UPLAND_SKM": 159.39999, "ENDORHEIC": 0, "DIS_AV_CMS": 2.7620001, "ORD_STRA": 3, "ORD_CLAS": 1, "ORD_FLOW": 6, "HYBAS_L12": 4121602050.0, "Shape_Length": 0.0058925565098825365 }, "geometry": { "type": "Polygon", "coordinates": [ ] } },
{ "type": "Feature", "properties": { "HYRIV_ID": 41406413, "NEXT_DOWN": 41406398, "MAIN_RIV": 41406532, "LENGTH_KM": 3.53, "DIST_DN_KM": 30.3, "DIST_UP_KM": 25.5, "CATCH_SKM": 9.5900002, "UPLAND_SKM": 182.5, "ENDORHEIC": 0, "DIS_AV_CMS": 3.0869999, "ORD_STRA": 3, "ORD_CLAS": 1, "ORD_FLOW": 6, "HYBAS_L12": 4121602110.0, "Shape_Length": 0.031903559372912747 }, "geometry": { "type": "Polygon", "coordinates": [ ] } },
{ "type": "Feature", "properties": { "HYRIV_ID": 41406440, "NEXT_DOWN": 41406410, "MAIN_RIV": 41406532, "LENGTH_KM": 0.98, "DIST_DN_KM": 38.700001, "DIST_UP_KM": 4.5, "CATCH_SKM": 6.8200002, "UPLAND_SKM": 6.8, "ENDORHEIC": 0, "DIS_AV_CMS": 0.118, "ORD_STRA": 1, "ORD_CLAS": 3, "ORD_FLOW": 7, "HYBAS_L12": 4121602050.0, "Shape_Length": 0.0088388347648740481 }, "geometry": { "type": "Polygon", "coordinates": [ ] } },
{ "type": "Feature", "properties": { "HYRIV_ID": 41406478, "NEXT_DOWN": 41406513, "MAIN_RIV": 41406532, "LENGTH_KM": 3.54, "DIST_DN_KM": 24.700001, "DIST_UP_KM": 31.1, "CATCH_SKM": 11.51, "UPLAND_SKM": 224.2, "ENDORHEIC": 0, "DIS_AV_CMS": 3.648, "ORD_STRA": 3, "ORD_CLAS": 1, "ORD_FLOW": 6, "HYBAS_L12": 4121602110.0, "Shape_Length": 0.031903559372802509 }, "geometry": { "type": "Polygon", "coordinates": [ ] } },
{ "type": "Feature", "properties": { "HYRIV_ID": 41406495, "NEXT_DOWN": 41406513, "MAIN_RIV": 41406532, "LENGTH_KM": 0.69, "DIST_DN_KM": 24.5, "DIST_UP_KM": 5.2, "CATCH_SKM": 6.8200002, "UPLAND_SKM": 6.8, "ENDORHEIC": 0, "DIS_AV_CMS": 0.111, "ORD_STRA": 1, "ORD_CLAS": 2, "ORD_FLOW": 7, "HYBAS_L12": 4121602110.0, "Shape_Length": 0.0062499999999801048 }, "geometry": { "type": "Polygon", "coordinates": [ ] } },
{ "type": "Feature", "properties": { "HYRIV_ID": 41406513, "NEXT_DOWN": 41406530, "MAIN_RIV": 41406532, "LENGTH_KM": 6.75, "DIST_DN_KM": 18.0, "DIST_UP_KM": 37.8, "CATCH_SKM": 26.219999, "UPLAND_SKM": 257.29999, "ENDORHEIC": 0, "DIS_AV_CMS": 3.9749999, "ORD_STRA": 3, "ORD_CLAS": 1, "ORD_FLOW": 6, "HYBAS_L12": 4121602110.0, "Shape_Length": 0.061070226039489438 }, "geometry": { "type": "Polygon", "coordinates": [ ] } },
{ "type": "Feature", "properties": { "HYRIV_ID": 41406514, "NEXT_DOWN": 41406532, "MAIN_RIV": 41406532, "LENGTH_KM": 14.33, "DIST_DN_KM": 8.5, "DIST_UP_KM": 17.9, "CATCH_SKM": 45.610001, "UPLAND_SKM": 45.599998, "ENDORHEIC": 0, "DIS_AV_CMS": 0.686, "ORD_STRA": 1, "ORD_CLAS": 2, "ORD_FLOW": 7, "HYBAS_L12": 4120049960.0, "Shape_Length": 0.12940145494197905 }, "geometry": { "type": "Polygon", "coordinates": [ ] } },
{ "type": "Feature", "properties": { "HYRIV_ID": 41406530, "NEXT_DOWN": 41406531, "MAIN_RIV": 41406532, "LENGTH_KM": 1.5700001, "DIST_DN_KM": 16.200001, "DIST_UP_KM": 39.599998, "CATCH_SKM": 3.2, "UPLAND_SKM": 350.20001, "ENDORHEIC": 0, "DIS_AV_CMS": 5.2930002, "ORD_STRA": 4, "ORD_CLAS": 1, "ORD_FLOW": 6, "HYBAS_L12": 4120049960.0, "Shape_Length": 0.014225889843265133 }, "geometry": { "type": "Polygon", "coordinates": [ ] } },
{ "type": "Feature", "properties": { "HYRIV_ID": 41406531, "NEXT_DOWN": 41406580, "MAIN_RIV": 41406532, "LENGTH_KM": 2.23, "DIST_DN_KM": 14.0, "DIST_UP_KM": 41.8, "CATCH_SKM": 7.25, "UPLAND_SKM": 368.60001, "ENDORHEIC": 0, "DIS_AV_CMS": 5.4829998, "ORD_STRA": 4, "ORD_CLAS": 1, "ORD_FLOW": 6, "HYBAS_L12": 4120049960.0, "Shape_Length": 0.020118446353090826 }, "geometry": { "type": "Polygon", "coordinates": [ ] } },
{ "type": "Feature", "properties": { "HYRIV_ID": 41406532, "NEXT_DOWN": 0, "MAIN_RIV": 41406532, "LENGTH_KM": 8.25, "DIST_DN_KM": 0.0, "DIST_UP_KM": 55.5, "CATCH_SKM": 31.120001, "UPLAND_SKM": 473.60001, "ENDORHEIC": 0, "DIS_AV_CMS": 6.4380002, "ORD_STRA": 4, "ORD_CLAS": 1, "ORD_FLOW": 6, "HYBAS_L12": 4120049960.0, "Shape_Length": 0.074581228902591001 }, "geometry": { "type": "Polygon", "coordinates": [ ] } },
{ "type": "Feature", "properties": { "HYRIV_ID": 41406558, "NEXT_DOWN": 41406410, "MAIN_RIV": 41406532, "LENGTH_KM": 8.83, "DIST_DN_KM": 38.5, "DIST_UP_KM": 12.5, "CATCH_SKM": 43.48, "UPLAND_SKM": 43.5, "ENDORHEIC": 0, "DIS_AV_CMS": 0.76700002, "ORD_STRA": 1, "ORD_CLAS": 2, "ORD_FLOW": 7, "HYBAS_L12": 4121602050.0, "Shape_Length": 0.079820226039615208 }, "geometry": { "type": "Polygon", "coordinates": [ ] } },
{ "type": "Feature", "properties": { "HYRIV_ID": 41406559, "NEXT_DOWN": 41406412, "MAIN_RIV": 41406532, "LENGTH_KM": 4.23, "DIST_DN_KM": 34.5, "DIST_UP_KM": 6.5, "CATCH_SKM": 16.41, "UPLAND_SKM": 16.4, "ENDORHEIC": 0, "DIS_AV_CMS": 0.274, "ORD_STRA": 1, "ORD_CLAS": 2, "ORD_FLOW": 7, "HYBAS_L12": 4121602050.0, "Shape_Length": 0.038153559372928879 }, "geometry": { "type": "Polygon", "coordinates": [ ] } },
{ "type": "Feature", "properties": { "HYRIV_ID": 41406578, "NEXT_DOWN": 41406530, "MAIN_RIV": 41406532, "LENGTH_KM": 5.1100001, "DIST_DN_KM": 17.8, "DIST_UP_KM": 19.3, "CATCH_SKM": 6.8200002, "UPLAND_SKM": 89.699997, "ENDORHEIC": 0, "DIS_AV_CMS": 1.3329999, "ORD_STRA": 3, "ORD_CLAS": 2, "ORD_FLOW": 6, "HYBAS_L12": 4121602110.0, "Shape_Length": 0.046129449216181326 }, "geometry": { "type": "Polygon", "coordinates": [ ] } },
{ "type": "Feature", "properties": { "HYRIV_ID": 41406579, "NEXT_DOWN": 41406531, "MAIN_RIV": 41406532, "LENGTH_KM": 1.81, "DIST_DN_KM": 16.200001, "DIST_UP_KM": 6.3, "CATCH_SKM": 11.09, "UPLAND_SKM": 11.1, "ENDORHEIC": 0, "DIS_AV_CMS": 0.168, "ORD_STRA": 1, "ORD_CLAS": 2, "ORD_FLOW": 7, "HYBAS_L12": 4120049960.0, "Shape_Length": 0.016309223176539728 }, "geometry": { "type": "Polygon", "coordinates": [ ] } },
{ "type": "Feature", "properties": { "HYRIV_ID": 41406580, "NEXT_DOWN": 41406532, "MAIN_RIV": 41406532, "LENGTH_KM": 5.4899998, "DIST_DN_KM": 8.7, "DIST_UP_KM": 47.099998, "CATCH_SKM": 16.41, "UPLAND_SKM": 397.10001, "ENDORHEIC": 0, "DIS_AV_CMS": 5.6989999, "ORD_STRA": 4, "ORD_CLAS": 1, "ORD_FLOW": 6, "HYBAS_L12": 4120049960.0, "Shape_Length": 0.049581228902560351 }, "geometry": { "type": "Polygon", "coordinates": [ ] } },
{ "type": "Feature", "properties": { "HYRIV_ID": 41406596, "NEXT_DOWN": 41406578, "MAIN_RIV": 41406532, "LENGTH_KM": 0.46, "DIST_DN_KM": 22.9, "DIST_UP_KM": 7.4, "CATCH_SKM": 0.21, "UPLAND_SKM": 27.5, "ENDORHEIC": 0, "DIS_AV_CMS": 0.41600001, "ORD_STRA": 2, "ORD_CLAS": 3, "ORD_FLOW": 7, "HYBAS_L12": 4121602110.0, "Shape_Length": 0.0041666666666628771 }, "geometry": { "type": "Polygon", "coordinates": [ ] } },
{ "type": "Feature", "properties": { "HYRIV_ID": 41406617, "NEXT_DOWN": 41406578, "MAIN_RIV": 41406532, "LENGTH_KM": 6.4899998, "DIST_DN_KM": 22.9, "DIST_UP_KM": 14.2, "CATCH_SKM": 22.379999, "UPLAND_SKM": 55.400002, "ENDORHEIC": 0, "DIS_AV_CMS": 0.85399997, "ORD_STRA": 2, "ORD_CLAS": 2, "ORD_FLOW": 7, "HYBAS_L12": 4121602110.0, "Shape_Length": 0.058629449215929386 }, "geometry": { "type": "Polygon", "coordinates": [ ] } },
{ "type": "Feature", "properties": { "HYRIV_ID": 41406618, "NEXT_DOWN": 41406580, "MAIN_RIV": 41406532, "LENGTH_KM": 2.27, "DIST_DN_KM": 14.0, "DIST_UP_KM": 7.2, "CATCH_SKM": 12.15, "UPLAND_SKM": 12.2, "ENDORHEIC": 0, "DIS_AV_CMS": 0.181, "ORD_STRA": 1, "ORD_CLAS": 2, "ORD_FLOW": 7, "HYBAS_L12": 4120049960.0, "Shape_Length": 0.020475889843216816 }, "geometry": { "type": "Polygon", "coordinates": [ ] } },
{ "type": "Feature", "properties": { "HYRIV_ID": 41406639, "NEXT_DOWN": 41406596, "MAIN_RIV": 41406532, "LENGTH_KM": 1.16, "DIST_DN_KM": 23.3, "DIST_UP_KM": 4.9, "CATCH_SKM": 9.1700001, "UPLAND_SKM": 9.2, "ENDORHEIC": 0, "DIS_AV_CMS": 0.139, "ORD_STRA": 1, "ORD_CLAS": 4, "ORD_FLOW": 7, "HYBAS_L12": 4121602110.0, "Shape_Length": 0.010416666666685614 }, "geometry": { "type": "Polygon", "coordinates": [ ] } },
{ "type": "Feature", "properties": { "HYRIV_ID": 41406725, "NEXT_DOWN": 41406617, "MAIN_RIV": 41406532, "LENGTH_KM": 3.11, "DIST_DN_KM": 29.6, "DIST_UP_KM": 6.7, "CATCH_SKM": 18.969999, "UPLAND_SKM": 19.0, "ENDORHEIC": 0, "DIS_AV_CMS": 0.30700001, "ORD_STRA": 1, "ORD_CLAS": 3, "ORD_FLOW": 7, "HYBAS_L12": 4121602110.0, "Shape_Length": 0.028094336196350881 }, "geometry": { "type": "Polygon", "coordinates": [ ] } },
{ "type": "Feature", "properties": { "HYRIV_ID": 41406756, "NEXT_DOWN": 41406596, "MAIN_RIV": 41406532, "LENGTH_KM": 3.85, "DIST_DN_KM": 23.5, "DIST_UP_KM": 6.8, "CATCH_SKM": 18.120001, "UPLAND_SKM": 18.1, "ENDORHEIC": 0, "DIS_AV_CMS": 0.27500001, "ORD_STRA": 1, "ORD_CLAS": 3, "ORD_FLOW": 7, "HYBAS_L12": 4121602110.0, "Shape_Length": 0.034701779686457691 }, "geometry": { "type": "Polygon", "coordinates": [ ] } },
{ "type": "Feature", "properties": { "HYRIV_ID": 41406782, "NEXT_DOWN": 41406617, "MAIN_RIV": 41406532, "LENGTH_KM": 4.23, "DIST_DN_KM": 29.6, "DIST_UP_KM": 7.5, "CATCH_SKM": 14.07, "UPLAND_SKM": 14.1, "ENDORHEIC": 0, "DIS_AV_CMS": 0.221, "ORD_STRA": 1, "ORD_CLAS": 2, "ORD_FLOW": 7, "HYBAS_L12": 4121602110.0, "Shape_Length": 0.038153559372901172 }, "geometry": { "type": "Polygon", "coordinates": [ ] } }
]
}
