{
"type": "FeatureCollection",
"name": "main_river_41402935",
"crs": { "type": "name", "properties": { "name": "urn:ogc:def:crs:OGC:1.3:CRS84" } },
"features": [
{ "type": "Feature", "properties": { "HYRIV_ID": 41402934, "NEXT_DOWN": 41402935, "MAIN_RIV": 41402935, "LENGTH_KM": 0.69, "DIST_DN_KM": 6.5, "DIST_UP_KM": 3.5, "CATCH_SKM": 5.1100001, "UPLAND_SKM": 5.1, "ENDORHEIC": 0, "DIS_AV_CMS": 0.12, "ORD_STRA": 1, "ORD_CLAS": 2, "ORD_FLOW": 7, "HYBAS_L12": 4120049780.0, "Shape_Length": 0.0062500000000227374 }, "geometry": { "type": "Polygon", "coordinates": [ ] } },
{ "type": "Feature", "properties": { "HYRIV_ID": 41402935, "NEXT_DOWN": 0, "MAIN_RIV": 41402935, "LENGTH_KM": 6.23, "DIST_DN_KM": 0.0, "DIST_UP_KM": 55.099998, "CATCH_SKM": 24.68, "UPLAND_SKM": 302.79999, "ENDORHEIC": 0, "DIS_AV_CMS": 6.776, "ORD_STRA": 3, "ORD_CLAS": 1, "ORD_FLOW": 6, "HYBAS_L12": 4120049780.0, "Shape_Length": 0.056188672392690708 }, "geometry": { "type": "Polygon", "coordinates": [ ] } },
{ "type": "Feature", "properties": { "HYRIV_ID": 41402967, "NEXT_DOWN": 41402935, "MAIN_RIV": 41402935, "LENGTH_KM": 0.93, "DIST_DN_KM": 6.5, "DIST_UP_KM": 48.900002, "CATCH_SKM": 2.98, "UPLAND_SKM": 274.29999, "ENDORHEIC": 0, "DIS_AV_CMS": 6.1890001, "ORD_STRA": 3, "ORD_CLAS": 1, "ORD_FLOW": 6, "HYBAS_L12": 4120049780.0, "Shape_Length": 0.0083333333333683868 }, "geometry": { "type": "Polygon", "coordinates": [ ] } },
{ "type": "Feature", "properties": { "HYRIV_ID": 41402968, "NEXT_DOWN": 41402967, "MAIN_RIV": 41402935, "LENGTH_KM": 0.69, "DIST_DN_KM": 7.4, "DIST_UP_KM": 3.5, "CATCH_SKM": 4.89, "UPLAND_SKM": 4.9, "ENDORHEIC": 0, "DIS_AV_CMS": 0.115, "ORD_STRA": 1, "ORD_CLAS": 2, "ORD_FLOW": 7, "HYBAS_L12": 4120049780.0, "Shape_Length": 0.0062499999999658939 }, "geometry": { "type": "Polygon", "coordinates": [ ] } },
{ "type": "Feature", "properties": { "HYRIV_ID": 41403172, "NEXT_DOWN": 41403173, "MAIN_RIV": 41402935, "LENGTH_KM": 1.4400001, "DIST_DN_KM": 15.8, "DIST_UP_KM": 5.0, "CATCH_SKM": 4.89, "UPLAND_SKM": 4.9, "ENDORHEIC": 0, "DIS_AV_CMS": 0.114, "ORD_STRA": 1, "ORD_CLAS": 3, "ORD_FLOW": 7, "HYBAS_L12": 4120049780.0, "Shape_Length": 0.013005501431482519 }, "geometry": { "type": "Polygon", "coordinates": [ ] } },
{ "type": "Feature", "properties": { "HYRIV_ID": 41403173, "NEXT_DOWN": 41402967, "MAIN_RIV": 41402935, "LENGTH_KM": 8.3800001, "DIST_DN_KM": 7.6, "DIST_UP_KM": 47.8, "CATCH_SKM": 33.830002, "UPLAND_SKM": 266.5, "ENDORHEIC": 0, "DIS_AV_CMS": 6.0180001, "ORD_STRA": 3, "ORD_CLAS": 1, "ORD_FLOW": 6, "HYBAS_L12": 4120049780.0, "Shape_Length": 0.07559223176552711 }, "geometry": { "type": "Polygon", "coordinates": [ ] } },
{ "type": "Feature", "properties": { "HYRIV_ID": 41403236, "NEXT_DOWN": 41403237, "MAIN_RIV": 41402935, "LENGTH_KM": 1.15, "DIST_DN_KM": 17.8, "DIST_UP_KM": 4.3, "CATCH_SKM": 5.5300002, "UPLAND_SKM": 5.5, "ENDORHEIC": 0, "DIS_AV_CMS": 0.129, "ORD_STRA": 1, "ORD_CLAS": 3, "ORD_FLOW": 7, "HYBAS_L12": 4120049780.0, "Shape_Length": 0.010416666666628771 }, "geometry": { "type": "Polygon", "coordinates": [ ] } },
{ "type": "Feature", "properties": { "HYRIV_ID": 41403237, "NEXT_DOWN": 41403173, "MAIN_RIV": 41402935, "LENGTH_KM": 2.04, "DIST_DN_KM": 16.0, "DIST_UP_KM": 7.0, "CATCH_SKM": 4.04, "UPLAND_SKM": 20.4, "ENDORHEIC": 0, "DIS_AV_CMS": 0.47600001, "ORD_STRA": 2, "ORD_CLAS": 2, "ORD_FLOW": 7, "HYBAS_L12": 4120049780.0, "Shape_Length": 0.018392556509887102 }, "geometry": { "type": "Polygon", "coordinates": [ ] } },
{ "type": "Feature", "properties": { "HYRIV_ID": 41403308, "NEXT_DOWN": 41403237, "MAIN_RIV": 41402935, "LENGTH_KM": 3.02, "DIST_DN_KM": 17.8, "DIST_UP_KM": 5.1, "CATCH_SKM": 10.85, "UPLAND_SKM": 10.9, "ENDORHEIC": 0, "DIS_AV_CMS": 0.25400001, "ORD_STRA": 1, "ORD_CLAS": 2, "ORD_FLOW": 7, "HYBAS_L12": 4120049780.0, "Shape_Length": 0.027231391274761152 }, "geometry": { "type": "Polygon", "coordinates": [ ] } },
{ "type": "Feature", "properties": { "HYRIV_ID": 41403328, "NEXT_DOWN": 41403329, "MAIN_RIV": 41402935, "LENGTH_KM": 1.15, "DIST_DN_KM": 22.6, "DIST_UP_KM": 4.0, "CATCH_SKM": 7.4499998, "UPLAND_SKM": 7.4, "ENDORHEIC": 0, "DIS_AV_CMS": 0.173, "ORD_STRA": 1, "ORD_CLAS": 2, "ORD_FLOW": 7, "HYBAS_L12": 4120049780.0, "Shape_Length": 0.010416666666628771 }, "geometry": { "type": "Polygon", "coordinates": [ ] } },
{ "type": "Feature", "properties": { "HYRIV_ID": 41403329, "NEXT_DOWN": 41403173, "MAIN_RIV": 41402935, "LENGTH_KM": 6.8800001, "DIST_DN_KM": 16.0, "DIST_UP_KM": 39.400002, "CATCH_SKM": 18.73, "UPLAND_SKM": 207.3, "ENDORHEIC": 0, "DIS_AV_CMS": 4.7270002, "ORD_STRA": 3, "ORD_CLAS": 1, "ORD_FLOW": 6, "HYBAS_L12": 4120049780.0, "Shape_Length": 0.062081228902613445 }, "geometry": { "type": "Polygon", "coordinates": [ ] } },
{ "type": "Feature", "properties": { "HYRIV_ID": 41403365, "NEXT_DOWN": 41403329, "MAIN_RIV": 41402935, "LENGTH_KM": 0.93, "DIST_DN_KM": 22.6, "DIST_UP_KM": 32.700001, "CATCH_SKM": 1.49, "UPLAND_SKM": 181.10001, "ENDORHEIC": 0, "DIS_AV_CMS": 4.1789999, "ORD_STRA": 3, "ORD_CLAS": 1, "ORD_FLOW": 6, "HYBAS_L12": 4120049780.0, "Shape_Length": 0.0083333333333115434 }, "geometry": { "type": "Polygon", "coordinates": [ ] } },
{ "type": "Feature", "properties": { "HYRIV_ID": 41403463, "NEXT_DOWN": 41403365, "MAIN_RIV": 41402935, "LENGTH_KM": 4.04, "DIST_DN_KM": 23.6, "DIST_UP_KM": 6.2, "CATCH_SKM": 17.450001, "UPLAND_SKM": 17.4, "ENDORHEIC": 0, "DIS_AV_CMS": 0.406, "ORD_STRA": 1, "ORD_CLAS": 2, "ORD_FLOW": 7, "HYBAS_L12": 4120049780.0, "Shape_Length": 0.036427669529698878 }, "geometry": { "type": "Polygon", "coordinates": [ ] } },
{ "type": "Feature", "properties": { "HYRIV_ID": 41403512, "NEXT_DOWN": 41403365, "MAIN_RIV": 41402935, "LENGTH_KM": 5.12, "DIST_DN_KM": 23.6, "DIST_UP_KM": 31.8, "CATCH_SKM": 17.450001, "UPLAND_SKM": 162.2, "ENDORHEIC": 0, "DIS_AV_CMS": 3.747, "ORD_STRA": 3, "ORD_CLAS": 1, "ORD_FLOW": 6, "HYBAS_L12": 4120049780.0, "Shape_Length": 0.046129449215989694 }, "geometry": { "type": "Polygon", "coordinates": [ ] } },
{ "type": "Feature", "properties": { "HYRIV_ID": 41403544, "NEXT_DOWN": 41403545, "MAIN_RIV": 41402935, "LENGTH_KM": 3.48, "DIST_DN_KM": 32.3, "DIST_UP_KM": 5.6, "CATCH_SKM": 10.85, "UPLAND_SKM": 10.9, "ENDORHEIC": 0, "DIS_AV_CMS": 0.252, "ORD_STRA": 1, "ORD_CLAS": 3, "ORD_FLOW": 7, "HYBAS_L12": 4121601540.0, "Shape_Length": 0.031398057941396315 }, "geometry": { "type": "Polygon", "coordinates": [ ] } },
{ "type": "Feature", "properties": { "HYRIV_ID": 41403545, "NEXT_DOWN": 41403512, "MAIN_RIV": 41402935, "LENGTH_KM": 3.6, "DIST_DN_KM": 28.700001, "DIST_UP_KM": 10.0, "CATCH_SKM": 8.9399996, "UPLAND_SKM": 31.3, "ENDORHEIC": 0, "DIS_AV_CMS": 0.727, "ORD_STRA": 2, "ORD_CLAS": 2, "ORD_FLOW": 7, "HYBAS_L12": 4121601540.0, "Shape_Length": 0.032618446353213246 }, "geometry": { "type": "Polygon", "coordinates": [ ] } },
{ "type": "Feature", "properties": { "HYRIV_ID": 41403585, "NEXT_DOWN": 41403545, "MAIN_RIV": 41402935, "LENGTH_KM": 2.74, "DIST_DN_KM": 32.3, "DIST_UP_KM": 6.4, "CATCH_SKM": 11.49, "UPLAND_SKM": 11.5, "ENDORHEIC": 0, "DIS_AV_CMS": 0.26800001, "ORD_STRA": 1, "ORD_CLAS": 2, "ORD_FLOW": 7, "HYBAS_L12": 4121601540.0, "Shape_Length": 0.024790614451291951 }, "geometry": { "type": "Polygon", "coordinates": [ ] } },
{ "type": "Feature", "properties": { "HYRIV_ID": 41403600, "NEXT_DOWN": 41403512, "MAIN_RIV": 41402935, "LENGTH_KM": 2.97, "DIST_DN_KM": 28.700001, "DIST_UP_KM": 26.700001, "CATCH_SKM": 5.75, "UPLAND_SKM": 113.5, "ENDORHEIC": 0, "DIS_AV_CMS": 2.645, "ORD_STRA": 2, "ORD_CLAS": 1, "ORD_FLOW": 6, "HYBAS_L12": 4121601540.0, "Shape_Length": 0.026725889843298122 }, "geometry": { "type": "Polygon", "coordinates": [ ] } },
{ "type": "Feature", "properties": { "HYRIV_ID": 41403614, "NEXT_DOWN": 41403600, "MAIN_RIV": 41402935, "LENGTH_KM": 0.69, "DIST_DN_KM": 31.700001, "DIST_UP_KM": 3.5, "CATCH_SKM": 7.6599998, "UPLAND_SKM": 7.7, "ENDORHEIC": 0, "DIS_AV_CMS": 0.17900001, "ORD_STRA": 1, "ORD_CLAS": 2, "ORD_FLOW": 7, "HYBAS_L12": 4121601540.0, "Shape_Length": 0.0062499999999801048 }, "geometry": { "type": "Polygon", "coordinates": [ ] } },
{ "type": "Feature", "properties": { "HYRIV_ID": 41403718, "NEXT_DOWN": 41403600, "MAIN_RIV": 41402935, "LENGTH_KM": 4.08, "DIST_DN_KM": 31.8, "DIST_UP_KM": 23.5, "CATCH_SKM": 15.32, "UPLAND_SKM": 100.0, "ENDORHEIC": 0, "DIS_AV_CMS": 2.3340001, "ORD_STRA": 2, "ORD_CLAS": 1, "ORD_FLOW": 6, "HYBAS_L12": 4121601540.0, "Shape_Length": 0.036785113019746497 }, "geometry": { "type": "Polygon", "coordinates": [ ] } },
{ "type": "Feature", "properties": { "HYRIV_ID": 41403738, "NEXT_DOWN": 41403718, "MAIN_RIV": 41402935, "LENGTH_KM": 1.63, "DIST_DN_KM": 35.900002, "DIST_UP_KM": 5.6, "CATCH_SKM": 6.6, "UPLAND_SKM": 6.6, "ENDORHEIC": 0, "DIS_AV_CMS": 0.154, "ORD_STRA": 1, "ORD_CLAS": 2, "ORD_FLOW": 7, "HYBAS_L12": 4121601540.0, "Shape_Length": 0.014731391274766633 }, "geometry": { "type": "Polygon", "coordinates": [ ] } },
{ "type": "Feature", "properties": { "HYRIV_ID": 41403791, "NEXT_DOWN": 41403792, "MAIN_RIV": 41402935, "LENGTH_KM": 2.9100001, "DIST_DN_KM": 38.400002, "DIST_UP_KM": 6.0, "CATCH_SKM": 13.2, "UPLAND_SKM": 13.2, "ENDORHEIC": 0, "DIS_AV_CMS": 0.308, "ORD_STRA": 1, "ORD_CLAS": 2, "ORD_FLOW": 7, "HYBAS_L12": 4121601540.0, "Shape_Length": 0.026368446353214052 }, "geometry": { "type": "Polygon", "coordinates": [ ] } },
{ "type": "Feature", "properties": { "HYRIV_ID": 41403792, "NEXT_DOWN": 41403718, "MAIN_RIV": 41402935, "LENGTH_KM": 2.4200001, "DIST_DN_KM": 35.700001, "DIST_UP_KM": 19.6, "CATCH_SKM": 8.0900002, "UPLAND_SKM": 78.099998, "ENDORHEIC": 0, "DIS_AV_CMS": 1.824, "ORD_STRA": 2, "ORD_CLAS": 1, "ORD_FLOW": 6, "HYBAS_L12": 4121601540.0, "Shape_Length": 0.021844336196330583 }, "geometry": { "type": "Polygon", "coordinates": [ ] } },
{ "type": "Feature", "properties": { "HYRIV_ID": 41403973, "NEXT_DOWN": 41403792, "MAIN_RIV": 41402935, "LENGTH_KM": 7.1599998, "DIST_DN_KM": 38.400002, "DIST_UP_KM": 17.0, "CATCH_SKM": 21.93, "UPLAND_SKM": 56.8, "ENDORHEIC": 0, "DIS_AV_CMS": 1.327, "ORD_STRA": 2, "ORD_CLAS": 1, "ORD_FLOW": 6, "HYBAS_L12": 4121601540.0, "Shape_Length": 0.064522005726016463 }, "geometry": { "type": "Polygon", "coordinates": [ ] } },
{ "type": "Feature", "properties": { "HYRIV_ID": 41403974, "NEXT_DOWN": 41403973, "MAIN_RIV": 41402935, "LENGTH_KM": 1.15, "DIST_DN_KM": 45.3, "DIST_UP_KM": 3.8, "CATCH_SKM": 6.1700001, "UPLAND_SKM": 6.2, "ENDORHEIC": 0, "DIS_AV_CMS": 0.144, "ORD_STRA": 1, "ORD_CLAS": 2, "ORD_FLOW": 7, "HYBAS_L12": 4121601540.0, "Shape_Length": 0.010416666666628771 }, "geometry": { "type": "Polygon", "coordinates": [ ] } },
{ "type": "Feature", "properties": { "HYRIV_ID": 41404070, "NEXT_DOWN": 41403973, "MAIN_RIV": 41402935, "LENGTH_KM": 3.54, "DIST_DN_KM": 45.5, "DIST_UP_KM": 9.8, "CATCH_SKM": 6.1700001, "UPLAND_SKM": 28.700001, "ENDORHEIC": 0, "DIS_AV_CMS": 0.672, "ORD_STRA": 2, "ORD_CLAS": 1, "ORD_FLOW": 7, "HYBAS_L12": 4121601540.0, "Shape_Length": 0.031903559372984808 }, "geometry": { "type": "Polygon", "coordinates": [ ] } },
{ "type": "Feature", "properties": { "HYRIV_ID": 41404071, "NEXT_DOWN": 41404070, "MAIN_RIV": 41402935, "LENGTH_KM": 3.83, "DIST_DN_KM": 49.0, "DIST_UP_KM": 6.3, "CATCH_SKM": 11.71, "UPLAND_SKM": 11.7, "ENDORHEIC": 0, "DIS_AV_CMS": 0.274, "ORD_STRA": 1, "ORD_CLAS": 1, "ORD_FLOW": 7, "HYBAS_L12": 4121601540.0, "Shape_Length": 0.034701779686382474 }, "geometry": { "type": "Polygon", "coordinates": [ ] } },
{ "type": "Feature", "properties": { "HYRIV_ID": 41404115, "NEXT_DOWN": 41404070, "MAIN_RIV": 41402935, "LENGTH_KM": 1.81, "DIST_DN_KM": 49.0, "DIST_UP_KM": 5.2, "CATCH_SKM": 10.86, "UPLAND_SKM": 10.9, "ENDORHEIC": 0, "DIS_AV_CMS": 0.25400001, "ORD_STRA": 1, "ORD_CLAS": 2, "ORD_FLOW": 7, "HYBAS_L12": 4121601540.0, "Shape_Length": 0.016309223176529681 }, "geometry": { "type": "Polygon", "coordinates": [ ] } }
]
}
