{
"type": "FeatureCollection",
"name": "main_river_41405393",
"crs": { "type": "name", "properties": { "name": "urn:ogc:def:crs:OGC:1.3:CRS84" } },
"features": [
{ "type": "Feature", "properties": { "HYRIV_ID": 41405287, "NEXT_DOWN": 41405393, "MAIN_RIV": 41405393, "LENGTH_KM": 4.96, "DIST_DN_KM": 5.0, "DIST_UP_KM": 7.8, "CATCH_SKM": 15.13, "UPLAND_SKM": 15.1, "ENDORHEIC": 0, "DIS_AV_CMS": 0.509, "ORD_STRA": 1, "ORD_CLAS": 1, "ORD_FLOW": 7, "HYBAS_L12": 4120049060.0, "Shape_Length": 0.044761002862936217 }, "geometry": { "type": "MultiLineString", "coordinates": [ [ [ 79.874999999999631, 7.072916666666551 ], [ 79.868749999999665, 7.072916666666551 ], [ 79.868749999999665, 7.060416666666534 ], [ 79.872916666666328, 7.056249999999885 ], [ 79.872916666666328, 7.052083333333222 ], [ 79.868749999999665, 7.047916666666559 ], [ 79.868749999999665, 7.043749999999896 ], [ 79.872916666666328, 7.039583333333248 ] ] ] } },
{ "type": "Feature", "properties": { "HYRIV_ID": 41405288, "NEXT_DOWN": 41405393, "MAIN_RIV": 41405393, "LENGTH_KM": 3.86, "DIST_DN_KM": 4.8, "DIST_UP_KM": 6.0, "CATCH_SKM": 9.8, "UPLAND_SKM": 9.8, "ENDORHEIC": 0, "DIS_AV_CMS": 0.334, "ORD_STRA": 1, "ORD_CLAS": 2, "ORD_FLOW": 7, "HYBAS_L12": 4120049060.0, "Shape_Length": 0.034849837627719517 }, "geometry": { "type": "MultiLineString", "coordinates": [ [ [ 79.895833333332945, 7.062499999999865 ], [ 79.881249999999596, 7.047916666666559 ], [ 79.877083333333047, 7.047916666666559 ], [ 79.872916666666328, 7.043749999999896 ], [ 79.872916666666328, 7.039583333333248 ] ] ] } },
{ "type": "Feature", "properties": { "HYRIV_ID": 41405393, "NEXT_DOWN": 0, "MAIN_RIV": 41405393, "LENGTH_KM": 4.54, "DIST_DN_KM": 0.0, "DIST_UP_KM": 12.5, "CATCH_SKM": 16.620001, "UPLAND_SKM": 41.099998, "ENDORHEIC": 0, "DIS_AV_CMS": 1.406, "ORD_STRA": 2, "ORD_CLAS": 1, "ORD_FLOW": 6, "HYBAS_L12": 4120049060.0, "Shape_Length": 0.040951779686529959 }, "geometry": { "type": "MultiLineString", "coordinates": [ [ [ 79.872916666666328, 7.039583333333248 ], [ 79.877083333333047, 7.035416666666542 ], [ 79.877083333333047, 7.010416666666551 ], [ 79.872916666666328, 7.006249999999888 ], [ 79.868749999999665, 7.006249999999888 ] ] ] } }
]
}
