{
"type": "FeatureCollection",
"name": "main_river_41410262",
"crs": { "type": "name", "properties": { "name": "urn:ogc:def:crs:OGC:1.3:CRS84" } },
"features": [
{ "type": "Feature", "properties": { "HYRIV_ID": 41410057, "NEXT_DOWN": 41410262, "MAIN_RIV": 41410262, "LENGTH_KM": 1.15, "DIST_DN_KM": 10.2, "DIST_UP_KM": 3.8, "CATCH_SKM": 5.98, "UPLAND_SKM": 6.0, "ENDORHEIC": 0, "DIS_AV_CMS": 0.215, "ORD_STRA": 1, "ORD_CLAS": 1, "ORD_FLOW": 7, "HYBAS_L12": 4120048900.0, "Shape_Length": 0.010416666666742458 }, "geometry": { "type": "MultiLineString", "coordinates": [ [ [ 80.674999999999642, 6.043749999999896 ], [ 80.685416666666384, 6.043749999999896 ] ] ] } },
{ "type": "Feature", "properties": { "HYRIV_ID": 41410087, "NEXT_DOWN": 41410262, "MAIN_RIV": 41410262, "LENGTH_KM": 0.98, "DIST_DN_KM": 10.4, "DIST_UP_KM": 2.4, "CATCH_SKM": 4.9099998, "UPLAND_SKM": 4.9, "ENDORHEIC": 0, "DIS_AV_CMS": 0.175, "ORD_STRA": 1, "ORD_CLAS": 2, "ORD_FLOW": 7, "HYBAS_L12": 4120048900.0, "Shape_Length": 0.0088388347648740481 }, "geometry": { "type": "MultiLineString", "coordinates": [ [ [ 80.679166666666305, 6.0375 ], [ 80.685416666666384, 6.043749999999896 ] ] ] } },
{ "type": "Feature", "properties": { "HYRIV_ID": 41410262, "NEXT_DOWN": 0, "MAIN_RIV": 41410262, "LENGTH_KM": 10.03, "DIST_DN_KM": 0.0, "DIST_UP_KM": 13.6, "CATCH_SKM": 26.040001, "UPLAND_SKM": 36.5, "ENDORHEIC": 0, "DIS_AV_CMS": 1.284, "ORD_STRA": 2, "ORD_CLAS": 1, "ORD_FLOW": 6, "HYBAS_L12": 4120048900.0, "Shape_Length": 0.090533008588882025 }, "geometry": { "type": "MultiLineString", "coordinates": [ [ [ 80.685416666666384, 6.043749999999896 ], [ 80.697916666666373, 6.043749999999896 ], [ 80.706249999999699, 6.035416666666585 ], [ 80.710416666666418, 6.035416666666585 ], [ 80.714583333333081, 6.03125 ], [ 80.718749999999631, 6.03125 ], [ 80.722916666666293, 6.027083333333259 ], [ 80.731249999999619, 6.027083333333259 ], [ 80.735416666666282, 6.022916666666568 ], [ 80.735416666666282, 6.01875 ], [ 80.739583333332945, 6.014583333333242 ], [ 80.743749999999608, 6.014583333333242 ], [ 80.756249999999596, 6.002083333333225 ] ] ] } }
]
}
