{
"type": "FeatureCollection",
"name": "main_river_41396974",
"crs": { "type": "name", "properties": { "name": "urn:ogc:def:crs:OGC:1.3:CRS84" } },
"features": [
{ "type": "Feature", "properties": { "HYRIV_ID": 41396974, "NEXT_DOWN": 0, "MAIN_RIV": 41396974, "LENGTH_KM": 6.0100002, "DIST_DN_KM": 0.0, "DIST_UP_KM": 39.700001, "CATCH_SKM": 11.66, "UPLAND_SKM": 237.10001, "ENDORHEIC": 0, "DIS_AV_CMS": 2.075, "ORD_STRA": 2, "ORD_CLAS": 1, "ORD_FLOW": 6, "HYBAS_L12": 4120049320.0, "Shape_Length": 0.054462782549480386 }, "geometry": { "type": "Polygon", "coordinates": [ ] } },
{ "type": "Feature", "properties": { "HYRIV_ID": 41397026, "NEXT_DOWN": 41396974, "MAIN_RIV": 41396974, "LENGTH_KM": 3.85, "DIST_DN_KM": 6.2, "DIST_UP_KM": 9.4, "CATCH_SKM": 16.75, "UPLAND_SKM": 16.8, "ENDORHEIC": 0, "DIS_AV_CMS": 0.15700001, "ORD_STRA": 1, "ORD_CLAS": 2, "ORD_FLOW": 7, "HYBAS_L12": 4120049320.0, "Shape_Length": 0.034849837627763877 }, "geometry": { "type": "Polygon", "coordinates": [ ] } },
{ "type": "Feature", "properties": { "HYRIV_ID": 41397153, "NEXT_DOWN": 41396974, "MAIN_RIV": 41396974, "LENGTH_KM": 3.71, "DIST_DN_KM": 6.2, "DIST_UP_KM": 33.700001, "CATCH_SKM": 16.75, "UPLAND_SKM": 208.89999, "ENDORHEIC": 0, "DIS_AV_CMS": 1.849, "ORD_STRA": 2, "ORD_CLAS": 1, "ORD_FLOW": 6, "HYBAS_L12": 4120049320.0, "Shape_Length": 0.03333333333335986 }, "geometry": { "type": "Polygon", "coordinates": [ ] } },
{ "type": "Feature", "properties": { "HYRIV_ID": 41397204, "NEXT_DOWN": 41397153, "MAIN_RIV": 41396974, "LENGTH_KM": 2.22, "DIST_DN_KM": 9.9, "DIST_UP_KM": 30.0, "CATCH_SKM": 5.0900002, "UPLAND_SKM": 123.4, "ENDORHEIC": 0, "DIS_AV_CMS": 1.091, "ORD_STRA": 2, "ORD_CLAS": 1, "ORD_FLOW": 6, "HYBAS_L12": 4120049320.0, "Shape_Length": 0.020118446353114078 }, "geometry": { "type": "Polygon", "coordinates": [ ] } },
{ "type": "Feature", "properties": { "HYRIV_ID": 41397333, "NEXT_DOWN": 41397204, "MAIN_RIV": 41396974, "LENGTH_KM": 3.3900001, "DIST_DN_KM": 12.2, "DIST_UP_KM": 8.6, "CATCH_SKM": 18.450001, "UPLAND_SKM": 18.5, "ENDORHEIC": 0, "DIS_AV_CMS": 0.171, "ORD_STRA": 1, "ORD_CLAS": 2, "ORD_FLOW": 7, "HYBAS_L12": 4120049320.0, "Shape_Length": 0.030683170961124242 }, "geometry": { "type": "Polygon", "coordinates": [ ] } },
{ "type": "Feature", "properties": { "HYRIV_ID": 41397618, "NEXT_DOWN": 41397153, "MAIN_RIV": 41396974, "LENGTH_KM": 11.37, "DIST_DN_KM": 10.1, "DIST_UP_KM": 18.8, "CATCH_SKM": 68.720001, "UPLAND_SKM": 68.699997, "ENDORHEIC": 0, "DIS_AV_CMS": 0.62800002, "ORD_STRA": 1, "ORD_CLAS": 2, "ORD_FLOW": 7, "HYBAS_L12": 4120049320.0, "Shape_Length": 0.10267556509861822 }, "geometry": { "type": "Polygon", "coordinates": [ ] } },
{ "type": "Feature", "properties": { "HYRIV_ID": 41397681, "NEXT_DOWN": 41397204, "MAIN_RIV": 41396974, "LENGTH_KM": 21.98, "DIST_DN_KM": 12.2, "DIST_UP_KM": 27.8, "CATCH_SKM": 99.889999, "UPLAND_SKM": 99.900002, "ENDORHEIC": 0, "DIS_AV_CMS": 0.88099998, "ORD_STRA": 1, "ORD_CLAS": 1, "ORD_FLOW": 7, "HYBAS_L12": 4120049320.0, "Shape_Length": 0.19895307225632852 }, "geometry": { "type": "Polygon", "coordinates": [ ] } }
]
}
