{
"type": "FeatureCollection",
"name": "main_river_41401046",
"crs": { "type": "name", "properties": { "name": "urn:ogc:def:crs:OGC:1.3:CRS84" } },
"features": [
{ "type": "Feature", "properties": { "HYRIV_ID": 41401029, "NEXT_DOWN": 41401046, "MAIN_RIV": 41401046, "LENGTH_KM": 7.6599998, "DIST_DN_KM": 2.7, "DIST_UP_KM": 10.5, "CATCH_SKM": 32.3, "UPLAND_SKM": 32.3, "ENDORHEIC": 0, "DIS_AV_CMS": 0.37200001, "ORD_STRA": 1, "ORD_CLAS": 2, "ORD_FLOW": 7, "HYBAS_L12": 4120049210.0, "Shape_Length": 0.069194173824144806 }, "geometry": { "type": "MultiLineString", "coordinates": [ [ [ 79.879166666666293, 8.208333333333208 ], [ 79.868749999999665, 8.197916666666522 ], [ 79.868749999999665, 8.193749999999859 ], [ 79.860416666666339, 8.185416666666548 ], [ 79.856249999999676, 8.189583333333211 ], [ 79.852083333333013, 8.189583333333211 ], [ 79.847916666666293, 8.185416666666548 ], [ 79.847916666666293, 8.168749999999868 ], [ 79.843749999999631, 8.164583333333219 ] ] ] } },
{ "type": "Feature", "properties": { "HYRIV_ID": 41401046, "NEXT_DOWN": 0, "MAIN_RIV": 41401046, "LENGTH_KM": 2.4100001, "DIST_DN_KM": 0.0, "DIST_UP_KM": 14.9, "CATCH_SKM": 4.25, "UPLAND_SKM": 76.699997, "ENDORHEIC": 0, "DIS_AV_CMS": 0.89200002, "ORD_STRA": 2, "ORD_CLAS": 1, "ORD_FLOW": 7, "HYBAS_L12": 4120049210.0, "Shape_Length": 0.021844336196290393 }, "geometry": { "type": "MultiLineString", "coordinates": [ [ [ 79.843749999999631, 8.164583333333219 ], [ 79.839583333332968, 8.164583333333219 ], [ 79.835416666666305, 8.168749999999868 ], [ 79.827083333332979, 8.160416666666556 ] ] ] } },
{ "type": "Feature", "properties": { "HYRIV_ID": 41401076, "NEXT_DOWN": 41401046, "MAIN_RIV": 41401046, "LENGTH_KM": 8.3100004, "DIST_DN_KM": 2.7, "DIST_UP_KM": 12.5, "CATCH_SKM": 40.369999, "UPLAND_SKM": 40.400002, "ENDORHEIC": 0, "DIS_AV_CMS": 0.48100001, "ORD_STRA": 1, "ORD_CLAS": 1, "ORD_FLOW": 7, "HYBAS_L12": 4120049210.0, "Shape_Length": 0.075086730334135141 }, "geometry": { "type": "MultiLineString", "coordinates": [ [ [ 79.891666666666339, 8.179166666666553 ], [ 79.885416666666373, 8.172916666666531 ], [ 79.885416666666373, 8.160416666666556 ], [ 79.881249999999596, 8.160416666666556 ], [ 79.868749999999665, 8.147916666666539 ], [ 79.864583333333002, 8.147916666666539 ], [ 79.852083333333013, 8.160416666666556 ], [ 79.847916666666293, 8.160416666666556 ], [ 79.843749999999631, 8.164583333333219 ] ] ] } }
]
}
