{
"type": "FeatureCollection",
"name": "main_river_41393896",
"crs": { "type": "name", "properties": { "name": "urn:ogc:def:crs:OGC:1.3:CRS84" } },
"features": [
{ "type": "Feature", "properties": { "HYRIV_ID": 41393896, "NEXT_DOWN": 0, "MAIN_RIV": 41393896, "LENGTH_KM": 3.4300001, "DIST_DN_KM": 0.0, "DIST_UP_KM": 36.3, "CATCH_SKM": 6.14, "UPLAND_SKM": 183.7, "ENDORHEIC": 0, "DIS_AV_CMS": 2.302, "ORD_STRA": 3, "ORD_CLAS": 1, "ORD_FLOW": 6, "HYBAS_L12": 4120049460.0, "Shape_Length": 0.030892556509997032 }, "geometry": { "type": "MultiLineString", "coordinates": [ [ [ 80.564583333333047, 9.418749999999839 ], [ 80.564583333333047, 9.431249999999856 ], [ 80.560416666666271, 9.435416666666519 ], [ 80.560416666666271, 9.447916666666536 ] ] ] } },
{ "type": "Feature", "properties": { "HYRIV_ID": 41393921, "NEXT_DOWN": 41393896, "MAIN_RIV": 41393896, "LENGTH_KM": 0.69, "DIST_DN_KM": 3.7, "DIST_UP_KM": 6.3, "CATCH_SKM": 9.1099997, "UPLAND_SKM": 9.1, "ENDORHEIC": 0, "DIS_AV_CMS": 0.12, "ORD_STRA": 1, "ORD_CLAS": 2, "ORD_FLOW": 7, "HYBAS_L12": 4120049460.0, "Shape_Length": 0.0062499999999801048 }, "geometry": { "type": "MultiLineString", "coordinates": [ [ [ 80.564583333333047, 9.412499999999859 ], [ 80.564583333333047, 9.418749999999839 ] ] ] } },
{ "type": "Feature", "properties": { "HYRIV_ID": 41393989, "NEXT_DOWN": 41393896, "MAIN_RIV": 41393896, "LENGTH_KM": 1.95, "DIST_DN_KM": 3.9, "DIST_UP_KM": 32.700001, "CATCH_SKM": 2.96, "UPLAND_SKM": 168.60001, "ENDORHEIC": 0, "DIS_AV_CMS": 2.125, "ORD_STRA": 3, "ORD_CLAS": 1, "ORD_FLOW": 6, "HYBAS_L12": 4120049460.0, "Shape_Length": 0.017677669529557172 }, "geometry": { "type": "MultiLineString", "coordinates": [ [ [ 80.577083333332922, 9.406249999999865 ], [ 80.564583333333047, 9.418749999999839 ] ] ] } },
{ "type": "Feature", "properties": { "HYRIV_ID": 41394230, "NEXT_DOWN": 41393989, "MAIN_RIV": 41393896, "LENGTH_KM": 4.08, "DIST_DN_KM": 5.6, "DIST_UP_KM": 22.3, "CATCH_SKM": 8.2600002, "UPLAND_SKM": 67.099998, "ENDORHEIC": 0, "DIS_AV_CMS": 0.852, "ORD_STRA": 2, "ORD_CLAS": 2, "ORD_FLOW": 7, "HYBAS_L12": 4120049460.0, "Shape_Length": 0.03678511301978913 }, "geometry": { "type": "MultiLineString", "coordinates": [ [ [ 80.568749999999596, 9.372916666666519 ], [ 80.577083333332922, 9.381249999999831 ], [ 80.577083333332922, 9.406249999999865 ] ] ] } },
{ "type": "Feature", "properties": { "HYRIV_ID": 41394267, "NEXT_DOWN": 41394230, "MAIN_RIV": 41393896, "LENGTH_KM": 1.43, "DIST_DN_KM": 9.7, "DIST_UP_KM": 7.0, "CATCH_SKM": 9.3199997, "UPLAND_SKM": 9.3, "ENDORHEIC": 0, "DIS_AV_CMS": 0.123, "ORD_STRA": 1, "ORD_CLAS": 3, "ORD_FLOW": 7, "HYBAS_L12": 4120049460.0, "Shape_Length": 0.013005501431580271 }, "geometry": { "type": "MultiLineString", "coordinates": [ [ [ 80.579166666666339, 9.366666666666525 ], [ 80.572916666666373, 9.372916666666519 ], [ 80.568749999999596, 9.372916666666519 ] ] ] } },
{ "type": "Feature", "properties": { "HYRIV_ID": 41394897, "NEXT_DOWN": 41394230, "MAIN_RIV": 41393896, "LENGTH_KM": 13.87, "DIST_DN_KM": 9.9, "DIST_UP_KM": 18.0, "CATCH_SKM": 49.57, "UPLAND_SKM": 49.599998, "ENDORHEIC": 0, "DIS_AV_CMS": 0.62800002, "ORD_STRA": 1, "ORD_CLAS": 2, "ORD_FLOW": 7, "HYBAS_L12": 4120049460.0, "Shape_Length": 0.1252347882754142 }, "geometry": { "type": "MultiLineString", "coordinates": [ [ [ 80.547916666666339, 9.274999999999871 ], [ 80.547916666666339, 9.281249999999865 ], [ 80.552083333333059, 9.285416666666528 ], [ 80.543749999999676, 9.293749999999839 ], [ 80.543749999999676, 9.306249999999856 ], [ 80.547916666666339, 9.310416666666519 ], [ 80.547916666666339, 9.314583333333168 ], [ 80.539583333333013, 9.322916666666536 ], [ 80.539583333333013, 9.343749999999865 ], [ 80.543749999999676, 9.347916666666528 ], [ 80.543749999999676, 9.356249999999839 ], [ 80.556249999999721, 9.368749999999856 ], [ 80.564583333333047, 9.368749999999856 ], [ 80.568749999999596, 9.372916666666519 ] ] ] } },
{ "type": "Feature", "properties": { "HYRIV_ID": 41394974, "NEXT_DOWN": 41393989, "MAIN_RIV": 41393896, "LENGTH_KM": 18.92, "DIST_DN_KM": 5.6, "DIST_UP_KM": 30.9, "CATCH_SKM": 53.8, "UPLAND_SKM": 98.5, "ENDORHEIC": 0, "DIS_AV_CMS": 1.242, "ORD_STRA": 2, "ORD_CLAS": 1, "ORD_FLOW": 6, "HYBAS_L12": 4120049460.0, "Shape_Length": 0.17071067811836441 }, "geometry": { "type": "MultiLineString", "coordinates": [ [ [ 80.585416666666305, 9.264583333333185 ], [ 80.585416666666305, 9.268749999999848 ], [ 80.581249999999756, 9.272916666666553 ], [ 80.581249999999756, 9.289583333333177 ], [ 80.585416666666305, 9.293749999999839 ], [ 80.585416666666305, 9.302083333333194 ], [ 80.581249999999756, 9.306249999999856 ], [ 80.589583333332968, 9.314583333333168 ], [ 80.589583333332968, 9.327083333333185 ], [ 80.593749999999631, 9.331249999999848 ], [ 80.593749999999631, 9.339583333333202 ], [ 80.597916666666293, 9.343749999999865 ], [ 80.597916666666293, 9.352083333333177 ], [ 80.602083333332956, 9.356249999999839 ], [ 80.602083333332956, 9.389583333333199 ], [ 80.585416666666305, 9.406249999999865 ], [ 80.577083333332922, 9.406249999999865 ] ] ] } },
{ "type": "Feature", "properties": { "HYRIV_ID": 41394975, "NEXT_DOWN": 41394974, "MAIN_RIV": 41393896, "LENGTH_KM": 1.14, "DIST_DN_KM": 24.5, "DIST_UP_KM": 5.4, "CATCH_SKM": 13.14, "UPLAND_SKM": 13.1, "ENDORHEIC": 0, "DIS_AV_CMS": 0.173, "ORD_STRA": 1, "ORD_CLAS": 2, "ORD_FLOW": 7, "HYBAS_L12": 4120049460.0, "Shape_Length": 0.010416666666685614 }, "geometry": { "type": "MultiLineString", "coordinates": [ [ [ 80.59583333333299, 9.264583333333185 ], [ 80.585416666666305, 9.264583333333185 ] ] ] } },
{ "type": "Feature", "properties": { "HYRIV_ID": 41395324, "NEXT_DOWN": 41394974, "MAIN_RIV": 41393896, "LENGTH_KM": 7.1100001, "DIST_DN_KM": 24.700001, "DIST_UP_KM": 11.8, "CATCH_SKM": 31.57, "UPLAND_SKM": 31.6, "ENDORHEIC": 0, "DIS_AV_CMS": 0.401, "ORD_STRA": 1, "ORD_CLAS": 1, "ORD_FLOW": 7, "HYBAS_L12": 4120049460.0, "Shape_Length": 0.064164562235815972 }, "geometry": { "type": "MultiLineString", "coordinates": [ [ [ 80.556249999999721, 9.212499999999871 ], [ 80.556249999999721, 9.222916666666514 ], [ 80.560416666666271, 9.227083333333177 ], [ 80.560416666666271, 9.235416666666531 ], [ 80.568749999999596, 9.243749999999856 ], [ 80.568749999999596, 9.247916666666548 ], [ 80.585416666666305, 9.264583333333185 ] ] ] } }
]
}
