{
"type": "FeatureCollection",
"name": "main_river_41410129",
"crs": { "type": "name", "properties": { "name": "urn:ogc:def:crs:OGC:1.3:CRS84" } },
"features": [
{ "type": "Feature", "properties": { "HYRIV_ID": 41410129, "NEXT_DOWN": 0, "MAIN_RIV": 41410129, "LENGTH_KM": 0.46, "DIST_DN_KM": 0.0, "DIST_UP_KM": 5.4, "CATCH_SKM": 1.0700001, "UPLAND_SKM": 15.4, "ENDORHEIC": 0, "DIS_AV_CMS": 0.686, "ORD_STRA": 2, "ORD_CLAS": 1, "ORD_FLOW": 7, "HYBAS_L12": 4120048940.0, "Shape_Length": 0.0041666666667197205 }, "geometry": { "type": "Polygon", "coordinates": [ ] } },
{ "type": "Feature", "properties": { "HYRIV_ID": 41410130, "NEXT_DOWN": 41410129, "MAIN_RIV": 41410129, "LENGTH_KM": 2.46, "DIST_DN_KM": 0.9, "DIST_UP_KM": 4.1, "CATCH_SKM": 7.6799998, "UPLAND_SKM": 7.7, "ENDORHEIC": 0, "DIS_AV_CMS": 0.343, "ORD_STRA": 1, "ORD_CLAS": 2, "ORD_FLOW": 7, "HYBAS_L12": 4120048940.0, "Shape_Length": 0.022201779686379632 }, "geometry": { "type": "Polygon", "coordinates": [ ] } },
{ "type": "Feature", "properties": { "HYRIV_ID": 41410163, "NEXT_DOWN": 41410129, "MAIN_RIV": 41410129, "LENGTH_KM": 2.9200001, "DIST_DN_KM": 0.7, "DIST_UP_KM": 4.9, "CATCH_SKM": 7.4699998, "UPLAND_SKM": 7.5, "ENDORHEIC": 0, "DIS_AV_CMS": 0.332, "ORD_STRA": 1, "ORD_CLAS": 1, "ORD_FLOW": 7, "HYBAS_L12": 4120048940.0, "Shape_Length": 0.026368446353247348 }, "geometry": { "type": "Polygon", "coordinates": [ ] } }
]
}
