{
"type": "FeatureCollection",
"name": "main_river_41406267",
"crs": { "type": "name", "properties": { "name": "urn:ogc:def:crs:OGC:1.3:CRS84" } },
"features": [
{ "type": "Feature", "properties": { "HYRIV_ID": 41405523, "NEXT_DOWN": 41405546, "MAIN_RIV": 41406267, "LENGTH_KM": 9.1400003, "DIST_DN_KM": 56.5, "DIST_UP_KM": 11.6, "CATCH_SKM": 28.549999, "UPLAND_SKM": 28.5, "ENDORHEIC": 0, "DIS_AV_CMS": 0.60399997, "ORD_STRA": 1, "ORD_CLAS": 2, "ORD_FLOW": 7, "HYBAS_L12": 4121601990.0, "Shape_Length": 0.082557118745764074 }, "geometry": { "type": "MultiLineString", "coordinates": [ [ [ 81.445833333332956, 7.031249999999879 ], [ 81.452083333332979, 7.031249999999879 ], [ 81.452083333332979, 7.027083333333231 ], [ 81.456249999999642, 7.022916666666568 ], [ 81.460416666666305, 7.022916666666568 ], [ 81.481249999999676, 7.002083333333239 ], [ 81.485416666666339, 7.002083333333239 ], [ 81.485416666666339, 6.989583333333222 ], [ 81.489583333333002, 6.985416666666559 ], [ 81.493749999999721, 6.985416666666559 ], [ 81.497916666666271, 6.981249999999896 ] ] ] } },
{ "type": "Feature", "properties": { "HYRIV_ID": 41405545, "NEXT_DOWN": 41405546, "MAIN_RIV": 41406267, "LENGTH_KM": 2.26, "DIST_DN_KM": 56.5, "DIST_UP_KM": 6.1, "CATCH_SKM": 11.72, "UPLAND_SKM": 11.7, "ENDORHEIC": 0, "DIS_AV_CMS": 0.242, "ORD_STRA": 1, "ORD_CLAS": 3, "ORD_FLOW": 7, "HYBAS_L12": 4121601990.0, "Shape_Length": 0.020475889843254276 }, "geometry": { "type": "MultiLineString", "coordinates": [ [ [ 81.479166666666259, 6.977083333333248 ], [ 81.493749999999721, 6.977083333333248 ], [ 81.497916666666271, 6.981249999999896 ] ] ] } },
{ "type": "Feature", "properties": { "HYRIV_ID": 41405546, "NEXT_DOWN": 41405776, "MAIN_RIV": 41406267, "LENGTH_KM": 0.65, "DIST_DN_KM": 55.8, "DIST_UP_KM": 12.3, "CATCH_SKM": 0.21, "UPLAND_SKM": 40.5, "ENDORHEIC": 0, "DIS_AV_CMS": 0.84899998, "ORD_STRA": 2, "ORD_CLAS": 2, "ORD_FLOW": 7, "HYBAS_L12": 4121601990.0, "Shape_Length": 0.0058925565098724882 }, "geometry": { "type": "MultiLineString", "coordinates": [ [ [ 81.497916666666271, 6.981249999999896 ], [ 81.502083333332934, 6.977083333333248 ] ] ] } },
{ "type": "Feature", "properties": { "HYRIV_ID": 41405547, "NEXT_DOWN": 41405776, "MAIN_RIV": 41406267, "LENGTH_KM": 2.74, "DIST_DN_KM": 55.8, "DIST_UP_KM": 6.5, "CATCH_SKM": 17.040001, "UPLAND_SKM": 17.0, "ENDORHEIC": 0, "DIS_AV_CMS": 0.347, "ORD_STRA": 1, "ORD_CLAS": 3, "ORD_FLOW": 7, "HYBAS_L12": 4121601990.0, "Shape_Length": 0.024642556509883857 }, "geometry": { "type": "MultiLineString", "coordinates": [ [ [ 81.506249999999596, 7.0 ], [ 81.506249999999596, 6.981249999999896 ], [ 81.502083333332934, 6.977083333333248 ] ] ] } },
{ "type": "Feature", "properties": { "HYRIV_ID": 41405586, "NEXT_DOWN": 41405625, "MAIN_RIV": 41406267, "LENGTH_KM": 2.26, "DIST_DN_KM": 69.0, "DIST_UP_KM": 6.0, "CATCH_SKM": 14.7, "UPLAND_SKM": 14.7, "ENDORHEIC": 0, "DIS_AV_CMS": 0.31600001, "ORD_STRA": 1, "ORD_CLAS": 2, "ORD_FLOW": 7, "HYBAS_L12": 4121601970.0, "Shape_Length": 0.020475889843157534 }, "geometry": { "type": "MultiLineString", "coordinates": [ [ [ 81.399999999999665, 6.972916666666542 ], [ 81.406249999999574, 6.972916666666542 ], [ 81.410416666666293, 6.968749999999879 ], [ 81.418749999999619, 6.968749999999879 ] ] ] } },
{ "type": "Feature", "properties": { "HYRIV_ID": 41405587, "NEXT_DOWN": 41405625, "MAIN_RIV": 41406267, "LENGTH_KM": 4.2199998, "DIST_DN_KM": 69.0, "DIST_UP_KM": 7.2, "CATCH_SKM": 13.42, "UPLAND_SKM": 13.4, "ENDORHEIC": 0, "DIS_AV_CMS": 0.288, "ORD_STRA": 1, "ORD_CLAS": 1, "ORD_FLOW": 7, "HYBAS_L12": 4121601970.0, "Shape_Length": 0.03800550143158108 }, "geometry": { "type": "MultiLineString", "coordinates": [ [ [ 81.424999999999699, 7.004166666666571 ], [ 81.418749999999619, 6.997916666666576 ], [ 81.418749999999619, 6.968749999999879 ] ] ] } },
{ "type": "Feature", "properties": { "HYRIV_ID": 41405625, "NEXT_DOWN": 41405673, "MAIN_RIV": 41406267, "LENGTH_KM": 2.23, "DIST_DN_KM": 66.699997, "DIST_UP_KM": 9.5, "CATCH_SKM": 3.62, "UPLAND_SKM": 31.700001, "ENDORHEIC": 0, "DIS_AV_CMS": 0.677, "ORD_STRA": 2, "ORD_CLAS": 1, "ORD_FLOW": 7, "HYBAS_L12": 4121601970.0, "Shape_Length": 0.020118446353080778 }, "geometry": { "type": "MultiLineString", "coordinates": [ [ [ 81.418749999999619, 6.968749999999879 ], [ 81.427083333332945, 6.960416666666568 ], [ 81.435416666666271, 6.960416666666568 ] ] ] } },
{ "type": "Feature", "properties": { "HYRIV_ID": 41405626, "NEXT_DOWN": 41405673, "MAIN_RIV": 41406267, "LENGTH_KM": 2.74, "DIST_DN_KM": 66.900002, "DIST_UP_KM": 5.7, "CATCH_SKM": 12.14, "UPLAND_SKM": 12.1, "ENDORHEIC": 0, "DIS_AV_CMS": 0.257, "ORD_STRA": 1, "ORD_CLAS": 2, "ORD_FLOW": 7, "HYBAS_L12": 4121601970.0, "Shape_Length": 0.024642556509919887 }, "geometry": { "type": "MultiLineString", "coordinates": [ [ [ 81.43958333333299, 6.983333333333228 ], [ 81.43958333333299, 6.964583333333231 ], [ 81.435416666666271, 6.960416666666568 ] ] ] } },
{ "type": "Feature", "properties": { "HYRIV_ID": 41405672, "NEXT_DOWN": 41405816, "MAIN_RIV": 41406267, "LENGTH_KM": 1.15, "DIST_DN_KM": 65.400002, "DIST_UP_KM": 3.8, "CATCH_SKM": 7.6700001, "UPLAND_SKM": 7.7, "ENDORHEIC": 0, "DIS_AV_CMS": 0.162, "ORD_STRA": 1, "ORD_CLAS": 2, "ORD_FLOW": 7, "HYBAS_L12": 4121601970.0, "Shape_Length": 0.010416666666571928 }, "geometry": { "type": "MultiLineString", "coordinates": [ [ [ 81.424999999999699, 6.947916666666593 ], [ 81.435416666666271, 6.947916666666593 ] ] ] } },
{ "type": "Feature", "properties": { "HYRIV_ID": 41405673, "NEXT_DOWN": 41405816, "MAIN_RIV": 41406267, "LENGTH_KM": 1.39, "DIST_DN_KM": 65.400002, "DIST_UP_KM": 10.9, "CATCH_SKM": 1.92, "UPLAND_SKM": 45.8, "ENDORHEIC": 0, "DIS_AV_CMS": 0.97100002, "ORD_STRA": 2, "ORD_CLAS": 1, "ORD_FLOW": 7, "HYBAS_L12": 4121601970.0, "Shape_Length": 0.01249999999997442 }, "geometry": { "type": "MultiLineString", "coordinates": [ [ [ 81.435416666666271, 6.960416666666568 ], [ 81.435416666666271, 6.947916666666593 ] ] ] } },
{ "type": "Feature", "properties": { "HYRIV_ID": 41405716, "NEXT_DOWN": 41405797, "MAIN_RIV": 41406267, "LENGTH_KM": 0.69, "DIST_DN_KM": 54.700001, "DIST_UP_KM": 3.3, "CATCH_SKM": 7.25, "UPLAND_SKM": 7.2, "ENDORHEIC": 0, "DIS_AV_CMS": 0.148, "ORD_STRA": 1, "ORD_CLAS": 2, "ORD_FLOW": 7, "HYBAS_L12": 4121601990.0, "Shape_Length": 0.0062500000000795808 }, "geometry": { "type": "MultiLineString", "coordinates": [ [ [ 81.474999999999596, 6.939583333333225 ], [ 81.481249999999676, 6.939583333333225 ] ] ] } },
{ "type": "Feature", "properties": { "HYRIV_ID": 41405775, "NEXT_DOWN": 41405797, "MAIN_RIV": 41406267, "LENGTH_KM": 1.77, "DIST_DN_KM": 54.900002, "DIST_UP_KM": 21.4, "CATCH_SKM": 1.92, "UPLAND_SKM": 160.2, "ENDORHEIC": 0, "DIS_AV_CMS": 3.2520001, "ORD_STRA": 3, "ORD_CLAS": 1, "ORD_FLOW": 6, "HYBAS_L12": 4121601990.0, "Shape_Length": 0.015951779686460534 }, "geometry": { "type": "MultiLineString", "coordinates": [ [ [ 81.47291666666635, 6.927083333333208 ], [ 81.477083333333013, 6.931249999999871 ], [ 81.477083333333013, 6.935416666666576 ], [ 81.481249999999676, 6.939583333333225 ] ] ] } },
{ "type": "Feature", "properties": { "HYRIV_ID": 41405776, "NEXT_DOWN": 41405798, "MAIN_RIV": 41406267, "LENGTH_KM": 6.3200002, "DIST_DN_KM": 49.3, "DIST_UP_KM": 18.8, "CATCH_SKM": 21.73, "UPLAND_SKM": 79.300003, "ENDORHEIC": 0, "DIS_AV_CMS": 1.569, "ORD_STRA": 2, "ORD_CLAS": 2, "ORD_FLOW": 6, "HYBAS_L12": 4121601990.0, "Shape_Length": 0.056903559373030682 }, "geometry": { "type": "MultiLineString", "coordinates": [ [ [ 81.502083333332934, 6.977083333333248 ], [ 81.510416666666259, 6.968749999999879 ], [ 81.510416666666259, 6.964583333333231 ], [ 81.514583333332922, 6.960416666666568 ], [ 81.514583333332922, 6.939583333333225 ], [ 81.518749999999756, 6.935416666666576 ], [ 81.518749999999756, 6.927083333333208 ] ] ] } },
{ "type": "Feature", "properties": { "HYRIV_ID": 41405797, "NEXT_DOWN": 41405798, "MAIN_RIV": 41406267, "LENGTH_KM": 5.37, "DIST_DN_KM": 49.3, "DIST_UP_KM": 26.9, "CATCH_SKM": 19.610001, "UPLAND_SKM": 187.10001, "ENDORHEIC": 0, "DIS_AV_CMS": 3.7049999, "ORD_STRA": 3, "ORD_CLAS": 1, "ORD_FLOW": 6, "HYBAS_L12": 4121601990.0, "Shape_Length": 0.048570226039637746 }, "geometry": { "type": "MultiLineString", "coordinates": [ [ [ 81.481249999999676, 6.939583333333225 ], [ 81.489583333333002, 6.931249999999871 ], [ 81.489583333333002, 6.927083333333208 ], [ 81.493749999999721, 6.922916666666559 ], [ 81.497916666666271, 6.927083333333208 ], [ 81.518749999999756, 6.927083333333208 ] ] ] } },
{ "type": "Feature", "properties": { "HYRIV_ID": 41405798, "NEXT_DOWN": 41405888, "MAIN_RIV": 41406267, "LENGTH_KM": 2.4200001, "DIST_DN_KM": 47.099998, "DIST_UP_KM": 29.1, "CATCH_SKM": 5.75, "UPLAND_SKM": 272.10001, "ENDORHEIC": 0, "DIS_AV_CMS": 5.3070002, "ORD_STRA": 3, "ORD_CLAS": 1, "ORD_FLOW": 6, "HYBAS_L12": 4121601990.0, "Shape_Length": 0.021844336196236699 }, "geometry": { "type": "MultiLineString", "coordinates": [ [ [ 81.518749999999756, 6.927083333333208 ], [ 81.522916666666248, 6.931249999999871 ], [ 81.527083333332968, 6.931249999999871 ], [ 81.535416666666293, 6.922916666666559 ] ] ] } },
{ "type": "Feature", "properties": { "HYRIV_ID": 41405799, "NEXT_DOWN": 41405888, "MAIN_RIV": 41406267, "LENGTH_KM": 1.4400001, "DIST_DN_KM": 46.900002, "DIST_UP_KM": 4.9, "CATCH_SKM": 7.6700001, "UPLAND_SKM": 7.7, "ENDORHEIC": 0, "DIS_AV_CMS": 0.148, "ORD_STRA": 1, "ORD_CLAS": 2, "ORD_FLOW": 7, "HYBAS_L12": 4121601990.0, "Shape_Length": 0.013005501431492568 }, "geometry": { "type": "MultiLineString", "coordinates": [ [ [ 81.541666666666316, 6.933333333333202 ], [ 81.535416666666293, 6.927083333333208 ], [ 81.535416666666293, 6.922916666666559 ] ] ] } },
{ "type": "Feature", "properties": { "HYRIV_ID": 41405816, "NEXT_DOWN": 41405817, "MAIN_RIV": 41406267, "LENGTH_KM": 5.1900001, "DIST_DN_KM": 60.200001, "DIST_UP_KM": 16.0, "CATCH_SKM": 14.49, "UPLAND_SKM": 68.0, "ENDORHEIC": 0, "DIS_AV_CMS": 1.415, "ORD_STRA": 2, "ORD_CLAS": 1, "ORD_FLOW": 6, "HYBAS_L12": 4121601970.0, "Shape_Length": 0.046844336196456851 }, "geometry": { "type": "MultiLineString", "coordinates": [ [ [ 81.435416666666271, 6.947916666666593 ], [ 81.43958333333299, 6.943749999999888 ], [ 81.43958333333299, 6.927083333333208 ], [ 81.435416666666271, 6.922916666666559 ], [ 81.43958333333299, 6.918749999999896 ], [ 81.452083333332979, 6.918749999999896 ] ] ] } },
{ "type": "Feature", "properties": { "HYRIV_ID": 41405817, "NEXT_DOWN": 41405775, "MAIN_RIV": 41406267, "LENGTH_KM": 3.73, "DIST_DN_KM": 56.400002, "DIST_UP_KM": 19.8, "CATCH_SKM": 7.8800001, "UPLAND_SKM": 134.0, "ENDORHEIC": 0, "DIS_AV_CMS": 2.747, "ORD_STRA": 3, "ORD_CLAS": 1, "ORD_FLOW": 6, "HYBAS_L12": 4121601970.0, "Shape_Length": 0.033629449216165994 }, "geometry": { "type": "MultiLineString", "coordinates": [ [ [ 81.452083333332979, 6.918749999999896 ], [ 81.468749999999687, 6.935416666666576 ], [ 81.47291666666635, 6.931249999999871 ], [ 81.47291666666635, 6.927083333333208 ] ] ] } },
{ "type": "Feature", "properties": { "HYRIV_ID": 41405864, "NEXT_DOWN": 41405920, "MAIN_RIV": 41406267, "LENGTH_KM": 2.09, "DIST_DN_KM": 68.800003, "DIST_UP_KM": 4.2, "CATCH_SKM": 7.25, "UPLAND_SKM": 7.2, "ENDORHEIC": 0, "DIS_AV_CMS": 0.154, "ORD_STRA": 1, "ORD_CLAS": 3, "ORD_FLOW": 7, "HYBAS_L12": 4121601970.0, "Shape_Length": 0.018898057941355722 }, "geometry": { "type": "MultiLineString", "coordinates": [ [ [ 81.387499999999676, 6.920833333333228 ], [ 81.397916666666248, 6.910416666666585 ], [ 81.402083333332968, 6.910416666666585 ] ] ] } },
{ "type": "Feature", "properties": { "HYRIV_ID": 41405865, "NEXT_DOWN": 41405920, "MAIN_RIV": 41406267, "LENGTH_KM": 2.37, "DIST_DN_KM": 68.800003, "DIST_UP_KM": 4.9, "CATCH_SKM": 8.5200005, "UPLAND_SKM": 8.5, "ENDORHEIC": 0, "DIS_AV_CMS": 0.181, "ORD_STRA": 1, "ORD_CLAS": 2, "ORD_FLOW": 7, "HYBAS_L12": 4121601970.0, "Shape_Length": 0.02133883476476808 }, "geometry": { "type": "MultiLineString", "coordinates": [ [ [ 81.395833333333002, 6.929166666666539 ], [ 81.402083333332968, 6.922916666666559 ], [ 81.402083333332968, 6.910416666666585 ] ] ] } },
{ "type": "Feature", "properties": { "HYRIV_ID": 41405888, "NEXT_DOWN": 41406061, "MAIN_RIV": 41406267, "LENGTH_KM": 2.8800001, "DIST_DN_KM": 44.200001, "DIST_UP_KM": 32.0, "CATCH_SKM": 12.36, "UPLAND_SKM": 292.10001, "ENDORHEIC": 0, "DIS_AV_CMS": 5.585, "ORD_STRA": 3, "ORD_CLAS": 1, "ORD_FLOW": 6, "HYBAS_L12": 4121601990.0, "Shape_Length": 0.026011002863001783 }, "geometry": { "type": "MultiLineString", "coordinates": [ [ [ 81.535416666666293, 6.922916666666559 ], [ 81.543749999999619, 6.914583333333233 ], [ 81.543749999999619, 6.906249999999879 ], [ 81.547916666666282, 6.902083333333216 ] ] ] } },
{ "type": "Feature", "properties": { "HYRIV_ID": 41405898, "NEXT_DOWN": 41405817, "MAIN_RIV": 41406267, "LENGTH_KM": 3.54, "DIST_DN_KM": 60.200001, "DIST_UP_KM": 13.6, "CATCH_SKM": 8.7399998, "UPLAND_SKM": 58.200001, "ENDORHEIC": 0, "DIS_AV_CMS": 1.193, "ORD_STRA": 2, "ORD_CLAS": 2, "ORD_FLOW": 6, "HYBAS_L12": 4121601970.0, "Shape_Length": 0.031903559372906148 }, "geometry": { "type": "MultiLineString", "coordinates": [ [ [ 81.431249999999608, 6.897916666666568 ], [ 81.443749999999653, 6.910416666666585 ], [ 81.447916666666316, 6.910416666666585 ], [ 81.452083333332979, 6.914583333333233 ], [ 81.452083333332979, 6.918749999999896 ] ] ] } },
{ "type": "Feature", "properties": { "HYRIV_ID": 41405899, "NEXT_DOWN": 41406061, "MAIN_RIV": 41406267, "LENGTH_KM": 3.01, "DIST_DN_KM": 44.0, "DIST_UP_KM": 5.8, "CATCH_SKM": 8.9499998, "UPLAND_SKM": 8.9, "ENDORHEIC": 0, "DIS_AV_CMS": 0.169, "ORD_STRA": 1, "ORD_CLAS": 2, "ORD_FLOW": 7, "HYBAS_L12": 4121601990.0, "Shape_Length": 0.027231391274671429 }, "geometry": { "type": "MultiLineString", "coordinates": [ [ [ 81.524999999999665, 6.904166666666548 ], [ 81.531249999999574, 6.897916666666568 ], [ 81.539583333332956, 6.897916666666568 ], [ 81.543749999999619, 6.902083333333216 ], [ 81.547916666666282, 6.902083333333216 ] ] ] } },
{ "type": "Feature", "properties": { "HYRIV_ID": 41405920, "NEXT_DOWN": 41405898, "MAIN_RIV": 41406267, "LENGTH_KM": 5.1100001, "DIST_DN_KM": 63.900002, "DIST_UP_KM": 9.8, "CATCH_SKM": 16.84, "UPLAND_SKM": 32.599998, "ENDORHEIC": 0, "DIS_AV_CMS": 0.68, "ORD_STRA": 2, "ORD_CLAS": 2, "ORD_FLOW": 7, "HYBAS_L12": 4121601970.0, "Shape_Length": 0.046129449216076673 }, "geometry": { "type": "MultiLineString", "coordinates": [ [ [ 81.402083333332968, 6.910416666666585 ], [ 81.402083333332968, 6.902083333333216 ], [ 81.410416666666293, 6.89375 ], [ 81.414583333332956, 6.89375 ], [ 81.422916666666282, 6.902083333333216 ], [ 81.427083333332945, 6.902083333333216 ], [ 81.431249999999608, 6.897916666666568 ] ] ] } },
{ "type": "Feature", "properties": { "HYRIV_ID": 41405956, "NEXT_DOWN": 41406137, "MAIN_RIV": 41406267, "LENGTH_KM": 7.21, "DIST_DN_KM": 28.200001, "DIST_UP_KM": 10.7, "CATCH_SKM": 22.59, "UPLAND_SKM": 22.6, "ENDORHEIC": 0, "DIS_AV_CMS": 0.403, "ORD_STRA": 1, "ORD_CLAS": 2, "ORD_FLOW": 7, "HYBAS_L12": 4121602000.0, "Shape_Length": 0.065027507157459391 }, "geometry": { "type": "MultiLineString", "coordinates": [ [ [ 81.595833333332934, 6.920833333333228 ], [ 81.606249999999676, 6.910416666666585 ], [ 81.610416666666339, 6.914583333333233 ], [ 81.614583333333002, 6.910416666666585 ], [ 81.618749999999665, 6.910416666666585 ], [ 81.622916666666384, 6.906249999999879 ], [ 81.622916666666384, 6.89375 ], [ 81.631249999999596, 6.885416666666551 ], [ 81.635416666666259, 6.885416666666551 ] ] ] } },
{ "type": "Feature", "properties": { "HYRIV_ID": 41406001, "NEXT_DOWN": 41405775, "MAIN_RIV": 41406267, "LENGTH_KM": 7.3, "DIST_DN_KM": 56.400002, "DIST_UP_KM": 10.5, "CATCH_SKM": 24.3, "UPLAND_SKM": 24.3, "ENDORHEIC": 0, "DIS_AV_CMS": 0.48, "ORD_STRA": 1, "ORD_CLAS": 2, "ORD_FLOW": 7, "HYBAS_L12": 4121601970.0, "Shape_Length": 0.065742394137743951 }, "geometry": { "type": "MultiLineString", "coordinates": [ [ [ 81.449999999999619, 6.870833333333245 ], [ 81.456249999999642, 6.877083333333225 ], [ 81.456249999999642, 6.881249999999888 ], [ 81.460416666666305, 6.885416666666551 ], [ 81.460416666666305, 6.889583333333242 ], [ 81.464583333332968, 6.89375 ], [ 81.464583333332968, 6.897916666666568 ], [ 81.468749999999687, 6.902083333333216 ], [ 81.468749999999687, 6.910416666666585 ], [ 81.47291666666635, 6.914583333333233 ], [ 81.47291666666635, 6.927083333333208 ] ] ] } },
{ "type": "Feature", "properties": { "HYRIV_ID": 41406020, "NEXT_DOWN": 41405898, "MAIN_RIV": 41406267, "LENGTH_KM": 4.23, "DIST_DN_KM": 63.700001, "DIST_UP_KM": 7.2, "CATCH_SKM": 16.84, "UPLAND_SKM": 16.8, "ENDORHEIC": 0, "DIS_AV_CMS": 0.343, "ORD_STRA": 1, "ORD_CLAS": 3, "ORD_FLOW": 7, "HYBAS_L12": 4121601970.0, "Shape_Length": 0.038153559372898736 }, "geometry": { "type": "MultiLineString", "coordinates": [ [ [ 81.414583333332956, 6.866666666666539 ], [ 81.414583333332956, 6.877083333333225 ], [ 81.431249999999608, 6.89375 ], [ 81.431249999999608, 6.897916666666568 ] ] ] } },
{ "type": "Feature", "properties": { "HYRIV_ID": 41406021, "NEXT_DOWN": 41406022, "MAIN_RIV": 41406267, "LENGTH_KM": 1.4400001, "DIST_DN_KM": 33.3, "DIST_UP_KM": 4.9, "CATCH_SKM": 7.46, "UPLAND_SKM": 7.5, "ENDORHEIC": 0, "DIS_AV_CMS": 0.133, "ORD_STRA": 1, "ORD_CLAS": 2, "ORD_FLOW": 7, "HYBAS_L12": 4121602000.0, "Shape_Length": 0.013005501431567071 }, "geometry": { "type": "MultiLineString", "coordinates": [ [ [ 81.599999999999596, 6.874999999999893 ], [ 81.606249999999676, 6.868749999999871 ], [ 81.610416666666339, 6.868749999999871 ] ] ] } },
{ "type": "Feature", "properties": { "HYRIV_ID": 41406022, "NEXT_DOWN": 41406137, "MAIN_RIV": 41406267, "LENGTH_KM": 5.1100001, "DIST_DN_KM": 28.4, "DIST_UP_KM": 47.8, "CATCH_SKM": 21.1, "UPLAND_SKM": 432.60001, "ENDORHEIC": 0, "DIS_AV_CMS": 7.3579998, "ORD_STRA": 3, "ORD_CLAS": 1, "ORD_FLOW": 6, "HYBAS_L12": 4121602000.0, "Shape_Length": 0.046129449216066931 }, "geometry": { "type": "MultiLineString", "coordinates": [ [ [ 81.610416666666339, 6.868749999999871 ], [ 81.618749999999665, 6.868749999999871 ], [ 81.622916666666384, 6.872916666666576 ], [ 81.627083333333047, 6.868749999999871 ], [ 81.631249999999596, 6.868749999999871 ], [ 81.635416666666259, 6.872916666666576 ], [ 81.635416666666259, 6.877083333333225 ], [ 81.639583333332922, 6.881249999999888 ], [ 81.635416666666259, 6.885416666666551 ] ] ] } },
{ "type": "Feature", "properties": { "HYRIV_ID": 41406057, "NEXT_DOWN": 41406059, "MAIN_RIV": 41406267, "LENGTH_KM": 1.61, "DIST_DN_KM": 45.0, "DIST_UP_KM": 5.2, "CATCH_SKM": 14.07, "UPLAND_SKM": 14.1, "ENDORHEIC": 0, "DIS_AV_CMS": 0.267, "ORD_STRA": 1, "ORD_CLAS": 3, "ORD_FLOW": 7, "HYBAS_L12": 4121602000.0, "Shape_Length": 0.014583333333291648 }, "geometry": { "type": "MultiLineString", "coordinates": [ [ [ 81.499999999999631, 6.860416666666559 ], [ 81.514583333332922, 6.860416666666559 ] ] ] } },
{ "type": "Feature", "properties": { "HYRIV_ID": 41406058, "NEXT_DOWN": 41406059, "MAIN_RIV": 41406267, "LENGTH_KM": 2.46, "DIST_DN_KM": 45.200001, "DIST_UP_KM": 5.4, "CATCH_SKM": 10.44, "UPLAND_SKM": 10.4, "ENDORHEIC": 0, "DIS_AV_CMS": 0.2, "ORD_STRA": 1, "ORD_CLAS": 2, "ORD_FLOW": 7, "HYBAS_L12": 4121602000.0, "Shape_Length": 0.022201779686428152 }, "geometry": { "type": "MultiLineString", "coordinates": [ [ [ 81.506249999999596, 6.879166666666556 ], [ 81.506249999999596, 6.872916666666576 ], [ 81.510416666666259, 6.868749999999871 ], [ 81.510416666666259, 6.864583333333208 ], [ 81.514583333332922, 6.860416666666559 ] ] ] } },
{ "type": "Feature", "properties": { "HYRIV_ID": 41406059, "NEXT_DOWN": 41406060, "MAIN_RIV": 41406267, "LENGTH_KM": 4.9099998, "DIST_DN_KM": 40.3, "DIST_UP_KM": 10.3, "CATCH_SKM": 17.48, "UPLAND_SKM": 42.0, "ENDORHEIC": 0, "DIS_AV_CMS": 0.774, "ORD_STRA": 2, "ORD_CLAS": 2, "ORD_FLOW": 7, "HYBAS_L12": 4121602000.0, "Shape_Length": 0.044403559372827875 }, "geometry": { "type": "MultiLineString", "coordinates": [ [ [ 81.514583333332922, 6.860416666666559 ], [ 81.522916666666248, 6.860416666666559 ], [ 81.527083333332968, 6.864583333333208 ], [ 81.531249999999574, 6.864583333333208 ], [ 81.535416666666293, 6.860416666666559 ], [ 81.539583333332956, 6.860416666666559 ], [ 81.543749999999619, 6.864583333333208 ], [ 81.547916666666282, 6.864583333333208 ], [ 81.552083333332945, 6.860416666666559 ] ] ] } },
{ "type": "Feature", "properties": { "HYRIV_ID": 41406060, "NEXT_DOWN": 41406062, "MAIN_RIV": 41406267, "LENGTH_KM": 3.6800001, "DIST_DN_KM": 36.5, "DIST_UP_KM": 14.2, "CATCH_SKM": 17.690001, "UPLAND_SKM": 67.099998, "ENDORHEIC": 0, "DIS_AV_CMS": 1.194, "ORD_STRA": 2, "ORD_CLAS": 2, "ORD_FLOW": 6, "HYBAS_L12": 4121602000.0, "Shape_Length": 0.03333333333335986 }, "geometry": { "type": "MultiLineString", "coordinates": [ [ [ 81.552083333332945, 6.860416666666559 ], [ 81.585416666666305, 6.860416666666559 ] ] ] } },
{ "type": "Feature", "properties": { "HYRIV_ID": 41406061, "NEXT_DOWN": 41406062, "MAIN_RIV": 41406267, "LENGTH_KM": 7.5300002, "DIST_DN_KM": 36.700001, "DIST_UP_KM": 39.599998, "CATCH_SKM": 24.719999, "UPLAND_SKM": 325.79999, "ENDORHEIC": 0, "DIS_AV_CMS": 5.9120002, "ORD_STRA": 3, "ORD_CLAS": 1, "ORD_FLOW": 6, "HYBAS_L12": 4121602000.0, "Shape_Length": 0.06797378541244746 }, "geometry": { "type": "MultiLineString", "coordinates": [ [ [ 81.547916666666282, 6.902083333333216 ], [ 81.552083333332945, 6.897916666666568 ], [ 81.556249999999608, 6.897916666666568 ], [ 81.564583333332934, 6.889583333333242 ], [ 81.572916666666316, 6.889583333333242 ], [ 81.581249999999642, 6.881249999999888 ], [ 81.581249999999642, 6.872916666666576 ], [ 81.577083333332979, 6.868749999999871 ], [ 81.585416666666305, 6.860416666666559 ] ] ] } },
{ "type": "Feature", "properties": { "HYRIV_ID": 41406062, "NEXT_DOWN": 41406022, "MAIN_RIV": 41406267, "LENGTH_KM": 3.1500001, "DIST_DN_KM": 33.5, "DIST_UP_KM": 42.700001, "CATCH_SKM": 11.08, "UPLAND_SKM": 404.0, "ENDORHEIC": 0, "DIS_AV_CMS": 7.131, "ORD_STRA": 3, "ORD_CLAS": 1, "ORD_FLOW": 6, "HYBAS_L12": 4121602000.0, "Shape_Length": 0.028451779686463376 }, "geometry": { "type": "MultiLineString", "coordinates": [ [ [ 81.585416666666305, 6.860416666666559 ], [ 81.59791666666635, 6.860416666666559 ], [ 81.602083333333013, 6.864583333333208 ], [ 81.606249999999676, 6.864583333333208 ], [ 81.610416666666339, 6.868749999999871 ] ] ] } },
{ "type": "Feature", "properties": { "HYRIV_ID": 41406075, "NEXT_DOWN": 41406060, "MAIN_RIV": 41406267, "LENGTH_KM": 0.69, "DIST_DN_KM": 40.099998, "DIST_UP_KM": 4.0, "CATCH_SKM": 7.46, "UPLAND_SKM": 7.5, "ENDORHEIC": 0, "DIS_AV_CMS": 0.134, "ORD_STRA": 1, "ORD_CLAS": 3, "ORD_FLOW": 7, "HYBAS_L12": 4121602000.0, "Shape_Length": 0.0062499999999943157 }, "geometry": { "type": "MultiLineString", "coordinates": [ [ [ 81.552083333332945, 6.854166666666565 ], [ 81.552083333332945, 6.860416666666559 ] ] ] } },
{ "type": "Feature", "properties": { "HYRIV_ID": 41406136, "NEXT_DOWN": 41406154, "MAIN_RIV": 41406267, "LENGTH_KM": 5.6, "DIST_DN_KM": 14.5, "DIST_UP_KM": 9.2, "CATCH_SKM": 20.889999, "UPLAND_SKM": 20.9, "ENDORHEIC": 0, "DIS_AV_CMS": 0.34, "ORD_STRA": 1, "ORD_CLAS": 2, "ORD_FLOW": 7, "HYBAS_L12": 4120049940.0, "Shape_Length": 0.050653559372783721 }, "geometry": { "type": "MultiLineString", "coordinates": [ [ [ 81.674999999999699, 6.852083333333233 ], [ 81.693749999999596, 6.852083333333233 ], [ 81.697916666666316, 6.856249999999896 ], [ 81.702083333332979, 6.856249999999896 ], [ 81.710416666666305, 6.847916666666571 ], [ 81.714583333332968, 6.847916666666571 ], [ 81.718749999999631, 6.84375 ] ] ] } },
{ "type": "Feature", "properties": { "HYRIV_ID": 41406137, "NEXT_DOWN": 41406223, "MAIN_RIV": 41406267, "LENGTH_KM": 16.58, "DIST_DN_KM": 11.8, "DIST_UP_KM": 64.400002, "CATCH_SKM": 66.279999, "UPLAND_SKM": 521.40002, "ENDORHEIC": 0, "DIS_AV_CMS": 7.8319998, "ORD_STRA": 3, "ORD_CLAS": 1, "ORD_FLOW": 6, "HYBAS_L12": 4120049940.0, "Shape_Length": 0.14987734478534176 }, "geometry": { "type": "MultiLineString", "coordinates": [ [ [ 81.635416666666259, 6.885416666666551 ], [ 81.639583333332922, 6.889583333333242 ], [ 81.647916666666248, 6.889583333333242 ], [ 81.652083333333081, 6.885416666666551 ], [ 81.681249999999608, 6.885416666666551 ], [ 81.685416666666271, 6.881249999999888 ], [ 81.689583333332934, 6.881249999999888 ], [ 81.693749999999596, 6.885416666666551 ], [ 81.710416666666305, 6.885416666666551 ], [ 81.718749999999631, 6.877083333333225 ], [ 81.718749999999631, 6.872916666666576 ], [ 81.727083333333013, 6.872916666666576 ], [ 81.735416666666339, 6.864583333333208 ], [ 81.739583333333002, 6.864583333333208 ], [ 81.743749999999665, 6.860416666666559 ], [ 81.739583333333002, 6.856249999999896 ], [ 81.739583333333002, 6.852083333333233 ], [ 81.735416666666339, 6.847916666666571 ], [ 81.739583333333002, 6.84375 ] ] ] } },
{ "type": "Feature", "properties": { "HYRIV_ID": 41406153, "NEXT_DOWN": 41406154, "MAIN_RIV": 41406267, "LENGTH_KM": 1.16, "DIST_DN_KM": 14.3, "DIST_UP_KM": 5.0, "CATCH_SKM": 7.0300002, "UPLAND_SKM": 7.0, "ENDORHEIC": 0, "DIS_AV_CMS": 0.114, "ORD_STRA": 1, "ORD_CLAS": 3, "ORD_FLOW": 7, "HYBAS_L12": 4120049940.0, "Shape_Length": 0.010416666666699825 }, "geometry": { "type": "MultiLineString", "coordinates": [ [ [ 81.714583333332968, 6.837499999999885 ], [ 81.714583333332968, 6.84375 ], [ 81.718749999999631, 6.84375 ] ] ] } },
{ "type": "Feature", "properties": { "HYRIV_ID": 41406154, "NEXT_DOWN": 41406223, "MAIN_RIV": 41406267, "LENGTH_KM": 2.6900001, "DIST_DN_KM": 11.6, "DIST_UP_KM": 12.1, "CATCH_SKM": 8.3100004, "UPLAND_SKM": 36.200001, "ENDORHEIC": 0, "DIS_AV_CMS": 0.57800001, "ORD_STRA": 2, "ORD_CLAS": 2, "ORD_FLOW": 7, "HYBAS_L12": 4120049940.0, "Shape_Length": 0.024285113019870838 }, "geometry": { "type": "MultiLineString", "coordinates": [ [ [ 81.718749999999631, 6.84375 ], [ 81.722916666666293, 6.839583333333216 ], [ 81.731249999999676, 6.839583333333216 ], [ 81.735416666666339, 6.84375 ], [ 81.739583333333002, 6.84375 ] ] ] } },
{ "type": "Feature", "properties": { "HYRIV_ID": 41406223, "NEXT_DOWN": 41406267, "MAIN_RIV": 41406267, "LENGTH_KM": 7.4099998, "DIST_DN_KM": 4.2, "DIST_UP_KM": 72.0, "CATCH_SKM": 23.66, "UPLAND_SKM": 581.29999, "ENDORHEIC": 0, "DIS_AV_CMS": 8.2469997, "ORD_STRA": 3, "ORD_CLAS": 1, "ORD_FLOW": 6, "HYBAS_L12": 4120049940.0, "Shape_Length": 0.066962782549468303 }, "geometry": { "type": "MultiLineString", "coordinates": [ [ [ 81.739583333333002, 6.84375 ], [ 81.743749999999665, 6.839583333333216 ], [ 81.747916666666328, 6.84375 ], [ 81.764583333332922, 6.84375 ], [ 81.768749999999699, 6.839583333333216 ], [ 81.785416666666293, 6.839583333333216 ], [ 81.793749999999619, 6.83125 ], [ 81.793749999999619, 6.827083333333199 ] ] ] } },
{ "type": "Feature", "properties": { "HYRIV_ID": 41406267, "NEXT_DOWN": 0, "MAIN_RIV": 41406267, "LENGTH_KM": 3.99, "DIST_DN_KM": 0.0, "DIST_UP_KM": 76.0, "CATCH_SKM": 14.71, "UPLAND_SKM": 618.59998, "ENDORHEIC": 0, "DIS_AV_CMS": 8.5349998, "ORD_STRA": 3, "ORD_CLAS": 1, "ORD_FLOW": 6, "HYBAS_L12": 4120049940.0, "Shape_Length": 0.036070226039605767 }, "geometry": { "type": "MultiLineString", "coordinates": [ [ [ 81.793749999999619, 6.827083333333199 ], [ 81.802083333332945, 6.818749999999888 ], [ 81.806249999999608, 6.822916666666579 ], [ 81.810416666666271, 6.822916666666579 ], [ 81.814583333332934, 6.818749999999888 ], [ 81.822916666666316, 6.818749999999888 ] ] ] } },
{ "type": "Feature", "properties": { "HYRIV_ID": 41406286, "NEXT_DOWN": 41406267, "MAIN_RIV": 41406267, "LENGTH_KM": 5.4099998, "DIST_DN_KM": 4.4, "DIST_UP_KM": 9.6, "CATCH_SKM": 23.02, "UPLAND_SKM": 23.0, "ENDORHEIC": 0, "DIS_AV_CMS": 0.354, "ORD_STRA": 1, "ORD_CLAS": 2, "ORD_FLOW": 7, "HYBAS_L12": 4120049940.0, "Shape_Length": 0.04892766952962091 }, "geometry": { "type": "MultiLineString", "coordinates": [ [ [ 81.754166666666293, 6.818749999999888 ], [ 81.772916666666248, 6.818749999999888 ], [ 81.772916666666248, 6.814583333333225 ], [ 81.781249999999574, 6.814583333333225 ], [ 81.793749999999619, 6.827083333333199 ] ] ] } }
]
}
