{
"type": "FeatureCollection",
"name": "main_river_41397288",
"crs": { "type": "name", "properties": { "name": "urn:ogc:def:crs:OGC:1.3:CRS84" } },
"features": [
{ "type": "Feature", "properties": { "HYRIV_ID": 41397288, "NEXT_DOWN": 0, "MAIN_RIV": 41397288, "LENGTH_KM": 7.14, "DIST_DN_KM": 0.0, "DIST_UP_KM": 21.200001, "CATCH_SKM": 26.93, "UPLAND_SKM": 89.900002, "ENDORHEIC": 0, "DIS_AV_CMS": 1.341, "ORD_STRA": 2, "ORD_CLAS": 1, "ORD_FLOW": 6, "HYBAS_L12": 4120049550.0, "Shape_Length": 0.064522005725980436 }, "geometry": { "type": "Polygon", "coordinates": [ ] } },
{ "type": "Feature", "properties": { "HYRIV_ID": 41397370, "NEXT_DOWN": 41397288, "MAIN_RIV": 41397288, "LENGTH_KM": 4.4400001, "DIST_DN_KM": 7.3, "DIST_UP_KM": 14.3, "CATCH_SKM": 10.6, "UPLAND_SKM": 48.8, "ENDORHEIC": 0, "DIS_AV_CMS": 0.73, "ORD_STRA": 2, "ORD_CLAS": 1, "ORD_FLOW": 7, "HYBAS_L12": 4120049550.0, "Shape_Length": 0.040236892706331372 }, "geometry": { "type": "Polygon", "coordinates": [ ] } },
{ "type": "Feature", "properties": { "HYRIV_ID": 41397391, "NEXT_DOWN": 41397288, "MAIN_RIV": 41397288, "LENGTH_KM": 2.46, "DIST_DN_KM": 7.3, "DIST_UP_KM": 6.5, "CATCH_SKM": 14.42, "UPLAND_SKM": 14.4, "ENDORHEIC": 0, "DIS_AV_CMS": 0.218, "ORD_STRA": 1, "ORD_CLAS": 2, "ORD_FLOW": 7, "HYBAS_L12": 4120049550.0, "Shape_Length": 0.022201779686482556 }, "geometry": { "type": "Polygon", "coordinates": [ ] } },
{ "type": "Feature", "properties": { "HYRIV_ID": 41397479, "NEXT_DOWN": 41397370, "MAIN_RIV": 41397288, "LENGTH_KM": 5.5900002, "DIST_DN_KM": 11.7, "DIST_UP_KM": 9.8, "CATCH_SKM": 19.940001, "UPLAND_SKM": 19.9, "ENDORHEIC": 0, "DIS_AV_CMS": 0.29800001, "ORD_STRA": 1, "ORD_CLAS": 1, "ORD_FLOW": 7, "HYBAS_L12": 4120049550.0, "Shape_Length": 0.050653559372831239 }, "geometry": { "type": "Polygon", "coordinates": [ ] } },
{ "type": "Feature", "properties": { "HYRIV_ID": 41397528, "NEXT_DOWN": 41397370, "MAIN_RIV": 41397288, "LENGTH_KM": 4.5900002, "DIST_DN_KM": 11.7, "DIST_UP_KM": 7.8, "CATCH_SKM": 18.24, "UPLAND_SKM": 18.200001, "ENDORHEIC": 0, "DIS_AV_CMS": 0.27500001, "ORD_STRA": 1, "ORD_CLAS": 2, "ORD_FLOW": 7, "HYBAS_L12": 4120049550.0, "Shape_Length": 0.041457281117979194 }, "geometry": { "type": "Polygon", "coordinates": [ ] } }
]
}
