{
"type": "FeatureCollection",
"name": "main_river_41401651",
"crs": { "type": "name", "properties": { "name": "urn:ogc:def:crs:OGC:1.3:CRS84" } },
"features": [
{ "type": "Feature", "properties": { "HYRIV_ID": 41401648, "NEXT_DOWN": 41401650, "MAIN_RIV": 41401651, "LENGTH_KM": 3.37, "DIST_DN_KM": 2.8, "DIST_UP_KM": 7.1, "CATCH_SKM": 12.54, "UPLAND_SKM": 12.5, "ENDORHEIC": 0, "DIS_AV_CMS": 0.27, "ORD_STRA": 1, "ORD_CLAS": 2, "ORD_FLOW": 7, "HYBAS_L12": 4120049730.0, "Shape_Length": 0.030535113019836732 }, "geometry": { "type": "Polygon", "coordinates": [ ] } },
{ "type": "Feature", "properties": { "HYRIV_ID": 41401649, "NEXT_DOWN": 41401650, "MAIN_RIV": 41401651, "LENGTH_KM": 2.37, "DIST_DN_KM": 2.6, "DIST_UP_KM": 5.6, "CATCH_SKM": 7.23, "UPLAND_SKM": 7.2, "ENDORHEIC": 0, "DIS_AV_CMS": 0.155, "ORD_STRA": 1, "ORD_CLAS": 3, "ORD_FLOW": 7, "HYBAS_L12": 4120049730.0, "Shape_Length": 0.021338834764891103 }, "geometry": { "type": "Polygon", "coordinates": [ ] } },
{ "type": "Feature", "properties": { "HYRIV_ID": 41401650, "NEXT_DOWN": 41401651, "MAIN_RIV": 41401651, "LENGTH_KM": 0.92, "DIST_DN_KM": 1.7, "DIST_UP_KM": 10.7, "CATCH_SKM": 1.7, "UPLAND_SKM": 47.8, "ENDORHEIC": 0, "DIS_AV_CMS": 1.031, "ORD_STRA": 2, "ORD_CLAS": 1, "ORD_FLOW": 6, "HYBAS_L12": 4120049730.0, "Shape_Length": 0.0083333333333257542 }, "geometry": { "type": "Polygon", "coordinates": [ ] } },
{ "type": "Feature", "properties": { "HYRIV_ID": 41401651, "NEXT_DOWN": 0, "MAIN_RIV": 41401651, "LENGTH_KM": 1.5700001, "DIST_DN_KM": 0.0, "DIST_UP_KM": 12.1, "CATCH_SKM": 1.49, "UPLAND_SKM": 74.0, "ENDORHEIC": 0, "DIS_AV_CMS": 1.599, "ORD_STRA": 2, "ORD_CLAS": 1, "ORD_FLOW": 6, "HYBAS_L12": 4120049730.0, "Shape_Length": 0.014225889843268582 }, "geometry": { "type": "Polygon", "coordinates": [ ] } },
{ "type": "Feature", "properties": { "HYRIV_ID": 41401803, "NEXT_DOWN": 41401650, "MAIN_RIV": 41401651, "LENGTH_KM": 6.3600001, "DIST_DN_KM": 2.6, "DIST_UP_KM": 9.8, "CATCH_SKM": 26.360001, "UPLAND_SKM": 26.4, "ENDORHEIC": 0, "DIS_AV_CMS": 0.57099998, "ORD_STRA": 1, "ORD_CLAS": 1, "ORD_FLOW": 7, "HYBAS_L12": 4120049730.0, "Shape_Length": 0.057409060804302789 }, "geometry": { "type": "Polygon", "coordinates": [ ] } },
{ "type": "Feature", "properties": { "HYRIV_ID": 41401821, "NEXT_DOWN": 41401651, "MAIN_RIV": 41401651, "LENGTH_KM": 7.2, "DIST_DN_KM": 1.7, "DIST_UP_KM": 10.7, "CATCH_SKM": 24.870001, "UPLAND_SKM": 24.9, "ENDORHEIC": 0, "DIS_AV_CMS": 0.54299998, "ORD_STRA": 1, "ORD_CLAS": 2, "ORD_FLOW": 7, "HYBAS_L12": 4120049730.0, "Shape_Length": 0.065027507157430969 }, "geometry": { "type": "Polygon", "coordinates": [ ] } }
]
}
