{
"type": "FeatureCollection",
"name": "main_river_41410331",
"crs": { "type": "name", "properties": { "name": "urn:ogc:def:crs:OGC:1.3:CRS84" } },
"features": [
{ "type": "Feature", "properties": { "HYRIV_ID": 41410331, "NEXT_DOWN": 0, "MAIN_RIV": 41410331, "LENGTH_KM": 2.09, "DIST_DN_KM": 0.0, "DIST_UP_KM": 5.6, "CATCH_SKM": 9.6099997, "UPLAND_SKM": 9.4, "ENDORHEIC": 0, "DIS_AV_CMS": 0.32600001, "ORD_STRA": 1, "ORD_CLAS": 1, "ORD_FLOW": 7, "HYBAS_L12": 4120048900.0, "Shape_Length": 0.01889805794134912 }, "geometry": { "type": "MultiLineString", "coordinates": [ [ [ 80.729166666666316, 5.9875 ], [ 80.735416666666282, 5.99375 ], [ 80.739583333332945, 5.99375 ], [ 80.743749999999608, 5.98958333333325 ] ] ] } }
]
}
