{
"type": "FeatureCollection",
"name": "main_river_41396572",
"crs": { "type": "name", "properties": { "name": "urn:ogc:def:crs:OGC:1.3:CRS84" } },
"features": [
{ "type": "Feature", "properties": { "HYRIV_ID": 41396572, "NEXT_DOWN": 0, "MAIN_RIV": 41396572, "LENGTH_KM": 1.14, "DIST_DN_KM": 0.0, "DIST_UP_KM": 5.6, "CATCH_SKM": 19.709999, "UPLAND_SKM": 19.3, "ENDORHEIC": 0, "DIS_AV_CMS": 0.283, "ORD_STRA": 1, "ORD_CLAS": 1, "ORD_FLOW": 7, "HYBAS_L12": 4120049530.0, "Shape_Length": 0.010416666666628771 }, "geometry": { "type": "MultiLineString", "coordinates": [ [ [ 80.866666666666362, 9.027083333333188 ], [ 80.87708333333299, 9.027083333333188 ] ] ] } }
]
}
