{
"type": "FeatureCollection",
"name": "main_river_41403985",
"crs": { "type": "name", "properties": { "name": "urn:ogc:def:crs:OGC:1.3:CRS84" } },
"features": [
{ "type": "Feature", "properties": { "HYRIV_ID": 41403985, "NEXT_DOWN": 0, "MAIN_RIV": 41403985, "LENGTH_KM": 0.69, "DIST_DN_KM": 0.0, "DIST_UP_KM": 3.9, "CATCH_SKM": 5.1100001, "UPLAND_SKM": 4.9, "ENDORHEIC": 0, "DIS_AV_CMS": 0.127, "ORD_STRA": 1, "ORD_CLAS": 1, "ORD_FLOW": 7, "HYBAS_L12": 4120049120.0, "Shape_Length": 0.0062499999999658939 }, "geometry": { "type": "MultiLineString", "coordinates": [ [ [ 79.829166666666282, 7.381249999999874 ], [ 79.822916666666316, 7.381249999999874 ] ] ] } }
]
}
