{
"type": "FeatureCollection",
"name": "main_river_41409864",
"crs": { "type": "name", "properties": { "name": "urn:ogc:def:crs:OGC:1.3:CRS84" } },
"features": [
{ "type": "Feature", "properties": { "HYRIV_ID": 41408948, "NEXT_DOWN": 41408972, "MAIN_RIV": 41409864, "LENGTH_KM": 2.46, "DIST_DN_KM": 30.3, "DIST_UP_KM": 4.5, "CATCH_SKM": 10.46, "UPLAND_SKM": 10.5, "ENDORHEIC": 0, "DIS_AV_CMS": 0.355, "ORD_STRA": 1, "ORD_CLAS": 2, "ORD_FLOW": 7, "HYBAS_L12": 4120050100.0, "Shape_Length": 0.022201779686537679 }, "geometry": { "type": "Polygon", "coordinates": [ ] } },
{ "type": "Feature", "properties": { "HYRIV_ID": 41408949, "NEXT_DOWN": 41408972, "MAIN_RIV": 41409864, "LENGTH_KM": 2.09, "DIST_DN_KM": 30.3, "DIST_UP_KM": 5.0, "CATCH_SKM": 6.1900001, "UPLAND_SKM": 6.2, "ENDORHEIC": 0, "DIS_AV_CMS": 0.206, "ORD_STRA": 1, "ORD_CLAS": 1, "ORD_FLOW": 7, "HYBAS_L12": 4120050100.0, "Shape_Length": 0.018898057941386166 }, "geometry": { "type": "Polygon", "coordinates": [ ] } },
{ "type": "Feature", "properties": { "HYRIV_ID": 41408971, "NEXT_DOWN": 41409094, "MAIN_RIV": 41409864, "LENGTH_KM": 2.27, "DIST_DN_KM": 22.9, "DIST_UP_KM": 5.0, "CATCH_SKM": 7.25, "UPLAND_SKM": 7.3, "ENDORHEIC": 0, "DIS_AV_CMS": 0.235, "ORD_STRA": 1, "ORD_CLAS": 2, "ORD_FLOW": 7, "HYBAS_L12": 4120050100.0, "Shape_Length": 0.020475889843214377 }, "geometry": { "type": "Polygon", "coordinates": [ ] } },
{ "type": "Feature", "properties": { "HYRIV_ID": 41408972, "NEXT_DOWN": 41409094, "MAIN_RIV": 41409864, "LENGTH_KM": 7.6100001, "DIST_DN_KM": 22.700001, "DIST_UP_KM": 12.6, "CATCH_SKM": 17.709999, "UPLAND_SKM": 34.400002, "ENDORHEIC": 0, "DIS_AV_CMS": 1.1339999, "ORD_STRA": 2, "ORD_CLAS": 1, "ORD_FLOW": 6, "HYBAS_L12": 4120050100.0, "Shape_Length": 0.068688672392665129 }, "geometry": { "type": "Polygon", "coordinates": [ ] } },
{ "type": "Feature", "properties": { "HYRIV_ID": 41409093, "NEXT_DOWN": 41409398, "MAIN_RIV": 41409864, "LENGTH_KM": 1.15, "DIST_DN_KM": 19.200001, "DIST_UP_KM": 3.8, "CATCH_SKM": 4.48, "UPLAND_SKM": 4.5, "ENDORHEIC": 0, "DIS_AV_CMS": 0.141, "ORD_STRA": 1, "ORD_CLAS": 2, "ORD_FLOW": 7, "HYBAS_L12": 4120050100.0, "Shape_Length": 0.010416666666628771 }, "geometry": { "type": "Polygon", "coordinates": [ ] } },
{ "type": "Feature", "properties": { "HYRIV_ID": 41409094, "NEXT_DOWN": 41409398, "MAIN_RIV": 41409864, "LENGTH_KM": 3.54, "DIST_DN_KM": 19.4, "DIST_UP_KM": 16.0, "CATCH_SKM": 9.3900003, "UPLAND_SKM": 51.0, "ENDORHEIC": 0, "DIS_AV_CMS": 1.661, "ORD_STRA": 2, "ORD_CLAS": 1, "ORD_FLOW": 6, "HYBAS_L12": 4120050100.0, "Shape_Length": 0.031903559372874271 }, "geometry": { "type": "Polygon", "coordinates": [ ] } },
{ "type": "Feature", "properties": { "HYRIV_ID": 41409234, "NEXT_DOWN": 41409236, "MAIN_RIV": 41409864, "LENGTH_KM": 2.29, "DIST_DN_KM": 21.6, "DIST_UP_KM": 4.7, "CATCH_SKM": 7.4699998, "UPLAND_SKM": 7.5, "ENDORHEIC": 0, "DIS_AV_CMS": 0.24600001, "ORD_STRA": 1, "ORD_CLAS": 2, "ORD_FLOW": 7, "HYBAS_L12": 4120050100.0, "Shape_Length": 0.02062394778458888 }, "geometry": { "type": "Polygon", "coordinates": [ ] } },
{ "type": "Feature", "properties": { "HYRIV_ID": 41409235, "NEXT_DOWN": 41409236, "MAIN_RIV": 41409864, "LENGTH_KM": 1.16, "DIST_DN_KM": 21.4, "DIST_UP_KM": 4.7, "CATCH_SKM": 6.4, "UPLAND_SKM": 6.4, "ENDORHEIC": 0, "DIS_AV_CMS": 0.208, "ORD_STRA": 1, "ORD_CLAS": 3, "ORD_FLOW": 7, "HYBAS_L12": 4120050100.0, "Shape_Length": 0.010416666666685614 }, "geometry": { "type": "Polygon", "coordinates": [ ] } },
{ "type": "Feature", "properties": { "HYRIV_ID": 41409236, "NEXT_DOWN": 41409378, "MAIN_RIV": 41409864, "LENGTH_KM": 2.6900001, "DIST_DN_KM": 18.700001, "DIST_UP_KM": 7.5, "CATCH_SKM": 5.9699998, "UPLAND_SKM": 19.8, "ENDORHEIC": 0, "DIS_AV_CMS": 0.64499998, "ORD_STRA": 2, "ORD_CLAS": 2, "ORD_FLOW": 7, "HYBAS_L12": 4120050100.0, "Shape_Length": 0.024285113019813995 }, "geometry": { "type": "Polygon", "coordinates": [ ] } },
{ "type": "Feature", "properties": { "HYRIV_ID": 41409237, "NEXT_DOWN": 41409378, "MAIN_RIV": 41409864, "LENGTH_KM": 2.75, "DIST_DN_KM": 18.9, "DIST_UP_KM": 6.0, "CATCH_SKM": 6.62, "UPLAND_SKM": 6.6, "ENDORHEIC": 0, "DIS_AV_CMS": 0.211, "ORD_STRA": 1, "ORD_CLAS": 3, "ORD_FLOW": 7, "HYBAS_L12": 4120050100.0, "Shape_Length": 0.024790614451317937 }, "geometry": { "type": "Polygon", "coordinates": [ ] } },
{ "type": "Feature", "properties": { "HYRIV_ID": 41409377, "NEXT_DOWN": 41409397, "MAIN_RIV": 41409864, "LENGTH_KM": 2.46, "DIST_DN_KM": 14.2, "DIST_UP_KM": 6.7, "CATCH_SKM": 12.38, "UPLAND_SKM": 12.4, "ENDORHEIC": 0, "DIS_AV_CMS": 0.39, "ORD_STRA": 1, "ORD_CLAS": 3, "ORD_FLOW": 7, "HYBAS_L12": 4120050100.0, "Shape_Length": 0.022201779686423992 }, "geometry": { "type": "Polygon", "coordinates": [ ] } },
{ "type": "Feature", "properties": { "HYRIV_ID": 41409378, "NEXT_DOWN": 41409397, "MAIN_RIV": 41409864, "LENGTH_KM": 4.46, "DIST_DN_KM": 14.2, "DIST_UP_KM": 12.0, "CATCH_SKM": 8.3199997, "UPLAND_SKM": 34.8, "ENDORHEIC": 0, "DIS_AV_CMS": 1.114, "ORD_STRA": 2, "ORD_CLAS": 2, "ORD_FLOW": 6, "HYBAS_L12": 4120050100.0, "Shape_Length": 0.040236892706223576 }, "geometry": { "type": "Polygon", "coordinates": [ ] } },
{ "type": "Feature", "properties": { "HYRIV_ID": 41409397, "NEXT_DOWN": 41409578, "MAIN_RIV": 41409864, "LENGTH_KM": 3.4200001, "DIST_DN_KM": 10.8, "DIST_UP_KM": 15.4, "CATCH_SKM": 8.3199997, "UPLAND_SKM": 55.5, "ENDORHEIC": 0, "DIS_AV_CMS": 1.758, "ORD_STRA": 2, "ORD_CLAS": 2, "ORD_FLOW": 6, "HYBAS_L12": 4120050100.0, "Shape_Length": 0.030892556509889944 }, "geometry": { "type": "Polygon", "coordinates": [ ] } },
{ "type": "Feature", "properties": { "HYRIV_ID": 41409398, "NEXT_DOWN": 41409578, "MAIN_RIV": 41409864, "LENGTH_KM": 8.3599997, "DIST_DN_KM": 11.0, "DIST_UP_KM": 24.3, "CATCH_SKM": 22.620001, "UPLAND_SKM": 78.099998, "ENDORHEIC": 0, "DIS_AV_CMS": 2.4890001, "ORD_STRA": 2, "ORD_CLAS": 1, "ORD_FLOW": 6, "HYBAS_L12": 4120050100.0, "Shape_Length": 0.075296115882772227 }, "geometry": { "type": "Polygon", "coordinates": [ ] } },
{ "type": "Feature", "properties": { "HYRIV_ID": 41409577, "NEXT_DOWN": 41409796, "MAIN_RIV": 41409864, "LENGTH_KM": 1.15, "DIST_DN_KM": 5.9, "DIST_UP_KM": 3.8, "CATCH_SKM": 4.48, "UPLAND_SKM": 4.5, "ENDORHEIC": 0, "DIS_AV_CMS": 0.134, "ORD_STRA": 1, "ORD_CLAS": 2, "ORD_FLOW": 7, "HYBAS_L12": 4120050100.0, "Shape_Length": 0.010416666666742458 }, "geometry": { "type": "Polygon", "coordinates": [ ] } },
{ "type": "Feature", "properties": { "HYRIV_ID": 41409578, "NEXT_DOWN": 41409796, "MAIN_RIV": 41409864, "LENGTH_KM": 4.9299998, "DIST_DN_KM": 6.1, "DIST_UP_KM": 29.3, "CATCH_SKM": 21.77, "UPLAND_SKM": 155.39999, "ENDORHEIC": 0, "DIS_AV_CMS": 4.8889999, "ORD_STRA": 3, "ORD_CLAS": 1, "ORD_FLOW": 6, "HYBAS_L12": 4120050100.0, "Shape_Length": 0.044403559372905542 }, "geometry": { "type": "Polygon", "coordinates": [ ] } },
{ "type": "Feature", "properties": { "HYRIV_ID": 41409796, "NEXT_DOWN": 41409864, "MAIN_RIV": 41409864, "LENGTH_KM": 4.0900002, "DIST_DN_KM": 2.0, "DIST_UP_KM": 33.400002, "CATCH_SKM": 7.04, "UPLAND_SKM": 166.89999, "ENDORHEIC": 0, "DIS_AV_CMS": 5.2290001, "ORD_STRA": 3, "ORD_CLAS": 1, "ORD_FLOW": 6, "HYBAS_L12": 4120050100.0, "Shape_Length": 0.036785113019782531 }, "geometry": { "type": "Polygon", "coordinates": [ ] } },
{ "type": "Feature", "properties": { "HYRIV_ID": 41409797, "NEXT_DOWN": 41409864, "MAIN_RIV": 41409864, "LENGTH_KM": 3.2, "DIST_DN_KM": 1.8, "DIST_UP_KM": 6.1, "CATCH_SKM": 11.95, "UPLAND_SKM": 12.0, "ENDORHEIC": 0, "DIS_AV_CMS": 0.343, "ORD_STRA": 1, "ORD_CLAS": 2, "ORD_FLOW": 7, "HYBAS_L12": 4120050100.0, "Shape_Length": 0.028809223176466343 }, "geometry": { "type": "Polygon", "coordinates": [ ] } },
{ "type": "Feature", "properties": { "HYRIV_ID": 41409864, "NEXT_DOWN": 0, "MAIN_RIV": 41409864, "LENGTH_KM": 1.58, "DIST_DN_KM": 0.0, "DIST_UP_KM": 35.099998, "CATCH_SKM": 3.6300001, "UPLAND_SKM": 182.5, "ENDORHEIC": 0, "DIS_AV_CMS": 5.677, "ORD_STRA": 3, "ORD_CLAS": 1, "ORD_FLOW": 6, "HYBAS_L12": 4120050100.0, "Shape_Length": 0.014225889843224225 }, "geometry": { "type": "Polygon", "coordinates": [ ] } }
]
}
