{
"type": "FeatureCollection",
"name": "main_river_41409705",
"crs": { "type": "name", "properties": { "name": "urn:ogc:def:crs:OGC:1.3:CRS84" } },
"features": [
{ "type": "Feature", "properties": { "HYRIV_ID": 41409705, "NEXT_DOWN": 0, "MAIN_RIV": 41409705, "LENGTH_KM": 1.62, "DIST_DN_KM": 0.0, "DIST_UP_KM": 4.2, "CATCH_SKM": 6.1900001, "UPLAND_SKM": 6.0, "ENDORHEIC": 0, "DIS_AV_CMS": 0.148, "ORD_STRA": 1, "ORD_CLAS": 1, "ORD_FLOW": 7, "HYBAS_L12": 4120050070.0, "Shape_Length": 0.014583333333348492 }, "geometry": { "type": "MultiLineString", "coordinates": [ [ [ 81.068749999999653, 6.125 ], [ 81.068749999999653, 6.110416666666559 ] ] ] } }
]
}
