{
"type": "FeatureCollection",
"name": "main_river_41394650",
"crs": { "type": "name", "properties": { "name": "urn:ogc:def:crs:OGC:1.3:CRS84" } },
"features": [
{ "type": "Feature", "properties": { "HYRIV_ID": 41394650, "NEXT_DOWN": 0, "MAIN_RIV": 41394650, "LENGTH_KM": 13.04, "DIST_DN_KM": 0.0, "DIST_UP_KM": 17.6, "CATCH_SKM": 49.139999, "UPLAND_SKM": 48.900002, "ENDORHEIC": 0, "DIS_AV_CMS": 0.65399998, "ORD_STRA": 1, "ORD_CLAS": 1, "ORD_FLOW": 7, "HYBAS_L12": 4120049470.0, "Shape_Length": 0.11791245780514557 }, "geometry": { "type": "MultiLineString", "coordinates": [ [ [ 80.610416666666282, 9.312499999999851 ], [ 80.610416666666282, 9.322916666666536 ], [ 80.622916666666271, 9.335416666666511 ], [ 80.622916666666271, 9.343749999999865 ], [ 80.635416666666316, 9.356249999999839 ], [ 80.635416666666316, 9.360416666666545 ], [ 80.639583333332979, 9.360416666666545 ], [ 80.643749999999642, 9.364583333333208 ], [ 80.643749999999642, 9.368749999999856 ], [ 80.652083333332968, 9.377083333333182 ], [ 80.656249999999631, 9.377083333333182 ], [ 80.677083333333002, 9.397916666666511 ] ] ] } }
]
}
