{
"type": "FeatureCollection",
"name": "main_river_41396545",
"crs": { "type": "name", "properties": { "name": "urn:ogc:def:crs:OGC:1.3:CRS84" } },
"features": [
{ "type": "Feature", "properties": { "HYRIV_ID": 41396545, "NEXT_DOWN": 0, "MAIN_RIV": 41396545, "LENGTH_KM": 0.65, "DIST_DN_KM": 0.0, "DIST_UP_KM": 65.5, "CATCH_SKM": 0.85, "UPLAND_SKM": 594.79999, "ENDORHEIC": 0, "DIS_AV_CMS": 4.9089999, "ORD_STRA": 3, "ORD_CLAS": 1, "ORD_FLOW": 6, "HYBAS_L12": 4120049340.0, "Shape_Length": 0.0058925565100332658 }, "geometry": { "type": "Polygon", "coordinates": [ ] } },
{ "type": "Feature", "properties": { "HYRIV_ID": 41396546, "NEXT_DOWN": 41396545, "MAIN_RIV": 41396545, "LENGTH_KM": 5.7800002, "DIST_DN_KM": 1.0, "DIST_UP_KM": 11.9, "CATCH_SKM": 36.889999, "UPLAND_SKM": 36.900002, "ENDORHEIC": 0, "DIS_AV_CMS": 0.338, "ORD_STRA": 1, "ORD_CLAS": 2, "ORD_FLOW": 7, "HYBAS_L12": 4120049340.0, "Shape_Length": 0.052379449216082764 }, "geometry": { "type": "Polygon", "coordinates": [ ] } },
{ "type": "Feature", "properties": { "HYRIV_ID": 41396736, "NEXT_DOWN": 41396873, "MAIN_RIV": 41396545, "LENGTH_KM": 3.46, "DIST_DN_KM": 15.9, "DIST_UP_KM": 9.1, "CATCH_SKM": 18.870001, "UPLAND_SKM": 18.9, "ENDORHEIC": 0, "DIS_AV_CMS": 0.173, "ORD_STRA": 1, "ORD_CLAS": 2, "ORD_FLOW": 7, "HYBAS_L12": 4120049340.0, "Shape_Length": 0.031398057941344357 }, "geometry": { "type": "Polygon", "coordinates": [ ] } },
{ "type": "Feature", "properties": { "HYRIV_ID": 41396737, "NEXT_DOWN": 41396845, "MAIN_RIV": 41396545, "LENGTH_KM": 1.63, "DIST_DN_KM": 25.5, "DIST_UP_KM": 8.6, "CATCH_SKM": 13.14, "UPLAND_SKM": 13.1, "ENDORHEIC": 0, "DIS_AV_CMS": 0.123, "ORD_STRA": 1, "ORD_CLAS": 3, "ORD_FLOW": 7, "HYBAS_L12": 4121600420.0, "Shape_Length": 0.014731391274756585 }, "geometry": { "type": "Polygon", "coordinates": [ ] } },
{ "type": "Feature", "properties": { "HYRIV_ID": 41396784, "NEXT_DOWN": 41396845, "MAIN_RIV": 41396545, "LENGTH_KM": 7.62, "DIST_DN_KM": 25.5, "DIST_UP_KM": 12.9, "CATCH_SKM": 25.23, "UPLAND_SKM": 25.200001, "ENDORHEIC": 0, "DIS_AV_CMS": 0.236, "ORD_STRA": 1, "ORD_CLAS": 2, "ORD_FLOW": 7, "HYBAS_L12": 4121600420.0, "Shape_Length": 0.069046115882812231 }, "geometry": { "type": "Polygon", "coordinates": [ ] } },
{ "type": "Feature", "properties": { "HYRIV_ID": 41396842, "NEXT_DOWN": 41396545, "MAIN_RIV": 41396545, "LENGTH_KM": 8.6300001, "DIST_DN_KM": 0.8, "DIST_UP_KM": 65.0, "CATCH_SKM": 37.310001, "UPLAND_SKM": 557.5, "ENDORHEIC": 0, "DIS_AV_CMS": 4.5890002, "ORD_STRA": 3, "ORD_CLAS": 1, "ORD_FLOW": 6, "HYBAS_L12": 4120049340.0, "Shape_Length": 0.078033008589105127 }, "geometry": { "type": "Polygon", "coordinates": [ ] } },
{ "type": "Feature", "properties": { "HYRIV_ID": 41396843, "NEXT_DOWN": 41396873, "MAIN_RIV": 41396545, "LENGTH_KM": 3.52, "DIST_DN_KM": 16.1, "DIST_UP_KM": 49.8, "CATCH_SKM": 7.4200001, "UPLAND_SKM": 457.20001, "ENDORHEIC": 0, "DIS_AV_CMS": 3.9849999, "ORD_STRA": 3, "ORD_CLAS": 1, "ORD_FLOW": 6, "HYBAS_L12": 4120049340.0, "Shape_Length": 0.031903559372932842 }, "geometry": { "type": "Polygon", "coordinates": [ ] } },
{ "type": "Feature", "properties": { "HYRIV_ID": 41396844, "NEXT_DOWN": 41396843, "MAIN_RIV": 41396545, "LENGTH_KM": 3.6600001, "DIST_DN_KM": 19.4, "DIST_UP_KM": 46.400002, "CATCH_SKM": 9.33, "UPLAND_SKM": 398.89999, "ENDORHEIC": 0, "DIS_AV_CMS": 3.5020001, "ORD_STRA": 3, "ORD_CLAS": 1, "ORD_FLOW": 6, "HYBAS_L12": 4121600420.0, "Shape_Length": 0.033333333333246173 }, "geometry": { "type": "Polygon", "coordinates": [ ] } },
{ "type": "Feature", "properties": { "HYRIV_ID": 41396845, "NEXT_DOWN": 41396844, "MAIN_RIV": 41396545, "LENGTH_KM": 2.23, "DIST_DN_KM": 23.1, "DIST_UP_KM": 15.4, "CATCH_SKM": 7.0, "UPLAND_SKM": 45.400002, "ENDORHEIC": 0, "DIS_AV_CMS": 0.421, "ORD_STRA": 2, "ORD_CLAS": 2, "ORD_FLOW": 7, "HYBAS_L12": 4121600420.0, "Shape_Length": 0.020118446353106764 }, "geometry": { "type": "Polygon", "coordinates": [ ] } },
{ "type": "Feature", "properties": { "HYRIV_ID": 41396873, "NEXT_DOWN": 41396842, "MAIN_RIV": 41396545, "LENGTH_KM": 6.46, "DIST_DN_KM": 9.4, "DIST_UP_KM": 56.400002, "CATCH_SKM": 15.69, "UPLAND_SKM": 491.79999, "ENDORHEIC": 0, "DIS_AV_CMS": 4.1929998, "ORD_STRA": 3, "ORD_CLAS": 1, "ORD_FLOW": 6, "HYBAS_L12": 4120049340.0, "Shape_Length": 0.058629449216125604 }, "geometry": { "type": "Polygon", "coordinates": [ ] } },
{ "type": "Feature", "properties": { "HYRIV_ID": 41396935, "NEXT_DOWN": 41396844, "MAIN_RIV": 41396545, "LENGTH_KM": 4.89, "DIST_DN_KM": 23.3, "DIST_UP_KM": 42.599998, "CATCH_SKM": 13.15, "UPLAND_SKM": 344.20001, "ENDORHEIC": 0, "DIS_AV_CMS": 3.0550001, "ORD_STRA": 3, "ORD_CLAS": 1, "ORD_FLOW": 6, "HYBAS_L12": 4121600420.0, "Shape_Length": 0.044403559372888174 }, "geometry": { "type": "Polygon", "coordinates": [ ] } },
{ "type": "Feature", "properties": { "HYRIV_ID": 41396936, "NEXT_DOWN": 41396935, "MAIN_RIV": 41396545, "LENGTH_KM": 2.06, "DIST_DN_KM": 28.0, "DIST_UP_KM": 8.7, "CATCH_SKM": 15.05, "UPLAND_SKM": 15.1, "ENDORHEIC": 0, "DIS_AV_CMS": 0.14300001, "ORD_STRA": 1, "ORD_CLAS": 2, "ORD_FLOW": 7, "HYBAS_L12": 4121600420.0, "Shape_Length": 0.018750000000068212 }, "geometry": { "type": "Polygon", "coordinates": [ ] } },
{ "type": "Feature", "properties": { "HYRIV_ID": 41396992, "NEXT_DOWN": 41396842, "MAIN_RIV": 41396545, "LENGTH_KM": 4.87, "DIST_DN_KM": 9.6, "DIST_UP_KM": 9.5, "CATCH_SKM": 28.41, "UPLAND_SKM": 28.4, "ENDORHEIC": 0, "DIS_AV_CMS": 0.26300001, "ORD_STRA": 1, "ORD_CLAS": 2, "ORD_FLOW": 7, "HYBAS_L12": 4120049340.0, "Shape_Length": 0.044046115882752854 }, "geometry": { "type": "Polygon", "coordinates": [ ] } },
{ "type": "Feature", "properties": { "HYRIV_ID": 41397052, "NEXT_DOWN": 41396935, "MAIN_RIV": 41396545, "LENGTH_KM": 2.32, "DIST_DN_KM": 28.0, "DIST_UP_KM": 37.900002, "CATCH_SKM": 6.1500001, "UPLAND_SKM": 316.0, "ENDORHEIC": 0, "DIS_AV_CMS": 2.848, "ORD_STRA": 3, "ORD_CLAS": 1, "ORD_FLOW": 6, "HYBAS_L12": 4121600420.0, "Shape_Length": 0.020833333333328596 }, "geometry": { "type": "Polygon", "coordinates": [ ] } },
{ "type": "Feature", "properties": { "HYRIV_ID": 41397053, "NEXT_DOWN": 41397052, "MAIN_RIV": 41396545, "LENGTH_KM": 1.37, "DIST_DN_KM": 30.3, "DIST_UP_KM": 22.3, "CATCH_SKM": 1.7, "UPLAND_SKM": 121.9, "ENDORHEIC": 0, "DIS_AV_CMS": 1.141, "ORD_STRA": 2, "ORD_CLAS": 2, "ORD_FLOW": 6, "HYBAS_L12": 4121155000.0, "Shape_Length": 0.012499999999988631 }, "geometry": { "type": "Polygon", "coordinates": [ ] } },
{ "type": "Feature", "properties": { "HYRIV_ID": 41397081, "NEXT_DOWN": 41397053, "MAIN_RIV": 41396545, "LENGTH_KM": 7.0500002, "DIST_DN_KM": 31.6, "DIST_UP_KM": 12.7, "CATCH_SKM": 35.630001, "UPLAND_SKM": 35.599998, "ENDORHEIC": 0, "DIS_AV_CMS": 0.338, "ORD_STRA": 1, "ORD_CLAS": 3, "ORD_FLOW": 7, "HYBAS_L12": 4121155000.0, "Shape_Length": 0.064016504294487547 }, "geometry": { "type": "Polygon", "coordinates": [ ] } },
{ "type": "Feature", "properties": { "HYRIV_ID": 41397132, "NEXT_DOWN": 41396843, "MAIN_RIV": 41396545, "LENGTH_KM": 8.87, "DIST_DN_KM": 19.6, "DIST_UP_KM": 13.4, "CATCH_SKM": 50.889999, "UPLAND_SKM": 50.900002, "ENDORHEIC": 0, "DIS_AV_CMS": 0.466, "ORD_STRA": 1, "ORD_CLAS": 2, "ORD_FLOW": 7, "HYBAS_L12": 4121600420.0, "Shape_Length": 0.080264399863710867 }, "geometry": { "type": "Polygon", "coordinates": [ ] } },
{ "type": "Feature", "properties": { "HYRIV_ID": 41397287, "NEXT_DOWN": 41397053, "MAIN_RIV": 41396545, "LENGTH_KM": 7.7, "DIST_DN_KM": 31.6, "DIST_UP_KM": 20.9, "CATCH_SKM": 16.120001, "UPLAND_SKM": 84.599998, "ENDORHEIC": 0, "DIS_AV_CMS": 0.79400003, "ORD_STRA": 2, "ORD_CLAS": 2, "ORD_FLOW": 7, "HYBAS_L12": 4121155000.0, "Shape_Length": 0.069699675255721516 }, "geometry": { "type": "Polygon", "coordinates": [ ] } },
{ "type": "Feature", "properties": { "HYRIV_ID": 41397308, "NEXT_DOWN": 41397052, "MAIN_RIV": 41396545, "LENGTH_KM": 5.85, "DIST_DN_KM": 30.3, "DIST_UP_KM": 35.599998, "CATCH_SKM": 25.02, "UPLAND_SKM": 187.89999, "ENDORHEIC": 0, "DIS_AV_CMS": 1.68, "ORD_STRA": 2, "ORD_CLAS": 1, "ORD_FLOW": 6, "HYBAS_L12": 4121155010.0, "Shape_Length": 0.052736892706192112 }, "geometry": { "type": "Polygon", "coordinates": [ ] } },
{ "type": "Feature", "properties": { "HYRIV_ID": 41397368, "NEXT_DOWN": 41397287, "MAIN_RIV": 41396545, "LENGTH_KM": 2.09, "DIST_DN_KM": 39.5, "DIST_UP_KM": 7.4, "CATCH_SKM": 15.91, "UPLAND_SKM": 15.9, "ENDORHEIC": 0, "DIS_AV_CMS": 0.152, "ORD_STRA": 1, "ORD_CLAS": 3, "ORD_FLOW": 7, "HYBAS_L12": 4121155000.0, "Shape_Length": 0.018898057941294715 }, "geometry": { "type": "Polygon", "coordinates": [ ] } },
{ "type": "Feature", "properties": { "HYRIV_ID": 41397557, "NEXT_DOWN": 41397287, "MAIN_RIV": 41396545, "LENGTH_KM": 8.5500002, "DIST_DN_KM": 39.3, "DIST_UP_KM": 13.2, "CATCH_SKM": 52.599998, "UPLAND_SKM": 52.599998, "ENDORHEIC": 0, "DIS_AV_CMS": 0.50800002, "ORD_STRA": 1, "ORD_CLAS": 2, "ORD_FLOW": 7, "HYBAS_L12": 4121155000.0, "Shape_Length": 0.077379449216046822 }, "geometry": { "type": "Polygon", "coordinates": [ ] } },
{ "type": "Feature", "properties": { "HYRIV_ID": 41397573, "NEXT_DOWN": 41397308, "MAIN_RIV": 41396545, "LENGTH_KM": 6.7399998, "DIST_DN_KM": 36.099998, "DIST_UP_KM": 11.5, "CATCH_SKM": 36.27, "UPLAND_SKM": 36.3, "ENDORHEIC": 0, "DIS_AV_CMS": 0.336, "ORD_STRA": 1, "ORD_CLAS": 2, "ORD_FLOW": 7, "HYBAS_L12": 4121155010.0, "Shape_Length": 0.060860840490802398 }, "geometry": { "type": "Polygon", "coordinates": [ ] } },
{ "type": "Feature", "properties": { "HYRIV_ID": 41397891, "NEXT_DOWN": 41397308, "MAIN_RIV": 41396545, "LENGTH_KM": 16.129999, "DIST_DN_KM": 36.3, "DIST_UP_KM": 29.5, "CATCH_SKM": 57.91, "UPLAND_SKM": 126.6, "ENDORHEIC": 0, "DIS_AV_CMS": 1.147, "ORD_STRA": 2, "ORD_CLAS": 1, "ORD_FLOW": 6, "HYBAS_L12": 4121155010.0, "Shape_Length": 0.14571067811867441 }, "geometry": { "type": "Polygon", "coordinates": [ ] } },
{ "type": "Feature", "properties": { "HYRIV_ID": 41397892, "NEXT_DOWN": 41397891, "MAIN_RIV": 41396545, "LENGTH_KM": 1.4400001, "DIST_DN_KM": 52.3, "DIST_UP_KM": 5.5, "CATCH_SKM": 12.73, "UPLAND_SKM": 12.7, "ENDORHEIC": 0, "DIS_AV_CMS": 0.122, "ORD_STRA": 1, "ORD_CLAS": 2, "ORD_FLOW": 7, "HYBAS_L12": 4121155010.0, "Shape_Length": 0.013005501431607266 }, "geometry": { "type": "Polygon", "coordinates": [ ] } },
{ "type": "Feature", "properties": { "HYRIV_ID": 41398002, "NEXT_DOWN": 41397891, "MAIN_RIV": 41396545, "LENGTH_KM": 9.2, "DIST_DN_KM": 52.400002, "DIST_UP_KM": 13.4, "CATCH_SKM": 56.0, "UPLAND_SKM": 56.0, "ENDORHEIC": 0, "DIS_AV_CMS": 0.542, "ORD_STRA": 1, "ORD_CLAS": 1, "ORD_FLOW": 7, "HYBAS_L12": 4121155010.0, "Shape_Length": 0.083420063667308031 }, "geometry": { "type": "Polygon", "coordinates": [ ] } }
]
}
