{
"type": "FeatureCollection",
"name": "main_river_41402795",
"crs": { "type": "name", "properties": { "name": "urn:ogc:def:crs:OGC:1.3:CRS84" } },
"features": [
{ "type": "Feature", "properties": { "HYRIV_ID": 41402795, "NEXT_DOWN": 0, "MAIN_RIV": 41402795, "LENGTH_KM": 0.98, "DIST_DN_KM": 0.0, "DIST_UP_KM": 3.3, "CATCH_SKM": 5.3200002, "UPLAND_SKM": 4.7, "ENDORHEIC": 0, "DIS_AV_CMS": 0.111, "ORD_STRA": 1, "ORD_CLAS": 1, "ORD_FLOW": 7, "HYBAS_L12": 4120049790.0, "Shape_Length": 0.0088388347647936592 }, "geometry": { "type": "Polygon", "coordinates": [ ] } }
]
}
