{
"type": "FeatureCollection",
"name": "main_river_41397976",
"crs": { "type": "name", "properties": { "name": "urn:ogc:def:crs:OGC:1.3:CRS84" } },
"features": [
{ "type": "Feature", "properties": { "HYRIV_ID": 41397976, "NEXT_DOWN": 0, "MAIN_RIV": 41397976, "LENGTH_KM": 1.95, "DIST_DN_KM": 0.0, "DIST_UP_KM": 63.8, "CATCH_SKM": 2.55, "UPLAND_SKM": 455.29999, "ENDORHEIC": 0, "DIS_AV_CMS": 6.645, "ORD_STRA": 3, "ORD_CLAS": 1, "ORD_FLOW": 6, "HYBAS_L12": 4120049600.0, "Shape_Length": 0.017677669529637563 }, "geometry": { "type": "MultiLineString", "coordinates": [ [ [ 81.110416666666282, 8.781249999999879 ], [ 81.122916666666271, 8.793749999999854 ] ] ] } },
{ "type": "Feature", "properties": { "HYRIV_ID": 41398167, "NEXT_DOWN": 41397976, "MAIN_RIV": 41397976, "LENGTH_KM": 6.48, "DIST_DN_KM": 2.1, "DIST_UP_KM": 62.0, "CATCH_SKM": 24.610001, "UPLAND_SKM": 427.5, "ENDORHEIC": 0, "DIS_AV_CMS": 6.2659998, "ORD_STRA": 3, "ORD_CLAS": 1, "ORD_FLOW": 6, "HYBAS_L12": 4120049600.0, "Shape_Length": 0.058629449216057991 }, "geometry": { "type": "MultiLineString", "coordinates": [ [ [ 81.072916666666316, 8.747916666666534 ], [ 81.077083333333036, 8.752083333333196 ], [ 81.077083333333036, 8.756249999999845 ], [ 81.081249999999699, 8.760416666666551 ], [ 81.081249999999699, 8.768749999999862 ], [ 81.089583333333024, 8.768749999999862 ], [ 81.09791666666635, 8.777083333333231 ], [ 81.10208333333307, 8.777083333333231 ], [ 81.106249999999733, 8.781249999999879 ], [ 81.110416666666282, 8.781249999999879 ] ] ] } },
{ "type": "Feature", "properties": { "HYRIV_ID": 41398168, "NEXT_DOWN": 41397976, "MAIN_RIV": 41397976, "LENGTH_KM": 4.6, "DIST_DN_KM": 2.3, "DIST_UP_KM": 8.8, "CATCH_SKM": 25.459999, "UPLAND_SKM": 25.5, "ENDORHEIC": 0, "DIS_AV_CMS": 0.383, "ORD_STRA": 1, "ORD_CLAS": 2, "ORD_FLOW": 7, "HYBAS_L12": 4120049600.0, "Shape_Length": 0.041457281117934119 }, "geometry": { "type": "MultiLineString", "coordinates": [ [ [ 81.104166666666316, 8.745833333333202 ], [ 81.114583333332945, 8.756249999999845 ], [ 81.114583333332945, 8.777083333333231 ], [ 81.110416666666282, 8.781249999999879 ] ] ] } },
{ "type": "Feature", "properties": { "HYRIV_ID": 41398228, "NEXT_DOWN": 41398229, "MAIN_RIV": 41397976, "LENGTH_KM": 1.34, "DIST_DN_KM": 10.5, "DIST_UP_KM": 5.7, "CATCH_SKM": 8.9099998, "UPLAND_SKM": 8.9, "ENDORHEIC": 0, "DIS_AV_CMS": 0.13500001, "ORD_STRA": 1, "ORD_CLAS": 2, "ORD_FLOW": 7, "HYBAS_L12": 4120049600.0, "Shape_Length": 0.012142556509791586 }, "geometry": { "type": "MultiLineString", "coordinates": [ [ [ 81.049999999999756, 8.743749999999871 ], [ 81.056249999999665, 8.743749999999871 ], [ 81.060416666666328, 8.739583333333208 ] ] ] } },
{ "type": "Feature", "properties": { "HYRIV_ID": 41398229, "NEXT_DOWN": 41398167, "MAIN_RIV": 41397976, "LENGTH_KM": 1.76, "DIST_DN_KM": 8.8, "DIST_UP_KM": 55.400002, "CATCH_SKM": 5.3, "UPLAND_SKM": 364.0, "ENDORHEIC": 0, "DIS_AV_CMS": 5.4489999, "ORD_STRA": 3, "ORD_CLAS": 1, "ORD_FLOW": 6, "HYBAS_L12": 4120049600.0, "Shape_Length": 0.015951779686427948 }, "geometry": { "type": "MultiLineString", "coordinates": [ [ [ 81.060416666666328, 8.739583333333208 ], [ 81.06458333333299, 8.743749999999871 ], [ 81.068749999999653, 8.743749999999871 ], [ 81.072916666666316, 8.747916666666534 ] ] ] } },
{ "type": "Feature", "properties": { "HYRIV_ID": 41398296, "NEXT_DOWN": 41398297, "MAIN_RIV": 41397976, "LENGTH_KM": 1.34, "DIST_DN_KM": 13.2, "DIST_UP_KM": 4.0, "CATCH_SKM": 7.64, "UPLAND_SKM": 7.6, "ENDORHEIC": 0, "DIS_AV_CMS": 0.117, "ORD_STRA": 1, "ORD_CLAS": 2, "ORD_FLOW": 7, "HYBAS_L12": 4120049600.0, "Shape_Length": 0.012142556509791586 }, "geometry": { "type": "MultiLineString", "coordinates": [ [ [ 81.033333333333047, 8.731249999999854 ], [ 81.039583333332956, 8.731249999999854 ], [ 81.043749999999619, 8.727083333333191 ] ] ] } },
{ "type": "Feature", "properties": { "HYRIV_ID": 41398297, "NEXT_DOWN": 41398229, "MAIN_RIV": 41397976, "LENGTH_KM": 2.6800001, "DIST_DN_KM": 10.3, "DIST_UP_KM": 53.8, "CATCH_SKM": 4.8800001, "UPLAND_SKM": 349.79999, "ENDORHEIC": 0, "DIS_AV_CMS": 5.2649999, "ORD_STRA": 3, "ORD_CLAS": 1, "ORD_FLOW": 6, "HYBAS_L12": 4120049600.0, "Shape_Length": 0.024285113019826481 }, "geometry": { "type": "MultiLineString", "coordinates": [ [ [ 81.043749999999619, 8.727083333333191 ], [ 81.047916666666282, 8.731249999999854 ], [ 81.056249999999665, 8.731249999999854 ], [ 81.060416666666328, 8.735416666666559 ], [ 81.060416666666328, 8.739583333333208 ] ] ] } },
{ "type": "Feature", "properties": { "HYRIV_ID": 41398526, "NEXT_DOWN": 41398297, "MAIN_RIV": 41397976, "LENGTH_KM": 5.8400002, "DIST_DN_KM": 13.0, "DIST_UP_KM": 51.099998, "CATCH_SKM": 25.459999, "UPLAND_SKM": 337.29999, "ENDORHEIC": 0, "DIS_AV_CMS": 5.1240001, "ORD_STRA": 3, "ORD_CLAS": 1, "ORD_FLOW": 6, "HYBAS_L12": 4120049600.0, "Shape_Length": 0.052736892706208759 }, "geometry": { "type": "MultiLineString", "coordinates": [ [ [ 81.018749999999642, 8.689583333333182 ], [ 81.018749999999642, 8.697916666666551 ], [ 81.027083333332968, 8.706249999999862 ], [ 81.027083333332968, 8.710416666666525 ], [ 81.031249999999631, 8.714583333333174 ], [ 81.039583333332956, 8.714583333333174 ], [ 81.043749999999619, 8.718749999999879 ], [ 81.043749999999619, 8.727083333333191 ] ] ] } },
{ "type": "Feature", "properties": { "HYRIV_ID": 41398546, "NEXT_DOWN": 41398167, "MAIN_RIV": 41397976, "LENGTH_KM": 7.75, "DIST_DN_KM": 8.6, "DIST_UP_KM": 12.4, "CATCH_SKM": 38.830002, "UPLAND_SKM": 38.8, "ENDORHEIC": 0, "DIS_AV_CMS": 0.589, "ORD_STRA": 1, "ORD_CLAS": 2, "ORD_FLOW": 7, "HYBAS_L12": 4120049600.0, "Shape_Length": 0.069761002862965438 }, "geometry": { "type": "MultiLineString", "coordinates": [ [ [ 81.068749999999653, 8.683333333333202 ], [ 81.068749999999653, 8.693749999999888 ], [ 81.06458333333299, 8.697916666666551 ], [ 81.06458333333299, 8.714583333333174 ], [ 81.068749999999653, 8.718749999999879 ], [ 81.068749999999653, 8.731249999999854 ], [ 81.072916666666316, 8.735416666666559 ], [ 81.072916666666316, 8.747916666666534 ] ] ] } },
{ "type": "Feature", "properties": { "HYRIV_ID": 41398605, "NEXT_DOWN": 41398526, "MAIN_RIV": 41397976, "LENGTH_KM": 2.56, "DIST_DN_KM": 19.0, "DIST_UP_KM": 8.0, "CATCH_SKM": 20.370001, "UPLAND_SKM": 20.4, "ENDORHEIC": 0, "DIS_AV_CMS": 0.317, "ORD_STRA": 1, "ORD_CLAS": 2, "ORD_FLOW": 7, "HYBAS_L12": 4121600760.0, "Shape_Length": 0.023064724607991902 }, "geometry": { "type": "MultiLineString", "coordinates": [ [ [ 81.008333333333013, 8.670833333333228 ], [ 81.014583333332922, 8.677083333333208 ], [ 81.014583333332922, 8.685416666666534 ], [ 81.018749999999642, 8.689583333333182 ] ] ] } },
{ "type": "Feature", "properties": { "HYRIV_ID": 41398749, "NEXT_DOWN": 41398526, "MAIN_RIV": 41397976, "LENGTH_KM": 6.6799998, "DIST_DN_KM": 19.0, "DIST_UP_KM": 45.099998, "CATCH_SKM": 21.43, "UPLAND_SKM": 291.5, "ENDORHEIC": 0, "DIS_AV_CMS": 4.5180001, "ORD_STRA": 3, "ORD_CLAS": 1, "ORD_FLOW": 6, "HYBAS_L12": 4121600760.0, "Shape_Length": 0.060355339059336946 }, "geometry": { "type": "MultiLineString", "coordinates": [ [ [ 81.014583333332922, 8.643749999999862 ], [ 81.014583333332922, 8.647916666666511 ], [ 81.027083333332968, 8.660416666666542 ], [ 81.027083333332968, 8.672916666666559 ], [ 81.031249999999631, 8.677083333333208 ], [ 81.031249999999631, 8.681249999999871 ], [ 81.027083333332968, 8.685416666666534 ], [ 81.022916666666305, 8.685416666666534 ], [ 81.018749999999642, 8.689583333333182 ] ] ] } },
{ "type": "Feature", "properties": { "HYRIV_ID": 41398773, "NEXT_DOWN": 41398749, "MAIN_RIV": 41397976, "LENGTH_KM": 0.98, "DIST_DN_KM": 25.700001, "DIST_UP_KM": 5.2, "CATCH_SKM": 7.85, "UPLAND_SKM": 7.9, "ENDORHEIC": 0, "DIS_AV_CMS": 0.124, "ORD_STRA": 1, "ORD_CLAS": 2, "ORD_FLOW": 7, "HYBAS_L12": 4121600760.0, "Shape_Length": 0.0088388347647635132 }, "geometry": { "type": "MultiLineString", "coordinates": [ [ [ 81.008333333333013, 8.637499999999868 ], [ 81.014583333332922, 8.643749999999862 ] ] ] } },
{ "type": "Feature", "properties": { "HYRIV_ID": 41398827, "NEXT_DOWN": 41398749, "MAIN_RIV": 41397976, "LENGTH_KM": 1.58, "DIST_DN_KM": 25.700001, "DIST_UP_KM": 38.400002, "CATCH_SKM": 1.7, "UPLAND_SKM": 262.20001, "ENDORHEIC": 0, "DIS_AV_CMS": 4.1570001, "ORD_STRA": 3, "ORD_CLAS": 1, "ORD_FLOW": 6, "HYBAS_L12": 4121600760.0, "Shape_Length": 0.014225889843234274 }, "geometry": { "type": "MultiLineString", "coordinates": [ [ [ 81.018749999999642, 8.631249999999888 ], [ 81.018749999999642, 8.639583333333199 ], [ 81.014583333332922, 8.643749999999862 ] ] ] } },
{ "type": "Feature", "properties": { "HYRIV_ID": 41398828, "NEXT_DOWN": 41398827, "MAIN_RIV": 41397976, "LENGTH_KM": 0.69, "DIST_DN_KM": 27.1, "DIST_UP_KM": 5.6, "CATCH_SKM": 7.0, "UPLAND_SKM": 7.0, "ENDORHEIC": 0, "DIS_AV_CMS": 0.111, "ORD_STRA": 1, "ORD_CLAS": 2, "ORD_FLOW": 7, "HYBAS_L12": 4121600760.0, "Shape_Length": 0.0062500000000795808 }, "geometry": { "type": "MultiLineString", "coordinates": [ [ [ 81.024999999999721, 8.631249999999888 ], [ 81.018749999999642, 8.631249999999888 ] ] ] } },
{ "type": "Feature", "properties": { "HYRIV_ID": 41398892, "NEXT_DOWN": 41398827, "MAIN_RIV": 41397976, "LENGTH_KM": 2.4100001, "DIST_DN_KM": 27.3, "DIST_UP_KM": 36.8, "CATCH_SKM": 6.1599998, "UPLAND_SKM": 253.5, "ENDORHEIC": 0, "DIS_AV_CMS": 4.0419998, "ORD_STRA": 3, "ORD_CLAS": 1, "ORD_FLOW": 6, "HYBAS_L12": 4121600760.0, "Shape_Length": 0.021844336196313936 }, "geometry": { "type": "MultiLineString", "coordinates": [ [ [ 81.00208333333299, 8.618749999999871 ], [ 81.010416666666316, 8.627083333333182 ], [ 81.014583333332922, 8.627083333333182 ], [ 81.018749999999642, 8.631249999999888 ] ] ] } },
{ "type": "Feature", "properties": { "HYRIV_ID": 41398911, "NEXT_DOWN": 41398892, "MAIN_RIV": 41397976, "LENGTH_KM": 1.11, "DIST_DN_KM": 29.5, "DIST_UP_KM": 34.599998, "CATCH_SKM": 1.49, "UPLAND_SKM": 170.5, "ENDORHEIC": 0, "DIS_AV_CMS": 2.7490001, "ORD_STRA": 2, "ORD_CLAS": 1, "ORD_FLOW": 6, "HYBAS_L12": 4121600760.0, "Shape_Length": 0.010059223176602256 }, "geometry": { "type": "MultiLineString", "coordinates": [ [ [ 80.993749999999608, 8.614583333333208 ], [ 80.997916666666271, 8.618749999999871 ], [ 81.00208333333299, 8.618749999999871 ] ] ] } },
{ "type": "Feature", "properties": { "HYRIV_ID": 41398976, "NEXT_DOWN": 41398911, "MAIN_RIV": 41397976, "LENGTH_KM": 2.09, "DIST_DN_KM": 30.6, "DIST_UP_KM": 5.9, "CATCH_SKM": 9.9799995, "UPLAND_SKM": 10.0, "ENDORHEIC": 0, "DIS_AV_CMS": 0.161, "ORD_STRA": 1, "ORD_CLAS": 2, "ORD_FLOW": 7, "HYBAS_L12": 4121600760.0, "Shape_Length": 0.018898057941369218 }, "geometry": { "type": "MultiLineString", "coordinates": [ [ [ 80.991666666666305, 8.599999999999859 ], [ 80.997916666666271, 8.606249999999896 ], [ 80.993749999999608, 8.610416666666545 ], [ 80.993749999999608, 8.614583333333208 ] ] ] } },
{ "type": "Feature", "properties": { "HYRIV_ID": 41398990, "NEXT_DOWN": 41398892, "MAIN_RIV": 41397976, "LENGTH_KM": 2.6900001, "DIST_DN_KM": 29.5, "DIST_UP_KM": 17.700001, "CATCH_SKM": 4.46, "UPLAND_SKM": 76.800003, "ENDORHEIC": 0, "DIS_AV_CMS": 1.224, "ORD_STRA": 2, "ORD_CLAS": 2, "ORD_FLOW": 6, "HYBAS_L12": 4121600760.0, "Shape_Length": 0.024285113019786288 }, "geometry": { "type": "MultiLineString", "coordinates": [ [ [ 81.010416666666316, 8.597916666666528 ], [ 81.010416666666316, 8.606249999999896 ], [ 81.00208333333299, 8.614583333333208 ], [ 81.00208333333299, 8.618749999999871 ] ] ] } },
{ "type": "Feature", "properties": { "HYRIV_ID": 41399032, "NEXT_DOWN": 41399033, "MAIN_RIV": 41397976, "LENGTH_KM": 1.15, "DIST_DN_KM": 36.900002, "DIST_UP_KM": 4.6, "CATCH_SKM": 7.4299998, "UPLAND_SKM": 7.4, "ENDORHEIC": 0, "DIS_AV_CMS": 0.12, "ORD_STRA": 1, "ORD_CLAS": 2, "ORD_FLOW": 7, "HYBAS_L12": 4121600830.0, "Shape_Length": 0.010416666666628771 }, "geometry": { "type": "MultiLineString", "coordinates": [ [ [ 80.941666666666293, 8.589583333333216 ], [ 80.952083333332922, 8.589583333333216 ] ] ] } },
{ "type": "Feature", "properties": { "HYRIV_ID": 41399033, "NEXT_DOWN": 41398911, "MAIN_RIV": 41397976, "LENGTH_KM": 6.2800002, "DIST_DN_KM": 30.6, "DIST_UP_KM": 33.5, "CATCH_SKM": 28.23, "UPLAND_SKM": 159.0, "ENDORHEIC": 0, "DIS_AV_CMS": 2.5680001, "ORD_STRA": 2, "ORD_CLAS": 1, "ORD_FLOW": 6, "HYBAS_L12": 4121600760.0, "Shape_Length": 0.056903559372862601 }, "geometry": { "type": "MultiLineString", "coordinates": [ [ [ 80.952083333332922, 8.589583333333216 ], [ 80.956249999999699, 8.593749999999879 ], [ 80.956249999999699, 8.602083333333191 ], [ 80.964583333333024, 8.610416666666545 ], [ 80.977083333332956, 8.610416666666545 ], [ 80.981249999999619, 8.614583333333208 ], [ 80.993749999999608, 8.614583333333208 ] ] ] } },
{ "type": "Feature", "properties": { "HYRIV_ID": 41399132, "NEXT_DOWN": 41398990, "MAIN_RIV": 41397976, "LENGTH_KM": 4.6799998, "DIST_DN_KM": 32.200001, "DIST_UP_KM": 8.0, "CATCH_SKM": 17.83, "UPLAND_SKM": 17.8, "ENDORHEIC": 0, "DIS_AV_CMS": 0.288, "ORD_STRA": 1, "ORD_CLAS": 3, "ORD_FLOW": 7, "HYBAS_L12": 4121600760.0, "Shape_Length": 0.042320226039516545 }, "geometry": { "type": "MultiLineString", "coordinates": [ [ [ 80.987499999999642, 8.568749999999888 ], [ 80.993749999999608, 8.568749999999888 ], [ 80.997916666666271, 8.572916666666536 ], [ 80.997916666666271, 8.577083333333199 ], [ 81.00208333333299, 8.581249999999862 ], [ 81.00208333333299, 8.585416666666511 ], [ 81.010416666666316, 8.593749999999879 ], [ 81.010416666666316, 8.597916666666528 ] ] ] } },
{ "type": "Feature", "properties": { "HYRIV_ID": 41399208, "NEXT_DOWN": 41399209, "MAIN_RIV": 41397976, "LENGTH_KM": 0.69, "DIST_DN_KM": 41.3, "DIST_UP_KM": 3.6, "CATCH_SKM": 7.0, "UPLAND_SKM": 7.0, "ENDORHEIC": 0, "DIS_AV_CMS": 0.114, "ORD_STRA": 1, "ORD_CLAS": 2, "ORD_FLOW": 7, "HYBAS_L12": 4121600830.0, "Shape_Length": 0.0062500000000795808 }, "geometry": { "type": "MultiLineString", "coordinates": [ [ [ 80.941666666666293, 8.552083333333208 ], [ 80.947916666666373, 8.552083333333208 ] ] ] } },
{ "type": "Feature", "properties": { "HYRIV_ID": 41399209, "NEXT_DOWN": 41399033, "MAIN_RIV": 41397976, "LENGTH_KM": 4.3600001, "DIST_DN_KM": 36.900002, "DIST_UP_KM": 27.200001, "CATCH_SKM": 10.19, "UPLAND_SKM": 123.3, "ENDORHEIC": 0, "DIS_AV_CMS": 2.0109999, "ORD_STRA": 2, "ORD_CLAS": 1, "ORD_FLOW": 6, "HYBAS_L12": 4121600830.0, "Shape_Length": 0.039225889843135311 }, "geometry": { "type": "MultiLineString", "coordinates": [ [ [ 80.947916666666373, 8.552083333333208 ], [ 80.947916666666373, 8.564583333333182 ], [ 80.952083333332922, 8.568749999999888 ], [ 80.952083333332922, 8.589583333333216 ] ] ] } },
{ "type": "Feature", "properties": { "HYRIV_ID": 41399210, "NEXT_DOWN": 41398990, "MAIN_RIV": 41397976, "LENGTH_KM": 5.4699998, "DIST_DN_KM": 32.400002, "DIST_UP_KM": 14.8, "CATCH_SKM": 22.709999, "UPLAND_SKM": 54.599998, "ENDORHEIC": 0, "DIS_AV_CMS": 0.875, "ORD_STRA": 2, "ORD_CLAS": 2, "ORD_FLOW": 7, "HYBAS_L12": 4121600760.0, "Shape_Length": 0.04928511301976355 }, "geometry": { "type": "MultiLineString", "coordinates": [ [ [ 81.018749999999642, 8.552083333333208 ], [ 81.018749999999642, 8.577083333333199 ], [ 81.014583333332922, 8.581249999999862 ], [ 81.014583333332922, 8.593749999999879 ], [ 81.010416666666316, 8.597916666666528 ] ] ] } },
{ "type": "Feature", "properties": { "HYRIV_ID": 41399229, "NEXT_DOWN": 41399210, "MAIN_RIV": 41397976, "LENGTH_KM": 0.98, "DIST_DN_KM": 37.900002, "DIST_UP_KM": 5.0, "CATCH_SKM": 7.0, "UPLAND_SKM": 7.0, "ENDORHEIC": 0, "DIS_AV_CMS": 0.115, "ORD_STRA": 1, "ORD_CLAS": 3, "ORD_FLOW": 7, "HYBAS_L12": 4121600760.0, "Shape_Length": 0.0088388347648338528 }, "geometry": { "type": "MultiLineString", "coordinates": [ [ [ 81.012499999999676, 8.545833333333171 ], [ 81.018749999999642, 8.552083333333208 ] ] ] } },
{ "type": "Feature", "properties": { "HYRIV_ID": 41399411, "NEXT_DOWN": 41399209, "MAIN_RIV": 41397976, "LENGTH_KM": 4.1700001, "DIST_DN_KM": 41.3, "DIST_UP_KM": 22.8, "CATCH_SKM": 22.290001, "UPLAND_SKM": 106.2, "ENDORHEIC": 0, "DIS_AV_CMS": 1.742, "ORD_STRA": 2, "ORD_CLAS": 1, "ORD_FLOW": 6, "HYBAS_L12": 4121600830.0, "Shape_Length": 0.037500000000008527 }, "geometry": { "type": "MultiLineString", "coordinates": [ [ [ 80.947916666666373, 8.514583333333199 ], [ 80.947916666666373, 8.552083333333208 ] ] ] } },
{ "type": "Feature", "properties": { "HYRIV_ID": 41399444, "NEXT_DOWN": 41399210, "MAIN_RIV": 41397976, "LENGTH_KM": 6.0900002, "DIST_DN_KM": 37.900002, "DIST_UP_KM": 9.3, "CATCH_SKM": 24.84, "UPLAND_SKM": 24.8, "ENDORHEIC": 0, "DIS_AV_CMS": 0.40700001, "ORD_STRA": 1, "ORD_CLAS": 2, "ORD_FLOW": 7, "HYBAS_L12": 4121600760.0, "Shape_Length": 0.054968283980893887 }, "geometry": { "type": "MultiLineString", "coordinates": [ [ [ 80.999999999999687, 8.508333333333205 ], [ 81.010416666666316, 8.518749999999848 ], [ 81.010416666666316, 8.522916666666511 ], [ 81.018749999999642, 8.531249999999865 ], [ 81.018749999999642, 8.543749999999839 ], [ 81.022916666666305, 8.547916666666545 ], [ 81.018749999999642, 8.552083333333208 ] ] ] } },
{ "type": "Feature", "properties": { "HYRIV_ID": 41399562, "NEXT_DOWN": 41399411, "MAIN_RIV": 41397976, "LENGTH_KM": 4.7, "DIST_DN_KM": 45.599998, "DIST_UP_KM": 7.7, "CATCH_SKM": 17.41, "UPLAND_SKM": 17.4, "ENDORHEIC": 0, "DIS_AV_CMS": 0.28600001, "ORD_STRA": 1, "ORD_CLAS": 2, "ORD_FLOW": 7, "HYBAS_L12": 4121600830.0, "Shape_Length": 0.042468283981005737 }, "geometry": { "type": "MultiLineString", "coordinates": [ [ [ 80.920833333332922, 8.483333333333213 ], [ 80.93958333333299, 8.502083333333225 ], [ 80.93958333333299, 8.506249999999874 ], [ 80.947916666666373, 8.514583333333199 ] ] ] } },
{ "type": "Feature", "properties": { "HYRIV_ID": 41399903, "NEXT_DOWN": 41399411, "MAIN_RIV": 41397976, "LENGTH_KM": 15.19, "DIST_DN_KM": 45.599998, "DIST_UP_KM": 18.5, "CATCH_SKM": 66.459999, "UPLAND_SKM": 66.5, "ENDORHEIC": 0, "DIS_AV_CMS": 1.098, "ORD_STRA": 1, "ORD_CLAS": 1, "ORD_FLOW": 6, "HYBAS_L12": 4121600830.0, "Shape_Length": 0.13716795923650771 }, "geometry": { "type": "MultiLineString", "coordinates": [ [ [ 80.929166666666248, 8.4125 ], [ 80.918749999999676, 8.422916666666545 ], [ 80.927083333333002, 8.431249999999856 ], [ 80.927083333333002, 8.435416666666519 ], [ 80.935416666666328, 8.443749999999874 ], [ 80.935416666666328, 8.447916666666536 ], [ 80.94374999999971, 8.456249999999848 ], [ 80.94374999999971, 8.460416666666553 ], [ 80.947916666666373, 8.464583333333216 ], [ 80.952083333332922, 8.464583333333216 ], [ 80.964583333333024, 8.477083333333191 ], [ 80.964583333333024, 8.497916666666519 ], [ 80.956249999999699, 8.506249999999874 ], [ 80.952083333332922, 8.506249999999874 ], [ 80.952083333332922, 8.510416666666536 ], [ 80.947916666666373, 8.514583333333199 ] ] ] } }
]
}
