{
"type": "FeatureCollection",
"name": "main_river_41410543",
"crs": { "type": "name", "properties": { "name": "urn:ogc:def:crs:OGC:1.3:CRS84" } },
"features": [
{ "type": "Feature", "properties": { "HYRIV_ID": 41409696, "NEXT_DOWN": 41409792, "MAIN_RIV": 41410543, "LENGTH_KM": 3.21, "DIST_DN_KM": 26.9, "DIST_UP_KM": 5.3, "CATCH_SKM": 7.9, "UPLAND_SKM": 7.9, "ENDORHEIC": 0, "DIS_AV_CMS": 0.359, "ORD_STRA": 1, "ORD_CLAS": 3, "ORD_FLOW": 7, "HYBAS_L12": 4120048930.0, "Shape_Length": 0.028957281117914631 }, "geometry": { "type": "MultiLineString", "coordinates": [ [ [ 80.329166666666339, 6.125 ], [ 80.335416666666305, 6.11875 ], [ 80.339583333332968, 6.11875 ], [ 80.347916666666293, 6.110416666666559 ], [ 80.352083333332956, 6.110416666666559 ] ] ] } },
{ "type": "Feature", "properties": { "HYRIV_ID": 41409697, "NEXT_DOWN": 41409792, "MAIN_RIV": 41410543, "LENGTH_KM": 6.56, "DIST_DN_KM": 26.9, "DIST_UP_KM": 9.5, "CATCH_SKM": 22.41, "UPLAND_SKM": 22.4, "ENDORHEIC": 0, "DIS_AV_CMS": 1.028, "ORD_STRA": 1, "ORD_CLAS": 1, "ORD_FLOW": 6, "HYBAS_L12": 4120048930.0, "Shape_Length": 0.05913495064763543 }, "geometry": { "type": "MultiLineString", "coordinates": [ [ [ 80.362499999999699, 6.158333333333211 ], [ 80.343749999999631, 6.139583333333256 ], [ 80.347916666666293, 6.135416666666551 ], [ 80.347916666666293, 6.127083333333239 ], [ 80.352083333332956, 6.122916666666576 ], [ 80.352083333332956, 6.110416666666559 ] ] ] } },
{ "type": "Feature", "properties": { "HYRIV_ID": 41409698, "NEXT_DOWN": 41409792, "MAIN_RIV": 41410543, "LENGTH_KM": 1.4400001, "DIST_DN_KM": 26.9, "DIST_UP_KM": 2.9, "CATCH_SKM": 3.2, "UPLAND_SKM": 3.2, "ENDORHEIC": 0, "DIS_AV_CMS": 0.142, "ORD_STRA": 1, "ORD_CLAS": 4, "ORD_FLOW": 7, "HYBAS_L12": 4120048930.0, "Shape_Length": 0.01300550143157712 }, "geometry": { "type": "MultiLineString", "coordinates": [ [ [ 80.362499999999699, 6.116666666666596 ], [ 80.356249999999619, 6.110416666666559 ], [ 80.352083333332956, 6.110416666666559 ] ] ] } },
{ "type": "Feature", "properties": { "HYRIV_ID": 41409734, "NEXT_DOWN": 41409792, "MAIN_RIV": 41410543, "LENGTH_KM": 4.1100001, "DIST_DN_KM": 27.1, "DIST_UP_KM": 6.2, "CATCH_SKM": 11.74, "UPLAND_SKM": 11.7, "ENDORHEIC": 0, "DIS_AV_CMS": 0.53399998, "ORD_STRA": 1, "ORD_CLAS": 2, "ORD_FLOW": 7, "HYBAS_L12": 4120048930.0, "Shape_Length": 0.037142556509882539 }, "geometry": { "type": "MultiLineString", "coordinates": [ [ [ 80.316666666666293, 6.106249999999896 ], [ 80.347916666666293, 6.106249999999896 ], [ 80.352083333332956, 6.110416666666559 ] ] ] } },
{ "type": "Feature", "properties": { "HYRIV_ID": 41409792, "NEXT_DOWN": 41409812, "MAIN_RIV": 41410543, "LENGTH_KM": 1.96, "DIST_DN_KM": 25.1, "DIST_UP_KM": 11.3, "CATCH_SKM": 1.92, "UPLAND_SKM": 47.200001, "ENDORHEIC": 0, "DIS_AV_CMS": 2.165, "ORD_STRA": 2, "ORD_CLAS": 1, "ORD_FLOW": 6, "HYBAS_L12": 4120048930.0, "Shape_Length": 0.01767766952963756 }, "geometry": { "type": "MultiLineString", "coordinates": [ [ [ 80.352083333332956, 6.110416666666559 ], [ 80.356249999999619, 6.106249999999896 ], [ 80.352083333332956, 6.102083333333248 ], [ 80.356249999999619, 6.097916666666585 ] ] ] } },
{ "type": "Feature", "properties": { "HYRIV_ID": 41409793, "NEXT_DOWN": 41409841, "MAIN_RIV": 41410543, "LENGTH_KM": 4.52, "DIST_DN_KM": 26.9, "DIST_UP_KM": 6.9, "CATCH_SKM": 14.51, "UPLAND_SKM": 14.5, "ENDORHEIC": 0, "DIS_AV_CMS": 0.64300001, "ORD_STRA": 1, "ORD_CLAS": 2, "ORD_FLOW": 7, "HYBAS_L12": 4120048930.0, "Shape_Length": 0.040742394137786075 }, "geometry": { "type": "MultiLineString", "coordinates": [ [ [ 80.379166666666293, 6.129166666666571 ], [ 80.385416666666316, 6.122916666666576 ], [ 80.385416666666316, 6.114583333333265 ], [ 80.397916666666362, 6.102083333333248 ], [ 80.393749999999642, 6.097916666666585 ] ] ] } },
{ "type": "Feature", "properties": { "HYRIV_ID": 41409811, "NEXT_DOWN": 41409812, "MAIN_RIV": 41410543, "LENGTH_KM": 2.73, "DIST_DN_KM": 25.1, "DIST_UP_KM": 3.9, "CATCH_SKM": 7.04, "UPLAND_SKM": 7.0, "ENDORHEIC": 0, "DIS_AV_CMS": 0.315, "ORD_STRA": 1, "ORD_CLAS": 2, "ORD_FLOW": 7, "HYBAS_L12": 4120048930.0, "Shape_Length": 0.024642556509867207 }, "geometry": { "type": "MultiLineString", "coordinates": [ [ [ 80.333333333333002, 6.093749999999879 ], [ 80.352083333332956, 6.093749999999879 ], [ 80.356249999999619, 6.097916666666585 ] ] ] } },
{ "type": "Feature", "properties": { "HYRIV_ID": 41409812, "NEXT_DOWN": 41409840, "MAIN_RIV": 41410543, "LENGTH_KM": 0.65, "DIST_DN_KM": 24.4, "DIST_UP_KM": 11.9, "CATCH_SKM": 0.85, "UPLAND_SKM": 55.099998, "ENDORHEIC": 0, "DIS_AV_CMS": 2.5239999, "ORD_STRA": 2, "ORD_CLAS": 1, "ORD_FLOW": 6, "HYBAS_L12": 4120048930.0, "Shape_Length": 0.0058925565099126826 }, "geometry": { "type": "MultiLineString", "coordinates": [ [ [ 80.356249999999619, 6.097916666666585 ], [ 80.360416666666282, 6.093749999999879 ] ] ] } },
{ "type": "Feature", "properties": { "HYRIV_ID": 41409839, "NEXT_DOWN": 41409840, "MAIN_RIV": 41410543, "LENGTH_KM": 0.98, "DIST_DN_KM": 24.4, "DIST_UP_KM": 3.3, "CATCH_SKM": 3.4200001, "UPLAND_SKM": 3.4, "ENDORHEIC": 0, "DIS_AV_CMS": 0.151, "ORD_STRA": 1, "ORD_CLAS": 2, "ORD_FLOW": 7, "HYBAS_L12": 4120048930.0, "Shape_Length": 0.0088388347647233197 }, "geometry": { "type": "MultiLineString", "coordinates": [ [ [ 80.354166666666373, 6.0875 ], [ 80.360416666666282, 6.093749999999879 ] ] ] } },
{ "type": "Feature", "properties": { "HYRIV_ID": 41409840, "NEXT_DOWN": 41409935, "MAIN_RIV": 41410543, "LENGTH_KM": 1.11, "DIST_DN_KM": 23.3, "DIST_UP_KM": 13.0, "CATCH_SKM": 3.6300001, "UPLAND_SKM": 62.099998, "ENDORHEIC": 0, "DIS_AV_CMS": 2.849, "ORD_STRA": 2, "ORD_CLAS": 1, "ORD_FLOW": 6, "HYBAS_L12": 4120048930.0, "Shape_Length": 0.010059223176575559 }, "geometry": { "type": "MultiLineString", "coordinates": [ [ [ 80.360416666666282, 6.093749999999879 ], [ 80.364583333332945, 6.093749999999879 ], [ 80.368749999999665, 6.089583333333231 ] ] ] } },
{ "type": "Feature", "properties": { "HYRIV_ID": 41409841, "NEXT_DOWN": 41409935, "MAIN_RIV": 41410543, "LENGTH_KM": 3.54, "DIST_DN_KM": 23.3, "DIST_UP_KM": 10.4, "CATCH_SKM": 7.04, "UPLAND_SKM": 33.900002, "ENDORHEIC": 0, "DIS_AV_CMS": 1.505, "ORD_STRA": 2, "ORD_CLAS": 2, "ORD_FLOW": 6, "HYBAS_L12": 4120048930.0, "Shape_Length": 0.031903559372936291 }, "geometry": { "type": "MultiLineString", "coordinates": [ [ [ 80.393749999999642, 6.097916666666585 ], [ 80.389583333332979, 6.093749999999879 ], [ 80.385416666666316, 6.097916666666585 ], [ 80.37708333333299, 6.097916666666585 ], [ 80.368749999999665, 6.089583333333231 ] ] ] } },
{ "type": "Feature", "properties": { "HYRIV_ID": 41409842, "NEXT_DOWN": 41409841, "MAIN_RIV": 41410543, "LENGTH_KM": 5.2399998, "DIST_DN_KM": 26.700001, "DIST_UP_KM": 6.9, "CATCH_SKM": 12.38, "UPLAND_SKM": 12.4, "ENDORHEIC": 0, "DIS_AV_CMS": 0.53500003, "ORD_STRA": 1, "ORD_CLAS": 3, "ORD_FLOW": 7, "HYBAS_L12": 4120048930.0, "Shape_Length": 0.047349837627872787 }, "geometry": { "type": "MultiLineString", "coordinates": [ [ [ 80.433333333332968, 6.0875 ], [ 80.427083333333059, 6.093749999999879 ], [ 80.422916666666396, 6.093749999999879 ], [ 80.418749999999676, 6.097916666666585 ], [ 80.414583333333013, 6.097916666666585 ], [ 80.41041666666635, 6.093749999999879 ], [ 80.402083333333024, 6.093749999999879 ], [ 80.397916666666362, 6.097916666666585 ], [ 80.393749999999642, 6.097916666666585 ] ] ] } },
{ "type": "Feature", "properties": { "HYRIV_ID": 41409934, "NEXT_DOWN": 41409981, "MAIN_RIV": 41410543, "LENGTH_KM": 1.15, "DIST_DN_KM": 20.3, "DIST_UP_KM": 3.1, "CATCH_SKM": 4.48, "UPLAND_SKM": 4.5, "ENDORHEIC": 0, "DIS_AV_CMS": 0.196, "ORD_STRA": 1, "ORD_CLAS": 2, "ORD_FLOW": 7, "HYBAS_L12": 4120048930.0, "Shape_Length": 0.010416666666571928 }, "geometry": { "type": "MultiLineString", "coordinates": [ [ [ 80.370833333333081, 6.068749999999888 ], [ 80.381249999999653, 6.068749999999888 ] ] ] } },
{ "type": "Feature", "properties": { "HYRIV_ID": 41409935, "NEXT_DOWN": 41409981, "MAIN_RIV": 41410543, "LENGTH_KM": 2.8900001, "DIST_DN_KM": 20.4, "DIST_UP_KM": 15.9, "CATCH_SKM": 4.9099998, "UPLAND_SKM": 101.0, "ENDORHEIC": 0, "DIS_AV_CMS": 4.6279998, "ORD_STRA": 3, "ORD_CLAS": 1, "ORD_FLOW": 6, "HYBAS_L12": 4120048930.0, "Shape_Length": 0.026011002863005946 }, "geometry": { "type": "MultiLineString", "coordinates": [ [ [ 80.368749999999665, 6.089583333333231 ], [ 80.368749999999665, 6.085416666666568 ], [ 80.37708333333299, 6.077083333333256 ], [ 80.37708333333299, 6.072916666666551 ], [ 80.381249999999653, 6.068749999999888 ] ] ] } },
{ "type": "Feature", "properties": { "HYRIV_ID": 41409964, "NEXT_DOWN": 41410056, "MAIN_RIV": 41410543, "LENGTH_KM": 1.35, "DIST_DN_KM": 20.3, "DIST_UP_KM": 2.7, "CATCH_SKM": 4.27, "UPLAND_SKM": 4.3, "ENDORHEIC": 0, "DIS_AV_CMS": 0.181, "ORD_STRA": 1, "ORD_CLAS": 3, "ORD_FLOW": 7, "HYBAS_L12": 4120048930.0, "Shape_Length": 0.012142556509782253 }, "geometry": { "type": "MultiLineString", "coordinates": [ [ [ 80.427083333333059, 6.070833333333219 ], [ 80.427083333333059, 6.064583333333239 ], [ 80.431249999999608, 6.060416666666576 ] ] ] } },
{ "type": "Feature", "properties": { "HYRIV_ID": 41409981, "NEXT_DOWN": 41410020, "MAIN_RIV": 41410543, "LENGTH_KM": 1.96, "DIST_DN_KM": 18.5, "DIST_UP_KM": 17.9, "CATCH_SKM": 5.3400002, "UPLAND_SKM": 110.8, "ENDORHEIC": 0, "DIS_AV_CMS": 5.0929999, "ORD_STRA": 3, "ORD_CLAS": 1, "ORD_FLOW": 6, "HYBAS_L12": 4120048930.0, "Shape_Length": 0.017677669529637563 }, "geometry": { "type": "MultiLineString", "coordinates": [ [ [ 80.381249999999653, 6.068749999999888 ], [ 80.393749999999642, 6.05625 ] ] ] } },
{ "type": "Feature", "properties": { "HYRIV_ID": 41410019, "NEXT_DOWN": 41410020, "MAIN_RIV": 41410543, "LENGTH_KM": 6.3600001, "DIST_DN_KM": 18.5, "DIST_UP_KM": 8.1, "CATCH_SKM": 11.95, "UPLAND_SKM": 12.0, "ENDORHEIC": 0, "DIS_AV_CMS": 0.52499998, "ORD_STRA": 1, "ORD_CLAS": 2, "ORD_FLOW": 7, "HYBAS_L12": 4120048930.0, "Shape_Length": 0.057409060804428244 }, "geometry": { "type": "MultiLineString", "coordinates": [ [ [ 80.345833333333047, 6.054166666666582 ], [ 80.352083333332956, 6.047916666666559 ], [ 80.360416666666282, 6.047916666666559 ], [ 80.364583333332945, 6.052083333333265 ], [ 80.372916666666328, 6.052083333333265 ], [ 80.37708333333299, 6.047916666666559 ], [ 80.381249999999653, 6.052083333333265 ], [ 80.389583333332979, 6.052083333333265 ], [ 80.393749999999642, 6.05625 ] ] ] } },
{ "type": "Feature", "properties": { "HYRIV_ID": 41410020, "NEXT_DOWN": 41410055, "MAIN_RIV": 41410543, "LENGTH_KM": 1.31, "DIST_DN_KM": 17.200001, "DIST_UP_KM": 19.200001, "CATCH_SKM": 4.7, "UPLAND_SKM": 127.4, "ENDORHEIC": 0, "DIS_AV_CMS": 5.849, "ORD_STRA": 3, "ORD_CLAS": 1, "ORD_FLOW": 6, "HYBAS_L12": 4120048930.0, "Shape_Length": 0.011785113019825365 }, "geometry": { "type": "MultiLineString", "coordinates": [ [ [ 80.393749999999642, 6.05625 ], [ 80.402083333333024, 6.047916666666559 ] ] ] } },
{ "type": "Feature", "properties": { "HYRIV_ID": 41410021, "NEXT_DOWN": 41410056, "MAIN_RIV": 41410543, "LENGTH_KM": 2.56, "DIST_DN_KM": 20.1, "DIST_UP_KM": 4.5, "CATCH_SKM": 5.7600002, "UPLAND_SKM": 5.8, "ENDORHEIC": 0, "DIS_AV_CMS": 0.241, "ORD_STRA": 1, "ORD_CLAS": 2, "ORD_FLOW": 7, "HYBAS_L12": 4120048930.0, "Shape_Length": 0.023064724608068129 }, "geometry": { "type": "MultiLineString", "coordinates": [ [ [ 80.445833333332956, 6.045833333333228 ], [ 80.439583333333047, 6.052083333333265 ], [ 80.439583333333047, 6.05625 ], [ 80.435416666666271, 6.060416666666576 ], [ 80.431249999999608, 6.060416666666576 ] ] ] } },
{ "type": "Feature", "properties": { "HYRIV_ID": 41410055, "NEXT_DOWN": 41410206, "MAIN_RIV": 41410543, "LENGTH_KM": 0.65, "DIST_DN_KM": 16.5, "DIST_UP_KM": 19.8, "CATCH_SKM": 0.85, "UPLAND_SKM": 134.7, "ENDORHEIC": 0, "DIS_AV_CMS": 6.177, "ORD_STRA": 3, "ORD_CLAS": 1, "ORD_FLOW": 6, "HYBAS_L12": 4120048930.0, "Shape_Length": 0.0058925565098825365 }, "geometry": { "type": "MultiLineString", "coordinates": [ [ [ 80.402083333333024, 6.047916666666559 ], [ 80.406249999999687, 6.043749999999896 ] ] ] } },
{ "type": "Feature", "properties": { "HYRIV_ID": 41410056, "NEXT_DOWN": 41410206, "MAIN_RIV": 41410543, "LENGTH_KM": 3.81, "DIST_DN_KM": 16.3, "DIST_UP_KM": 8.3, "CATCH_SKM": 10.89, "UPLAND_SKM": 20.9, "ENDORHEIC": 0, "DIS_AV_CMS": 0.89200002, "ORD_STRA": 2, "ORD_CLAS": 2, "ORD_FLOW": 7, "HYBAS_L12": 4120048930.0, "Shape_Length": 0.034344336196291507 }, "geometry": { "type": "MultiLineString", "coordinates": [ [ [ 80.431249999999608, 6.060416666666576 ], [ 80.427083333333059, 6.05625 ], [ 80.422916666666396, 6.05625 ], [ 80.418749999999676, 6.052083333333265 ], [ 80.414583333333013, 6.052083333333265 ], [ 80.414583333333013, 6.047916666666559 ], [ 80.41041666666635, 6.043749999999896 ], [ 80.406249999999687, 6.043749999999896 ] ] ] } },
{ "type": "Feature", "properties": { "HYRIV_ID": 41410086, "NEXT_DOWN": 41410055, "MAIN_RIV": 41410543, "LENGTH_KM": 3.84, "DIST_DN_KM": 17.200001, "DIST_UP_KM": 5.5, "CATCH_SKM": 6.4, "UPLAND_SKM": 6.4, "ENDORHEIC": 0, "DIS_AV_CMS": 0.276, "ORD_STRA": 1, "ORD_CLAS": 2, "ORD_FLOW": 7, "HYBAS_L12": 4120048930.0, "Shape_Length": 0.034701779686382474 }, "geometry": { "type": "MultiLineString", "coordinates": [ [ [ 80.370833333333081, 6.039583333333233 ], [ 80.389583333332979, 6.039583333333233 ], [ 80.393749999999642, 6.043749999999896 ], [ 80.397916666666362, 6.043749999999896 ], [ 80.402083333333024, 6.047916666666559 ] ] ] } },
{ "type": "Feature", "properties": { "HYRIV_ID": 41410205, "NEXT_DOWN": 41410215, "MAIN_RIV": 41410543, "LENGTH_KM": 2.9200001, "DIST_DN_KM": 13.8, "DIST_UP_KM": 4.7, "CATCH_SKM": 5.12, "UPLAND_SKM": 5.1, "ENDORHEIC": 0, "DIS_AV_CMS": 0.217, "ORD_STRA": 1, "ORD_CLAS": 2, "ORD_FLOW": 7, "HYBAS_L12": 4120048930.0, "Shape_Length": 0.026368446353198828 }, "geometry": { "type": "MultiLineString", "coordinates": [ [ [ 80.395833333332945, 6.027083333333259 ], [ 80.402083333333024, 6.027083333333259 ], [ 80.402083333333024, 6.022916666666568 ], [ 80.406249999999687, 6.022916666666568 ], [ 80.414583333333013, 6.014583333333242 ] ] ] } },
{ "type": "Feature", "properties": { "HYRIV_ID": 41410206, "NEXT_DOWN": 41410216, "MAIN_RIV": 41410543, "LENGTH_KM": 4.0, "DIST_DN_KM": 12.3, "DIST_UP_KM": 24.0, "CATCH_SKM": 8.9700003, "UPLAND_SKM": 164.60001, "ENDORHEIC": 0, "DIS_AV_CMS": 7.579, "ORD_STRA": 3, "ORD_CLAS": 1, "ORD_FLOW": 6, "HYBAS_L12": 4120048930.0, "Shape_Length": 0.036070226039564862 }, "geometry": { "type": "MultiLineString", "coordinates": [ [ [ 80.406249999999687, 6.043749999999896 ], [ 80.41041666666635, 6.039583333333233 ], [ 80.41041666666635, 6.035416666666585 ], [ 80.422916666666396, 6.022916666666568 ], [ 80.422916666666396, 6.014583333333242 ] ] ] } },
{ "type": "Feature", "properties": { "HYRIV_ID": 41410214, "NEXT_DOWN": 41410215, "MAIN_RIV": 41410543, "LENGTH_KM": 1.8, "DIST_DN_KM": 13.8, "DIST_UP_KM": 4.1, "CATCH_SKM": 7.04, "UPLAND_SKM": 7.0, "ENDORHEIC": 0, "DIS_AV_CMS": 0.296, "ORD_STRA": 1, "ORD_CLAS": 3, "ORD_FLOW": 7, "HYBAS_L12": 4120048930.0, "Shape_Length": 0.016309223176614946 }, "geometry": { "type": "MultiLineString", "coordinates": [ [ [ 80.399999999999608, 6.010416666666593 ], [ 80.41041666666635, 6.010416666666593 ], [ 80.414583333333013, 6.014583333333242 ] ] ] } },
{ "type": "Feature", "properties": { "HYRIV_ID": 41410215, "NEXT_DOWN": 41410216, "MAIN_RIV": 41410543, "LENGTH_KM": 1.31, "DIST_DN_KM": 12.5, "DIST_UP_KM": 6.0, "CATCH_SKM": 1.0700001, "UPLAND_SKM": 13.2, "ENDORHEIC": 0, "DIS_AV_CMS": 0.56, "ORD_STRA": 2, "ORD_CLAS": 2, "ORD_FLOW": 7, "HYBAS_L12": 4120048930.0, "Shape_Length": 0.01178511301978517 }, "geometry": { "type": "MultiLineString", "coordinates": [ [ [ 80.414583333333013, 6.014583333333242 ], [ 80.418749999999676, 6.010416666666593 ], [ 80.422916666666396, 6.014583333333242 ] ] ] } },
{ "type": "Feature", "properties": { "HYRIV_ID": 41410216, "NEXT_DOWN": 41410228, "MAIN_RIV": 41410543, "LENGTH_KM": 0.65, "DIST_DN_KM": 11.9, "DIST_UP_KM": 24.5, "CATCH_SKM": 0.85, "UPLAND_SKM": 178.7, "ENDORHEIC": 0, "DIS_AV_CMS": 8.1960001, "ORD_STRA": 3, "ORD_CLAS": 1, "ORD_FLOW": 6, "HYBAS_L12": 4120048930.0, "Shape_Length": 0.0058925565098724882 }, "geometry": { "type": "MultiLineString", "coordinates": [ [ [ 80.422916666666396, 6.014583333333242 ], [ 80.427083333333059, 6.010416666666593 ] ] ] } },
{ "type": "Feature", "properties": { "HYRIV_ID": 41410228, "NEXT_DOWN": 41410259, "MAIN_RIV": 41410543, "LENGTH_KM": 0.65, "DIST_DN_KM": 11.2, "DIST_UP_KM": 25.200001, "CATCH_SKM": 2.35, "UPLAND_SKM": 186.10001, "ENDORHEIC": 0, "DIS_AV_CMS": 8.5270004, "ORD_STRA": 3, "ORD_CLAS": 1, "ORD_FLOW": 6, "HYBAS_L12": 4120048930.0, "Shape_Length": 0.0058925565098322938 }, "geometry": { "type": "MultiLineString", "coordinates": [ [ [ 80.427083333333059, 6.010416666666593 ], [ 80.431249999999608, 6.006249999999888 ] ] ] } },
{ "type": "Feature", "properties": { "HYRIV_ID": 41410229, "NEXT_DOWN": 41410259, "MAIN_RIV": 41410543, "LENGTH_KM": 1.63, "DIST_DN_KM": 11.2, "DIST_UP_KM": 3.3, "CATCH_SKM": 3.84, "UPLAND_SKM": 3.8, "ENDORHEIC": 0, "DIS_AV_CMS": 0.15800001, "ORD_STRA": 1, "ORD_CLAS": 2, "ORD_FLOW": 7, "HYBAS_L12": 4120048930.0, "Shape_Length": 0.014731391274746536 }, "geometry": { "type": "MultiLineString", "coordinates": [ [ [ 80.441666666666293, 6.016666666666573 ], [ 80.431249999999608, 6.006249999999888 ] ] ] } },
{ "type": "Feature", "properties": { "HYRIV_ID": 41410258, "NEXT_DOWN": 41410228, "MAIN_RIV": 41410543, "LENGTH_KM": 1.81, "DIST_DN_KM": 11.9, "DIST_UP_KM": 3.6, "CATCH_SKM": 5.12, "UPLAND_SKM": 5.1, "ENDORHEIC": 0, "DIS_AV_CMS": 0.211, "ORD_STRA": 1, "ORD_CLAS": 2, "ORD_FLOW": 7, "HYBAS_L12": 4120048930.0, "Shape_Length": 0.01630922317665514 }, "geometry": { "type": "MultiLineString", "coordinates": [ [ [ 80.416666666666316, 6.002083333333225 ], [ 80.422916666666396, 6.002083333333225 ], [ 80.422916666666396, 6.006249999999888 ], [ 80.427083333333059, 6.010416666666593 ] ] ] } },
{ "type": "Feature", "properties": { "HYRIV_ID": 41410259, "NEXT_DOWN": 41410370, "MAIN_RIV": 41410543, "LENGTH_KM": 0.65, "DIST_DN_KM": 10.6, "DIST_UP_KM": 25.8, "CATCH_SKM": 1.0700001, "UPLAND_SKM": 191.0, "ENDORHEIC": 0, "DIS_AV_CMS": 8.7519999, "ORD_STRA": 3, "ORD_CLAS": 1, "ORD_FLOW": 6, "HYBAS_L12": 4120048930.0, "Shape_Length": 0.0058925565098825365 }, "geometry": { "type": "MultiLineString", "coordinates": [ [ [ 80.431249999999608, 6.006249999999888 ], [ 80.435416666666271, 6.002083333333225 ] ] ] } },
{ "type": "Feature", "properties": { "HYRIV_ID": 41410260, "NEXT_DOWN": 41410370, "MAIN_RIV": 41410543, "LENGTH_KM": 3.86, "DIST_DN_KM": 10.6, "DIST_UP_KM": 5.5, "CATCH_SKM": 10.03, "UPLAND_SKM": 10.0, "ENDORHEIC": 0, "DIS_AV_CMS": 0.41, "ORD_STRA": 1, "ORD_CLAS": 2, "ORD_FLOW": 7, "HYBAS_L12": 4120048930.0, "Shape_Length": 0.034849837627830761 }, "geometry": { "type": "MultiLineString", "coordinates": [ [ [ 80.462499999999665, 6.0 ], [ 80.456249999999642, 6.006249999999888 ], [ 80.452083333332922, 6.006249999999888 ], [ 80.44791666666643, 6.002083333333225 ], [ 80.443749999999596, 6.006249999999888 ], [ 80.439583333333047, 6.006249999999888 ], [ 80.435416666666271, 6.002083333333225 ] ] ] } },
{ "type": "Feature", "properties": { "HYRIV_ID": 41410370, "NEXT_DOWN": 41410543, "MAIN_RIV": 41410543, "LENGTH_KM": 3.81, "DIST_DN_KM": 6.8, "DIST_UP_KM": 29.6, "CATCH_SKM": 6.62, "UPLAND_SKM": 207.7, "ENDORHEIC": 0, "DIS_AV_CMS": 9.4519997, "ORD_STRA": 3, "ORD_CLAS": 1, "ORD_FLOW": 6, "HYBAS_L12": 4120048930.0, "Shape_Length": 0.034344336196261954 }, "geometry": { "type": "MultiLineString", "coordinates": [ [ [ 80.435416666666271, 6.002083333333225 ], [ 80.435416666666271, 5.99375 ], [ 80.439583333333047, 5.98958333333325 ], [ 80.443749999999596, 5.98958333333325 ], [ 80.44791666666643, 5.985416666666602 ], [ 80.452083333332922, 5.985416666666602 ], [ 80.456249999999642, 5.981249999999896 ] ] ] } },
{ "type": "Feature", "properties": { "HYRIV_ID": 41410371, "NEXT_DOWN": 41410543, "MAIN_RIV": 41410543, "LENGTH_KM": 0.98, "DIST_DN_KM": 6.8, "DIST_UP_KM": 2.0, "CATCH_SKM": 2.77, "UPLAND_SKM": 2.8, "ENDORHEIC": 0, "DIS_AV_CMS": 0.11, "ORD_STRA": 1, "ORD_CLAS": 2, "ORD_FLOW": 7, "HYBAS_L12": 4120048930.0, "Shape_Length": 0.0088388347648639988 }, "geometry": { "type": "MultiLineString", "coordinates": [ [ [ 80.462499999999665, 5.9875 ], [ 80.456249999999642, 5.981249999999896 ] ] ] } },
{ "type": "Feature", "properties": { "HYRIV_ID": 41410543, "NEXT_DOWN": 0, "MAIN_RIV": 41410543, "LENGTH_KM": 6.4200001, "DIST_DN_KM": 0.0, "DIST_UP_KM": 36.0, "CATCH_SKM": 13.02, "UPLAND_SKM": 223.10001, "ENDORHEIC": 0, "DIS_AV_CMS": 10.055, "ORD_STRA": 3, "ORD_CLAS": 1, "ORD_FLOW": 5, "HYBAS_L12": 4120048930.0, "Shape_Length": 0.057914562235859418 }, "geometry": { "type": "MultiLineString", "coordinates": [ [ [ 80.456249999999642, 5.981249999999896 ], [ 80.456249999999642, 5.977083333333233 ], [ 80.460416666666305, 5.972916666666585 ], [ 80.464583333332968, 5.972916666666585 ], [ 80.481249999999619, 5.95625 ], [ 80.481249999999619, 5.947916666666579 ], [ 80.489583333332945, 5.939583333333225 ] ] ] } }
]
}
