{
"type": "FeatureCollection",
"name": "main_river_41399628",
"crs": { "type": "name", "properties": { "name": "urn:ogc:def:crs:OGC:1.3:CRS84" } },
"features": [
{ "type": "Feature", "properties": { "HYRIV_ID": 41399628, "NEXT_DOWN": 0, "MAIN_RIV": 41399628, "LENGTH_KM": 2.26, "DIST_DN_KM": 0.0, "DIST_UP_KM": 4.9, "CATCH_SKM": 9.3400002, "UPLAND_SKM": 9.1, "ENDORHEIC": 0, "DIS_AV_CMS": 0.166, "ORD_STRA": 1, "ORD_CLAS": 1, "ORD_FLOW": 7, "HYBAS_L12": 4120049690.0, "Shape_Length": 0.020475889843282996 }, "geometry": { "type": "MultiLineString", "coordinates": [ [ [ 81.343749999999574, 8.466666666666534 ], [ 81.343749999999574, 8.472916666666528 ], [ 81.34791666666635, 8.477083333333191 ], [ 81.356249999999676, 8.477083333333191 ] ] ] } }
]
}
