{
"type": "FeatureCollection",
"name": "main_river_41404739",
"crs": { "type": "name", "properties": { "name": "urn:ogc:def:crs:OGC:1.3:CRS84" } },
"features": [
{ "type": "Feature", "properties": { "HYRIV_ID": 41404607, "NEXT_DOWN": 41404641, "MAIN_RIV": 41404739, "LENGTH_KM": 8.25, "DIST_DN_KM": 28.3, "DIST_UP_KM": 18.3, "CATCH_SKM": 19.379999, "UPLAND_SKM": 56.900002, "ENDORHEIC": 0, "DIS_AV_CMS": 1.742, "ORD_STRA": 2, "ORD_CLAS": 2, "ORD_FLOW": 6, "HYBAS_L12": 4121158330.0, "Shape_Length": 0.074581228902403832 }, "geometry": { "type": "Polygon", "coordinates": [ ] } },
{ "type": "Feature", "properties": { "HYRIV_ID": 41404608, "NEXT_DOWN": 41404607, "MAIN_RIV": 41404739, "LENGTH_KM": 7.37, "DIST_DN_KM": 36.599998, "DIST_UP_KM": 10.0, "CATCH_SKM": 29.389999, "UPLAND_SKM": 29.4, "ENDORHEIC": 0, "DIS_AV_CMS": 0.9, "ORD_STRA": 1, "ORD_CLAS": 2, "ORD_FLOW": 7, "HYBAS_L12": 4121158330.0, "Shape_Length": 0.066605339059270963 }, "geometry": { "type": "Polygon", "coordinates": [ ] } },
{ "type": "Feature", "properties": { "HYRIV_ID": 41404627, "NEXT_DOWN": 41404641, "MAIN_RIV": 41404739, "LENGTH_KM": 2.26, "DIST_DN_KM": 28.1, "DIST_UP_KM": 4.9, "CATCH_SKM": 6.39, "UPLAND_SKM": 6.4, "ENDORHEIC": 0, "DIS_AV_CMS": 0.196, "ORD_STRA": 1, "ORD_CLAS": 3, "ORD_FLOW": 7, "HYBAS_L12": 4121158330.0, "Shape_Length": 0.020475889843140589 }, "geometry": { "type": "Polygon", "coordinates": [ ] } },
{ "type": "Feature", "properties": { "HYRIV_ID": 41404640, "NEXT_DOWN": 41404707, "MAIN_RIV": 41404739, "LENGTH_KM": 1.9, "DIST_DN_KM": 26.4, "DIST_UP_KM": 4.0, "CATCH_SKM": 6.6, "UPLAND_SKM": 6.6, "ENDORHEIC": 0, "DIS_AV_CMS": 0.2, "ORD_STRA": 1, "ORD_CLAS": 3, "ORD_FLOW": 7, "HYBAS_L12": 4121158330.0, "Shape_Length": 0.017172168098242437 }, "geometry": { "type": "Polygon", "coordinates": [ ] } },
{ "type": "Feature", "properties": { "HYRIV_ID": 41404641, "NEXT_DOWN": 41404707, "MAIN_RIV": 41404739, "LENGTH_KM": 1.76, "DIST_DN_KM": 26.5, "DIST_UP_KM": 20.0, "CATCH_SKM": 4.4699998, "UPLAND_SKM": 67.699997, "ENDORHEIC": 0, "DIS_AV_CMS": 2.0739999, "ORD_STRA": 2, "ORD_CLAS": 2, "ORD_FLOW": 6, "HYBAS_L12": 4121158330.0, "Shape_Length": 0.01595177968650489 }, "geometry": { "type": "Polygon", "coordinates": [ ] } },
{ "type": "Feature", "properties": { "HYRIV_ID": 41404642, "NEXT_DOWN": 41404607, "MAIN_RIV": 41404739, "LENGTH_KM": 2.45, "DIST_DN_KM": 36.400002, "DIST_UP_KM": 4.6, "CATCH_SKM": 8.0900002, "UPLAND_SKM": 8.1, "ENDORHEIC": 0, "DIS_AV_CMS": 0.252, "ORD_STRA": 1, "ORD_CLAS": 3, "ORD_FLOW": 7, "HYBAS_L12": 4121158330.0, "Shape_Length": 0.022201779686584471 }, "geometry": { "type": "Polygon", "coordinates": [ ] } },
{ "type": "Feature", "properties": { "HYRIV_ID": 41404643, "NEXT_DOWN": 41404660, "MAIN_RIV": 41404739, "LENGTH_KM": 4.33, "DIST_DN_KM": 58.3, "DIST_UP_KM": 5.8, "CATCH_SKM": 13.42, "UPLAND_SKM": 13.4, "ENDORHEIC": 0, "DIS_AV_CMS": 0.41600001, "ORD_STRA": 1, "ORD_CLAS": 3, "ORD_FLOW": 7, "HYBAS_L12": 4121158390.0, "Shape_Length": 0.039016504294492632 }, "geometry": { "type": "Polygon", "coordinates": [ ] } },
{ "type": "Feature", "properties": { "HYRIV_ID": 41404659, "NEXT_DOWN": 41404783, "MAIN_RIV": 41404739, "LENGTH_KM": 1.4400001, "DIST_DN_KM": 57.200001, "DIST_UP_KM": 3.3, "CATCH_SKM": 4.2600002, "UPLAND_SKM": 4.3, "ENDORHEIC": 0, "DIS_AV_CMS": 0.133, "ORD_STRA": 1, "ORD_CLAS": 3, "ORD_FLOW": 7, "HYBAS_L12": 4121158390.0, "Shape_Length": 0.013005501431456536 }, "geometry": { "type": "Polygon", "coordinates": [ ] } },
{ "type": "Feature", "properties": { "HYRIV_ID": 41404660, "NEXT_DOWN": 41404783, "MAIN_RIV": 41404739, "LENGTH_KM": 1.11, "DIST_DN_KM": 57.3, "DIST_UP_KM": 13.8, "CATCH_SKM": 1.49, "UPLAND_SKM": 48.8, "ENDORHEIC": 0, "DIS_AV_CMS": 1.551, "ORD_STRA": 2, "ORD_CLAS": 2, "ORD_FLOW": 6, "HYBAS_L12": 4121158390.0, "Shape_Length": 0.010059223176545413 }, "geometry": { "type": "Polygon", "coordinates": [ ] } },
{ "type": "Feature", "properties": { "HYRIV_ID": 41404707, "NEXT_DOWN": 41404819, "MAIN_RIV": 41404739, "LENGTH_KM": 1.58, "DIST_DN_KM": 25.0, "DIST_UP_KM": 21.6, "CATCH_SKM": 4.0500002, "UPLAND_SKM": 78.400002, "ENDORHEIC": 0, "DIS_AV_CMS": 2.398, "ORD_STRA": 2, "ORD_CLAS": 2, "ORD_FLOW": 6, "HYBAS_L12": 4121158330.0, "Shape_Length": 0.014225889843194079 }, "geometry": { "type": "Polygon", "coordinates": [ ] } },
{ "type": "Feature", "properties": { "HYRIV_ID": 41404708, "NEXT_DOWN": 41404819, "MAIN_RIV": 41404739, "LENGTH_KM": 4.29, "DIST_DN_KM": 24.8, "DIST_UP_KM": 7.2, "CATCH_SKM": 8.9499998, "UPLAND_SKM": 8.9, "ENDORHEIC": 0, "DIS_AV_CMS": 0.27700001, "ORD_STRA": 1, "ORD_CLAS": 3, "ORD_FLOW": 7, "HYBAS_L12": 4121158330.0, "Shape_Length": 0.038868446353085548 }, "geometry": { "type": "Polygon", "coordinates": [ ] } },
{ "type": "Feature", "properties": { "HYRIV_ID": 41404739, "NEXT_DOWN": 0, "MAIN_RIV": 41404739, "LENGTH_KM": 4.0, "DIST_DN_KM": 0.0, "DIST_UP_KM": 74.0, "CATCH_SKM": 12.78, "UPLAND_SKM": 807.70001, "ENDORHEIC": 0, "DIS_AV_CMS": 26.573999, "ORD_STRA": 4, "ORD_CLAS": 1, "ORD_FLOW": 5, "HYBAS_L12": 4120049070.0, "Shape_Length": 0.036070226039567298 }, "geometry": { "type": "Polygon", "coordinates": [ ] } },
{ "type": "Feature", "properties": { "HYRIV_ID": 41404740, "NEXT_DOWN": 41404739, "MAIN_RIV": 41404739, "LENGTH_KM": 1.16, "DIST_DN_KM": 4.2, "DIST_UP_KM": 4.1, "CATCH_SKM": 6.1799998, "UPLAND_SKM": 6.2, "ENDORHEIC": 0, "DIS_AV_CMS": 0.189, "ORD_STRA": 1, "ORD_CLAS": 2, "ORD_FLOW": 7, "HYBAS_L12": 4120049070.0, "Shape_Length": 0.010416666666742458 }, "geometry": { "type": "Polygon", "coordinates": [ ] } },
{ "type": "Feature", "properties": { "HYRIV_ID": 41404741, "NEXT_DOWN": 41404660, "MAIN_RIV": 41404739, "LENGTH_KM": 3.34, "DIST_DN_KM": 58.3, "DIST_UP_KM": 12.9, "CATCH_SKM": 7.6700001, "UPLAND_SKM": 33.900002, "ENDORHEIC": 0, "DIS_AV_CMS": 1.09, "ORD_STRA": 2, "ORD_CLAS": 2, "ORD_FLOW": 6, "HYBAS_L12": 4121158390.0, "Shape_Length": 0.030177669529686486 }, "geometry": { "type": "Polygon", "coordinates": [ ] } },
{ "type": "Feature", "properties": { "HYRIV_ID": 41404742, "NEXT_DOWN": 41404741, "MAIN_RIV": 41404739, "LENGTH_KM": 0.98, "DIST_DN_KM": 61.8, "DIST_UP_KM": 3.3, "CATCH_SKM": 4.9, "UPLAND_SKM": 4.9, "ENDORHEIC": 0, "DIS_AV_CMS": 0.15800001, "ORD_STRA": 1, "ORD_CLAS": 3, "ORD_FLOW": 7, "HYBAS_L12": 4121158390.0, "Shape_Length": 0.0088388347648238053 }, "geometry": { "type": "Polygon", "coordinates": [ ] } },
{ "type": "Feature", "properties": { "HYRIV_ID": 41404752, "NEXT_DOWN": 41404852, "MAIN_RIV": 41404739, "LENGTH_KM": 2.0, "DIST_DN_KM": 36.8, "DIST_UP_KM": 3.5, "CATCH_SKM": 7.2399998, "UPLAND_SKM": 7.2, "ENDORHEIC": 0, "DIS_AV_CMS": 0.227, "ORD_STRA": 1, "ORD_CLAS": 4, "ORD_FLOW": 7, "HYBAS_L12": 4121158330.0, "Shape_Length": 0.018035113019779486 }, "geometry": { "type": "Polygon", "coordinates": [ ] } },
{ "type": "Feature", "properties": { "HYRIV_ID": 41404753, "NEXT_DOWN": 41404852, "MAIN_RIV": 41404739, "LENGTH_KM": 0.46, "DIST_DN_KM": 36.599998, "DIST_UP_KM": 4.7, "CATCH_SKM": 1.06, "UPLAND_SKM": 13.2, "ENDORHEIC": 0, "DIS_AV_CMS": 0.41800001, "ORD_STRA": 2, "ORD_CLAS": 3, "ORD_FLOW": 7, "HYBAS_L12": 4121158330.0, "Shape_Length": 0.0041666666666628771 }, "geometry": { "type": "Polygon", "coordinates": [ ] } },
{ "type": "Feature", "properties": { "HYRIV_ID": 41404754, "NEXT_DOWN": 41404753, "MAIN_RIV": 41404739, "LENGTH_KM": 2.1, "DIST_DN_KM": 37.0, "DIST_UP_KM": 4.2, "CATCH_SKM": 5.1100001, "UPLAND_SKM": 5.1, "ENDORHEIC": 0, "DIS_AV_CMS": 0.161, "ORD_STRA": 1, "ORD_CLAS": 4, "ORD_FLOW": 7, "HYBAS_L12": 4121158330.0, "Shape_Length": 0.018898057941329025 }, "geometry": { "type": "Polygon", "coordinates": [ ] } },
{ "type": "Feature", "properties": { "HYRIV_ID": 41404755, "NEXT_DOWN": 41404753, "MAIN_RIV": 41404739, "LENGTH_KM": 1.9, "DIST_DN_KM": 37.0, "DIST_UP_KM": 4.3, "CATCH_SKM": 7.0300002, "UPLAND_SKM": 7.0, "ENDORHEIC": 0, "DIS_AV_CMS": 0.22400001, "ORD_STRA": 1, "ORD_CLAS": 3, "ORD_FLOW": 7, "HYBAS_L12": 4121158330.0, "Shape_Length": 0.017172168098119413 }, "geometry": { "type": "Polygon", "coordinates": [ ] } },
{ "type": "Feature", "properties": { "HYRIV_ID": 41404769, "NEXT_DOWN": 41404739, "MAIN_RIV": 41404739, "LENGTH_KM": 1.76, "DIST_DN_KM": 4.4, "DIST_UP_KM": 69.800003, "CATCH_SKM": 4.4699998, "UPLAND_SKM": 788.90002, "ENDORHEIC": 0, "DIS_AV_CMS": 25.999001, "ORD_STRA": 4, "ORD_CLAS": 1, "ORD_FLOW": 5, "HYBAS_L12": 4120049070.0, "Shape_Length": 0.015951779686468145 }, "geometry": { "type": "Polygon", "coordinates": [ ] } },
{ "type": "Feature", "properties": { "HYRIV_ID": 41404783, "NEXT_DOWN": 41404836, "MAIN_RIV": 41404739, "LENGTH_KM": 3.81, "DIST_DN_KM": 53.3, "DIST_UP_KM": 17.8, "CATCH_SKM": 9.8, "UPLAND_SKM": 62.8, "ENDORHEIC": 0, "DIS_AV_CMS": 1.99, "ORD_STRA": 2, "ORD_CLAS": 2, "ORD_FLOW": 6, "HYBAS_L12": 4121158390.0, "Shape_Length": 0.034344336196303282 }, "geometry": { "type": "Polygon", "coordinates": [ ] } },
{ "type": "Feature", "properties": { "HYRIV_ID": 41404784, "NEXT_DOWN": 41404836, "MAIN_RIV": 41404739, "LENGTH_KM": 1.61, "DIST_DN_KM": 53.3, "DIST_UP_KM": 3.7, "CATCH_SKM": 6.39, "UPLAND_SKM": 6.4, "ENDORHEIC": 0, "DIS_AV_CMS": 0.208, "ORD_STRA": 1, "ORD_CLAS": 3, "ORD_FLOW": 7, "HYBAS_L12": 4121158390.0, "Shape_Length": 0.014583333333405335 }, "geometry": { "type": "Polygon", "coordinates": [ ] } },
{ "type": "Feature", "properties": { "HYRIV_ID": 41404785, "NEXT_DOWN": 41404741, "MAIN_RIV": 41404739, "LENGTH_KM": 7.1900001, "DIST_DN_KM": 61.8, "DIST_UP_KM": 9.4, "CATCH_SKM": 21.3, "UPLAND_SKM": 21.3, "ENDORHEIC": 0, "DIS_AV_CMS": 0.69099998, "ORD_STRA": 1, "ORD_CLAS": 2, "ORD_FLOW": 7, "HYBAS_L12": 4121158390.0, "Shape_Length": 0.06502750715747016 }, "geometry": { "type": "Polygon", "coordinates": [ ] } },
{ "type": "Feature", "properties": { "HYRIV_ID": 41404807, "NEXT_DOWN": 41404820, "MAIN_RIV": 41404739, "LENGTH_KM": 0.46, "DIST_DN_KM": 23.5, "DIST_UP_KM": 17.8, "CATCH_SKM": 0.43, "UPLAND_SKM": 81.400002, "ENDORHEIC": 0, "DIS_AV_CMS": 2.5929999, "ORD_STRA": 2, "ORD_CLAS": 3, "ORD_FLOW": 6, "HYBAS_L12": 4121158330.0, "Shape_Length": 0.0041666666667765639 }, "geometry": { "type": "Polygon", "coordinates": [ ] } },
{ "type": "Feature", "properties": { "HYRIV_ID": 41404808, "NEXT_DOWN": 41404807, "MAIN_RIV": 41404739, "LENGTH_KM": 1.16, "DIST_DN_KM": 23.9, "DIST_UP_KM": 3.3, "CATCH_SKM": 4.9, "UPLAND_SKM": 4.9, "ENDORHEIC": 0, "DIS_AV_CMS": 0.153, "ORD_STRA": 1, "ORD_CLAS": 4, "ORD_FLOW": 7, "HYBAS_L12": 4121158330.0, "Shape_Length": 0.010416666666642982 }, "geometry": { "type": "Polygon", "coordinates": [ ] } },
{ "type": "Feature", "properties": { "HYRIV_ID": 41404819, "NEXT_DOWN": 41404833, "MAIN_RIV": 41404739, "LENGTH_KM": 3.81, "DIST_DN_KM": 21.200001, "DIST_UP_KM": 25.4, "CATCH_SKM": 6.39, "UPLAND_SKM": 93.699997, "ENDORHEIC": 0, "DIS_AV_CMS": 2.875, "ORD_STRA": 2, "ORD_CLAS": 2, "ORD_FLOW": 6, "HYBAS_L12": 4121158330.0, "Shape_Length": 0.034344336196423866 }, "geometry": { "type": "Polygon", "coordinates": [ ] } },
{ "type": "Feature", "properties": { "HYRIV_ID": 41404820, "NEXT_DOWN": 41404833, "MAIN_RIV": 41404739, "LENGTH_KM": 2.49, "DIST_DN_KM": 21.0, "DIST_UP_KM": 20.3, "CATCH_SKM": 2.98, "UPLAND_SKM": 88.800003, "ENDORHEIC": 0, "DIS_AV_CMS": 2.83, "ORD_STRA": 2, "ORD_CLAS": 3, "ORD_FLOW": 6, "HYBAS_L12": 4121158330.0, "Shape_Length": 0.022559223176507347 }, "geometry": { "type": "Polygon", "coordinates": [ ] } },
{ "type": "Feature", "properties": { "HYRIV_ID": 41404821, "NEXT_DOWN": 41404807, "MAIN_RIV": 41404739, "LENGTH_KM": 3.4100001, "DIST_DN_KM": 23.9, "DIST_UP_KM": 17.4, "CATCH_SKM": 9.37, "UPLAND_SKM": 76.0, "ENDORHEIC": 0, "DIS_AV_CMS": 2.4260001, "ORD_STRA": 2, "ORD_CLAS": 3, "ORD_FLOW": 6, "HYBAS_L12": 4121158330.0, "Shape_Length": 0.030892556509833101 }, "geometry": { "type": "Polygon", "coordinates": [ ] } },
{ "type": "Feature", "properties": { "HYRIV_ID": 41404822, "NEXT_DOWN": 41404821, "MAIN_RIV": 41404739, "LENGTH_KM": 3.4, "DIST_DN_KM": 27.5, "DIST_UP_KM": 5.1, "CATCH_SKM": 12.56, "UPLAND_SKM": 12.6, "ENDORHEIC": 0, "DIS_AV_CMS": 0.398, "ORD_STRA": 1, "ORD_CLAS": 4, "ORD_FLOW": 7, "HYBAS_L12": 4121158330.0, "Shape_Length": 0.030683170961134293 }, "geometry": { "type": "Polygon", "coordinates": [ ] } },
{ "type": "Feature", "properties": { "HYRIV_ID": 41404833, "NEXT_DOWN": 41405001, "MAIN_RIV": 41404739, "LENGTH_KM": 0.65, "DIST_DN_KM": 20.5, "DIST_UP_KM": 26.1, "CATCH_SKM": 0.43, "UPLAND_SKM": 182.89999, "ENDORHEIC": 0, "DIS_AV_CMS": 5.7189999, "ORD_STRA": 3, "ORD_CLAS": 2, "ORD_FLOW": 6, "HYBAS_L12": 4121158330.0, "Shape_Length": 0.0058925565098724882 }, "geometry": { "type": "Polygon", "coordinates": [ ] } },
{ "type": "Feature", "properties": { "HYRIV_ID": 41404834, "NEXT_DOWN": 41404820, "MAIN_RIV": 41404739, "LENGTH_KM": 1.4400001, "DIST_DN_KM": 23.5, "DIST_UP_KM": 4.5, "CATCH_SKM": 4.4699998, "UPLAND_SKM": 4.5, "ENDORHEIC": 0, "DIS_AV_CMS": 0.14300001, "ORD_STRA": 1, "ORD_CLAS": 4, "ORD_FLOW": 7, "HYBAS_L12": 4121158330.0, "Shape_Length": 0.013005501431539362 }, "geometry": { "type": "Polygon", "coordinates": [ ] } },
{ "type": "Feature", "properties": { "HYRIV_ID": 41404835, "NEXT_DOWN": 41404821, "MAIN_RIV": 41404739, "LENGTH_KM": 1.11, "DIST_DN_KM": 27.5, "DIST_UP_KM": 13.8, "CATCH_SKM": 1.28, "UPLAND_SKM": 54.099998, "ENDORHEIC": 0, "DIS_AV_CMS": 1.7309999, "ORD_STRA": 2, "ORD_CLAS": 3, "ORD_FLOW": 6, "HYBAS_L12": 4121158330.0, "Shape_Length": 0.010059223176535365 }, "geometry": { "type": "Polygon", "coordinates": [ ] } },
{ "type": "Feature", "properties": { "HYRIV_ID": 41404836, "NEXT_DOWN": 41404854, "MAIN_RIV": 41404739, "LENGTH_KM": 1.58, "DIST_DN_KM": 51.8, "DIST_UP_KM": 19.4, "CATCH_SKM": 1.92, "UPLAND_SKM": 71.099998, "ENDORHEIC": 0, "DIS_AV_CMS": 2.257, "ORD_STRA": 2, "ORD_CLAS": 2, "ORD_FLOW": 6, "HYBAS_L12": 4121158390.0, "Shape_Length": 0.014225889843224225 }, "geometry": { "type": "Polygon", "coordinates": [ ] } },
{ "type": "Feature", "properties": { "HYRIV_ID": 41404852, "NEXT_DOWN": 41404835, "MAIN_RIV": 41404739, "LENGTH_KM": 8.1400003, "DIST_DN_KM": 28.6, "DIST_UP_KM": 12.7, "CATCH_SKM": 26.84, "UPLAND_SKM": 47.3, "ENDORHEIC": 0, "DIS_AV_CMS": 1.5089999, "ORD_STRA": 2, "ORD_CLAS": 3, "ORD_FLOW": 6, "HYBAS_L12": 4121158330.0, "Shape_Length": 0.073570226039600076 }, "geometry": { "type": "Polygon", "coordinates": [ ] } },
{ "type": "Feature", "properties": { "HYRIV_ID": 41404853, "NEXT_DOWN": 41404884, "MAIN_RIV": 41404739, "LENGTH_KM": 5.3400002, "DIST_DN_KM": 51.099998, "DIST_UP_KM": 7.3, "CATCH_SKM": 16.4, "UPLAND_SKM": 16.4, "ENDORHEIC": 0, "DIS_AV_CMS": 0.52, "ORD_STRA": 1, "ORD_CLAS": 3, "ORD_FLOW": 7, "HYBAS_L12": 4121158390.0, "Shape_Length": 0.048064724608156639 }, "geometry": { "type": "Polygon", "coordinates": [ ] } },
{ "type": "Feature", "properties": { "HYRIV_ID": 41404854, "NEXT_DOWN": 41404884, "MAIN_RIV": 41404739, "LENGTH_KM": 0.65, "DIST_DN_KM": 51.3, "DIST_UP_KM": 19.9, "CATCH_SKM": 0.43, "UPLAND_SKM": 86.300003, "ENDORHEIC": 0, "DIS_AV_CMS": 2.7550001, "ORD_STRA": 2, "ORD_CLAS": 2, "ORD_FLOW": 6, "HYBAS_L12": 4121158390.0, "Shape_Length": 0.0058925565098825365 }, "geometry": { "type": "Polygon", "coordinates": [ ] } },
{ "type": "Feature", "properties": { "HYRIV_ID": 41404855, "NEXT_DOWN": 41405019, "MAIN_RIV": 41404739, "LENGTH_KM": 0.69, "DIST_DN_KM": 68.0, "DIST_UP_KM": 4.3, "CATCH_SKM": 6.6, "UPLAND_SKM": 6.6, "ENDORHEIC": 0, "DIS_AV_CMS": 0.218, "ORD_STRA": 1, "ORD_CLAS": 2, "ORD_FLOW": 7, "HYBAS_L12": 4121158400.0, "Shape_Length": 0.0062499999999801048 }, "geometry": { "type": "Polygon", "coordinates": [ ] } },
{ "type": "Feature", "properties": { "HYRIV_ID": 41404863, "NEXT_DOWN": 41404835, "MAIN_RIV": 41404739, "LENGTH_KM": 1.4400001, "DIST_DN_KM": 28.4, "DIST_UP_KM": 4.0, "CATCH_SKM": 5.54, "UPLAND_SKM": 5.5, "ENDORHEIC": 0, "DIS_AV_CMS": 0.18, "ORD_STRA": 1, "ORD_CLAS": 4, "ORD_FLOW": 7, "HYBAS_L12": 4121158330.0, "Shape_Length": 0.01300550143142639 }, "geometry": { "type": "Polygon", "coordinates": [ ] } },
{ "type": "Feature", "properties": { "HYRIV_ID": 41404864, "NEXT_DOWN": 41404854, "MAIN_RIV": 41404739, "LENGTH_KM": 5.2199998, "DIST_DN_KM": 51.8, "DIST_UP_KM": 7.5, "CATCH_SKM": 14.7, "UPLAND_SKM": 14.7, "ENDORHEIC": 0, "DIS_AV_CMS": 0.486, "ORD_STRA": 1, "ORD_CLAS": 3, "ORD_FLOW": 7, "HYBAS_L12": 4121158390.0, "Shape_Length": 0.047201779686411302 }, "geometry": { "type": "Polygon", "coordinates": [ ] } },
{ "type": "Feature", "properties": { "HYRIV_ID": 41404883, "NEXT_DOWN": 41404935, "MAIN_RIV": 41404739, "LENGTH_KM": 1.4400001, "DIST_DN_KM": 48.900002, "DIST_UP_KM": 3.1, "CATCH_SKM": 3.83, "UPLAND_SKM": 3.8, "ENDORHEIC": 0, "DIS_AV_CMS": 0.124, "ORD_STRA": 1, "ORD_CLAS": 3, "ORD_FLOW": 7, "HYBAS_L12": 4121158390.0, "Shape_Length": 0.01300550143161559 }, "geometry": { "type": "Polygon", "coordinates": [ ] } },
{ "type": "Feature", "properties": { "HYRIV_ID": 41404884, "NEXT_DOWN": 41404935, "MAIN_RIV": 41404739, "LENGTH_KM": 2.23, "DIST_DN_KM": 49.099998, "DIST_UP_KM": 22.1, "CATCH_SKM": 6.1799998, "UPLAND_SKM": 108.8, "ENDORHEIC": 0, "DIS_AV_CMS": 3.471, "ORD_STRA": 2, "ORD_CLAS": 2, "ORD_FLOW": 6, "HYBAS_L12": 4121158390.0, "Shape_Length": 0.020118446353030537 }, "geometry": { "type": "Polygon", "coordinates": [ ] } },
{ "type": "Feature", "properties": { "HYRIV_ID": 41404885, "NEXT_DOWN": 41405019, "MAIN_RIV": 41404739, "LENGTH_KM": 3.2, "DIST_DN_KM": 68.199997, "DIST_UP_KM": 6.0, "CATCH_SKM": 9.37, "UPLAND_SKM": 9.4, "ENDORHEIC": 0, "DIS_AV_CMS": 0.31600001, "ORD_STRA": 1, "ORD_CLAS": 1, "ORD_FLOW": 7, "HYBAS_L12": 4121158400.0, "Shape_Length": 0.028957281117951376 }, "geometry": { "type": "Polygon", "coordinates": [ ] } },
{ "type": "Feature", "properties": { "HYRIV_ID": 41404935, "NEXT_DOWN": 41404947, "MAIN_RIV": 41404739, "LENGTH_KM": 1.77, "DIST_DN_KM": 47.3, "DIST_UP_KM": 23.9, "CATCH_SKM": 5.1100001, "UPLAND_SKM": 117.8, "ENDORHEIC": 0, "DIS_AV_CMS": 3.7579999, "ORD_STRA": 2, "ORD_CLAS": 2, "ORD_FLOW": 6, "HYBAS_L12": 4121158390.0, "Shape_Length": 0.015951779686468145 }, "geometry": { "type": "Polygon", "coordinates": [ ] } },
{ "type": "Feature", "properties": { "HYRIV_ID": 41404946, "NEXT_DOWN": 41404973, "MAIN_RIV": 41404739, "LENGTH_KM": 0.69, "DIST_DN_KM": 45.099998, "DIST_UP_KM": 2.2, "CATCH_SKM": 3.83, "UPLAND_SKM": 3.8, "ENDORHEIC": 0, "DIS_AV_CMS": 0.126, "ORD_STRA": 1, "ORD_CLAS": 3, "ORD_FLOW": 7, "HYBAS_L12": 4121158390.0, "Shape_Length": 0.0062499999999801048 }, "geometry": { "type": "Polygon", "coordinates": [ ] } },
{ "type": "Feature", "properties": { "HYRIV_ID": 41404947, "NEXT_DOWN": 41404973, "MAIN_RIV": 41404739, "LENGTH_KM": 2.03, "DIST_DN_KM": 45.099998, "DIST_UP_KM": 26.1, "CATCH_SKM": 4.4699998, "UPLAND_SKM": 127.1, "ENDORHEIC": 0, "DIS_AV_CMS": 4.0630002, "ORD_STRA": 2, "ORD_CLAS": 2, "ORD_FLOW": 6, "HYBAS_L12": 4121158390.0, "Shape_Length": 0.018392556509827823 }, "geometry": { "type": "Polygon", "coordinates": [ ] } },
{ "type": "Feature", "properties": { "HYRIV_ID": 41404948, "NEXT_DOWN": 41404947, "MAIN_RIV": 41404739, "LENGTH_KM": 1.8, "DIST_DN_KM": 47.099998, "DIST_UP_KM": 3.6, "CATCH_SKM": 4.9, "UPLAND_SKM": 4.9, "ENDORHEIC": 0, "DIS_AV_CMS": 0.16500001, "ORD_STRA": 1, "ORD_CLAS": 3, "ORD_FLOW": 7, "HYBAS_L12": 4121158390.0, "Shape_Length": 0.016309223176451313 }, "geometry": { "type": "Polygon", "coordinates": [ ] } },
{ "type": "Feature", "properties": { "HYRIV_ID": 41404972, "NEXT_DOWN": 41405017, "MAIN_RIV": 41404739, "LENGTH_KM": 0.69, "DIST_DN_KM": 43.3, "DIST_UP_KM": 2.5, "CATCH_SKM": 3.4100001, "UPLAND_SKM": 3.4, "ENDORHEIC": 0, "DIS_AV_CMS": 0.113, "ORD_STRA": 1, "ORD_CLAS": 3, "ORD_FLOW": 7, "HYBAS_L12": 4121158390.0, "Shape_Length": 0.0062499999999943157 }, "geometry": { "type": "Polygon", "coordinates": [ ] } },
{ "type": "Feature", "properties": { "HYRIV_ID": 41404973, "NEXT_DOWN": 41405017, "MAIN_RIV": 41404739, "LENGTH_KM": 1.76, "DIST_DN_KM": 43.5, "DIST_UP_KM": 27.700001, "CATCH_SKM": 2.34, "UPLAND_SKM": 133.3, "ENDORHEIC": 0, "DIS_AV_CMS": 4.2610002, "ORD_STRA": 2, "ORD_CLAS": 2, "ORD_FLOW": 6, "HYBAS_L12": 4121158390.0, "Shape_Length": 0.015951779686514941 }, "geometry": { "type": "Polygon", "coordinates": [ ] } },
{ "type": "Feature", "properties": { "HYRIV_ID": 41404986, "NEXT_DOWN": 41405001, "MAIN_RIV": 41404739, "LENGTH_KM": 6.5, "DIST_DN_KM": 20.5, "DIST_UP_KM": 53.8, "CATCH_SKM": 15.55, "UPLAND_SKM": 538.70001, "ENDORHEIC": 0, "DIS_AV_CMS": 18.128, "ORD_STRA": 4, "ORD_CLAS": 1, "ORD_FLOW": 5, "HYBAS_L12": 4121158350.0, "Shape_Length": 0.058629449216098195 }, "geometry": { "type": "Polygon", "coordinates": [ ] } },
{ "type": "Feature", "properties": { "HYRIV_ID": 41404987, "NEXT_DOWN": 41405073, "MAIN_RIV": 41404739, "LENGTH_KM": 2.09, "DIST_DN_KM": 51.599998, "DIST_UP_KM": 4.7, "CATCH_SKM": 7.0300002, "UPLAND_SKM": 7.0, "ENDORHEIC": 0, "DIS_AV_CMS": 0.23800001, "ORD_STRA": 1, "ORD_CLAS": 2, "ORD_FLOW": 7, "HYBAS_L12": 4121158400.0, "Shape_Length": 0.018898057941339072 }, "geometry": { "type": "Polygon", "coordinates": [ ] } },
{ "type": "Feature", "properties": { "HYRIV_ID": 41404988, "NEXT_DOWN": 41405002, "MAIN_RIV": 41404739, "LENGTH_KM": 0.69, "DIST_DN_KM": 65.900002, "DIST_UP_KM": 2.9, "CATCH_SKM": 3.83, "UPLAND_SKM": 3.8, "ENDORHEIC": 0, "DIS_AV_CMS": 0.131, "ORD_STRA": 1, "ORD_CLAS": 4, "ORD_FLOW": 7, "HYBAS_L12": 4121158400.0, "Shape_Length": 0.0062500000000227374 }, "geometry": { "type": "Polygon", "coordinates": [ ] } },
{ "type": "Feature", "properties": { "HYRIV_ID": 41404989, "NEXT_DOWN": 41405002, "MAIN_RIV": 41404739, "LENGTH_KM": 2.74, "DIST_DN_KM": 66.099998, "DIST_UP_KM": 5.3, "CATCH_SKM": 7.8800001, "UPLAND_SKM": 7.9, "ENDORHEIC": 0, "DIS_AV_CMS": 0.271, "ORD_STRA": 1, "ORD_CLAS": 3, "ORD_FLOW": 7, "HYBAS_L12": 4121158400.0, "Shape_Length": 0.02479061445122821 }, "geometry": { "type": "Polygon", "coordinates": [ ] } },
{ "type": "Feature", "properties": { "HYRIV_ID": 41405001, "NEXT_DOWN": 41404769, "MAIN_RIV": 41404739, "LENGTH_KM": 14.32, "DIST_DN_KM": 6.2, "DIST_UP_KM": 68.099998, "CATCH_SKM": 36.209999, "UPLAND_SKM": 757.79999, "ENDORHEIC": 0, "DIS_AV_CMS": 25.003, "ORD_STRA": 4, "ORD_CLAS": 1, "ORD_FLOW": 5, "HYBAS_L12": 4120049070.0, "Shape_Length": 0.12904401145200622 }, "geometry": { "type": "Polygon", "coordinates": [ ] } },
{ "type": "Feature", "properties": { "HYRIV_ID": 41405002, "NEXT_DOWN": 41405021, "MAIN_RIV": 41404739, "LENGTH_KM": 1.5700001, "DIST_DN_KM": 64.300003, "DIST_UP_KM": 7.1, "CATCH_SKM": 2.98, "UPLAND_SKM": 14.7, "ENDORHEIC": 0, "DIS_AV_CMS": 0.505, "ORD_STRA": 2, "ORD_CLAS": 3, "ORD_FLOW": 7, "HYBAS_L12": 4121158400.0, "Shape_Length": 0.01422588984341212 }, "geometry": { "type": "Polygon", "coordinates": [ ] } },
{ "type": "Feature", "properties": { "HYRIV_ID": 41405013, "NEXT_DOWN": 41405014, "MAIN_RIV": 41404739, "LENGTH_KM": 0.69, "DIST_DN_KM": 27.9, "DIST_UP_KM": 2.7, "CATCH_SKM": 4.0500002, "UPLAND_SKM": 4.0, "ENDORHEIC": 0, "DIS_AV_CMS": 0.133, "ORD_STRA": 1, "ORD_CLAS": 2, "ORD_FLOW": 7, "HYBAS_L12": 4121158350.0, "Shape_Length": 0.0062499999999658939 }, "geometry": { "type": "Polygon", "coordinates": [ ] } },
{ "type": "Feature", "properties": { "HYRIV_ID": 41405014, "NEXT_DOWN": 41404986, "MAIN_RIV": 41404739, "LENGTH_KM": 1.12, "DIST_DN_KM": 27.0, "DIST_UP_KM": 47.3, "CATCH_SKM": 2.34, "UPLAND_SKM": 507.20001, "ENDORHEIC": 0, "DIS_AV_CMS": 17.096001, "ORD_STRA": 4, "ORD_CLAS": 1, "ORD_FLOW": 5, "HYBAS_L12": 4121158350.0, "Shape_Length": 0.010059223176625803 }, "geometry": { "type": "Polygon", "coordinates": [ ] } },
{ "type": "Feature", "properties": { "HYRIV_ID": 41405015, "NEXT_DOWN": 41404986, "MAIN_RIV": 41404739, "LENGTH_KM": 1.3, "DIST_DN_KM": 27.0, "DIST_UP_KM": 6.2, "CATCH_SKM": 1.49, "UPLAND_SKM": 16.0, "ENDORHEIC": 0, "DIS_AV_CMS": 0.52899998, "ORD_STRA": 2, "ORD_CLAS": 2, "ORD_FLOW": 7, "HYBAS_L12": 4121158350.0, "Shape_Length": 0.011785113019805267 }, "geometry": { "type": "Polygon", "coordinates": [ ] } },
{ "type": "Feature", "properties": { "HYRIV_ID": 41405016, "NEXT_DOWN": 41405015, "MAIN_RIV": 41404739, "LENGTH_KM": 3.11, "DIST_DN_KM": 28.3, "DIST_UP_KM": 4.9, "CATCH_SKM": 9.37, "UPLAND_SKM": 9.4, "ENDORHEIC": 0, "DIS_AV_CMS": 0.309, "ORD_STRA": 1, "ORD_CLAS": 2, "ORD_FLOW": 7, "HYBAS_L12": 4121158350.0, "Shape_Length": 0.028094336196197715 }, "geometry": { "type": "Polygon", "coordinates": [ ] } },
{ "type": "Feature", "properties": { "HYRIV_ID": 41405017, "NEXT_DOWN": 41405071, "MAIN_RIV": 41404739, "LENGTH_KM": 1.77, "DIST_DN_KM": 41.599998, "DIST_UP_KM": 29.6, "CATCH_SKM": 2.98, "UPLAND_SKM": 139.7, "ENDORHEIC": 0, "DIS_AV_CMS": 4.4660001, "ORD_STRA": 2, "ORD_CLAS": 2, "ORD_FLOW": 6, "HYBAS_L12": 4121158390.0, "Shape_Length": 0.015951779686417901 }, "geometry": { "type": "Polygon", "coordinates": [ ] } },
{ "type": "Feature", "properties": { "HYRIV_ID": 41405018, "NEXT_DOWN": 41405073, "MAIN_RIV": 41404739, "LENGTH_KM": 1.12, "DIST_DN_KM": 51.8, "DIST_UP_KM": 22.4, "CATCH_SKM": 1.28, "UPLAND_SKM": 148.5, "ENDORHEIC": 0, "DIS_AV_CMS": 5.1129999, "ORD_STRA": 3, "ORD_CLAS": 1, "ORD_FLOW": 6, "HYBAS_L12": 4121158400.0, "Shape_Length": 0.010059223176545413 }, "geometry": { "type": "Polygon", "coordinates": [ ] } },
{ "type": "Feature", "properties": { "HYRIV_ID": 41405019, "NEXT_DOWN": 41405039, "MAIN_RIV": 41404739, "LENGTH_KM": 7.6100001, "DIST_DN_KM": 60.400002, "DIST_UP_KM": 13.8, "CATCH_SKM": 22.790001, "UPLAND_SKM": 38.8, "ENDORHEIC": 0, "DIS_AV_CMS": 1.2970001, "ORD_STRA": 2, "ORD_CLAS": 1, "ORD_FLOW": 6, "HYBAS_L12": 4121158400.0, "Shape_Length": 0.068688672392660244 }, "geometry": { "type": "Polygon", "coordinates": [ ] } },
{ "type": "Feature", "properties": { "HYRIV_ID": 41405020, "NEXT_DOWN": 41405039, "MAIN_RIV": 41404739, "LENGTH_KM": 0.46, "DIST_DN_KM": 60.400002, "DIST_UP_KM": 12.2, "CATCH_SKM": 0.43, "UPLAND_SKM": 70.300003, "ENDORHEIC": 0, "DIS_AV_CMS": 2.4820001, "ORD_STRA": 3, "ORD_CLAS": 2, "ORD_FLOW": 6, "HYBAS_L12": 4121158400.0, "Shape_Length": 0.0041666666666628771 }, "geometry": { "type": "Polygon", "coordinates": [ ] } },
{ "type": "Feature", "properties": { "HYRIV_ID": 41405021, "NEXT_DOWN": 41405020, "MAIN_RIV": 41404739, "LENGTH_KM": 3.4100001, "DIST_DN_KM": 60.900002, "DIST_UP_KM": 11.8, "CATCH_SKM": 8.9499998, "UPLAND_SKM": 57.900002, "ENDORHEIC": 0, "DIS_AV_CMS": 2.0409999, "ORD_STRA": 3, "ORD_CLAS": 2, "ORD_FLOW": 6, "HYBAS_L12": 4121158400.0, "Shape_Length": 0.030892556509769659 }, "geometry": { "type": "Polygon", "coordinates": [ ] } },
{ "type": "Feature", "properties": { "HYRIV_ID": 41405036, "NEXT_DOWN": 41405015, "MAIN_RIV": 41404739, "LENGTH_KM": 1.8, "DIST_DN_KM": 28.1, "DIST_UP_KM": 4.0, "CATCH_SKM": 5.1100001, "UPLAND_SKM": 5.1, "ENDORHEIC": 0, "DIS_AV_CMS": 0.171, "ORD_STRA": 1, "ORD_CLAS": 3, "ORD_FLOW": 7, "HYBAS_L12": 4121158350.0, "Shape_Length": 0.016309223176427766 }, "geometry": { "type": "Polygon", "coordinates": [ ] } },
{ "type": "Feature", "properties": { "HYRIV_ID": 41405037, "NEXT_DOWN": 41405018, "MAIN_RIV": 41404739, "LENGTH_KM": 2.28, "DIST_DN_KM": 52.900002, "DIST_UP_KM": 4.2, "CATCH_SKM": 4.6900001, "UPLAND_SKM": 4.7, "ENDORHEIC": 0, "DIS_AV_CMS": 0.161, "ORD_STRA": 1, "ORD_CLAS": 2, "ORD_FLOW": 7, "HYBAS_L12": 4121158400.0, "Shape_Length": 0.020623947784629074 }, "geometry": { "type": "Polygon", "coordinates": [ ] } },
{ "type": "Feature", "properties": { "HYRIV_ID": 41405038, "NEXT_DOWN": 41405050, "MAIN_RIV": 41404739, "LENGTH_KM": 3.21, "DIST_DN_KM": 58.900002, "DIST_UP_KM": 5.1, "CATCH_SKM": 5.96, "UPLAND_SKM": 6.0, "ENDORHEIC": 0, "DIS_AV_CMS": 0.203, "ORD_STRA": 1, "ORD_CLAS": 2, "ORD_FLOW": 7, "HYBAS_L12": 4121158400.0, "Shape_Length": 0.028957281117866111 }, "geometry": { "type": "Polygon", "coordinates": [ ] } },
{ "type": "Feature", "properties": { "HYRIV_ID": 41405039, "NEXT_DOWN": 41405050, "MAIN_RIV": 41404739, "LENGTH_KM": 1.5700001, "DIST_DN_KM": 59.0, "DIST_UP_KM": 15.2, "CATCH_SKM": 1.92, "UPLAND_SKM": 111.0, "ENDORHEIC": 0, "DIS_AV_CMS": 3.839, "ORD_STRA": 3, "ORD_CLAS": 1, "ORD_FLOW": 6, "HYBAS_L12": 4121158400.0, "Shape_Length": 0.014225889843238436 }, "geometry": { "type": "Polygon", "coordinates": [ ] } },
{ "type": "Feature", "properties": { "HYRIV_ID": 41405050, "NEXT_DOWN": 41405075, "MAIN_RIV": 41404739, "LENGTH_KM": 1.11, "DIST_DN_KM": 57.900002, "DIST_UP_KM": 16.3, "CATCH_SKM": 1.49, "UPLAND_SKM": 118.4, "ENDORHEIC": 0, "DIS_AV_CMS": 4.0900002, "ORD_STRA": 3, "ORD_CLAS": 1, "ORD_FLOW": 6, "HYBAS_L12": 4121158400.0, "Shape_Length": 0.010059223176575559 }, "geometry": { "type": "Polygon", "coordinates": [ ] } },
{ "type": "Feature", "properties": { "HYRIV_ID": 41405051, "NEXT_DOWN": 41405021, "MAIN_RIV": 41404739, "LENGTH_KM": 1.77, "DIST_DN_KM": 64.5, "DIST_UP_KM": 8.2, "CATCH_SKM": 2.34, "UPLAND_SKM": 34.3, "ENDORHEIC": 0, "DIS_AV_CMS": 1.2309999, "ORD_STRA": 2, "ORD_CLAS": 2, "ORD_FLOW": 6, "HYBAS_L12": 4121158400.0, "Shape_Length": 0.015951779686460534 }, "geometry": { "type": "Polygon", "coordinates": [ ] } },
{ "type": "Feature", "properties": { "HYRIV_ID": 41405052, "NEXT_DOWN": 41405051, "MAIN_RIV": 41404739, "LENGTH_KM": 3.28, "DIST_DN_KM": 66.099998, "DIST_UP_KM": 5.2, "CATCH_SKM": 12.14, "UPLAND_SKM": 12.1, "ENDORHEIC": 0, "DIS_AV_CMS": 0.43, "ORD_STRA": 1, "ORD_CLAS": 3, "ORD_FLOW": 7, "HYBAS_L12": 4121158400.0, "Shape_Length": 0.029672168098245279 }, "geometry": { "type": "Polygon", "coordinates": [ ] } },
{ "type": "Feature", "properties": { "HYRIV_ID": 41405069, "NEXT_DOWN": 41405014, "MAIN_RIV": 41404739, "LENGTH_KM": 1.39, "DIST_DN_KM": 27.9, "DIST_UP_KM": 46.3, "CATCH_SKM": 2.34, "UPLAND_SKM": 500.79999, "ENDORHEIC": 0, "DIS_AV_CMS": 16.885, "ORD_STRA": 4, "ORD_CLAS": 1, "ORD_FLOW": 5, "HYBAS_L12": 4121158350.0, "Shape_Length": 0.012500000000017053 }, "geometry": { "type": "Polygon", "coordinates": [ ] } },
{ "type": "Feature", "properties": { "HYRIV_ID": 41405070, "NEXT_DOWN": 41405092, "MAIN_RIV": 41404739, "LENGTH_KM": 2.46, "DIST_DN_KM": 38.400002, "DIST_UP_KM": 5.1, "CATCH_SKM": 10.44, "UPLAND_SKM": 10.4, "ENDORHEIC": 0, "DIS_AV_CMS": 0.348, "ORD_STRA": 1, "ORD_CLAS": 2, "ORD_FLOW": 7, "HYBAS_L12": 4121158350.0, "Shape_Length": 0.022201779686438199 }, "geometry": { "type": "Polygon", "coordinates": [ ] } },
{ "type": "Feature", "properties": { "HYRIV_ID": 41405071, "NEXT_DOWN": 41405092, "MAIN_RIV": 41404739, "LENGTH_KM": 3.34, "DIST_DN_KM": 38.200001, "DIST_UP_KM": 36.0, "CATCH_SKM": 8.9499998, "UPLAND_SKM": 344.79999, "ENDORHEIC": 0, "DIS_AV_CMS": 11.439, "ORD_STRA": 3, "ORD_CLAS": 1, "ORD_FLOW": 5, "HYBAS_L12": 4121158350.0, "Shape_Length": 0.03017766952969653 }, "geometry": { "type": "Polygon", "coordinates": [ ] } },
{ "type": "Feature", "properties": { "HYRIV_ID": 41405072, "NEXT_DOWN": 41405071, "MAIN_RIV": 41404739, "LENGTH_KM": 5.4499998, "DIST_DN_KM": 41.599998, "DIST_UP_KM": 32.700001, "CATCH_SKM": 17.469999, "UPLAND_SKM": 196.2, "ENDORHEIC": 0, "DIS_AV_CMS": 6.6880002, "ORD_STRA": 3, "ORD_CLAS": 1, "ORD_FLOW": 6, "HYBAS_L12": 4121158400.0, "Shape_Length": 0.049285113019677571 }, "geometry": { "type": "Polygon", "coordinates": [ ] } },
{ "type": "Feature", "properties": { "HYRIV_ID": 41405073, "NEXT_DOWN": 41405072, "MAIN_RIV": 41404739, "LENGTH_KM": 4.64, "DIST_DN_KM": 47.200001, "DIST_UP_KM": 27.1, "CATCH_SKM": 12.35, "UPLAND_SKM": 167.8, "ENDORHEIC": 0, "DIS_AV_CMS": 5.7480001, "ORD_STRA": 3, "ORD_CLAS": 1, "ORD_FLOW": 6, "HYBAS_L12": 4121158400.0, "Shape_Length": 0.041962782549461605 }, "geometry": { "type": "Polygon", "coordinates": [ ] } },
{ "type": "Feature", "properties": { "HYRIV_ID": 41405074, "NEXT_DOWN": 41405018, "MAIN_RIV": 41404739, "LENGTH_KM": 2.04, "DIST_DN_KM": 52.8, "DIST_UP_KM": 21.5, "CATCH_SKM": 5.33, "UPLAND_SKM": 142.5, "ENDORHEIC": 0, "DIS_AV_CMS": 4.914, "ORD_STRA": 3, "ORD_CLAS": 1, "ORD_FLOW": 6, "HYBAS_L12": 4121158400.0, "Shape_Length": 0.018392556509887102 }, "geometry": { "type": "Polygon", "coordinates": [ ] } },
{ "type": "Feature", "properties": { "HYRIV_ID": 41405075, "NEXT_DOWN": 41405074, "MAIN_RIV": 41404739, "LENGTH_KM": 2.95, "DIST_DN_KM": 55.0, "DIST_UP_KM": 19.3, "CATCH_SKM": 7.2399998, "UPLAND_SKM": 132.10001, "ENDORHEIC": 0, "DIS_AV_CMS": 4.5570002, "ORD_STRA": 3, "ORD_CLAS": 1, "ORD_FLOW": 6, "HYBAS_L12": 4121158400.0, "Shape_Length": 0.026725889843253765 }, "geometry": { "type": "Polygon", "coordinates": [ ] } },
{ "type": "Feature", "properties": { "HYRIV_ID": 41405091, "NEXT_DOWN": 41405109, "MAIN_RIV": 41404739, "LENGTH_KM": 1.35, "DIST_DN_KM": 37.8, "DIST_UP_KM": 4.3, "CATCH_SKM": 4.2600002, "UPLAND_SKM": 4.3, "ENDORHEIC": 0, "DIS_AV_CMS": 0.142, "ORD_STRA": 1, "ORD_CLAS": 2, "ORD_FLOW": 7, "HYBAS_L12": 4121158350.0, "Shape_Length": 0.01214255650994963 }, "geometry": { "type": "Polygon", "coordinates": [ ] } },
{ "type": "Feature", "properties": { "HYRIV_ID": 41405092, "NEXT_DOWN": 41405109, "MAIN_RIV": 41404739, "LENGTH_KM": 0.65, "DIST_DN_KM": 37.8, "DIST_UP_KM": 36.5, "CATCH_SKM": 0.43, "UPLAND_SKM": 355.70001, "ENDORHEIC": 0, "DIS_AV_CMS": 11.801, "ORD_STRA": 3, "ORD_CLAS": 1, "ORD_FLOW": 5, "HYBAS_L12": 4121158350.0, "Shape_Length": 0.0058925565098724882 }, "geometry": { "type": "Polygon", "coordinates": [ ] } },
{ "type": "Feature", "properties": { "HYRIV_ID": 41405093, "NEXT_DOWN": 41405072, "MAIN_RIV": 41404739, "LENGTH_KM": 1.11, "DIST_DN_KM": 47.200001, "DIST_UP_KM": 5.2, "CATCH_SKM": 0.85, "UPLAND_SKM": 10.9, "ENDORHEIC": 0, "DIS_AV_CMS": 0.382, "ORD_STRA": 2, "ORD_CLAS": 2, "ORD_FLOW": 7, "HYBAS_L12": 4121158400.0, "Shape_Length": 0.010059223176485419 }, "geometry": { "type": "Polygon", "coordinates": [ ] } },
{ "type": "Feature", "properties": { "HYRIV_ID": 41405094, "NEXT_DOWN": 41405075, "MAIN_RIV": 41404739, "LENGTH_KM": 1.4400001, "DIST_DN_KM": 57.700001, "DIST_UP_KM": 4.0, "CATCH_SKM": 6.39, "UPLAND_SKM": 6.4, "ENDORHEIC": 0, "DIS_AV_CMS": 0.228, "ORD_STRA": 1, "ORD_CLAS": 2, "ORD_FLOW": 7, "HYBAS_L12": 4121158400.0, "Shape_Length": 0.013005501431456536 }, "geometry": { "type": "Polygon", "coordinates": [ ] } },
{ "type": "Feature", "properties": { "HYRIV_ID": 41405108, "NEXT_DOWN": 41405069, "MAIN_RIV": 41404739, "LENGTH_KM": 3.53, "DIST_DN_KM": 29.3, "DIST_UP_KM": 44.900002, "CATCH_SKM": 5.54, "UPLAND_SKM": 486.10001, "ENDORHEIC": 0, "DIS_AV_CMS": 16.389, "ORD_STRA": 4, "ORD_CLAS": 1, "ORD_FLOW": 5, "HYBAS_L12": 4121158350.0, "Shape_Length": 0.031903559372829203 }, "geometry": { "type": "Polygon", "coordinates": [ ] } },
{ "type": "Feature", "properties": { "HYRIV_ID": 41405109, "NEXT_DOWN": 41405120, "MAIN_RIV": 41404739, "LENGTH_KM": 1.11, "DIST_DN_KM": 36.5, "DIST_UP_KM": 37.8, "CATCH_SKM": 2.1300001, "UPLAND_SKM": 362.10001, "ENDORHEIC": 0, "DIS_AV_CMS": 12.016, "ORD_STRA": 3, "ORD_CLAS": 1, "ORD_FLOW": 5, "HYBAS_L12": 4121158350.0, "Shape_Length": 0.010059223176585608 }, "geometry": { "type": "Polygon", "coordinates": [ ] } },
{ "type": "Feature", "properties": { "HYRIV_ID": 41405110, "NEXT_DOWN": 41405093, "MAIN_RIV": 41404739, "LENGTH_KM": 0.69, "DIST_DN_KM": 48.099998, "DIST_UP_KM": 2.7, "CATCH_SKM": 3.1900001, "UPLAND_SKM": 3.2, "ENDORHEIC": 0, "DIS_AV_CMS": 0.113, "ORD_STRA": 1, "ORD_CLAS": 3, "ORD_FLOW": 7, "HYBAS_L12": 4121158400.0, "Shape_Length": 0.0062499999999943157 }, "geometry": { "type": "Polygon", "coordinates": [ ] } },
{ "type": "Feature", "properties": { "HYRIV_ID": 41405111, "NEXT_DOWN": 41405074, "MAIN_RIV": 41404739, "LENGTH_KM": 1.4400001, "DIST_DN_KM": 54.8, "DIST_UP_KM": 3.2, "CATCH_SKM": 5.1100001, "UPLAND_SKM": 5.1, "ENDORHEIC": 0, "DIS_AV_CMS": 0.182, "ORD_STRA": 1, "ORD_CLAS": 2, "ORD_FLOW": 7, "HYBAS_L12": 4121158400.0, "Shape_Length": 0.013005501431532764 }, "geometry": { "type": "Polygon", "coordinates": [ ] } },
{ "type": "Feature", "properties": { "HYRIV_ID": 41405119, "NEXT_DOWN": 41404769, "MAIN_RIV": 41404739, "LENGTH_KM": 11.91, "DIST_DN_KM": 6.2, "DIST_UP_KM": 14.6, "CATCH_SKM": 26.629999, "UPLAND_SKM": 26.6, "ENDORHEIC": 0, "DIS_AV_CMS": 0.85799998, "ORD_STRA": 1, "ORD_CLAS": 2, "ORD_FLOW": 7, "HYBAS_L12": 4120049070.0, "Shape_Length": 0.10726100286294625 }, "geometry": { "type": "Polygon", "coordinates": [ ] } },
{ "type": "Feature", "properties": { "HYRIV_ID": 41405120, "NEXT_DOWN": 41405108, "MAIN_RIV": 41404739, "LENGTH_KM": 3.6, "DIST_DN_KM": 32.8, "DIST_UP_KM": 41.400002, "CATCH_SKM": 7.46, "UPLAND_SKM": 462.20001, "ENDORHEIC": 0, "DIS_AV_CMS": 15.567, "ORD_STRA": 4, "ORD_CLAS": 1, "ORD_FLOW": 5, "HYBAS_L12": 4121158350.0, "Shape_Length": 0.0326184463531363 }, "geometry": { "type": "Polygon", "coordinates": [ ] } },
{ "type": "Feature", "properties": { "HYRIV_ID": 41405121, "NEXT_DOWN": 41405093, "MAIN_RIV": 41404739, "LENGTH_KM": 2.36, "DIST_DN_KM": 48.099998, "DIST_UP_KM": 4.3, "CATCH_SKM": 6.8200002, "UPLAND_SKM": 6.8, "ENDORHEIC": 0, "DIS_AV_CMS": 0.24, "ORD_STRA": 1, "ORD_CLAS": 2, "ORD_FLOW": 7, "HYBAS_L12": 4121158400.0, "Shape_Length": 0.021338834764872729 }, "geometry": { "type": "Polygon", "coordinates": [ ] } },
{ "type": "Feature", "properties": { "HYRIV_ID": 41405135, "NEXT_DOWN": 41405120, "MAIN_RIV": 41404739, "LENGTH_KM": 1.12, "DIST_DN_KM": 36.5, "DIST_UP_KM": 16.9, "CATCH_SKM": 0.64, "UPLAND_SKM": 92.699997, "ENDORHEIC": 0, "DIS_AV_CMS": 3.2969999, "ORD_STRA": 3, "ORD_CLAS": 2, "ORD_FLOW": 6, "HYBAS_L12": 4121158350.0, "Shape_Length": 0.010059223176535365 }, "geometry": { "type": "Polygon", "coordinates": [ ] } },
{ "type": "Feature", "properties": { "HYRIV_ID": 41405136, "NEXT_DOWN": 41405051, "MAIN_RIV": 41404739, "LENGTH_KM": 2.51, "DIST_DN_KM": 66.099998, "DIST_UP_KM": 6.6, "CATCH_SKM": 7.46, "UPLAND_SKM": 19.8, "ENDORHEIC": 0, "DIS_AV_CMS": 0.72, "ORD_STRA": 2, "ORD_CLAS": 2, "ORD_FLOW": 7, "HYBAS_L12": 4121158400.0, "Shape_Length": 0.022559223176626206 }, "geometry": { "type": "Polygon", "coordinates": [ ] } },
{ "type": "Feature", "properties": { "HYRIV_ID": 41405154, "NEXT_DOWN": 41405020, "MAIN_RIV": 41404739, "LENGTH_KM": 4.3200002, "DIST_DN_KM": 60.900002, "DIST_UP_KM": 6.5, "CATCH_SKM": 11.93, "UPLAND_SKM": 11.9, "ENDORHEIC": 0, "DIS_AV_CMS": 0.428, "ORD_STRA": 1, "ORD_CLAS": 3, "ORD_FLOW": 7, "HYBAS_L12": 4121158400.0, "Shape_Length": 0.038868446353116405 }, "geometry": { "type": "Polygon", "coordinates": [ ] } },
{ "type": "Feature", "properties": { "HYRIV_ID": 41405169, "NEXT_DOWN": 41405135, "MAIN_RIV": 41404739, "LENGTH_KM": 1.4400001, "DIST_DN_KM": 37.599998, "DIST_UP_KM": 3.8, "CATCH_SKM": 3.83, "UPLAND_SKM": 3.8, "ENDORHEIC": 0, "DIS_AV_CMS": 0.134, "ORD_STRA": 1, "ORD_CLAS": 4, "ORD_FLOW": 7, "HYBAS_L12": 4121158350.0, "Shape_Length": 0.013005501431629801 }, "geometry": { "type": "Polygon", "coordinates": [ ] } },
{ "type": "Feature", "properties": { "HYRIV_ID": 41405170, "NEXT_DOWN": 41405136, "MAIN_RIV": 41404739, "LENGTH_KM": 2.09, "DIST_DN_KM": 68.599998, "DIST_UP_KM": 3.5, "CATCH_SKM": 5.54, "UPLAND_SKM": 5.5, "ENDORHEIC": 0, "DIS_AV_CMS": 0.203, "ORD_STRA": 1, "ORD_CLAS": 3, "ORD_FLOW": 7, "HYBAS_L12": 4121158400.0, "Shape_Length": 0.018898057941289126 }, "geometry": { "type": "Polygon", "coordinates": [ ] } },
{ "type": "Feature", "properties": { "HYRIV_ID": 41405178, "NEXT_DOWN": 41405069, "MAIN_RIV": 41404739, "LENGTH_KM": 3.85, "DIST_DN_KM": 29.5, "DIST_UP_KM": 6.1, "CATCH_SKM": 12.36, "UPLAND_SKM": 12.4, "ENDORHEIC": 0, "DIS_AV_CMS": 0.419, "ORD_STRA": 1, "ORD_CLAS": 2, "ORD_FLOW": 7, "HYBAS_L12": 4121158350.0, "Shape_Length": 0.034701779686419222 }, "geometry": { "type": "Polygon", "coordinates": [ ] } },
{ "type": "Feature", "properties": { "HYRIV_ID": 41405179, "NEXT_DOWN": 41405135, "MAIN_RIV": 41404739, "LENGTH_KM": 4.7199998, "DIST_DN_KM": 37.599998, "DIST_UP_KM": 15.7, "CATCH_SKM": 10.22, "UPLAND_SKM": 72.599998, "ENDORHEIC": 0, "DIS_AV_CMS": 2.5940001, "ORD_STRA": 3, "ORD_CLAS": 2, "ORD_FLOW": 6, "HYBAS_L12": 4121158350.0, "Shape_Length": 0.042677669529758655 }, "geometry": { "type": "Polygon", "coordinates": [ ] } },
{ "type": "Feature", "properties": { "HYRIV_ID": 41405202, "NEXT_DOWN": 41405136, "MAIN_RIV": 41404739, "LENGTH_KM": 2.27, "DIST_DN_KM": 68.599998, "DIST_UP_KM": 4.1, "CATCH_SKM": 6.8200002, "UPLAND_SKM": 6.8, "ENDORHEIC": 0, "DIS_AV_CMS": 0.251, "ORD_STRA": 1, "ORD_CLAS": 2, "ORD_FLOW": 7, "HYBAS_L12": 4121158400.0, "Shape_Length": 0.020475889843157239 }, "geometry": { "type": "Polygon", "coordinates": [ ] } },
{ "type": "Feature", "properties": { "HYRIV_ID": 41405237, "NEXT_DOWN": 41405179, "MAIN_RIV": 41404739, "LENGTH_KM": 1.58, "DIST_DN_KM": 42.3, "DIST_UP_KM": 7.5, "CATCH_SKM": 1.92, "UPLAND_SKM": 20.700001, "ENDORHEIC": 0, "DIS_AV_CMS": 0.74299997, "ORD_STRA": 2, "ORD_CLAS": 3, "ORD_FLOW": 7, "HYBAS_L12": 4121158350.0, "Shape_Length": 0.014225889843224225 }, "geometry": { "type": "Polygon", "coordinates": [ ] } },
{ "type": "Feature", "properties": { "HYRIV_ID": 41405250, "NEXT_DOWN": 41405237, "MAIN_RIV": 41404739, "LENGTH_KM": 1.15, "DIST_DN_KM": 43.900002, "DIST_UP_KM": 3.3, "CATCH_SKM": 5.33, "UPLAND_SKM": 5.3, "ENDORHEIC": 0, "DIS_AV_CMS": 0.19, "ORD_STRA": 1, "ORD_CLAS": 4, "ORD_FLOW": 7, "HYBAS_L12": 4121158350.0, "Shape_Length": 0.010416666666742458 }, "geometry": { "type": "Polygon", "coordinates": [ ] } },
{ "type": "Feature", "properties": { "HYRIV_ID": 41405251, "NEXT_DOWN": 41405179, "MAIN_RIV": 41404739, "LENGTH_KM": 5.83, "DIST_DN_KM": 42.3, "DIST_UP_KM": 11.0, "CATCH_SKM": 17.889999, "UPLAND_SKM": 41.8, "ENDORHEIC": 0, "DIS_AV_CMS": 1.502, "ORD_STRA": 2, "ORD_CLAS": 2, "ORD_FLOW": 6, "HYBAS_L12": 4121158350.0, "Shape_Length": 0.052736892706083595 }, "geometry": { "type": "Polygon", "coordinates": [ ] } },
{ "type": "Feature", "properties": { "HYRIV_ID": 41405267, "NEXT_DOWN": 41405237, "MAIN_RIV": 41404739, "LENGTH_KM": 1.3, "DIST_DN_KM": 44.099998, "DIST_UP_KM": 5.7, "CATCH_SKM": 1.92, "UPLAND_SKM": 13.4, "ENDORHEIC": 0, "DIS_AV_CMS": 0.487, "ORD_STRA": 2, "ORD_CLAS": 3, "ORD_FLOW": 7, "HYBAS_L12": 4121158350.0, "Shape_Length": 0.011785113019765073 }, "geometry": { "type": "Polygon", "coordinates": [ ] } },
{ "type": "Feature", "properties": { "HYRIV_ID": 41405268, "NEXT_DOWN": 41405251, "MAIN_RIV": 41404739, "LENGTH_KM": 3.01, "DIST_DN_KM": 48.099998, "DIST_UP_KM": 5.0, "CATCH_SKM": 14.27, "UPLAND_SKM": 14.3, "ENDORHEIC": 0, "DIS_AV_CMS": 0.51700002, "ORD_STRA": 1, "ORD_CLAS": 3, "ORD_FLOW": 7, "HYBAS_L12": 4121158350.0, "Shape_Length": 0.027231391274812108 }, "geometry": { "type": "Polygon", "coordinates": [ ] } },
{ "type": "Feature", "properties": { "HYRIV_ID": 41405280, "NEXT_DOWN": 41405108, "MAIN_RIV": 41404739, "LENGTH_KM": 6.7399998, "DIST_DN_KM": 32.8, "DIST_UP_KM": 8.9, "CATCH_SKM": 18.32, "UPLAND_SKM": 18.3, "ENDORHEIC": 0, "DIS_AV_CMS": 0.63599998, "ORD_STRA": 1, "ORD_CLAS": 2, "ORD_FLOW": 7, "HYBAS_L12": 4121158350.0, "Shape_Length": 0.060712782549501396 }, "geometry": { "type": "Polygon", "coordinates": [ ] } },
{ "type": "Feature", "properties": { "HYRIV_ID": 41405281, "NEXT_DOWN": 41405135, "MAIN_RIV": 41404739, "LENGTH_KM": 5.35, "DIST_DN_KM": 37.8, "DIST_UP_KM": 6.5, "CATCH_SKM": 15.55, "UPLAND_SKM": 15.6, "ENDORHEIC": 0, "DIS_AV_CMS": 0.547, "ORD_STRA": 1, "ORD_CLAS": 3, "ORD_FLOW": 7, "HYBAS_L12": 4121158350.0, "Shape_Length": 0.048212782549429942 }, "geometry": { "type": "Polygon", "coordinates": [ ] } },
{ "type": "Feature", "properties": { "HYRIV_ID": 41405289, "NEXT_DOWN": 41405267, "MAIN_RIV": 41404739, "LENGTH_KM": 1.16, "DIST_DN_KM": 45.200001, "DIST_UP_KM": 3.2, "CATCH_SKM": 4.9, "UPLAND_SKM": 4.9, "ENDORHEIC": 0, "DIS_AV_CMS": 0.178, "ORD_STRA": 1, "ORD_CLAS": 4, "ORD_FLOW": 7, "HYBAS_L12": 4121158350.0, "Shape_Length": 0.010416666666685614 }, "geometry": { "type": "Polygon", "coordinates": [ ] } },
{ "type": "Feature", "properties": { "HYRIV_ID": 41405290, "NEXT_DOWN": 41405267, "MAIN_RIV": 41404739, "LENGTH_KM": 2.09, "DIST_DN_KM": 45.400002, "DIST_UP_KM": 4.4, "CATCH_SKM": 6.6, "UPLAND_SKM": 6.6, "ENDORHEIC": 0, "DIS_AV_CMS": 0.241, "ORD_STRA": 1, "ORD_CLAS": 3, "ORD_FLOW": 7, "HYBAS_L12": 4121158350.0, "Shape_Length": 0.018898057941369218 }, "geometry": { "type": "Polygon", "coordinates": [ ] } },
{ "type": "Feature", "properties": { "HYRIV_ID": 41405335, "NEXT_DOWN": 41405251, "MAIN_RIV": 41404739, "LENGTH_KM": 3.48, "DIST_DN_KM": 48.3, "DIST_UP_KM": 5.0, "CATCH_SKM": 9.5900002, "UPLAND_SKM": 9.6, "ENDORHEIC": 0, "DIS_AV_CMS": 0.355, "ORD_STRA": 1, "ORD_CLAS": 2, "ORD_FLOW": 7, "HYBAS_L12": 4121158350.0, "Shape_Length": 0.031398057941396322 }, "geometry": { "type": "Polygon", "coordinates": [ ] } }
]
}
