{
"type": "FeatureCollection",
"name": "main_river_41410526",
"crs": { "type": "name", "properties": { "name": "urn:ogc:def:crs:OGC:1.3:CRS84" } },
"features": [
{ "type": "Feature", "properties": { "HYRIV_ID": 41408795, "NEXT_DOWN": 41408900, "MAIN_RIV": 41410526, "LENGTH_KM": 2.29, "DIST_DN_KM": 49.599998, "DIST_UP_KM": 3.3, "CATCH_SKM": 6.83, "UPLAND_SKM": 6.8, "ENDORHEIC": 0, "DIS_AV_CMS": 0.302, "ORD_STRA": 1, "ORD_CLAS": 4, "ORD_FLOW": 7, "HYBAS_L12": 4121159870.0, "Shape_Length": 0.02062394778458888 }, "geometry": { "type": "MultiLineString", "coordinates": [ [ [ 80.462499999999665, 6.3 ], [ 80.477083333332956, 6.285416666666556 ] ] ] } },
{ "type": "Feature", "properties": { "HYRIV_ID": 41408796, "NEXT_DOWN": 41408900, "MAIN_RIV": 41410526, "LENGTH_KM": 0.69, "DIST_DN_KM": 49.400002, "DIST_UP_KM": 3.8, "CATCH_SKM": 3.6300001, "UPLAND_SKM": 3.6, "ENDORHEIC": 0, "DIS_AV_CMS": 0.159, "ORD_STRA": 1, "ORD_CLAS": 3, "ORD_FLOW": 7, "HYBAS_L12": 4121159870.0, "Shape_Length": 0.0062500000000227374 }, "geometry": { "type": "MultiLineString", "coordinates": [ [ [ 80.477083333332956, 6.291666666666579 ], [ 80.477083333332956, 6.285416666666556 ] ] ] } },
{ "type": "Feature", "properties": { "HYRIV_ID": 41408797, "NEXT_DOWN": 41408831, "MAIN_RIV": 41410526, "LENGTH_KM": 9.8, "DIST_DN_KM": 54.200001, "DIST_UP_KM": 12.0, "CATCH_SKM": 24.32, "UPLAND_SKM": 24.3, "ENDORHEIC": 0, "DIS_AV_CMS": 0.97600001, "ORD_STRA": 1, "ORD_CLAS": 2, "ORD_FLOW": 7, "HYBAS_L12": 4121159870.0, "Shape_Length": 0.088449675255640306 }, "geometry": { "type": "MultiLineString", "coordinates": [ [ [ 80.624999999999687, 6.327083333333213 ], [ 80.618749999999608, 6.327083333333213 ], [ 80.614583333332945, 6.33125 ], [ 80.606249999999619, 6.322916666666565 ], [ 80.597916666666293, 6.322916666666565 ], [ 80.585416666666305, 6.31041666666659 ], [ 80.581249999999756, 6.31041666666659 ], [ 80.577083333332922, 6.306249999999885 ], [ 80.572916666666373, 6.306249999999885 ], [ 80.568749999999596, 6.302083333333222 ], [ 80.568749999999596, 6.29375 ], [ 80.564583333333047, 6.289583333333248 ], [ 80.564583333333047, 6.285416666666556 ] ] ] } },
{ "type": "Feature", "properties": { "HYRIV_ID": 41408798, "NEXT_DOWN": 41408831, "MAIN_RIV": 41410526, "LENGTH_KM": 0.69, "DIST_DN_KM": 54.200001, "DIST_UP_KM": 2.2, "CATCH_SKM": 2.77, "UPLAND_SKM": 2.8, "ENDORHEIC": 0, "DIS_AV_CMS": 0.112, "ORD_STRA": 1, "ORD_CLAS": 3, "ORD_FLOW": 7, "HYBAS_L12": 4121159870.0, "Shape_Length": 0.0062499999999090505 }, "geometry": { "type": "MultiLineString", "coordinates": [ [ [ 80.570833333332956, 6.285416666666556 ], [ 80.564583333333047, 6.285416666666556 ] ] ] } },
{ "type": "Feature", "properties": { "HYRIV_ID": 41408799, "NEXT_DOWN": 41408902, "MAIN_RIV": 41410526, "LENGTH_KM": 14.25, "DIST_DN_KM": 60.599998, "DIST_UP_KM": 15.7, "CATCH_SKM": 37.549999, "UPLAND_SKM": 37.5, "ENDORHEIC": 0, "DIS_AV_CMS": 1.457, "ORD_STRA": 1, "ORD_CLAS": 1, "ORD_FLOW": 6, "HYBAS_L12": 4121159900.0, "Shape_Length": 0.12868656796186947 }, "geometry": { "type": "MultiLineString", "coordinates": [ [ [ 80.687499999999631, 6.33125 ], [ 80.681249999999665, 6.33125 ], [ 80.677083333333002, 6.335416666666582 ], [ 80.672916666666339, 6.335416666666582 ], [ 80.668749999999676, 6.33125 ], [ 80.643749999999642, 6.33125 ], [ 80.62708333333299, 6.314583333333239 ], [ 80.622916666666271, 6.31875 ], [ 80.618749999999608, 6.31875 ], [ 80.614583333332945, 6.314583333333239 ], [ 80.614583333332945, 6.31041666666659 ], [ 80.610416666666282, 6.306249999999885 ], [ 80.606249999999619, 6.306249999999885 ], [ 80.602083333332956, 6.302083333333222 ], [ 80.602083333332956, 6.297916666666573 ], [ 80.593749999999631, 6.289583333333248 ], [ 80.597916666666293, 6.285416666666556 ] ] ] } },
{ "type": "Feature", "properties": { "HYRIV_ID": 41408800, "NEXT_DOWN": 41408902, "MAIN_RIV": 41410526, "LENGTH_KM": 0.69, "DIST_DN_KM": 60.400002, "DIST_UP_KM": 3.1, "CATCH_SKM": 3.6300001, "UPLAND_SKM": 3.6, "ENDORHEIC": 0, "DIS_AV_CMS": 0.14300001, "ORD_STRA": 1, "ORD_CLAS": 2, "ORD_FLOW": 7, "HYBAS_L12": 4121159900.0, "Shape_Length": 0.0062500000000227374 }, "geometry": { "type": "MultiLineString", "coordinates": [ [ [ 80.604166666666316, 6.285416666666556 ], [ 80.597916666666293, 6.285416666666556 ] ] ] } },
{ "type": "Feature", "properties": { "HYRIV_ID": 41408828, "NEXT_DOWN": 41408899, "MAIN_RIV": 41410526, "LENGTH_KM": 4.33, "DIST_DN_KM": 49.700001, "DIST_UP_KM": 6.7, "CATCH_SKM": 12.38, "UPLAND_SKM": 12.4, "ENDORHEIC": 0, "DIS_AV_CMS": 0.56699997, "ORD_STRA": 1, "ORD_CLAS": 2, "ORD_FLOW": 7, "HYBAS_L12": 4121602630.0, "Shape_Length": 0.03901650429468112 }, "geometry": { "type": "MultiLineString", "coordinates": [ [ [ 80.412499999999596, 6.3125 ], [ 80.418749999999676, 6.306249999999885 ], [ 80.418749999999676, 6.302083333333222 ], [ 80.422916666666396, 6.297916666666573 ], [ 80.418749999999676, 6.29375 ], [ 80.418749999999676, 6.289583333333248 ], [ 80.422916666666396, 6.285416666666556 ], [ 80.422916666666396, 6.281249999999893 ] ] ] } },
{ "type": "Feature", "properties": { "HYRIV_ID": 41408829, "NEXT_DOWN": 41408849, "MAIN_RIV": 41410526, "LENGTH_KM": 6.56, "DIST_DN_KM": 52.700001, "DIST_UP_KM": 9.1, "CATCH_SKM": 26.030001, "UPLAND_SKM": 26.0, "ENDORHEIC": 0, "DIS_AV_CMS": 1.074, "ORD_STRA": 1, "ORD_CLAS": 3, "ORD_FLOW": 6, "HYBAS_L12": 4121159870.0, "Shape_Length": 0.059134950647693994 }, "geometry": { "type": "MultiLineString", "coordinates": [ [ [ 80.566666666666293, 6.324999999999896 ], [ 80.556249999999721, 6.314583333333239 ], [ 80.552083333333059, 6.314583333333239 ], [ 80.547916666666339, 6.31041666666659 ], [ 80.547916666666339, 6.302083333333222 ], [ 80.552083333333059, 6.297916666666573 ], [ 80.547916666666339, 6.29375 ], [ 80.547916666666339, 6.289583333333248 ], [ 80.552083333333059, 6.285416666666556 ], [ 80.552083333333059, 6.281249999999893 ] ] ] } },
{ "type": "Feature", "properties": { "HYRIV_ID": 41408830, "NEXT_DOWN": 41408849, "MAIN_RIV": 41410526, "LENGTH_KM": 0.92, "DIST_DN_KM": 52.700001, "DIST_UP_KM": 13.6, "CATCH_SKM": 1.92, "UPLAND_SKM": 33.099998, "ENDORHEIC": 0, "DIS_AV_CMS": 1.33, "ORD_STRA": 2, "ORD_CLAS": 2, "ORD_FLOW": 6, "HYBAS_L12": 4121159870.0, "Shape_Length": 0.0083333333332120674 }, "geometry": { "type": "MultiLineString", "coordinates": [ [ [ 80.560416666666271, 6.281249999999893 ], [ 80.552083333333059, 6.281249999999893 ] ] ] } },
{ "type": "Feature", "properties": { "HYRIV_ID": 41408831, "NEXT_DOWN": 41408830, "MAIN_RIV": 41410526, "LENGTH_KM": 0.65, "DIST_DN_KM": 53.8, "DIST_UP_KM": 12.5, "CATCH_SKM": 0.21, "UPLAND_SKM": 27.3, "ENDORHEIC": 0, "DIS_AV_CMS": 1.096, "ORD_STRA": 2, "ORD_CLAS": 2, "ORD_FLOW": 6, "HYBAS_L12": 4121159870.0, "Shape_Length": 0.0058925565099629254 }, "geometry": { "type": "MultiLineString", "coordinates": [ [ [ 80.564583333333047, 6.285416666666556 ], [ 80.560416666666271, 6.281249999999893 ] ] ] } },
{ "type": "Feature", "properties": { "HYRIV_ID": 41408848, "NEXT_DOWN": 41408899, "MAIN_RIV": 41410526, "LENGTH_KM": 1.8, "DIST_DN_KM": 49.700001, "DIST_UP_KM": 3.8, "CATCH_SKM": 6.62, "UPLAND_SKM": 6.6, "ENDORHEIC": 0, "DIS_AV_CMS": 0.297, "ORD_STRA": 1, "ORD_CLAS": 3, "ORD_FLOW": 7, "HYBAS_L12": 4121602630.0, "Shape_Length": 0.016309223176487763 }, "geometry": { "type": "MultiLineString", "coordinates": [ [ [ 80.437499999999631, 6.277083333333231 ], [ 80.431249999999608, 6.277083333333231 ], [ 80.427083333333059, 6.281249999999893 ], [ 80.422916666666396, 6.281249999999893 ] ] ] } },
{ "type": "Feature", "properties": { "HYRIV_ID": 41408849, "NEXT_DOWN": 41408901, "MAIN_RIV": 41410526, "LENGTH_KM": 0.65, "DIST_DN_KM": 52.200001, "DIST_UP_KM": 14.0, "CATCH_SKM": 0.21, "UPLAND_SKM": 59.3, "ENDORHEIC": 0, "DIS_AV_CMS": 2.4130001, "ORD_STRA": 2, "ORD_CLAS": 2, "ORD_FLOW": 6, "HYBAS_L12": 4121159870.0, "Shape_Length": 0.005892556509922731 }, "geometry": { "type": "MultiLineString", "coordinates": [ [ [ 80.552083333333059, 6.281249999999893 ], [ 80.547916666666339, 6.277083333333231 ] ] ] } },
{ "type": "Feature", "properties": { "HYRIV_ID": 41408850, "NEXT_DOWN": 41408830, "MAIN_RIV": 41410526, "LENGTH_KM": 0.69, "DIST_DN_KM": 53.599998, "DIST_UP_KM": 3.2, "CATCH_SKM": 3.84, "UPLAND_SKM": 3.8, "ENDORHEIC": 0, "DIS_AV_CMS": 0.155, "ORD_STRA": 1, "ORD_CLAS": 3, "ORD_FLOW": 7, "HYBAS_L12": 4121159870.0, "Shape_Length": 0.0062499999999943157 }, "geometry": { "type": "MultiLineString", "coordinates": [ [ [ 80.560416666666271, 6.274999999999899 ], [ 80.560416666666271, 6.281249999999893 ] ] ] } },
{ "type": "Feature", "properties": { "HYRIV_ID": 41408872, "NEXT_DOWN": 41408901, "MAIN_RIV": 41410526, "LENGTH_KM": 1.62, "DIST_DN_KM": 52.0, "DIST_UP_KM": 4.5, "CATCH_SKM": 6.1900001, "UPLAND_SKM": 6.2, "ENDORHEIC": 0, "DIS_AV_CMS": 0.253, "ORD_STRA": 1, "ORD_CLAS": 3, "ORD_FLOW": 7, "HYBAS_L12": 4121159870.0, "Shape_Length": 0.014583333333362702 }, "geometry": { "type": "MultiLineString", "coordinates": [ [ [ 80.556249999999721, 6.27083333333325 ], [ 80.556249999999721, 6.277083333333231 ], [ 80.547916666666339, 6.277083333333231 ] ] ] } },
{ "type": "Feature", "properties": { "HYRIV_ID": 41408899, "NEXT_DOWN": 41409026, "MAIN_RIV": 41410526, "LENGTH_KM": 2.6900001, "DIST_DN_KM": 47.0, "DIST_UP_KM": 9.4, "CATCH_SKM": 4.48, "UPLAND_SKM": 23.5, "ENDORHEIC": 0, "DIS_AV_CMS": 1.079, "ORD_STRA": 2, "ORD_CLAS": 2, "ORD_FLOW": 6, "HYBAS_L12": 4121602630.0, "Shape_Length": 0.024285113019813995 }, "geometry": { "type": "MultiLineString", "coordinates": [ [ [ 80.422916666666396, 6.281249999999893 ], [ 80.422916666666396, 6.277083333333231 ], [ 80.418749999999676, 6.272916666666582 ], [ 80.414583333333013, 6.272916666666582 ], [ 80.41041666666635, 6.268749999999876 ], [ 80.41041666666635, 6.264583333333213 ] ] ] } },
{ "type": "Feature", "properties": { "HYRIV_ID": 41408900, "NEXT_DOWN": 41408921, "MAIN_RIV": 41410526, "LENGTH_KM": 3.54, "DIST_DN_KM": 45.900002, "DIST_UP_KM": 7.3, "CATCH_SKM": 8.96, "UPLAND_SKM": 19.4, "ENDORHEIC": 0, "DIS_AV_CMS": 0.85900003, "ORD_STRA": 2, "ORD_CLAS": 3, "ORD_FLOW": 7, "HYBAS_L12": 4121159870.0, "Shape_Length": 0.031903559372892645 }, "geometry": { "type": "MultiLineString", "coordinates": [ [ [ 80.477083333332956, 6.285416666666556 ], [ 80.489583333332945, 6.272916666666582 ], [ 80.493749999999665, 6.272916666666582 ], [ 80.497916666666271, 6.268749999999876 ], [ 80.497916666666271, 6.264583333333213 ] ] ] } },
{ "type": "Feature", "properties": { "HYRIV_ID": 41408901, "NEXT_DOWN": 41408921, "MAIN_RIV": 41410526, "LENGTH_KM": 6.1100001, "DIST_DN_KM": 45.900002, "DIST_UP_KM": 20.3, "CATCH_SKM": 21.34, "UPLAND_SKM": 86.800003, "ENDORHEIC": 0, "DIS_AV_CMS": 3.5580001, "ORD_STRA": 2, "ORD_CLAS": 2, "ORD_FLOW": 6, "HYBAS_L12": 4121159870.0, "Shape_Length": 0.05517766952973064 }, "geometry": { "type": "MultiLineString", "coordinates": [ [ [ 80.547916666666339, 6.277083333333231 ], [ 80.543749999999676, 6.272916666666582 ], [ 80.527083333333024, 6.272916666666582 ], [ 80.522916666666305, 6.268749999999876 ], [ 80.518749999999642, 6.268749999999876 ], [ 80.514583333332979, 6.264583333333213 ], [ 80.497916666666271, 6.264583333333213 ] ] ] } },
{ "type": "Feature", "properties": { "HYRIV_ID": 41408902, "NEXT_DOWN": 41409142, "MAIN_RIV": 41410526, "LENGTH_KM": 3.08, "DIST_DN_KM": 57.5, "DIST_UP_KM": 18.8, "CATCH_SKM": 5.9699998, "UPLAND_SKM": 47.200001, "ENDORHEIC": 0, "DIS_AV_CMS": 1.837, "ORD_STRA": 2, "ORD_CLAS": 1, "ORD_FLOW": 6, "HYBAS_L12": 4121159900.0, "Shape_Length": 0.027736892706213118 }, "geometry": { "type": "MultiLineString", "coordinates": [ [ [ 80.597916666666293, 6.285416666666556 ], [ 80.597916666666293, 6.281249999999893 ], [ 80.602083333332956, 6.277083333333231 ], [ 80.589583333332968, 6.264583333333213 ] ] ] } },
{ "type": "Feature", "properties": { "HYRIV_ID": 41408919, "NEXT_DOWN": 41409026, "MAIN_RIV": 41410526, "LENGTH_KM": 2.36, "DIST_DN_KM": 47.0, "DIST_UP_KM": 3.6, "CATCH_SKM": 8.54, "UPLAND_SKM": 8.5, "ENDORHEIC": 0, "DIS_AV_CMS": 0.391, "ORD_STRA": 1, "ORD_CLAS": 3, "ORD_FLOW": 7, "HYBAS_L12": 4121602630.0, "Shape_Length": 0.021338834764782291 }, "geometry": { "type": "MultiLineString", "coordinates": [ [ [ 80.391666666666396, 6.258333333333233 ], [ 80.397916666666362, 6.264583333333213 ], [ 80.41041666666635, 6.264583333333213 ] ] ] } },
{ "type": "Feature", "properties": { "HYRIV_ID": 41408920, "NEXT_DOWN": 41409007, "MAIN_RIV": 41410526, "LENGTH_KM": 8.9700003, "DIST_DN_KM": 45.200001, "DIST_UP_KM": 10.4, "CATCH_SKM": 14.08, "UPLAND_SKM": 14.1, "ENDORHEIC": 0, "DIS_AV_CMS": 0.63599998, "ORD_STRA": 1, "ORD_CLAS": 3, "ORD_FLOW": 7, "HYBAS_L12": 4121159870.0, "Shape_Length": 0.080979286843914325 }, "geometry": { "type": "MultiLineString", "coordinates": [ [ [ 80.433333333332968, 6.295833333333242 ], [ 80.44791666666643, 6.281249999999893 ], [ 80.452083333332922, 6.281249999999893 ], [ 80.456249999999642, 6.285416666666556 ], [ 80.472916666666293, 6.268749999999876 ], [ 80.481249999999619, 6.268749999999876 ], [ 80.485416666666282, 6.264583333333213 ], [ 80.493749999999665, 6.264583333333213 ], [ 80.493749999999665, 6.260416666666565 ] ] ] } },
{ "type": "Feature", "properties": { "HYRIV_ID": 41408921, "NEXT_DOWN": 41409007, "MAIN_RIV": 41410526, "LENGTH_KM": 0.65, "DIST_DN_KM": 45.400002, "DIST_UP_KM": 20.8, "CATCH_SKM": 0.21, "UPLAND_SKM": 106.5, "ENDORHEIC": 0, "DIS_AV_CMS": 4.4380002, "ORD_STRA": 3, "ORD_CLAS": 2, "ORD_FLOW": 6, "HYBAS_L12": 4121159870.0, "Shape_Length": 0.0058925565098322938 }, "geometry": { "type": "MultiLineString", "coordinates": [ [ [ 80.497916666666271, 6.264583333333213 ], [ 80.493749999999665, 6.260416666666565 ] ] ] } },
{ "type": "Feature", "properties": { "HYRIV_ID": 41408990, "NEXT_DOWN": 41409142, "MAIN_RIV": 41410526, "LENGTH_KM": 6.6700001, "DIST_DN_KM": 57.3, "DIST_UP_KM": 8.6, "CATCH_SKM": 22.41, "UPLAND_SKM": 22.4, "ENDORHEIC": 0, "DIS_AV_CMS": 0.87400001, "ORD_STRA": 1, "ORD_CLAS": 2, "ORD_FLOW": 7, "HYBAS_L12": 4121159900.0, "Shape_Length": 0.060145953510657518 }, "geometry": { "type": "MultiLineString", "coordinates": [ [ [ 80.63333333333307, 6.27083333333325 ], [ 80.610416666666282, 6.247916666666576 ], [ 80.593749999999631, 6.264583333333213 ], [ 80.589583333332968, 6.264583333333213 ] ] ] } },
{ "type": "Feature", "properties": { "HYRIV_ID": 41409007, "NEXT_DOWN": 41409117, "MAIN_RIV": 41410526, "LENGTH_KM": 2.04, "DIST_DN_KM": 43.200001, "DIST_UP_KM": 23.0, "CATCH_SKM": 5.5500002, "UPLAND_SKM": 126.1, "ENDORHEIC": 0, "DIS_AV_CMS": 5.37, "ORD_STRA": 3, "ORD_CLAS": 2, "ORD_FLOW": 6, "HYBAS_L12": 4121159870.0, "Shape_Length": 0.018392556509816763 }, "geometry": { "type": "MultiLineString", "coordinates": [ [ [ 80.493749999999665, 6.260416666666565 ], [ 80.493749999999665, 6.25625 ], [ 80.497916666666271, 6.252083333333239 ], [ 80.497916666666271, 6.24375 ] ] ] } },
{ "type": "Feature", "properties": { "HYRIV_ID": 41409026, "NEXT_DOWN": 41409217, "MAIN_RIV": 41410526, "LENGTH_KM": 3.54, "DIST_DN_KM": 43.700001, "DIST_UP_KM": 12.7, "CATCH_SKM": 10.24, "UPLAND_SKM": 42.200001, "ENDORHEIC": 0, "DIS_AV_CMS": 1.9579999, "ORD_STRA": 2, "ORD_CLAS": 2, "ORD_FLOW": 6, "HYBAS_L12": 4121602630.0, "Shape_Length": 0.031903559372906148 }, "geometry": { "type": "MultiLineString", "coordinates": [ [ [ 80.41041666666635, 6.264583333333213 ], [ 80.414583333333013, 6.260416666666565 ], [ 80.414583333333013, 6.252083333333239 ], [ 80.427083333333059, 6.239583333333222 ] ] ] } },
{ "type": "Feature", "properties": { "HYRIV_ID": 41409027, "NEXT_DOWN": 41409117, "MAIN_RIV": 41410526, "LENGTH_KM": 2.27, "DIST_DN_KM": 43.200001, "DIST_UP_KM": 4.3, "CATCH_SKM": 5.33, "UPLAND_SKM": 5.3, "ENDORHEIC": 0, "DIS_AV_CMS": 0.223, "ORD_STRA": 1, "ORD_CLAS": 3, "ORD_FLOW": 7, "HYBAS_L12": 4121159870.0, "Shape_Length": 0.020475889843261173 }, "geometry": { "type": "MultiLineString", "coordinates": [ [ [ 80.516666666666282, 6.239583333333222 ], [ 80.510416666666316, 6.239583333333222 ], [ 80.506249999999653, 6.24375 ], [ 80.497916666666271, 6.24375 ] ] ] } },
{ "type": "Feature", "properties": { "HYRIV_ID": 41409063, "NEXT_DOWN": 41409217, "MAIN_RIV": 41410526, "LENGTH_KM": 1.81, "DIST_DN_KM": 43.700001, "DIST_UP_KM": 3.0, "CATCH_SKM": 4.7, "UPLAND_SKM": 4.7, "ENDORHEIC": 0, "DIS_AV_CMS": 0.211, "ORD_STRA": 1, "ORD_CLAS": 3, "ORD_FLOW": 7, "HYBAS_L12": 4121602630.0, "Shape_Length": 0.016309223176610783 }, "geometry": { "type": "MultiLineString", "coordinates": [ [ [ 80.416666666666316, 6.23125 ], [ 80.422916666666396, 6.23125 ], [ 80.422916666666396, 6.235416666666559 ], [ 80.427083333333059, 6.239583333333222 ] ] ] } },
{ "type": "Feature", "properties": { "HYRIV_ID": 41409092, "NEXT_DOWN": 41409218, "MAIN_RIV": 41410526, "LENGTH_KM": 4.7, "DIST_DN_KM": 38.700001, "DIST_UP_KM": 6.0, "CATCH_SKM": 11.52, "UPLAND_SKM": 11.5, "ENDORHEIC": 0, "DIS_AV_CMS": 0.509, "ORD_STRA": 1, "ORD_CLAS": 2, "ORD_FLOW": 7, "HYBAS_L12": 4121602630.0, "Shape_Length": 0.042320226039508926 }, "geometry": { "type": "MultiLineString", "coordinates": [ [ [ 80.464583333332968, 6.262499999999882 ], [ 80.464583333332968, 6.252083333333239 ], [ 80.477083333332956, 6.239583333333222 ], [ 80.477083333332956, 6.235416666666559 ], [ 80.481249999999619, 6.23125 ], [ 80.481249999999619, 6.227083333333248 ] ] ] } },
{ "type": "Feature", "properties": { "HYRIV_ID": 41409116, "NEXT_DOWN": 41409218, "MAIN_RIV": 41410526, "LENGTH_KM": 1.5700001, "DIST_DN_KM": 38.700001, "DIST_UP_KM": 37.5, "CATCH_SKM": 2.35, "UPLAND_SKM": 290.0, "ENDORHEIC": 0, "DIS_AV_CMS": 12.116, "ORD_STRA": 3, "ORD_CLAS": 1, "ORD_FLOW": 5, "HYBAS_L12": 4121602630.0, "Shape_Length": 0.014225889843265133 }, "geometry": { "type": "MultiLineString", "coordinates": [ [ [ 80.493749999999665, 6.222916666666585 ], [ 80.489583333332945, 6.222916666666585 ], [ 80.485416666666282, 6.227083333333248 ], [ 80.481249999999619, 6.227083333333248 ] ] ] } },
{ "type": "Feature", "properties": { "HYRIV_ID": 41409117, "NEXT_DOWN": 41409116, "MAIN_RIV": 41410526, "LENGTH_KM": 2.8900001, "DIST_DN_KM": 40.5, "DIST_UP_KM": 25.700001, "CATCH_SKM": 4.27, "UPLAND_SKM": 135.7, "ENDORHEIC": 0, "DIS_AV_CMS": 5.8530002, "ORD_STRA": 3, "ORD_CLAS": 2, "ORD_FLOW": 6, "HYBAS_L12": 4121159870.0, "Shape_Length": 0.026011002862872879 }, "geometry": { "type": "MultiLineString", "coordinates": [ [ [ 80.497916666666271, 6.24375 ], [ 80.493749999999665, 6.239583333333222 ], [ 80.493749999999665, 6.235416666666559 ], [ 80.497916666666271, 6.23125 ], [ 80.497916666666271, 6.227083333333248 ], [ 80.493749999999665, 6.222916666666585 ] ] ] } },
{ "type": "Feature", "properties": { "HYRIV_ID": 41409140, "NEXT_DOWN": 41409116, "MAIN_RIV": 41410526, "LENGTH_KM": 1.11, "DIST_DN_KM": 40.3, "DIST_UP_KM": 35.900002, "CATCH_SKM": 1.92, "UPLAND_SKM": 151.89999, "ENDORHEIC": 0, "DIS_AV_CMS": 6.0619998, "ORD_STRA": 2, "ORD_CLAS": 1, "ORD_FLOW": 6, "HYBAS_L12": 4121159900.0, "Shape_Length": 0.010059223176518715 }, "geometry": { "type": "MultiLineString", "coordinates": [ [ [ 80.50208333333299, 6.21875 ], [ 80.497916666666271, 6.222916666666585 ], [ 80.493749999999665, 6.222916666666585 ] ] ] } },
{ "type": "Feature", "properties": { "HYRIV_ID": 41409141, "NEXT_DOWN": 41409140, "MAIN_RIV": 41410526, "LENGTH_KM": 4.3200002, "DIST_DN_KM": 41.599998, "DIST_UP_KM": 5.8, "CATCH_SKM": 7.04, "UPLAND_SKM": 7.0, "ENDORHEIC": 0, "DIS_AV_CMS": 0.292, "ORD_STRA": 1, "ORD_CLAS": 2, "ORD_FLOW": 7, "HYBAS_L12": 4121159900.0, "Shape_Length": 0.039016504294460047 }, "geometry": { "type": "MultiLineString", "coordinates": [ [ [ 80.53333333333299, 6.237499999999891 ], [ 80.522916666666305, 6.227083333333248 ], [ 80.510416666666316, 6.227083333333248 ], [ 80.50208333333299, 6.21875 ] ] ] } },
{ "type": "Feature", "properties": { "HYRIV_ID": 41409142, "NEXT_DOWN": 41409181, "MAIN_RIV": 41410526, "LENGTH_KM": 6.7800002, "DIST_DN_KM": 50.5, "DIST_UP_KM": 25.700001, "CATCH_SKM": 15.79, "UPLAND_SKM": 85.300003, "ENDORHEIC": 0, "DIS_AV_CMS": 3.346, "ORD_STRA": 2, "ORD_CLAS": 1, "ORD_FLOW": 6, "HYBAS_L12": 4121159900.0, "Shape_Length": 0.061070226039466609 }, "geometry": { "type": "MultiLineString", "coordinates": [ [ [ 80.589583333332968, 6.264583333333213 ], [ 80.589583333332968, 6.260416666666565 ], [ 80.585416666666305, 6.260416666666565 ], [ 80.585416666666305, 6.25625 ], [ 80.581249999999756, 6.252083333333239 ], [ 80.581249999999756, 6.247916666666576 ], [ 80.572916666666373, 6.239583333333222 ], [ 80.568749999999596, 6.239583333333222 ], [ 80.564583333333047, 6.235416666666559 ], [ 80.564583333333047, 6.21875 ] ] ] } },
{ "type": "Feature", "properties": { "HYRIV_ID": 41409143, "NEXT_DOWN": 41409181, "MAIN_RIV": 41410526, "LENGTH_KM": 5.7199998, "DIST_DN_KM": 50.700001, "DIST_UP_KM": 8.2, "CATCH_SKM": 17.5, "UPLAND_SKM": 17.5, "ENDORHEIC": 0, "DIS_AV_CMS": 0.69, "ORD_STRA": 1, "ORD_CLAS": 2, "ORD_FLOW": 7, "HYBAS_L12": 4121159900.0, "Shape_Length": 0.051664562235772933 }, "geometry": { "type": "MultiLineString", "coordinates": [ [ [ 80.604166666666316, 6.23125 ], [ 80.597916666666293, 6.23125 ], [ 80.593749999999631, 6.235416666666559 ], [ 80.589583333332968, 6.235416666666559 ], [ 80.572916666666373, 6.21875 ], [ 80.568749999999596, 6.222916666666585 ], [ 80.564583333333047, 6.21875 ] ] ] } },
{ "type": "Feature", "properties": { "HYRIV_ID": 41409144, "NEXT_DOWN": 41409349, "MAIN_RIV": 41410526, "LENGTH_KM": 3.11, "DIST_DN_KM": 45.900002, "DIST_UP_KM": 5.6, "CATCH_SKM": 11.95, "UPLAND_SKM": 11.9, "ENDORHEIC": 0, "DIS_AV_CMS": 0.45500001, "ORD_STRA": 1, "ORD_CLAS": 2, "ORD_FLOW": 7, "HYBAS_L12": 4121160090.0, "Shape_Length": 0.028094336196426817 }, "geometry": { "type": "MultiLineString", "coordinates": [ [ [ 80.658333333333104, 6.235416666666559 ], [ 80.652083333332968, 6.235416666666559 ], [ 80.647916666666305, 6.23125 ], [ 80.647916666666305, 6.227083333333248 ], [ 80.639583333332979, 6.21875 ] ] ] } },
{ "type": "Feature", "properties": { "HYRIV_ID": 41409162, "NEXT_DOWN": 41409349, "MAIN_RIV": 41410526, "LENGTH_KM": 1.4400001, "DIST_DN_KM": 45.700001, "DIST_UP_KM": 3.2, "CATCH_SKM": 4.7, "UPLAND_SKM": 4.7, "ENDORHEIC": 0, "DIS_AV_CMS": 0.177, "ORD_STRA": 1, "ORD_CLAS": 3, "ORD_FLOW": 7, "HYBAS_L12": 4121160090.0, "Shape_Length": 0.01300550143149673 }, "geometry": { "type": "MultiLineString", "coordinates": [ [ [ 80.649999999999608, 6.212499999999899 ], [ 80.643749999999642, 6.21875 ], [ 80.639583333332979, 6.21875 ] ] ] } },
{ "type": "Feature", "properties": { "HYRIV_ID": 41409181, "NEXT_DOWN": 41409220, "MAIN_RIV": 41410526, "LENGTH_KM": 2.23, "DIST_DN_KM": 48.5, "DIST_UP_KM": 27.8, "CATCH_SKM": 4.9099998, "UPLAND_SKM": 107.8, "ENDORHEIC": 0, "DIS_AV_CMS": 4.2340002, "ORD_STRA": 2, "ORD_CLAS": 1, "ORD_FLOW": 6, "HYBAS_L12": 4121159900.0, "Shape_Length": 0.020118446353127872 }, "geometry": { "type": "MultiLineString", "coordinates": [ [ [ 80.564583333333047, 6.21875 ], [ 80.560416666666271, 6.214583333333231 ], [ 80.552083333333059, 6.214583333333231 ], [ 80.547916666666339, 6.210416666666568 ] ] ] } },
{ "type": "Feature", "properties": { "HYRIV_ID": 41409216, "NEXT_DOWN": 41409293, "MAIN_RIV": 41410526, "LENGTH_KM": 0.69, "DIST_DN_KM": 38.400002, "DIST_UP_KM": 3.1, "CATCH_SKM": 2.56, "UPLAND_SKM": 2.6, "ENDORHEIC": 0, "DIS_AV_CMS": 0.113, "ORD_STRA": 1, "ORD_CLAS": 3, "ORD_FLOW": 7, "HYBAS_L12": 4121602630.0, "Shape_Length": 0.0062499999999658939 }, "geometry": { "type": "MultiLineString", "coordinates": [ [ [ 80.445833333332956, 6.20625 ], [ 80.452083333332922, 6.20625 ] ] ] } },
{ "type": "Feature", "properties": { "HYRIV_ID": 41409217, "NEXT_DOWN": 41409293, "MAIN_RIV": 41410526, "LENGTH_KM": 5.12, "DIST_DN_KM": 38.400002, "DIST_UP_KM": 18.0, "CATCH_SKM": 17.93, "UPLAND_SKM": 64.900002, "ENDORHEIC": 0, "DIS_AV_CMS": 3.023, "ORD_STRA": 2, "ORD_CLAS": 2, "ORD_FLOW": 6, "HYBAS_L12": 4121602630.0, "Shape_Length": 0.046129449216042076 }, "geometry": { "type": "MultiLineString", "coordinates": [ [ [ 80.427083333333059, 6.239583333333222 ], [ 80.443749999999596, 6.222916666666585 ], [ 80.44791666666643, 6.222916666666585 ], [ 80.452083333332922, 6.21875 ], [ 80.452083333332922, 6.20625 ] ] ] } },
{ "type": "Feature", "properties": { "HYRIV_ID": 41409218, "NEXT_DOWN": 41409348, "MAIN_RIV": 41410526, "LENGTH_KM": 3.08, "DIST_DN_KM": 35.700001, "DIST_UP_KM": 40.599998, "CATCH_SKM": 5.5500002, "UPLAND_SKM": 307.0, "ENDORHEIC": 0, "DIS_AV_CMS": 13.039, "ORD_STRA": 3, "ORD_CLAS": 1, "ORD_FLOW": 5, "HYBAS_L12": 4121602630.0, "Shape_Length": 0.027736892706198907 }, "geometry": { "type": "MultiLineString", "coordinates": [ [ [ 80.481249999999619, 6.227083333333248 ], [ 80.477083333332956, 6.222916666666585 ], [ 80.481249999999619, 6.21875 ], [ 80.477083333332956, 6.214583333333231 ], [ 80.481249999999619, 6.210416666666568 ], [ 80.481249999999619, 6.20625 ] ] ] } },
{ "type": "Feature", "properties": { "HYRIV_ID": 41409219, "NEXT_DOWN": 41409258, "MAIN_RIV": 41410526, "LENGTH_KM": 1.4400001, "DIST_DN_KM": 47.700001, "DIST_UP_KM": 3.2, "CATCH_SKM": 5.12, "UPLAND_SKM": 5.1, "ENDORHEIC": 0, "DIS_AV_CMS": 0.21, "ORD_STRA": 1, "ORD_CLAS": 2, "ORD_FLOW": 7, "HYBAS_L12": 4121159900.0, "Shape_Length": 0.013005501431532764 }, "geometry": { "type": "MultiLineString", "coordinates": [ [ [ 80.537499999999596, 6.216666666666562 ], [ 80.543749999999676, 6.210416666666568 ], [ 80.543749999999676, 6.20625 ] ] ] } },
{ "type": "Feature", "properties": { "HYRIV_ID": 41409220, "NEXT_DOWN": 41409258, "MAIN_RIV": 41410526, "LENGTH_KM": 0.65, "DIST_DN_KM": 47.8, "DIST_UP_KM": 28.4, "CATCH_SKM": 1.0700001, "UPLAND_SKM": 118.2, "ENDORHEIC": 0, "DIS_AV_CMS": 4.6539998, "ORD_STRA": 2, "ORD_CLAS": 1, "ORD_FLOW": 6, "HYBAS_L12": 4121159900.0, "Shape_Length": 0.0058925565098724882 }, "geometry": { "type": "MultiLineString", "coordinates": [ [ [ 80.547916666666339, 6.210416666666568 ], [ 80.543749999999676, 6.20625 ] ] ] } },
{ "type": "Feature", "properties": { "HYRIV_ID": 41409256, "NEXT_DOWN": 41409348, "MAIN_RIV": 41410526, "LENGTH_KM": 2.55, "DIST_DN_KM": 35.900002, "DIST_UP_KM": 4.7, "CATCH_SKM": 7.6799998, "UPLAND_SKM": 7.7, "ENDORHEIC": 0, "DIS_AV_CMS": 0.325, "ORD_STRA": 1, "ORD_CLAS": 2, "ORD_FLOW": 7, "HYBAS_L12": 4121602630.0, "Shape_Length": 0.023064724608169329 }, "geometry": { "type": "MultiLineString", "coordinates": [ [ [ 80.499999999999744, 6.195833333333233 ], [ 80.493749999999665, 6.202083333333213 ], [ 80.485416666666282, 6.202083333333213 ], [ 80.481249999999619, 6.20625 ] ] ] } },
{ "type": "Feature", "properties": { "HYRIV_ID": 41409257, "NEXT_DOWN": 41409140, "MAIN_RIV": 41410526, "LENGTH_KM": 3.08, "DIST_DN_KM": 41.599998, "DIST_UP_KM": 34.599998, "CATCH_SKM": 8.96, "UPLAND_SKM": 143.0, "ENDORHEIC": 0, "DIS_AV_CMS": 5.6719999, "ORD_STRA": 2, "ORD_CLAS": 1, "ORD_FLOW": 6, "HYBAS_L12": 4121159900.0, "Shape_Length": 0.027736892706243264 }, "geometry": { "type": "MultiLineString", "coordinates": [ [ [ 80.518749999999642, 6.197916666666551 ], [ 80.506249999999653, 6.210416666666568 ], [ 80.506249999999653, 6.214583333333231 ], [ 80.50208333333299, 6.21875 ] ] ] } },
{ "type": "Feature", "properties": { "HYRIV_ID": 41409258, "NEXT_DOWN": 41409257, "MAIN_RIV": 41410526, "LENGTH_KM": 3.1500001, "DIST_DN_KM": 44.5, "DIST_UP_KM": 31.8, "CATCH_SKM": 7.04, "UPLAND_SKM": 130.39999, "ENDORHEIC": 0, "DIS_AV_CMS": 5.1529999, "ORD_STRA": 2, "ORD_CLAS": 1, "ORD_FLOW": 6, "HYBAS_L12": 4121159900.0, "Shape_Length": 0.028451779686503573 }, "geometry": { "type": "MultiLineString", "coordinates": [ [ [ 80.543749999999676, 6.20625 ], [ 80.53541666666635, 6.197916666666551 ], [ 80.518749999999642, 6.197916666666551 ] ] ] } },
{ "type": "Feature", "properties": { "HYRIV_ID": 41409292, "NEXT_DOWN": 41409346, "MAIN_RIV": 41410526, "LENGTH_KM": 1.15, "DIST_DN_KM": 36.5, "DIST_UP_KM": 3.1, "CATCH_SKM": 4.9099998, "UPLAND_SKM": 4.9, "ENDORHEIC": 0, "DIS_AV_CMS": 0.21600001, "ORD_STRA": 1, "ORD_CLAS": 3, "ORD_FLOW": 7, "HYBAS_L12": 4121602630.0, "Shape_Length": 0.010416666666628771 }, "geometry": { "type": "MultiLineString", "coordinates": [ [ [ 80.441666666666293, 6.189583333333239 ], [ 80.452083333332922, 6.189583333333239 ] ] ] } },
{ "type": "Feature", "properties": { "HYRIV_ID": 41409293, "NEXT_DOWN": 41409346, "MAIN_RIV": 41410526, "LENGTH_KM": 1.85, "DIST_DN_KM": 36.5, "DIST_UP_KM": 19.9, "CATCH_SKM": 4.48, "UPLAND_SKM": 71.900002, "ENDORHEIC": 0, "DIS_AV_CMS": 3.3659999, "ORD_STRA": 2, "ORD_CLAS": 2, "ORD_FLOW": 6, "HYBAS_L12": 4121602630.0, "Shape_Length": 0.01666666666667993 }, "geometry": { "type": "MultiLineString", "coordinates": [ [ [ 80.452083333332922, 6.20625 ], [ 80.452083333332922, 6.189583333333239 ] ] ] } },
{ "type": "Feature", "properties": { "HYRIV_ID": 41409294, "NEXT_DOWN": 41409220, "MAIN_RIV": 41410526, "LENGTH_KM": 3.4, "DIST_DN_KM": 48.5, "DIST_UP_KM": 4.8, "CATCH_SKM": 9.3900003, "UPLAND_SKM": 9.4, "ENDORHEIC": 0, "DIS_AV_CMS": 0.377, "ORD_STRA": 1, "ORD_CLAS": 2, "ORD_FLOW": 7, "HYBAS_L12": 4121159900.0, "Shape_Length": 0.030683170961079885 }, "geometry": { "type": "MultiLineString", "coordinates": [ [ [ 80.554166666666305, 6.1875 ], [ 80.560416666666271, 6.19375 ], [ 80.560416666666271, 6.197916666666551 ], [ 80.547916666666339, 6.210416666666568 ] ] ] } },
{ "type": "Feature", "properties": { "HYRIV_ID": 41409308, "NEXT_DOWN": 41409257, "MAIN_RIV": 41410526, "LENGTH_KM": 1.91, "DIST_DN_KM": 44.5, "DIST_UP_KM": 3.6, "CATCH_SKM": 3.6300001, "UPLAND_SKM": 3.6, "ENDORHEIC": 0, "DIS_AV_CMS": 0.148, "ORD_STRA": 1, "ORD_CLAS": 2, "ORD_FLOW": 7, "HYBAS_L12": 4121159900.0, "Shape_Length": 0.01717216809811525 }, "geometry": { "type": "MultiLineString", "coordinates": [ [ [ 80.524999999999608, 6.183333333333245 ], [ 80.518749999999642, 6.189583333333239 ], [ 80.518749999999642, 6.197916666666551 ] ] ] } },
{ "type": "Feature", "properties": { "HYRIV_ID": 41409345, "NEXT_DOWN": 41409639, "MAIN_RIV": 41410526, "LENGTH_KM": 4.33, "DIST_DN_KM": 39.8, "DIST_UP_KM": 6.0, "CATCH_SKM": 15.15, "UPLAND_SKM": 15.2, "ENDORHEIC": 0, "DIS_AV_CMS": 0.68400002, "ORD_STRA": 1, "ORD_CLAS": 3, "ORD_FLOW": 7, "HYBAS_L12": 4121160080.0, "Shape_Length": 0.039016504294568863 }, "geometry": { "type": "MultiLineString", "coordinates": [ [ [ 80.395833333332945, 6.20833333333325 ], [ 80.402083333333024, 6.202083333333213 ], [ 80.402083333333024, 6.19375 ], [ 80.414583333333013, 6.18125 ], [ 80.414583333333013, 6.177083333333222 ] ] ] } },
{ "type": "Feature", "properties": { "HYRIV_ID": 41409346, "NEXT_DOWN": 41409347, "MAIN_RIV": 41410526, "LENGTH_KM": 2.04, "DIST_DN_KM": 34.5, "DIST_UP_KM": 21.9, "CATCH_SKM": 5.12, "UPLAND_SKM": 81.900002, "ENDORHEIC": 0, "DIS_AV_CMS": 3.8440001, "ORD_STRA": 2, "ORD_CLAS": 2, "ORD_FLOW": 6, "HYBAS_L12": 4121602630.0, "Shape_Length": 0.018392556509927299 }, "geometry": { "type": "MultiLineString", "coordinates": [ [ [ 80.452083333332922, 6.189583333333239 ], [ 80.452083333332922, 6.18125 ], [ 80.456249999999642, 6.177083333333222 ], [ 80.460416666666305, 6.177083333333222 ] ] ] } },
{ "type": "Feature", "properties": { "HYRIV_ID": 41409347, "NEXT_DOWN": 41409439, "MAIN_RIV": 41410526, "LENGTH_KM": 2.23, "DIST_DN_KM": 32.200001, "DIST_UP_KM": 24.200001, "CATCH_SKM": 3.4200001, "UPLAND_SKM": 92.0, "ENDORHEIC": 0, "DIS_AV_CMS": 4.323, "ORD_STRA": 2, "ORD_CLAS": 2, "ORD_FLOW": 6, "HYBAS_L12": 4121602630.0, "Shape_Length": 0.020118446353151118 }, "geometry": { "type": "MultiLineString", "coordinates": [ [ [ 80.460416666666305, 6.177083333333222 ], [ 80.464583333332968, 6.18125 ], [ 80.468749999999631, 6.177083333333222 ], [ 80.477083333332956, 6.177083333333222 ] ] ] } },
{ "type": "Feature", "properties": { "HYRIV_ID": 41409348, "NEXT_DOWN": 41409439, "MAIN_RIV": 41410526, "LENGTH_KM": 3.4300001, "DIST_DN_KM": 32.200001, "DIST_UP_KM": 44.0, "CATCH_SKM": 8.54, "UPLAND_SKM": 323.29999, "ENDORHEIC": 0, "DIS_AV_CMS": 13.987, "ORD_STRA": 3, "ORD_CLAS": 1, "ORD_FLOW": 5, "HYBAS_L12": 4121602630.0, "Shape_Length": 0.030892556509904155 }, "geometry": { "type": "MultiLineString", "coordinates": [ [ [ 80.481249999999619, 6.20625 ], [ 80.477083333332956, 6.202083333333213 ], [ 80.477083333332956, 6.177083333333222 ] ] ] } },
{ "type": "Feature", "properties": { "HYRIV_ID": 41409349, "NEXT_DOWN": 41409424, "MAIN_RIV": 41410526, "LENGTH_KM": 5.39, "DIST_DN_KM": 40.3, "DIST_UP_KM": 11.2, "CATCH_SKM": 17.290001, "UPLAND_SKM": 33.900002, "ENDORHEIC": 0, "DIS_AV_CMS": 1.2970001, "ORD_STRA": 2, "ORD_CLAS": 2, "ORD_FLOW": 6, "HYBAS_L12": 4121160090.0, "Shape_Length": 0.048570226039612058 }, "geometry": { "type": "MultiLineString", "coordinates": [ [ [ 80.639583333332979, 6.21875 ], [ 80.635416666666316, 6.214583333333231 ], [ 80.635416666666316, 6.20625 ], [ 80.631249999999653, 6.202083333333213 ], [ 80.631249999999653, 6.197916666666551 ], [ 80.622916666666271, 6.189583333333239 ], [ 80.622916666666271, 6.177083333333222 ] ] ] } },
{ "type": "Feature", "properties": { "HYRIV_ID": 41409350, "NEXT_DOWN": 41409424, "MAIN_RIV": 41410526, "LENGTH_KM": 1.63, "DIST_DN_KM": 40.5, "DIST_UP_KM": 3.8, "CATCH_SKM": 4.9099998, "UPLAND_SKM": 4.9, "ENDORHEIC": 0, "DIS_AV_CMS": 0.186, "ORD_STRA": 1, "ORD_CLAS": 3, "ORD_FLOW": 7, "HYBAS_L12": 4121160090.0, "Shape_Length": 0.01473139127486712 }, "geometry": { "type": "MultiLineString", "coordinates": [ [ [ 80.63333333333307, 6.174999999999891 ], [ 80.62708333333299, 6.18125 ], [ 80.622916666666271, 6.177083333333222 ] ] ] } },
{ "type": "Feature", "properties": { "HYRIV_ID": 41409394, "NEXT_DOWN": 41409639, "MAIN_RIV": 41410526, "LENGTH_KM": 5.4400001, "DIST_DN_KM": 39.8, "DIST_UP_KM": 7.5, "CATCH_SKM": 9.6, "UPLAND_SKM": 9.6, "ENDORHEIC": 0, "DIS_AV_CMS": 0.435, "ORD_STRA": 1, "ORD_CLAS": 2, "ORD_FLOW": 7, "HYBAS_L12": 4121160080.0, "Shape_Length": 0.049075727471065755 }, "geometry": { "type": "MultiLineString", "coordinates": [ [ [ 80.379166666666293, 6.1875 ], [ 80.389583333332979, 6.177083333333222 ], [ 80.393749999999642, 6.177083333333222 ], [ 80.402083333333024, 6.16875 ], [ 80.41041666666635, 6.16875 ], [ 80.414583333333013, 6.172916666666559 ], [ 80.414583333333013, 6.177083333333222 ] ] ] } },
{ "type": "Feature", "properties": { "HYRIV_ID": 41409422, "NEXT_DOWN": 41409347, "MAIN_RIV": 41410526, "LENGTH_KM": 2.54, "DIST_DN_KM": 34.5, "DIST_UP_KM": 4.3, "CATCH_SKM": 6.62, "UPLAND_SKM": 6.6, "ENDORHEIC": 0, "DIS_AV_CMS": 0.287, "ORD_STRA": 1, "ORD_CLAS": 3, "ORD_FLOW": 7, "HYBAS_L12": 4121602630.0, "Shape_Length": 0.022916666666603192 }, "geometry": { "type": "MultiLineString", "coordinates": [ [ [ 80.449999999999676, 6.164583333333248 ], [ 80.460416666666305, 6.164583333333248 ], [ 80.460416666666305, 6.177083333333222 ] ] ] } },
{ "type": "Feature", "properties": { "HYRIV_ID": 41409423, "NEXT_DOWN": 41409481, "MAIN_RIV": 41410526, "LENGTH_KM": 0.69, "DIST_DN_KM": 38.099998, "DIST_UP_KM": 3.2, "CATCH_SKM": 4.27, "UPLAND_SKM": 4.3, "ENDORHEIC": 0, "DIS_AV_CMS": 0.166, "ORD_STRA": 1, "ORD_CLAS": 3, "ORD_FLOW": 7, "HYBAS_L12": 4121160090.0, "Shape_Length": 0.0062499999999801048 }, "geometry": { "type": "MultiLineString", "coordinates": [ [ [ 80.610416666666282, 6.170833333333228 ], [ 80.610416666666282, 6.164583333333248 ] ] ] } },
{ "type": "Feature", "properties": { "HYRIV_ID": 41409424, "NEXT_DOWN": 41409481, "MAIN_RIV": 41410526, "LENGTH_KM": 2.23, "DIST_DN_KM": 38.3, "DIST_UP_KM": 13.2, "CATCH_SKM": 4.0500002, "UPLAND_SKM": 42.900002, "ENDORHEIC": 0, "DIS_AV_CMS": 1.6390001, "ORD_STRA": 2, "ORD_CLAS": 2, "ORD_FLOW": 6, "HYBAS_L12": 4121160090.0, "Shape_Length": 0.020118446353080778 }, "geometry": { "type": "MultiLineString", "coordinates": [ [ [ 80.622916666666271, 6.177083333333222 ], [ 80.622916666666271, 6.172916666666559 ], [ 80.618749999999608, 6.16875 ], [ 80.614583333332945, 6.16875 ], [ 80.610416666666282, 6.164583333333248 ] ] ] } },
{ "type": "Feature", "properties": { "HYRIV_ID": 41409439, "NEXT_DOWN": 41409535, "MAIN_RIV": 41410526, "LENGTH_KM": 2.23, "DIST_DN_KM": 30.200001, "DIST_UP_KM": 46.099998, "CATCH_SKM": 5.7600002, "UPLAND_SKM": 421.0, "ENDORHEIC": 0, "DIS_AV_CMS": 18.752001, "ORD_STRA": 3, "ORD_CLAS": 1, "ORD_FLOW": 5, "HYBAS_L12": 4121602630.0, "Shape_Length": 0.020118446353106764 }, "geometry": { "type": "MultiLineString", "coordinates": [ [ [ 80.477083333332956, 6.177083333333222 ], [ 80.477083333332956, 6.16875 ], [ 80.485416666666282, 6.160416666666542 ] ] ] } },
{ "type": "Feature", "properties": { "HYRIV_ID": 41409440, "NEXT_DOWN": 41409535, "MAIN_RIV": 41410526, "LENGTH_KM": 0.69, "DIST_DN_KM": 30.0, "DIST_UP_KM": 3.3, "CATCH_SKM": 3.2, "UPLAND_SKM": 3.2, "ENDORHEIC": 0, "DIS_AV_CMS": 0.134, "ORD_STRA": 1, "ORD_CLAS": 2, "ORD_FLOW": 7, "HYBAS_L12": 4121602630.0, "Shape_Length": 0.0062500000000795808 }, "geometry": { "type": "MultiLineString", "coordinates": [ [ [ 80.491666666666362, 6.160416666666542 ], [ 80.485416666666282, 6.160416666666542 ] ] ] } },
{ "type": "Feature", "properties": { "HYRIV_ID": 41409479, "NEXT_DOWN": 41409557, "MAIN_RIV": 41410526, "LENGTH_KM": 6.75, "DIST_DN_KM": 35.400002, "DIST_UP_KM": 8.7, "CATCH_SKM": 19.42, "UPLAND_SKM": 19.4, "ENDORHEIC": 0, "DIS_AV_CMS": 0.764, "ORD_STRA": 1, "ORD_CLAS": 3, "ORD_FLOW": 7, "HYBAS_L12": 4121160090.0, "Shape_Length": 0.060860840490895282 }, "geometry": { "type": "MultiLineString", "coordinates": [ [ [ 80.591666666666328, 6.199999999999882 ], [ 80.577083333332922, 6.185416666666576 ], [ 80.581249999999756, 6.18125 ], [ 80.581249999999756, 6.177083333333222 ], [ 80.585416666666305, 6.172916666666559 ], [ 80.585416666666305, 6.16875 ], [ 80.593749999999631, 6.160416666666542 ], [ 80.593749999999631, 6.152083333333231 ] ] ] } },
{ "type": "Feature", "properties": { "HYRIV_ID": 41409480, "NEXT_DOWN": 41409557, "MAIN_RIV": 41410526, "LENGTH_KM": 0.46, "DIST_DN_KM": 35.400002, "DIST_UP_KM": 16.1, "CATCH_SKM": 1.0700001, "UPLAND_SKM": 88.099998, "ENDORHEIC": 0, "DIS_AV_CMS": 3.3529999, "ORD_STRA": 3, "ORD_CLAS": 2, "ORD_FLOW": 6, "HYBAS_L12": 4121160090.0, "Shape_Length": 0.0041666666666628771 }, "geometry": { "type": "MultiLineString", "coordinates": [ [ [ 80.597916666666293, 6.152083333333231 ], [ 80.593749999999631, 6.152083333333231 ] ] ] } },
{ "type": "Feature", "properties": { "HYRIV_ID": 41409481, "NEXT_DOWN": 41409480, "MAIN_RIV": 41410526, "LENGTH_KM": 2.23, "DIST_DN_KM": 35.8, "DIST_UP_KM": 15.6, "CATCH_SKM": 4.48, "UPLAND_SKM": 51.599998, "ENDORHEIC": 0, "DIS_AV_CMS": 1.977, "ORD_STRA": 2, "ORD_CLAS": 2, "ORD_FLOW": 6, "HYBAS_L12": 4121160090.0, "Shape_Length": 0.020118446353123411 }, "geometry": { "type": "MultiLineString", "coordinates": [ [ [ 80.610416666666282, 6.164583333333248 ], [ 80.610416666666282, 6.160416666666542 ], [ 80.602083333332956, 6.152083333333231 ], [ 80.597916666666293, 6.152083333333231 ] ] ] } },
{ "type": "Feature", "properties": { "HYRIV_ID": 41409521, "NEXT_DOWN": 41409480, "MAIN_RIV": 41410526, "LENGTH_KM": 1.31, "DIST_DN_KM": 36.0, "DIST_UP_KM": 10.3, "CATCH_SKM": 2.1300001, "UPLAND_SKM": 35.400002, "ENDORHEIC": 0, "DIS_AV_CMS": 1.334, "ORD_STRA": 2, "ORD_CLAS": 3, "ORD_FLOW": 6, "HYBAS_L12": 4121160090.0, "Shape_Length": 0.011785113019765073 }, "geometry": { "type": "MultiLineString", "coordinates": [ [ [ 80.606249999999619, 6.14375 ], [ 80.597916666666293, 6.152083333333231 ] ] ] } },
{ "type": "Feature", "properties": { "HYRIV_ID": 41409522, "NEXT_DOWN": 41409521, "MAIN_RIV": 41410526, "LENGTH_KM": 4.9699998, "DIST_DN_KM": 37.099998, "DIST_UP_KM": 6.8, "CATCH_SKM": 7.9, "UPLAND_SKM": 7.9, "ENDORHEIC": 0, "DIS_AV_CMS": 0.29800001, "ORD_STRA": 1, "ORD_CLAS": 4, "ORD_FLOW": 7, "HYBAS_L12": 4121160090.0, "Shape_Length": 0.044909060804429572 }, "geometry": { "type": "MultiLineString", "coordinates": [ [ [ 80.641666666666282, 6.158333333333211 ], [ 80.635416666666316, 6.152083333333231 ], [ 80.631249999999653, 6.15625 ], [ 80.62708333333299, 6.152083333333231 ], [ 80.618749999999608, 6.152083333333231 ], [ 80.610416666666282, 6.14375 ], [ 80.606249999999619, 6.14375 ] ] ] } },
{ "type": "Feature", "properties": { "HYRIV_ID": 41409535, "NEXT_DOWN": 41409555, "MAIN_RIV": 41410526, "LENGTH_KM": 2.51, "DIST_DN_KM": 27.5, "DIST_UP_KM": 48.8, "CATCH_SKM": 5.12, "UPLAND_SKM": 429.29999, "ENDORHEIC": 0, "DIS_AV_CMS": 19.351999, "ORD_STRA": 3, "ORD_CLAS": 1, "ORD_FLOW": 5, "HYBAS_L12": 4121602630.0, "Shape_Length": 0.022559223176505622 }, "geometry": { "type": "MultiLineString", "coordinates": [ [ [ 80.485416666666282, 6.160416666666542 ], [ 80.485416666666282, 6.147916666666568 ], [ 80.489583333332945, 6.14375 ], [ 80.489583333332945, 6.139583333333256 ] ] ] } },
{ "type": "Feature", "properties": { "HYRIV_ID": 41409536, "NEXT_DOWN": 41409555, "MAIN_RIV": 41410526, "LENGTH_KM": 1.4400001, "DIST_DN_KM": 27.5, "DIST_UP_KM": 3.5, "CATCH_SKM": 3.6300001, "UPLAND_SKM": 3.6, "ENDORHEIC": 0, "DIS_AV_CMS": 0.151, "ORD_STRA": 1, "ORD_CLAS": 2, "ORD_FLOW": 7, "HYBAS_L12": 4121602630.0, "Shape_Length": 0.013005501431593769 }, "geometry": { "type": "MultiLineString", "coordinates": [ [ [ 80.499999999999744, 6.145833333333236 ], [ 80.493749999999665, 6.139583333333256 ], [ 80.489583333332945, 6.139583333333256 ] ] ] } },
{ "type": "Feature", "properties": { "HYRIV_ID": 41409537, "NEXT_DOWN": 41409521, "MAIN_RIV": 41410526, "LENGTH_KM": 1.5700001, "DIST_DN_KM": 37.3, "DIST_UP_KM": 9.0, "CATCH_SKM": 3.4200001, "UPLAND_SKM": 25.4, "ENDORHEIC": 0, "DIS_AV_CMS": 0.954, "ORD_STRA": 2, "ORD_CLAS": 3, "ORD_FLOW": 7, "HYBAS_L12": 4121160090.0, "Shape_Length": 0.014225889843198242 }, "geometry": { "type": "MultiLineString", "coordinates": [ [ [ 80.618749999999608, 6.139583333333256 ], [ 80.610416666666282, 6.139583333333256 ], [ 80.606249999999619, 6.14375 ] ] ] } },
{ "type": "Feature", "properties": { "HYRIV_ID": 41409538, "NEXT_DOWN": 41409537, "MAIN_RIV": 41410526, "LENGTH_KM": 2.23, "DIST_DN_KM": 38.700001, "DIST_UP_KM": 7.6, "CATCH_SKM": 2.99, "UPLAND_SKM": 16.200001, "ENDORHEIC": 0, "DIS_AV_CMS": 0.60600001, "ORD_STRA": 2, "ORD_CLAS": 3, "ORD_FLOW": 7, "HYBAS_L12": 4121160090.0, "Shape_Length": 0.020118446353110924 }, "geometry": { "type": "MultiLineString", "coordinates": [ [ [ 80.635416666666316, 6.139583333333256 ], [ 80.631249999999653, 6.139583333333256 ], [ 80.62708333333299, 6.14375 ], [ 80.622916666666271, 6.139583333333256 ], [ 80.618749999999608, 6.139583333333256 ] ] ] } },
{ "type": "Feature", "properties": { "HYRIV_ID": 41409539, "NEXT_DOWN": 41409538, "MAIN_RIV": 41410526, "LENGTH_KM": 3.0, "DIST_DN_KM": 40.900002, "DIST_UP_KM": 5.4, "CATCH_SKM": 7.4699998, "UPLAND_SKM": 7.5, "ENDORHEIC": 0, "DIS_AV_CMS": 0.278, "ORD_STRA": 1, "ORD_CLAS": 3, "ORD_FLOW": 7, "HYBAS_L12": 4121160090.0, "Shape_Length": 0.027083333333436599 }, "geometry": { "type": "MultiLineString", "coordinates": [ [ [ 80.658333333333104, 6.14375 ], [ 80.635416666666316, 6.14375 ], [ 80.635416666666316, 6.139583333333256 ] ] ] } },
{ "type": "Feature", "properties": { "HYRIV_ID": 41409554, "NEXT_DOWN": 41409590, "MAIN_RIV": 41410526, "LENGTH_KM": 2.9200001, "DIST_DN_KM": 26.8, "DIST_UP_KM": 4.9, "CATCH_SKM": 4.9099998, "UPLAND_SKM": 4.9, "ENDORHEIC": 0, "DIS_AV_CMS": 0.21, "ORD_STRA": 1, "ORD_CLAS": 2, "ORD_FLOW": 7, "HYBAS_L12": 4121602630.0, "Shape_Length": 0.026368446353076818 }, "geometry": { "type": "MultiLineString", "coordinates": [ [ [ 80.462499999999665, 6.14375 ], [ 80.472916666666293, 6.14375 ], [ 80.481249999999619, 6.135416666666551 ], [ 80.485416666666282, 6.135416666666551 ] ] ] } },
{ "type": "Feature", "properties": { "HYRIV_ID": 41409555, "NEXT_DOWN": 41409590, "MAIN_RIV": 41410526, "LENGTH_KM": 0.65, "DIST_DN_KM": 27.0, "DIST_UP_KM": 49.200001, "CATCH_SKM": 0.21, "UPLAND_SKM": 433.20001, "ENDORHEIC": 0, "DIS_AV_CMS": 19.563, "ORD_STRA": 3, "ORD_CLAS": 1, "ORD_FLOW": 5, "HYBAS_L12": 4121602630.0, "Shape_Length": 0.0058925565099126826 }, "geometry": { "type": "MultiLineString", "coordinates": [ [ [ 80.489583333332945, 6.139583333333256 ], [ 80.485416666666282, 6.135416666666551 ] ] ] } },
{ "type": "Feature", "properties": { "HYRIV_ID": 41409556, "NEXT_DOWN": 41409642, "MAIN_RIV": 41410526, "LENGTH_KM": 6.3600001, "DIST_DN_KM": 30.200001, "DIST_UP_KM": 7.6, "CATCH_SKM": 22.84, "UPLAND_SKM": 22.8, "ENDORHEIC": 0, "DIS_AV_CMS": 0.92, "ORD_STRA": 1, "ORD_CLAS": 3, "ORD_FLOW": 7, "HYBAS_L12": 4121160090.0, "Shape_Length": 0.057409060804424802 }, "geometry": { "type": "MultiLineString", "coordinates": [ [ [ 80.516666666666282, 6.1625 ], [ 80.522916666666305, 6.15625 ], [ 80.539583333333013, 6.15625 ], [ 80.547916666666339, 6.147916666666568 ], [ 80.552083333333059, 6.147916666666568 ], [ 80.552083333333059, 6.14375 ], [ 80.560416666666271, 6.135416666666551 ] ] ] } },
{ "type": "Feature", "properties": { "HYRIV_ID": 41409557, "NEXT_DOWN": 41409642, "MAIN_RIV": 41410526, "LENGTH_KM": 5.3800001, "DIST_DN_KM": 30.0, "DIST_UP_KM": 21.5, "CATCH_SKM": 10.24, "UPLAND_SKM": 117.8, "ENDORHEIC": 0, "DIS_AV_CMS": 4.52, "ORD_STRA": 3, "ORD_CLAS": 2, "ORD_FLOW": 6, "HYBAS_L12": 4121160090.0, "Shape_Length": 0.048570226039607187 }, "geometry": { "type": "MultiLineString", "coordinates": [ [ [ 80.593749999999631, 6.152083333333231 ], [ 80.589583333332968, 6.152083333333231 ], [ 80.585416666666305, 6.15625 ], [ 80.581249999999756, 6.15625 ], [ 80.577083333332922, 6.152083333333231 ], [ 80.577083333332922, 6.147916666666568 ], [ 80.572916666666373, 6.14375 ], [ 80.564583333333047, 6.14375 ], [ 80.560416666666271, 6.139583333333256 ], [ 80.560416666666271, 6.135416666666551 ] ] ] } },
{ "type": "Feature", "properties": { "HYRIV_ID": 41409558, "NEXT_DOWN": 41409538, "MAIN_RIV": 41410526, "LENGTH_KM": 1.61, "DIST_DN_KM": 40.900002, "DIST_UP_KM": 3.2, "CATCH_SKM": 5.7600002, "UPLAND_SKM": 5.8, "ENDORHEIC": 0, "DIS_AV_CMS": 0.215, "ORD_STRA": 1, "ORD_CLAS": 4, "ORD_FLOW": 7, "HYBAS_L12": 4121160090.0, "Shape_Length": 0.014583333333334281 }, "geometry": { "type": "MultiLineString", "coordinates": [ [ [ 80.645833333332945, 6.135416666666551 ], [ 80.635416666666316, 6.135416666666551 ], [ 80.635416666666316, 6.139583333333256 ] ] ] } },
{ "type": "Feature", "properties": { "HYRIV_ID": 41409590, "NEXT_DOWN": 41409674, "MAIN_RIV": 41410526, "LENGTH_KM": 0.93, "DIST_DN_KM": 25.9, "DIST_UP_KM": 50.3, "CATCH_SKM": 4.0500002, "UPLAND_SKM": 442.10001, "ENDORHEIC": 0, "DIS_AV_CMS": 20.048, "ORD_STRA": 3, "ORD_CLAS": 1, "ORD_FLOW": 5, "HYBAS_L12": 4121602630.0, "Shape_Length": 0.0083333333333115434 }, "geometry": { "type": "MultiLineString", "coordinates": [ [ [ 80.485416666666282, 6.135416666666551 ], [ 80.485416666666282, 6.127083333333239 ] ] ] } },
{ "type": "Feature", "properties": { "HYRIV_ID": 41409591, "NEXT_DOWN": 41409674, "MAIN_RIV": 41410526, "LENGTH_KM": 5.0500002, "DIST_DN_KM": 25.9, "DIST_UP_KM": 6.9, "CATCH_SKM": 16.43, "UPLAND_SKM": 16.4, "ENDORHEIC": 0, "DIS_AV_CMS": 0.67299998, "ORD_STRA": 1, "ORD_CLAS": 2, "ORD_FLOW": 7, "HYBAS_L12": 4121602630.0, "Shape_Length": 0.045623947784582793 }, "geometry": { "type": "MultiLineString", "coordinates": [ [ [ 80.524999999999608, 6.129166666666571 ], [ 80.518749999999642, 6.135416666666551 ], [ 80.50208333333299, 6.135416666666551 ], [ 80.493749999999665, 6.127083333333239 ], [ 80.485416666666282, 6.127083333333239 ] ] ] } },
{ "type": "Feature", "properties": { "HYRIV_ID": 41409592, "NEXT_DOWN": 41409537, "MAIN_RIV": 41410526, "LENGTH_KM": 1.81, "DIST_DN_KM": 38.700001, "DIST_UP_KM": 3.6, "CATCH_SKM": 5.7600002, "UPLAND_SKM": 5.8, "ENDORHEIC": 0, "DIS_AV_CMS": 0.218, "ORD_STRA": 1, "ORD_CLAS": 4, "ORD_FLOW": 7, "HYBAS_L12": 4121160090.0, "Shape_Length": 0.01630922317656815 }, "geometry": { "type": "MultiLineString", "coordinates": [ [ [ 80.622916666666271, 6.125 ], [ 80.622916666666271, 6.131249999999888 ], [ 80.618749999999608, 6.135416666666551 ], [ 80.618749999999608, 6.139583333333256 ] ] ] } },
{ "type": "Feature", "properties": { "HYRIV_ID": 41409639, "NEXT_DOWN": 41409640, "MAIN_RIV": 41410526, "LENGTH_KM": 7.8200002, "DIST_DN_KM": 32.099998, "DIST_UP_KM": 15.2, "CATCH_SKM": 23.48, "UPLAND_SKM": 48.200001, "ENDORHEIC": 0, "DIS_AV_CMS": 2.207, "ORD_STRA": 2, "ORD_CLAS": 2, "ORD_FLOW": 6, "HYBAS_L12": 4121160080.0, "Shape_Length": 0.070414562235950259 }, "geometry": { "type": "MultiLineString", "coordinates": [ [ [ 80.414583333333013, 6.177083333333222 ], [ 80.422916666666396, 6.16875 ], [ 80.422916666666396, 6.15625 ], [ 80.418749999999676, 6.152083333333231 ], [ 80.418749999999676, 6.147916666666568 ], [ 80.414583333333013, 6.14375 ], [ 80.414583333333013, 6.139583333333256 ], [ 80.418749999999676, 6.135416666666551 ], [ 80.418749999999676, 6.131249999999888 ], [ 80.422916666666396, 6.127083333333239 ], [ 80.422916666666396, 6.122916666666576 ], [ 80.427083333333059, 6.11875 ] ] ] } },
{ "type": "Feature", "properties": { "HYRIV_ID": 41409640, "NEXT_DOWN": 41409669, "MAIN_RIV": 41410526, "LENGTH_KM": 0.46, "DIST_DN_KM": 31.5, "DIST_UP_KM": 15.8, "CATCH_SKM": 1.0700001, "UPLAND_SKM": 53.599998, "ENDORHEIC": 0, "DIS_AV_CMS": 2.444, "ORD_STRA": 2, "ORD_CLAS": 2, "ORD_FLOW": 6, "HYBAS_L12": 4121160080.0, "Shape_Length": 0.0041666666665491903 }, "geometry": { "type": "MultiLineString", "coordinates": [ [ [ 80.427083333333059, 6.11875 ], [ 80.431249999999608, 6.11875 ] ] ] } },
{ "type": "Feature", "properties": { "HYRIV_ID": 41409641, "NEXT_DOWN": 41409669, "MAIN_RIV": 41410526, "LENGTH_KM": 1.16, "DIST_DN_KM": 31.5, "DIST_UP_KM": 3.4, "CATCH_SKM": 2.99, "UPLAND_SKM": 3.0, "ENDORHEIC": 0, "DIS_AV_CMS": 0.129, "ORD_STRA": 1, "ORD_CLAS": 3, "ORD_FLOW": 7, "HYBAS_L12": 4121160080.0, "Shape_Length": 0.010416666666657193 }, "geometry": { "type": "MultiLineString", "coordinates": [ [ [ 80.431249999999608, 6.129166666666571 ], [ 80.431249999999608, 6.11875 ] ] ] } },
{ "type": "Feature", "properties": { "HYRIV_ID": 41409642, "NEXT_DOWN": 41409737, "MAIN_RIV": 41410526, "LENGTH_KM": 3.35, "DIST_DN_KM": 26.6, "DIST_UP_KM": 24.8, "CATCH_SKM": 7.6799998, "UPLAND_SKM": 148.3, "ENDORHEIC": 0, "DIS_AV_CMS": 5.7399998, "ORD_STRA": 3, "ORD_CLAS": 2, "ORD_FLOW": 6, "HYBAS_L12": 4121160090.0, "Shape_Length": 0.030177669529702418 }, "geometry": { "type": "MultiLineString", "coordinates": [ [ [ 80.560416666666271, 6.135416666666551 ], [ 80.564583333333047, 6.131249999999888 ], [ 80.568749999999596, 6.135416666666551 ], [ 80.572916666666373, 6.131249999999888 ], [ 80.572916666666373, 6.11875 ] ] ] } },
{ "type": "Feature", "properties": { "HYRIV_ID": 41409668, "NEXT_DOWN": 41409640, "MAIN_RIV": 41410526, "LENGTH_KM": 0.98, "DIST_DN_KM": 32.099998, "DIST_UP_KM": 2.2, "CATCH_SKM": 4.27, "UPLAND_SKM": 4.3, "ENDORHEIC": 0, "DIS_AV_CMS": 0.184, "ORD_STRA": 1, "ORD_CLAS": 3, "ORD_FLOW": 7, "HYBAS_L12": 4121160080.0, "Shape_Length": 0.0088388347649443894 }, "geometry": { "type": "MultiLineString", "coordinates": [ [ [ 80.420833333332922, 6.112499999999891 ], [ 80.427083333333059, 6.11875 ] ] ] } },
{ "type": "Feature", "properties": { "HYRIV_ID": 41409669, "NEXT_DOWN": 41409671, "MAIN_RIV": 41410526, "LENGTH_KM": 3.34, "DIST_DN_KM": 28.1, "DIST_UP_KM": 19.200001, "CATCH_SKM": 6.62, "UPLAND_SKM": 63.200001, "ENDORHEIC": 0, "DIS_AV_CMS": 2.8989999, "ORD_STRA": 2, "ORD_CLAS": 2, "ORD_FLOW": 6, "HYBAS_L12": 4121160080.0, "Shape_Length": 0.030177669529666384 }, "geometry": { "type": "MultiLineString", "coordinates": [ [ [ 80.431249999999608, 6.11875 ], [ 80.435416666666271, 6.122916666666576 ], [ 80.439583333333047, 6.122916666666576 ], [ 80.44791666666643, 6.114583333333265 ], [ 80.456249999999642, 6.114583333333265 ] ] ] } },
{ "type": "Feature", "properties": { "HYRIV_ID": 41409670, "NEXT_DOWN": 41409671, "MAIN_RIV": 41410526, "LENGTH_KM": 0.69, "DIST_DN_KM": 28.1, "DIST_UP_KM": 2.7, "CATCH_SKM": 3.2, "UPLAND_SKM": 3.2, "ENDORHEIC": 0, "DIS_AV_CMS": 0.137, "ORD_STRA": 1, "ORD_CLAS": 3, "ORD_FLOW": 7, "HYBAS_L12": 4121160080.0, "Shape_Length": 0.0062499999999801048 }, "geometry": { "type": "MultiLineString", "coordinates": [ [ [ 80.456249999999642, 6.120833333333245 ], [ 80.456249999999642, 6.114583333333265 ] ] ] } },
{ "type": "Feature", "properties": { "HYRIV_ID": 41409671, "NEXT_DOWN": 41409672, "MAIN_RIV": 41410526, "LENGTH_KM": 0.46, "DIST_DN_KM": 27.700001, "DIST_UP_KM": 19.6, "CATCH_SKM": 0.43, "UPLAND_SKM": 66.800003, "ENDORHEIC": 0, "DIS_AV_CMS": 3.062, "ORD_STRA": 2, "ORD_CLAS": 2, "ORD_FLOW": 6, "HYBAS_L12": 4121160080.0, "Shape_Length": 0.0041666666666628771 }, "geometry": { "type": "MultiLineString", "coordinates": [ [ [ 80.456249999999642, 6.114583333333265 ], [ 80.460416666666305, 6.114583333333265 ] ] ] } },
{ "type": "Feature", "properties": { "HYRIV_ID": 41409672, "NEXT_DOWN": 41409700, "MAIN_RIV": 41410526, "LENGTH_KM": 1.38, "DIST_DN_KM": 26.3, "DIST_UP_KM": 21.0, "CATCH_SKM": 3.4200001, "UPLAND_SKM": 74.900002, "ENDORHEIC": 0, "DIS_AV_CMS": 3.431, "ORD_STRA": 2, "ORD_CLAS": 2, "ORD_FLOW": 6, "HYBAS_L12": 4121160080.0, "Shape_Length": 0.012499999999988631 }, "geometry": { "type": "MultiLineString", "coordinates": [ [ [ 80.460416666666305, 6.114583333333265 ], [ 80.472916666666293, 6.114583333333265 ] ] ] } },
{ "type": "Feature", "properties": { "HYRIV_ID": 41409673, "NEXT_DOWN": 41409700, "MAIN_RIV": 41410526, "LENGTH_KM": 0.69, "DIST_DN_KM": 26.3, "DIST_UP_KM": 3.2, "CATCH_SKM": 2.99, "UPLAND_SKM": 3.0, "ENDORHEIC": 0, "DIS_AV_CMS": 0.127, "ORD_STRA": 1, "ORD_CLAS": 3, "ORD_FLOW": 7, "HYBAS_L12": 4121160080.0, "Shape_Length": 0.0062499999999801048 }, "geometry": { "type": "MultiLineString", "coordinates": [ [ [ 80.472916666666293, 6.120833333333245 ], [ 80.472916666666293, 6.114583333333265 ] ] ] } },
{ "type": "Feature", "properties": { "HYRIV_ID": 41409674, "NEXT_DOWN": 41409735, "MAIN_RIV": 41410526, "LENGTH_KM": 1.39, "DIST_DN_KM": 24.5, "DIST_UP_KM": 51.700001, "CATCH_SKM": 2.1300001, "UPLAND_SKM": 460.70001, "ENDORHEIC": 0, "DIS_AV_CMS": 20.972, "ORD_STRA": 3, "ORD_CLAS": 1, "ORD_FLOW": 5, "HYBAS_L12": 4121160080.0, "Shape_Length": 0.01249999999997442 }, "geometry": { "type": "MultiLineString", "coordinates": [ [ [ 80.485416666666282, 6.127083333333239 ], [ 80.485416666666282, 6.114583333333265 ] ] ] } },
{ "type": "Feature", "properties": { "HYRIV_ID": 41409675, "NEXT_DOWN": 41409737, "MAIN_RIV": 41410526, "LENGTH_KM": 2.56, "DIST_DN_KM": 26.6, "DIST_UP_KM": 4.2, "CATCH_SKM": 10.03, "UPLAND_SKM": 10.0, "ENDORHEIC": 0, "DIS_AV_CMS": 0.38600001, "ORD_STRA": 1, "ORD_CLAS": 3, "ORD_FLOW": 7, "HYBAS_L12": 4121160090.0, "Shape_Length": 0.023064724607925306 }, "geometry": { "type": "MultiLineString", "coordinates": [ [ [ 80.591666666666328, 6.120833333333245 ], [ 80.585416666666305, 6.114583333333265 ], [ 80.581249999999756, 6.114583333333265 ], [ 80.577083333332922, 6.11875 ], [ 80.572916666666373, 6.11875 ] ] ] } },
{ "type": "Feature", "properties": { "HYRIV_ID": 41409699, "NEXT_DOWN": 41409672, "MAIN_RIV": 41410526, "LENGTH_KM": 0.69, "DIST_DN_KM": 27.700001, "DIST_UP_KM": 2.9, "CATCH_SKM": 4.7, "UPLAND_SKM": 4.7, "ENDORHEIC": 0, "DIS_AV_CMS": 0.199, "ORD_STRA": 1, "ORD_CLAS": 3, "ORD_FLOW": 7, "HYBAS_L12": 4121160080.0, "Shape_Length": 0.0062500000000369482 }, "geometry": { "type": "MultiLineString", "coordinates": [ [ [ 80.460416666666305, 6.108333333333228 ], [ 80.460416666666305, 6.114583333333265 ] ] ] } },
{ "type": "Feature", "properties": { "HYRIV_ID": 41409700, "NEXT_DOWN": 41409735, "MAIN_RIV": 41410526, "LENGTH_KM": 1.77, "DIST_DN_KM": 24.700001, "DIST_UP_KM": 22.6, "CATCH_SKM": 1.49, "UPLAND_SKM": 79.400002, "ENDORHEIC": 0, "DIS_AV_CMS": 3.648, "ORD_STRA": 2, "ORD_CLAS": 2, "ORD_FLOW": 6, "HYBAS_L12": 4121160080.0, "Shape_Length": 0.015951779686488241 }, "geometry": { "type": "MultiLineString", "coordinates": [ [ [ 80.472916666666293, 6.114583333333265 ], [ 80.477083333332956, 6.114583333333265 ], [ 80.481249999999619, 6.110416666666559 ], [ 80.485416666666282, 6.114583333333265 ] ] ] } },
{ "type": "Feature", "properties": { "HYRIV_ID": 41409735, "NEXT_DOWN": 41409888, "MAIN_RIV": 41410526, "LENGTH_KM": 1.31, "DIST_DN_KM": 23.4, "DIST_UP_KM": 52.900002, "CATCH_SKM": 2.1300001, "UPLAND_SKM": 542.20001, "ENDORHEIC": 0, "DIS_AV_CMS": 24.837, "ORD_STRA": 3, "ORD_CLAS": 1, "ORD_FLOW": 5, "HYBAS_L12": 4121160080.0, "Shape_Length": 0.011785113019795219 }, "geometry": { "type": "MultiLineString", "coordinates": [ [ [ 80.485416666666282, 6.114583333333265 ], [ 80.489583333332945, 6.110416666666559 ], [ 80.485416666666282, 6.106249999999896 ] ] ] } },
{ "type": "Feature", "properties": { "HYRIV_ID": 41409736, "NEXT_DOWN": 41409889, "MAIN_RIV": 41410526, "LENGTH_KM": 1.61, "DIST_DN_KM": 24.9, "DIST_UP_KM": 4.1, "CATCH_SKM": 4.7, "UPLAND_SKM": 4.7, "ENDORHEIC": 0, "DIS_AV_CMS": 0.186, "ORD_STRA": 1, "ORD_CLAS": 3, "ORD_FLOW": 7, "HYBAS_L12": 4121160090.0, "Shape_Length": 0.014583333333405335 }, "geometry": { "type": "MultiLineString", "coordinates": [ [ [ 80.554166666666305, 6.110416666666559 ], [ 80.564583333333047, 6.110416666666559 ], [ 80.564583333333047, 6.106249999999896 ] ] ] } },
{ "type": "Feature", "properties": { "HYRIV_ID": 41409737, "NEXT_DOWN": 41409889, "MAIN_RIV": 41410526, "LENGTH_KM": 1.77, "DIST_DN_KM": 25.1, "DIST_UP_KM": 26.4, "CATCH_SKM": 1.92, "UPLAND_SKM": 160.3, "ENDORHEIC": 0, "DIS_AV_CMS": 6.2010002, "ORD_STRA": 3, "ORD_CLAS": 2, "ORD_FLOW": 6, "HYBAS_L12": 4121160090.0, "Shape_Length": 0.015951779686460534 }, "geometry": { "type": "MultiLineString", "coordinates": [ [ [ 80.572916666666373, 6.11875 ], [ 80.568749999999596, 6.114583333333265 ], [ 80.568749999999596, 6.110416666666559 ], [ 80.564583333333047, 6.106249999999896 ] ] ] } },
{ "type": "Feature", "properties": { "HYRIV_ID": 41409770, "NEXT_DOWN": 41409888, "MAIN_RIV": 41410526, "LENGTH_KM": 3.3800001, "DIST_DN_KM": 23.200001, "DIST_UP_KM": 5.8, "CATCH_SKM": 8.96, "UPLAND_SKM": 9.0, "ENDORHEIC": 0, "DIS_AV_CMS": 0.36500001, "ORD_STRA": 1, "ORD_CLAS": 2, "ORD_FLOW": 7, "HYBAS_L12": 4121160080.0, "Shape_Length": 0.030535113019756345 }, "geometry": { "type": "MultiLineString", "coordinates": [ [ [ 80.512499999999619, 6.106249999999896 ], [ 80.497916666666271, 6.106249999999896 ], [ 80.493749999999665, 6.102083333333248 ], [ 80.489583333332945, 6.106249999999896 ], [ 80.485416666666282, 6.106249999999896 ] ] ] } },
{ "type": "Feature", "properties": { "HYRIV_ID": 41409888, "NEXT_DOWN": 41409912, "MAIN_RIV": 41410526, "LENGTH_KM": 3.62, "DIST_DN_KM": 19.8, "DIST_UP_KM": 56.5, "CATCH_SKM": 10.24, "UPLAND_SKM": 561.40002, "ENDORHEIC": 0, "DIS_AV_CMS": 26.086, "ORD_STRA": 3, "ORD_CLAS": 1, "ORD_FLOW": 5, "HYBAS_L12": 4121160080.0, "Shape_Length": 0.032618446353111327 }, "geometry": { "type": "MultiLineString", "coordinates": [ [ [ 80.485416666666282, 6.106249999999896 ], [ 80.485416666666282, 6.097916666666585 ], [ 80.489583333332945, 6.093749999999879 ], [ 80.489583333332945, 6.08125 ], [ 80.493749999999665, 6.077083333333256 ] ] ] } },
{ "type": "Feature", "properties": { "HYRIV_ID": 41409889, "NEXT_DOWN": 41409915, "MAIN_RIV": 41410526, "LENGTH_KM": 3.81, "DIST_DN_KM": 21.1, "DIST_UP_KM": 30.4, "CATCH_SKM": 6.4, "UPLAND_SKM": 171.39999, "ENDORHEIC": 0, "DIS_AV_CMS": 6.6370001, "ORD_STRA": 3, "ORD_CLAS": 2, "ORD_FLOW": 6, "HYBAS_L12": 4121160090.0, "Shape_Length": 0.034344336196210405 }, "geometry": { "type": "MultiLineString", "coordinates": [ [ [ 80.564583333333047, 6.106249999999896 ], [ 80.564583333333047, 6.102083333333248 ], [ 80.556249999999721, 6.093749999999879 ], [ 80.560416666666271, 6.089583333333231 ], [ 80.560416666666271, 6.077083333333256 ] ] ] } },
{ "type": "Feature", "properties": { "HYRIV_ID": 41409890, "NEXT_DOWN": 41409915, "MAIN_RIV": 41410526, "LENGTH_KM": 5.4400001, "DIST_DN_KM": 21.1, "DIST_UP_KM": 7.5, "CATCH_SKM": 11.1, "UPLAND_SKM": 11.1, "ENDORHEIC": 0, "DIS_AV_CMS": 0.426, "ORD_STRA": 1, "ORD_CLAS": 3, "ORD_FLOW": 7, "HYBAS_L12": 4121160090.0, "Shape_Length": 0.049075727471179144 }, "geometry": { "type": "MultiLineString", "coordinates": [ [ [ 80.59583333333299, 6.091666666666562 ], [ 80.589583333332968, 6.097916666666585 ], [ 80.585416666666305, 6.097916666666585 ], [ 80.581249999999756, 6.093749999999879 ], [ 80.577083333332922, 6.093749999999879 ], [ 80.572916666666373, 6.089583333333231 ], [ 80.572916666666373, 6.085416666666568 ], [ 80.564583333333047, 6.077083333333256 ], [ 80.560416666666271, 6.077083333333256 ] ] ] } },
{ "type": "Feature", "properties": { "HYRIV_ID": 41409912, "NEXT_DOWN": 41409965, "MAIN_RIV": 41410526, "LENGTH_KM": 1.11, "DIST_DN_KM": 18.700001, "DIST_UP_KM": 57.599998, "CATCH_SKM": 1.49, "UPLAND_SKM": 582.79999, "ENDORHEIC": 0, "DIS_AV_CMS": 27.113001, "ORD_STRA": 3, "ORD_CLAS": 1, "ORD_FLOW": 5, "HYBAS_L12": 4121160080.0, "Shape_Length": 0.010059223176558911 }, "geometry": { "type": "MultiLineString", "coordinates": [ [ [ 80.493749999999665, 6.077083333333256 ], [ 80.497916666666271, 6.077083333333256 ], [ 80.50208333333299, 6.072916666666551 ] ] ] } },
{ "type": "Feature", "properties": { "HYRIV_ID": 41409913, "NEXT_DOWN": 41409965, "MAIN_RIV": 41410526, "LENGTH_KM": 1.81, "DIST_DN_KM": 18.5, "DIST_UP_KM": 3.5, "CATCH_SKM": 5.12, "UPLAND_SKM": 5.1, "ENDORHEIC": 0, "DIS_AV_CMS": 0.205, "ORD_STRA": 1, "ORD_CLAS": 2, "ORD_FLOW": 7, "HYBAS_L12": 4121160080.0, "Shape_Length": 0.016309223176555664 }, "geometry": { "type": "MultiLineString", "coordinates": [ [ [ 80.510416666666316, 6.083333333333236 ], [ 80.510416666666316, 6.077083333333256 ], [ 80.506249999999653, 6.072916666666551 ], [ 80.50208333333299, 6.072916666666551 ] ] ] } },
{ "type": "Feature", "properties": { "HYRIV_ID": 41409914, "NEXT_DOWN": 41409983, "MAIN_RIV": 41410526, "LENGTH_KM": 4.1300001, "DIST_DN_KM": 20.6, "DIST_UP_KM": 5.4, "CATCH_SKM": 10.03, "UPLAND_SKM": 10.0, "ENDORHEIC": 0, "DIS_AV_CMS": 0.396, "ORD_STRA": 1, "ORD_CLAS": 3, "ORD_FLOW": 7, "HYBAS_L12": 4121160090.0, "Shape_Length": 0.037290614451263221 }, "geometry": { "type": "MultiLineString", "coordinates": [ [ [ 80.537499999999596, 6.095833333333253 ], [ 80.543749999999676, 6.089583333333231 ], [ 80.543749999999676, 6.085416666666568 ], [ 80.547916666666339, 6.08125 ], [ 80.547916666666339, 6.077083333333256 ], [ 80.552083333333059, 6.072916666666551 ], [ 80.560416666666271, 6.072916666666551 ] ] ] } },
{ "type": "Feature", "properties": { "HYRIV_ID": 41409915, "NEXT_DOWN": 41409983, "MAIN_RIV": 41410526, "LENGTH_KM": 0.46, "DIST_DN_KM": 20.6, "DIST_UP_KM": 30.9, "CATCH_SKM": 0.43, "UPLAND_SKM": 182.89999, "ENDORHEIC": 0, "DIS_AV_CMS": 7.079, "ORD_STRA": 3, "ORD_CLAS": 2, "ORD_FLOW": 6, "HYBAS_L12": 4121160090.0, "Shape_Length": 0.0041666666667055097 }, "geometry": { "type": "MultiLineString", "coordinates": [ [ [ 80.560416666666271, 6.077083333333256 ], [ 80.560416666666271, 6.072916666666551 ] ] ] } },
{ "type": "Feature", "properties": { "HYRIV_ID": 41409949, "NEXT_DOWN": 41409950, "MAIN_RIV": 41410526, "LENGTH_KM": 1.81, "DIST_DN_KM": 22.700001, "DIST_UP_KM": 3.8, "CATCH_SKM": 5.98, "UPLAND_SKM": 6.0, "ENDORHEIC": 0, "DIS_AV_CMS": 0.25, "ORD_STRA": 1, "ORD_CLAS": 2, "ORD_FLOW": 7, "HYBAS_L12": 4121160080.0, "Shape_Length": 0.016309223176558103 }, "geometry": { "type": "MultiLineString", "coordinates": [ [ [ 80.468749999999631, 6.079166666666573 ], [ 80.468749999999631, 6.068749999999888 ], [ 80.472916666666293, 6.064583333333239 ] ] ] } },
{ "type": "Feature", "properties": { "HYRIV_ID": 41409950, "NEXT_DOWN": 41409912, "MAIN_RIV": 41410526, "LENGTH_KM": 2.8800001, "DIST_DN_KM": 19.8, "DIST_UP_KM": 6.7, "CATCH_SKM": 10.03, "UPLAND_SKM": 19.9, "ENDORHEIC": 0, "DIS_AV_CMS": 0.829, "ORD_STRA": 2, "ORD_CLAS": 2, "ORD_FLOW": 7, "HYBAS_L12": 4121160080.0, "Shape_Length": 0.026011002863033657 }, "geometry": { "type": "MultiLineString", "coordinates": [ [ [ 80.472916666666293, 6.064583333333239 ], [ 80.481249999999619, 6.064583333333239 ], [ 80.493749999999665, 6.077083333333256 ] ] ] } },
{ "type": "Feature", "properties": { "HYRIV_ID": 41409965, "NEXT_DOWN": 41410022, "MAIN_RIV": 41410526, "LENGTH_KM": 1.96, "DIST_DN_KM": 16.700001, "DIST_UP_KM": 59.599998, "CATCH_SKM": 7.04, "UPLAND_SKM": 594.90002, "ENDORHEIC": 0, "DIS_AV_CMS": 27.6, "ORD_STRA": 3, "ORD_CLAS": 1, "ORD_FLOW": 5, "HYBAS_L12": 4121160080.0, "Shape_Length": 0.017677669529637563 }, "geometry": { "type": "MultiLineString", "coordinates": [ [ [ 80.50208333333299, 6.072916666666551 ], [ 80.514583333332979, 6.060416666666576 ] ] ] } },
{ "type": "Feature", "properties": { "HYRIV_ID": 41409966, "NEXT_DOWN": 41410022, "MAIN_RIV": 41410526, "LENGTH_KM": 1.4400001, "DIST_DN_KM": 16.5, "DIST_UP_KM": 3.5, "CATCH_SKM": 4.06, "UPLAND_SKM": 4.1, "ENDORHEIC": 0, "DIS_AV_CMS": 0.16, "ORD_STRA": 1, "ORD_CLAS": 2, "ORD_FLOW": 7, "HYBAS_L12": 4121160080.0, "Shape_Length": 0.013005501431456536 }, "geometry": { "type": "MultiLineString", "coordinates": [ [ [ 80.524999999999608, 6.066666666666556 ], [ 80.518749999999642, 6.060416666666576 ], [ 80.514583333332979, 6.060416666666576 ] ] ] } },
{ "type": "Feature", "properties": { "HYRIV_ID": 41409982, "NEXT_DOWN": 41409950, "MAIN_RIV": 41410526, "LENGTH_KM": 1.4400001, "DIST_DN_KM": 22.5, "DIST_UP_KM": 2.9, "CATCH_SKM": 3.84, "UPLAND_SKM": 3.8, "ENDORHEIC": 0, "DIS_AV_CMS": 0.159, "ORD_STRA": 1, "ORD_CLAS": 4, "ORD_FLOW": 7, "HYBAS_L12": 4121160080.0, "Shape_Length": 0.013005501431466584 }, "geometry": { "type": "MultiLineString", "coordinates": [ [ [ 80.466666666666328, 6.054166666666582 ], [ 80.472916666666293, 6.060416666666576 ], [ 80.472916666666293, 6.064583333333239 ] ] ] } },
{ "type": "Feature", "properties": { "HYRIV_ID": 41409983, "NEXT_DOWN": 41410023, "MAIN_RIV": 41410526, "LENGTH_KM": 2.04, "DIST_DN_KM": 18.700001, "DIST_UP_KM": 32.700001, "CATCH_SKM": 2.77, "UPLAND_SKM": 195.7, "ENDORHEIC": 0, "DIS_AV_CMS": 7.5830002, "ORD_STRA": 3, "ORD_CLAS": 2, "ORD_FLOW": 6, "HYBAS_L12": 4121160090.0, "Shape_Length": 0.018392556509776569 }, "geometry": { "type": "MultiLineString", "coordinates": [ [ [ 80.560416666666271, 6.072916666666551 ], [ 80.560416666666271, 6.060416666666576 ], [ 80.556249999999721, 6.05625 ] ] ] } },
{ "type": "Feature", "properties": { "HYRIV_ID": 41409984, "NEXT_DOWN": 41410023, "MAIN_RIV": 41410526, "LENGTH_KM": 3.3800001, "DIST_DN_KM": 18.6, "DIST_UP_KM": 6.0, "CATCH_SKM": 11.1, "UPLAND_SKM": 11.1, "ENDORHEIC": 0, "DIS_AV_CMS": 0.424, "ORD_STRA": 1, "ORD_CLAS": 3, "ORD_FLOW": 7, "HYBAS_L12": 4121160090.0, "Shape_Length": 0.030535113019620121 }, "geometry": { "type": "MultiLineString", "coordinates": [ [ [ 80.577083333332922, 6.070833333333219 ], [ 80.577083333332922, 6.064583333333239 ], [ 80.568749999999596, 6.05625 ], [ 80.556249999999721, 6.05625 ] ] ] } },
{ "type": "Feature", "properties": { "HYRIV_ID": 41410022, "NEXT_DOWN": 41410167, "MAIN_RIV": 41410526, "LENGTH_KM": 1.96, "DIST_DN_KM": 14.7, "DIST_UP_KM": 61.5, "CATCH_SKM": 4.48, "UPLAND_SKM": 603.5, "ENDORHEIC": 0, "DIS_AV_CMS": 27.938, "ORD_STRA": 3, "ORD_CLAS": 1, "ORD_FLOW": 5, "HYBAS_L12": 4121160080.0, "Shape_Length": 0.017677669529707903 }, "geometry": { "type": "MultiLineString", "coordinates": [ [ [ 80.514583333332979, 6.060416666666576 ], [ 80.527083333333024, 6.047916666666559 ] ] ] } },
{ "type": "Feature", "properties": { "HYRIV_ID": 41410023, "NEXT_DOWN": 41410167, "MAIN_RIV": 41410526, "LENGTH_KM": 4.0, "DIST_DN_KM": 14.7, "DIST_UP_KM": 36.700001, "CATCH_SKM": 6.83, "UPLAND_SKM": 213.60001, "ENDORHEIC": 0, "DIS_AV_CMS": 8.2729998, "ORD_STRA": 3, "ORD_CLAS": 2, "ORD_FLOW": 6, "HYBAS_L12": 4121160090.0, "Shape_Length": 0.036070226039558971 }, "geometry": { "type": "MultiLineString", "coordinates": [ [ [ 80.556249999999721, 6.05625 ], [ 80.552083333333059, 6.05625 ], [ 80.547916666666339, 6.052083333333265 ], [ 80.543749999999676, 6.05625 ], [ 80.539583333333013, 6.052083333333265 ], [ 80.531249999999687, 6.052083333333265 ], [ 80.527083333333024, 6.047916666666559 ] ] ] } },
{ "type": "Feature", "properties": { "HYRIV_ID": 41410024, "NEXT_DOWN": 41410191, "MAIN_RIV": 41410526, "LENGTH_KM": 4.7, "DIST_DN_KM": 16.3, "DIST_UP_KM": 7.6, "CATCH_SKM": 14.52, "UPLAND_SKM": 14.5, "ENDORHEIC": 0, "DIS_AV_CMS": 0.547, "ORD_STRA": 1, "ORD_CLAS": 2, "ORD_FLOW": 7, "HYBAS_L12": 4121160240.0, "Shape_Length": 0.042320226039551566 }, "geometry": { "type": "MultiLineString", "coordinates": [ [ [ 80.602083333332956, 6.079166666666573 ], [ 80.602083333332956, 6.072916666666551 ], [ 80.610416666666282, 6.064583333333239 ], [ 80.610416666666282, 6.05625 ], [ 80.614583333332945, 6.052083333333265 ], [ 80.618749999999608, 6.052083333333265 ], [ 80.622916666666271, 6.047916666666559 ] ] ] } },
{ "type": "Feature", "properties": { "HYRIV_ID": 41410025, "NEXT_DOWN": 41410191, "MAIN_RIV": 41410526, "LENGTH_KM": 2.9200001, "DIST_DN_KM": 16.200001, "DIST_UP_KM": 4.5, "CATCH_SKM": 11.74, "UPLAND_SKM": 11.7, "ENDORHEIC": 0, "DIS_AV_CMS": 0.43200001, "ORD_STRA": 1, "ORD_CLAS": 3, "ORD_FLOW": 7, "HYBAS_L12": 4121160240.0, "Shape_Length": 0.026368446353133661 }, "geometry": { "type": "MultiLineString", "coordinates": [ [ [ 80.645833333332945, 6.05625 ], [ 80.635416666666316, 6.05625 ], [ 80.62708333333299, 6.047916666666559 ], [ 80.622916666666271, 6.047916666666559 ] ] ] } },
{ "type": "Feature", "properties": { "HYRIV_ID": 41410166, "NEXT_DOWN": 41410306, "MAIN_RIV": 41410526, "LENGTH_KM": 5.8800001, "DIST_DN_KM": 11.4, "DIST_UP_KM": 7.4, "CATCH_SKM": 20.280001, "UPLAND_SKM": 20.3, "ENDORHEIC": 0, "DIS_AV_CMS": 0.82, "ORD_STRA": 1, "ORD_CLAS": 2, "ORD_FLOW": 7, "HYBAS_L12": 4121160220.0, "Shape_Length": 0.053094336196313936 }, "geometry": { "type": "MultiLineString", "coordinates": [ [ [ 80.47083333333299, 6.035416666666585 ], [ 80.477083333332956, 6.035416666666585 ], [ 80.481249999999619, 6.03125 ], [ 80.497916666666271, 6.03125 ], [ 80.50208333333299, 6.027083333333259 ], [ 80.510416666666316, 6.027083333333259 ], [ 80.514583333332979, 6.022916666666568 ], [ 80.518749999999642, 6.022916666666568 ] ] ] } },
{ "type": "Feature", "properties": { "HYRIV_ID": 41410167, "NEXT_DOWN": 41410306, "MAIN_RIV": 41410526, "LENGTH_KM": 3.1600001, "DIST_DN_KM": 11.4, "DIST_UP_KM": 64.900002, "CATCH_SKM": 7.6799998, "UPLAND_SKM": 824.79999, "ENDORHEIC": 0, "DIS_AV_CMS": 36.512001, "ORD_STRA": 4, "ORD_CLAS": 1, "ORD_FLOW": 5, "HYBAS_L12": 4121160220.0, "Shape_Length": 0.028451779686475151 }, "geometry": { "type": "MultiLineString", "coordinates": [ [ [ 80.527083333333024, 6.047916666666559 ], [ 80.527083333333024, 6.039583333333233 ], [ 80.518749999999642, 6.03125 ], [ 80.518749999999642, 6.022916666666568 ] ] ] } },
{ "type": "Feature", "properties": { "HYRIV_ID": 41410190, "NEXT_DOWN": 41410231, "MAIN_RIV": 41410526, "LENGTH_KM": 0.98, "DIST_DN_KM": 11.3, "DIST_UP_KM": 3.5, "CATCH_SKM": 4.27, "UPLAND_SKM": 4.3, "ENDORHEIC": 0, "DIS_AV_CMS": 0.161, "ORD_STRA": 1, "ORD_CLAS": 3, "ORD_FLOW": 7, "HYBAS_L12": 4121160240.0, "Shape_Length": 0.0088388347648037068 }, "geometry": { "type": "MultiLineString", "coordinates": [ [ [ 80.583333333333002, 6.024999999999899 ], [ 80.589583333332968, 6.01875 ] ] ] } },
{ "type": "Feature", "properties": { "HYRIV_ID": 41410191, "NEXT_DOWN": 41410231, "MAIN_RIV": 41410526, "LENGTH_KM": 5.04, "DIST_DN_KM": 11.1, "DIST_UP_KM": 12.8, "CATCH_SKM": 14.09, "UPLAND_SKM": 40.3, "ENDORHEIC": 0, "DIS_AV_CMS": 1.503, "ORD_STRA": 2, "ORD_CLAS": 2, "ORD_FLOW": 6, "HYBAS_L12": 4121160240.0, "Shape_Length": 0.045414562235850685 }, "geometry": { "type": "MultiLineString", "coordinates": [ [ [ 80.622916666666271, 6.047916666666559 ], [ 80.593749999999631, 6.01875 ], [ 80.589583333332968, 6.01875 ] ] ] } },
{ "type": "Feature", "properties": { "HYRIV_ID": 41410230, "NEXT_DOWN": 41410282, "MAIN_RIV": 41410526, "LENGTH_KM": 0.69, "DIST_DN_KM": 9.4, "DIST_UP_KM": 4.3, "CATCH_SKM": 3.6300001, "UPLAND_SKM": 3.6, "ENDORHEIC": 0, "DIS_AV_CMS": 0.138, "ORD_STRA": 1, "ORD_CLAS": 3, "ORD_FLOW": 7, "HYBAS_L12": 4121160240.0, "Shape_Length": 0.0062500000000369482 }, "geometry": { "type": "MultiLineString", "coordinates": [ [ [ 80.581249999999756, 6.0125 ], [ 80.581249999999756, 6.006249999999888 ] ] ] } },
{ "type": "Feature", "properties": { "HYRIV_ID": 41410231, "NEXT_DOWN": 41410282, "MAIN_RIV": 41410526, "LENGTH_KM": 1.77, "DIST_DN_KM": 9.5, "DIST_UP_KM": 14.4, "CATCH_SKM": 3.2, "UPLAND_SKM": 47.8, "ENDORHEIC": 0, "DIS_AV_CMS": 1.785, "ORD_STRA": 2, "ORD_CLAS": 2, "ORD_FLOW": 6, "HYBAS_L12": 4121160240.0, "Shape_Length": 0.015951779686363497 }, "geometry": { "type": "MultiLineString", "coordinates": [ [ [ 80.589583333332968, 6.01875 ], [ 80.585416666666305, 6.014583333333242 ], [ 80.585416666666305, 6.010416666666593 ], [ 80.581249999999756, 6.006249999999888 ] ] ] } },
{ "type": "Feature", "properties": { "HYRIV_ID": 41410232, "NEXT_DOWN": 41410308, "MAIN_RIV": 41410526, "LENGTH_KM": 4.33, "DIST_DN_KM": 13.8, "DIST_UP_KM": 6.0, "CATCH_SKM": 9.1800003, "UPLAND_SKM": 9.2, "ENDORHEIC": 0, "DIS_AV_CMS": 0.336, "ORD_STRA": 1, "ORD_CLAS": 3, "ORD_FLOW": 7, "HYBAS_L12": 4121160240.0, "Shape_Length": 0.039016504294516176 }, "geometry": { "type": "MultiLineString", "coordinates": [ [ [ 80.641666666666282, 6.033333333333253 ], [ 80.635416666666316, 6.027083333333259 ], [ 80.631249999999653, 6.027083333333259 ], [ 80.62708333333299, 6.022916666666568 ], [ 80.62708333333299, 6.01875 ], [ 80.622916666666271, 6.014583333333242 ], [ 80.622916666666271, 6.010416666666593 ], [ 80.618749999999608, 6.006249999999888 ] ] ] } },
{ "type": "Feature", "properties": { "HYRIV_ID": 41410233, "NEXT_DOWN": 41410308, "MAIN_RIV": 41410526, "LENGTH_KM": 4.0300002, "DIST_DN_KM": 13.6, "DIST_UP_KM": 5.8, "CATCH_SKM": 10.67, "UPLAND_SKM": 10.7, "ENDORHEIC": 0, "DIS_AV_CMS": 0.387, "ORD_STRA": 1, "ORD_CLAS": 4, "ORD_FLOW": 7, "HYBAS_L12": 4121160240.0, "Shape_Length": 0.036427669529679074 }, "geometry": { "type": "MultiLineString", "coordinates": [ [ [ 80.649999999999608, 6.01875 ], [ 80.643749999999642, 6.01875 ], [ 80.631249999999653, 6.006249999999888 ], [ 80.618749999999608, 6.006249999999888 ] ] ] } },
{ "type": "Feature", "properties": { "HYRIV_ID": 41410261, "NEXT_DOWN": 41410308, "MAIN_RIV": 41410526, "LENGTH_KM": 0.69, "DIST_DN_KM": 13.6, "DIST_UP_KM": 3.1, "CATCH_SKM": 4.7, "UPLAND_SKM": 4.7, "ENDORHEIC": 0, "DIS_AV_CMS": 0.171, "ORD_STRA": 1, "ORD_CLAS": 5, "ORD_FLOW": 7, "HYBAS_L12": 4121160240.0, "Shape_Length": 0.0062499999999801048 }, "geometry": { "type": "MultiLineString", "coordinates": [ [ [ 80.618749999999608, 6.0 ], [ 80.618749999999608, 6.006249999999888 ] ] ] } },
{ "type": "Feature", "properties": { "HYRIV_ID": 41410282, "NEXT_DOWN": 41410330, "MAIN_RIV": 41410526, "LENGTH_KM": 1.12, "DIST_DN_KM": 8.2, "DIST_UP_KM": 15.7, "CATCH_SKM": 2.77, "UPLAND_SKM": 54.200001, "ENDORHEIC": 0, "DIS_AV_CMS": 2.027, "ORD_STRA": 2, "ORD_CLAS": 2, "ORD_FLOW": 6, "HYBAS_L12": 4121160240.0, "Shape_Length": 0.010059223176651786 }, "geometry": { "type": "MultiLineString", "coordinates": [ [ [ 80.581249999999756, 6.006249999999888 ], [ 80.577083333332922, 6.002083333333225 ], [ 80.577083333332922, 5.997916666666576 ] ] ] } },
{ "type": "Feature", "properties": { "HYRIV_ID": 41410306, "NEXT_DOWN": 41410409, "MAIN_RIV": 41410526, "LENGTH_KM": 4.8400002, "DIST_DN_KM": 6.7, "DIST_UP_KM": 69.5, "CATCH_SKM": 10.25, "UPLAND_SKM": 855.29999, "ENDORHEIC": 0, "DIS_AV_CMS": 37.729, "ORD_STRA": 4, "ORD_CLAS": 1, "ORD_FLOW": 5, "HYBAS_L12": 4121160220.0, "Shape_Length": 0.04368867239268371 }, "geometry": { "type": "MultiLineString", "coordinates": [ [ [ 80.518749999999642, 6.022916666666568 ], [ 80.522916666666305, 6.01875 ], [ 80.527083333333024, 6.01875 ], [ 80.543749999999676, 6.002083333333225 ], [ 80.543749999999676, 5.997916666666576 ], [ 80.547916666666339, 5.99375 ] ] ] } },
{ "type": "Feature", "properties": { "HYRIV_ID": 41410307, "NEXT_DOWN": 41410409, "MAIN_RIV": 41410526, "LENGTH_KM": 7.2, "DIST_DN_KM": 6.7, "DIST_UP_KM": 9.3, "CATCH_SKM": 16.219999, "UPLAND_SKM": 16.200001, "ENDORHEIC": 0, "DIS_AV_CMS": 0.621, "ORD_STRA": 1, "ORD_CLAS": 2, "ORD_FLOW": 7, "HYBAS_L12": 4121160220.0, "Shape_Length": 0.064879449216135851 }, "geometry": { "type": "MultiLineString", "coordinates": [ [ [ 80.566666666666293, 6.043749999999896 ], [ 80.560416666666271, 6.043749999999896 ], [ 80.556249999999721, 6.039583333333233 ], [ 80.556249999999721, 6.03125 ], [ 80.547916666666339, 6.022916666666568 ], [ 80.547916666666339, 6.01875 ], [ 80.552083333333059, 6.014583333333242 ], [ 80.552083333333059, 5.997916666666576 ], [ 80.547916666666339, 5.99375 ] ] ] } },
{ "type": "Feature", "properties": { "HYRIV_ID": 41410308, "NEXT_DOWN": 41410330, "MAIN_RIV": 41410526, "LENGTH_KM": 5.3800001, "DIST_DN_KM": 8.4, "DIST_UP_KM": 11.4, "CATCH_SKM": 10.89, "UPLAND_SKM": 35.400002, "ENDORHEIC": 0, "DIS_AV_CMS": 1.2970001, "ORD_STRA": 2, "ORD_CLAS": 3, "ORD_FLOW": 6, "HYBAS_L12": 4121160240.0, "Shape_Length": 0.048570226039537548 }, "geometry": { "type": "MultiLineString", "coordinates": [ [ [ 80.618749999999608, 6.006249999999888 ], [ 80.597916666666293, 6.006249999999888 ], [ 80.589583333332968, 5.997916666666576 ], [ 80.585416666666305, 5.997916666666576 ], [ 80.581249999999756, 5.99375 ], [ 80.577083333332922, 5.997916666666576 ] ] ] } },
{ "type": "Feature", "properties": { "HYRIV_ID": 41410330, "NEXT_DOWN": 41410410, "MAIN_RIV": 41410526, "LENGTH_KM": 1.12, "DIST_DN_KM": 7.1, "DIST_UP_KM": 16.8, "CATCH_SKM": 2.1300001, "UPLAND_SKM": 91.800003, "ENDORHEIC": 0, "DIS_AV_CMS": 3.404, "ORD_STRA": 3, "ORD_CLAS": 2, "ORD_FLOW": 6, "HYBAS_L12": 4121160240.0, "Shape_Length": 0.010059223176465026 }, "geometry": { "type": "MultiLineString", "coordinates": [ [ [ 80.577083333332922, 5.997916666666576 ], [ 80.572916666666373, 5.99375 ], [ 80.572916666666373, 5.98958333333325 ] ] ] } },
{ "type": "Feature", "properties": { "HYRIV_ID": 41410372, "NEXT_DOWN": 41410410, "MAIN_RIV": 41410526, "LENGTH_KM": 2.9200001, "DIST_DN_KM": 7.3, "DIST_UP_KM": 6.0, "CATCH_SKM": 8.9700003, "UPLAND_SKM": 9.0, "ENDORHEIC": 0, "DIS_AV_CMS": 0.331, "ORD_STRA": 1, "ORD_CLAS": 3, "ORD_FLOW": 7, "HYBAS_L12": 4121160240.0, "Shape_Length": 0.026368446353143414 }, "geometry": { "type": "MultiLineString", "coordinates": [ [ [ 80.59583333333299, 5.981249999999896 ], [ 80.585416666666305, 5.981249999999896 ], [ 80.581249999999756, 5.985416666666602 ], [ 80.577083333332922, 5.985416666666602 ], [ 80.572916666666373, 5.98958333333325 ] ] ] } },
{ "type": "Feature", "properties": { "HYRIV_ID": 41410406, "NEXT_DOWN": 41410408, "MAIN_RIV": 41410526, "LENGTH_KM": 1.84, "DIST_DN_KM": 5.0, "DIST_UP_KM": 10.1, "CATCH_SKM": 4.27, "UPLAND_SKM": 26.9, "ENDORHEIC": 0, "DIS_AV_CMS": 1.04, "ORD_STRA": 2, "ORD_CLAS": 3, "ORD_FLOW": 6, "HYBAS_L12": 4120048910.0, "Shape_Length": 0.016666666666651508 }, "geometry": { "type": "MultiLineString", "coordinates": [ [ [ 80.527083333333024, 5.972916666666585 ], [ 80.543749999999676, 5.972916666666585 ] ] ] } },
{ "type": "Feature", "properties": { "HYRIV_ID": 41410407, "NEXT_DOWN": 41410408, "MAIN_RIV": 41410526, "LENGTH_KM": 7.3800001, "DIST_DN_KM": 5.2, "DIST_UP_KM": 8.9, "CATCH_SKM": 15.16, "UPLAND_SKM": 15.2, "ENDORHEIC": 0, "DIS_AV_CMS": 0.59100002, "ORD_STRA": 1, "ORD_CLAS": 4, "ORD_FLOW": 7, "HYBAS_L12": 4120048910.0, "Shape_Length": 0.066605339059261914 }, "geometry": { "type": "MultiLineString", "coordinates": [ [ [ 80.491666666666362, 6.002083333333225 ], [ 80.497916666666271, 6.002083333333225 ], [ 80.50208333333299, 5.997916666666576 ], [ 80.506249999999653, 5.997916666666576 ], [ 80.510416666666316, 5.99375 ], [ 80.522916666666305, 5.99375 ], [ 80.522916666666305, 5.98958333333325 ], [ 80.527083333333024, 5.985416666666602 ], [ 80.531249999999687, 5.985416666666602 ], [ 80.543749999999676, 5.972916666666585 ] ] ] } },
{ "type": "Feature", "properties": { "HYRIV_ID": 41410408, "NEXT_DOWN": 41410482, "MAIN_RIV": 41410526, "LENGTH_KM": 0.92, "DIST_DN_KM": 4.0, "DIST_UP_KM": 11.0, "CATCH_SKM": 1.0700001, "UPLAND_SKM": 43.099998, "ENDORHEIC": 0, "DIS_AV_CMS": 1.6720001, "ORD_STRA": 2, "ORD_CLAS": 3, "ORD_FLOW": 6, "HYBAS_L12": 4120048910.0, "Shape_Length": 0.0083333333333825976 }, "geometry": { "type": "MultiLineString", "coordinates": [ [ [ 80.543749999999676, 5.972916666666585 ], [ 80.552083333333059, 5.972916666666585 ] ] ] } },
{ "type": "Feature", "properties": { "HYRIV_ID": 41410409, "NEXT_DOWN": 41410482, "MAIN_RIV": 41410526, "LENGTH_KM": 2.51, "DIST_DN_KM": 4.0, "DIST_UP_KM": 72.199997, "CATCH_SKM": 3.6300001, "UPLAND_SKM": 875.20001, "ENDORHEIC": 0, "DIS_AV_CMS": 38.487, "ORD_STRA": 4, "ORD_CLAS": 1, "ORD_FLOW": 5, "HYBAS_L12": 4121160220.0, "Shape_Length": 0.022559223176592612 }, "geometry": { "type": "MultiLineString", "coordinates": [ [ [ 80.547916666666339, 5.99375 ], [ 80.547916666666339, 5.98958333333325 ], [ 80.552083333333059, 5.985416666666602 ], [ 80.552083333333059, 5.972916666666585 ] ] ] } },
{ "type": "Feature", "properties": { "HYRIV_ID": 41410410, "NEXT_DOWN": 41410482, "MAIN_RIV": 41410526, "LENGTH_KM": 3.08, "DIST_DN_KM": 4.0, "DIST_UP_KM": 19.9, "CATCH_SKM": 6.4099998, "UPLAND_SKM": 107.2, "ENDORHEIC": 0, "DIS_AV_CMS": 3.9749999, "ORD_STRA": 3, "ORD_CLAS": 2, "ORD_FLOW": 6, "HYBAS_L12": 4121160240.0, "Shape_Length": 0.027736892706203071 }, "geometry": { "type": "MultiLineString", "coordinates": [ [ [ 80.572916666666373, 5.98958333333325 ], [ 80.556249999999721, 5.972916666666585 ], [ 80.552083333333059, 5.972916666666585 ] ] ] } },
{ "type": "Feature", "properties": { "HYRIV_ID": 41410426, "NEXT_DOWN": 41410406, "MAIN_RIV": 41410526, "LENGTH_KM": 6.27, "DIST_DN_KM": 7.0, "DIST_UP_KM": 8.1, "CATCH_SKM": 18.360001, "UPLAND_SKM": 18.4, "ENDORHEIC": 0, "DIS_AV_CMS": 0.714, "ORD_STRA": 1, "ORD_CLAS": 3, "ORD_FLOW": 7, "HYBAS_L12": 4120048910.0, "Shape_Length": 0.056546115882876995 }, "geometry": { "type": "MultiLineString", "coordinates": [ [ [ 80.489583333332945, 5.9875 ], [ 80.489583333332945, 5.977083333333233 ], [ 80.50208333333299, 5.977083333333233 ], [ 80.510416666666316, 5.968749999999879 ], [ 80.518749999999642, 5.977083333333233 ], [ 80.522916666666305, 5.977083333333233 ], [ 80.527083333333024, 5.972916666666585 ] ] ] } },
{ "type": "Feature", "properties": { "HYRIV_ID": 41410452, "NEXT_DOWN": 41410406, "MAIN_RIV": 41410526, "LENGTH_KM": 1.91, "DIST_DN_KM": 6.8, "DIST_UP_KM": 4.0, "CATCH_SKM": 4.27, "UPLAND_SKM": 4.3, "ENDORHEIC": 0, "DIS_AV_CMS": 0.163, "ORD_STRA": 1, "ORD_CLAS": 4, "ORD_FLOW": 7, "HYBAS_L12": 4120048910.0, "Shape_Length": 0.017172168098242437 }, "geometry": { "type": "MultiLineString", "coordinates": [ [ [ 80.520833333332945, 5.958333333333236 ], [ 80.527083333333024, 5.964583333333216 ], [ 80.527083333333024, 5.972916666666585 ] ] ] } },
{ "type": "Feature", "properties": { "HYRIV_ID": 41410482, "NEXT_DOWN": 41410526, "MAIN_RIV": 41410526, "LENGTH_KM": 2.7, "DIST_DN_KM": 1.3, "DIST_UP_KM": 74.900002, "CATCH_SKM": 4.06, "UPLAND_SKM": 1029.5, "ENDORHEIC": 0, "DIS_AV_CMS": 44.286999, "ORD_STRA": 4, "ORD_CLAS": 1, "ORD_FLOW": 5, "HYBAS_L12": 4120048910.0, "Shape_Length": 0.024285113019705901 }, "geometry": { "type": "MultiLineString", "coordinates": [ [ [ 80.552083333333059, 5.972916666666585 ], [ 80.552083333333059, 5.968749999999879 ], [ 80.560416666666271, 5.960416666666568 ], [ 80.560416666666271, 5.952083333333242 ] ] ] } },
{ "type": "Feature", "properties": { "HYRIV_ID": 41410483, "NEXT_DOWN": 41410526, "MAIN_RIV": 41410526, "LENGTH_KM": 4.3, "DIST_DN_KM": 1.3, "DIST_UP_KM": 7.4, "CATCH_SKM": 10.68, "UPLAND_SKM": 10.7, "ENDORHEIC": 0, "DIS_AV_CMS": 0.394, "ORD_STRA": 1, "ORD_CLAS": 2, "ORD_FLOW": 7, "HYBAS_L12": 4120048910.0, "Shape_Length": 0.038868446353125738 }, "geometry": { "type": "MultiLineString", "coordinates": [ [ [ 80.59583333333299, 5.952083333333242 ], [ 80.589583333332968, 5.952083333333242 ], [ 80.585416666666305, 5.95625 ], [ 80.572916666666373, 5.95625 ], [ 80.568749999999596, 5.952083333333242 ], [ 80.560416666666271, 5.952083333333242 ] ] ] } },
{ "type": "Feature", "properties": { "HYRIV_ID": 41410526, "NEXT_DOWN": 0, "MAIN_RIV": 41410526, "LENGTH_KM": 1.12, "DIST_DN_KM": 0.0, "DIST_UP_KM": 76.0, "CATCH_SKM": 1.5, "UPLAND_SKM": 1041.1, "ENDORHEIC": 0, "DIS_AV_CMS": 44.712002, "ORD_STRA": 4, "ORD_CLAS": 1, "ORD_FLOW": 5, "HYBAS_L12": 4120048910.0, "Shape_Length": 0.010059223176450815 }, "geometry": { "type": "MultiLineString", "coordinates": [ [ [ 80.560416666666271, 5.952083333333242 ], [ 80.556249999999721, 5.947916666666579 ], [ 80.556249999999721, 5.94375 ] ] ] } }
]
}
