{
"type": "FeatureCollection",
"name": "main_river_41396012",
"crs": { "type": "name", "properties": { "name": "urn:ogc:def:crs:OGC:1.3:CRS84" } },
"features": [
{ "type": "Feature", "properties": { "HYRIV_ID": 41396012, "NEXT_DOWN": 0, "MAIN_RIV": 41396012, "LENGTH_KM": 9.3400002, "DIST_DN_KM": 0.0, "DIST_UP_KM": 19.5, "CATCH_SKM": 27.98, "UPLAND_SKM": 75.0, "ENDORHEIC": 0, "DIS_AV_CMS": 0.67500001, "ORD_STRA": 2, "ORD_CLAS": 1, "ORD_FLOW": 7, "HYBAS_L12": 4120049370.0, "Shape_Length": 0.084640452079129111 }, "geometry": { "type": "Polygon", "coordinates": [ ] } },
{ "type": "Feature", "properties": { "HYRIV_ID": 41396035, "NEXT_DOWN": 41396012, "MAIN_RIV": 41396012, "LENGTH_KM": 4.6599998, "DIST_DN_KM": 9.5, "DIST_UP_KM": 10.4, "CATCH_SKM": 24.59, "UPLAND_SKM": 24.6, "ENDORHEIC": 0, "DIS_AV_CMS": 0.232, "ORD_STRA": 1, "ORD_CLAS": 1, "ORD_FLOW": 7, "HYBAS_L12": 4120049370.0, "Shape_Length": 0.042320226039531172 }, "geometry": { "type": "Polygon", "coordinates": [ ] } },
{ "type": "Feature", "properties": { "HYRIV_ID": 41396145, "NEXT_DOWN": 41396012, "MAIN_RIV": 41396012, "LENGTH_KM": 3.02, "DIST_DN_KM": 9.5, "DIST_UP_KM": 10.1, "CATCH_SKM": 22.68, "UPLAND_SKM": 22.700001, "ENDORHEIC": 0, "DIS_AV_CMS": 0.213, "ORD_STRA": 1, "ORD_CLAS": 2, "ORD_FLOW": 7, "HYBAS_L12": 4120049370.0, "Shape_Length": 0.027231391274719231 }, "geometry": { "type": "Polygon", "coordinates": [ ] } }
]
}
