{
"type": "FeatureCollection",
"name": "main_river_41399445",
"crs": { "type": "name", "properties": { "name": "urn:ogc:def:crs:OGC:1.3:CRS84" } },
"features": [
{ "type": "Feature", "properties": { "HYRIV_ID": 41399133, "NEXT_DOWN": 41399168, "MAIN_RIV": 41399445, "LENGTH_KM": 2.83, "DIST_DN_KM": 8.3, "DIST_UP_KM": 7.4, "CATCH_SKM": 21.01, "UPLAND_SKM": 21.0, "ENDORHEIC": 0, "DIS_AV_CMS": 0.336, "ORD_STRA": 1, "ORD_CLAS": 2, "ORD_FLOW": 7, "HYBAS_L12": 4120049640.0, "Shape_Length": 0.025505501431456939 }, "geometry": { "type": "MultiLineString", "coordinates": [ [ [ 81.079166666666282, 8.591666666666548 ], [ 81.085416666666248, 8.585416666666511 ], [ 81.085416666666248, 8.568749999999888 ] ] ] } },
{ "type": "Feature", "properties": { "HYRIV_ID": 41399168, "NEXT_DOWN": 41399230, "MAIN_RIV": 41399445, "LENGTH_KM": 1.3, "DIST_DN_KM": 7.2, "DIST_UP_KM": 21.4, "CATCH_SKM": 1.7, "UPLAND_SKM": 66.0, "ENDORHEIC": 0, "DIS_AV_CMS": 1.06, "ORD_STRA": 2, "ORD_CLAS": 1, "ORD_FLOW": 6, "HYBAS_L12": 4120049640.0, "Shape_Length": 0.011785113019875608 }, "geometry": { "type": "MultiLineString", "coordinates": [ [ [ 81.085416666666248, 8.568749999999888 ], [ 81.093749999999687, 8.560416666666519 ] ] ] } },
{ "type": "Feature", "properties": { "HYRIV_ID": 41399230, "NEXT_DOWN": 41399390, "MAIN_RIV": 41399445, "LENGTH_KM": 1.96, "DIST_DN_KM": 5.2, "DIST_UP_KM": 23.3, "CATCH_SKM": 5.0900002, "UPLAND_SKM": 84.699997, "ENDORHEIC": 0, "DIS_AV_CMS": 1.359, "ORD_STRA": 2, "ORD_CLAS": 1, "ORD_FLOW": 6, "HYBAS_L12": 4120049640.0, "Shape_Length": 0.017677669529677757 }, "geometry": { "type": "MultiLineString", "coordinates": [ [ [ 81.093749999999687, 8.560416666666519 ], [ 81.106249999999733, 8.547916666666545 ] ] ] } },
{ "type": "Feature", "properties": { "HYRIV_ID": 41399231, "NEXT_DOWN": 41399390, "MAIN_RIV": 41399445, "LENGTH_KM": 0.98, "DIST_DN_KM": 5.2, "DIST_UP_KM": 4.6, "CATCH_SKM": 8.7, "UPLAND_SKM": 8.7, "ENDORHEIC": 0, "DIS_AV_CMS": 0.141, "ORD_STRA": 1, "ORD_CLAS": 2, "ORD_FLOW": 7, "HYBAS_L12": 4120049640.0, "Shape_Length": 0.0088388347647635132 }, "geometry": { "type": "MultiLineString", "coordinates": [ [ [ 81.112499999999642, 8.554166666666539 ], [ 81.106249999999733, 8.547916666666545 ] ] ] } },
{ "type": "Feature", "properties": { "HYRIV_ID": 41399263, "NEXT_DOWN": 41399230, "MAIN_RIV": 41399445, "LENGTH_KM": 4.6900001, "DIST_DN_KM": 7.0, "DIST_UP_KM": 8.6, "CATCH_SKM": 13.59, "UPLAND_SKM": 13.6, "ENDORHEIC": 0, "DIS_AV_CMS": 0.222, "ORD_STRA": 1, "ORD_CLAS": 2, "ORD_FLOW": 7, "HYBAS_L12": 4120049640.0, "Shape_Length": 0.042468283980939561 }, "geometry": { "type": "MultiLineString", "coordinates": [ [ [ 81.062499999999631, 8.541666666666565 ], [ 81.077083333333036, 8.556249999999871 ], [ 81.081249999999699, 8.552083333333208 ], [ 81.089583333333024, 8.560416666666519 ], [ 81.093749999999687, 8.560416666666519 ] ] ] } },
{ "type": "Feature", "properties": { "HYRIV_ID": 41399390, "NEXT_DOWN": 41399445, "MAIN_RIV": 41399445, "LENGTH_KM": 3.62, "DIST_DN_KM": 1.4, "DIST_UP_KM": 27.200001, "CATCH_SKM": 13.16, "UPLAND_SKM": 106.6, "ENDORHEIC": 0, "DIS_AV_CMS": 1.698, "ORD_STRA": 2, "ORD_CLAS": 1, "ORD_FLOW": 6, "HYBAS_L12": 4120049640.0, "Shape_Length": 0.032618446353047587 }, "geometry": { "type": "MultiLineString", "coordinates": [ [ [ 81.106249999999733, 8.547916666666545 ], [ 81.110416666666282, 8.543749999999839 ], [ 81.110416666666282, 8.531249999999865 ], [ 81.114583333332945, 8.527083333333216 ], [ 81.114583333332945, 8.518749999999848 ] ] ] } },
{ "type": "Feature", "properties": { "HYRIV_ID": 41399412, "NEXT_DOWN": 41399445, "MAIN_RIV": 41399445, "LENGTH_KM": 2.52, "DIST_DN_KM": 1.4, "DIST_UP_KM": 6.9, "CATCH_SKM": 8.4899998, "UPLAND_SKM": 8.5, "ENDORHEIC": 0, "DIS_AV_CMS": 0.141, "ORD_STRA": 1, "ORD_CLAS": 2, "ORD_FLOW": 7, "HYBAS_L12": 4120049640.0, "Shape_Length": 0.022916666666660035 }, "geometry": { "type": "MultiLineString", "coordinates": [ [ [ 81.095833333332934, 8.514583333333199 ], [ 81.114583333332945, 8.514583333333199 ], [ 81.114583333332945, 8.518749999999848 ] ] ] } },
{ "type": "Feature", "properties": { "HYRIV_ID": 41399445, "NEXT_DOWN": 0, "MAIN_RIV": 41399445, "LENGTH_KM": 1.3, "DIST_DN_KM": 0.0, "DIST_UP_KM": 28.3, "CATCH_SKM": 2.97, "UPLAND_SKM": 117.6, "ENDORHEIC": 0, "DIS_AV_CMS": 1.875, "ORD_STRA": 2, "ORD_CLAS": 1, "ORD_FLOW": 6, "HYBAS_L12": 4120049640.0, "Shape_Length": 0.011785113019755026 }, "geometry": { "type": "MultiLineString", "coordinates": [ [ [ 81.114583333332945, 8.518749999999848 ], [ 81.122916666666271, 8.510416666666536 ] ] ] } },
{ "type": "Feature", "properties": { "HYRIV_ID": 41399574, "NEXT_DOWN": 41399168, "MAIN_RIV": 41399445, "LENGTH_KM": 15.44, "DIST_DN_KM": 8.3, "DIST_UP_KM": 20.3, "CATCH_SKM": 43.310001, "UPLAND_SKM": 43.3, "ENDORHEIC": 0, "DIS_AV_CMS": 0.7, "ORD_STRA": 1, "ORD_CLAS": 1, "ORD_FLOW": 7, "HYBAS_L12": 4120049640.0, "Shape_Length": 0.13960873605991836 }, "geometry": { "type": "MultiLineString", "coordinates": [ [ [ 81.024999999999721, 8.479166666666551 ], [ 81.031249999999631, 8.485416666666545 ], [ 81.031249999999631, 8.493749999999856 ], [ 81.035416666666293, 8.497916666666519 ], [ 81.035416666666293, 8.502083333333225 ], [ 81.039583333332956, 8.506249999999874 ], [ 81.039583333332956, 8.510416666666536 ], [ 81.031249999999631, 8.518749999999848 ], [ 81.031249999999631, 8.527083333333216 ], [ 81.027083333332968, 8.531249999999865 ], [ 81.027083333332968, 8.535416666666528 ], [ 81.035416666666293, 8.543749999999839 ], [ 81.039583333332956, 8.543749999999839 ], [ 81.043749999999619, 8.547916666666545 ], [ 81.047916666666282, 8.547916666666545 ], [ 81.060416666666328, 8.560416666666519 ], [ 81.06458333333299, 8.560416666666519 ], [ 81.072916666666316, 8.568749999999888 ], [ 81.085416666666248, 8.568749999999888 ] ] ] } }
]
}
