{
"type": "FeatureCollection",
"name": "main_river_41398524",
"crs": { "type": "name", "properties": { "name": "urn:ogc:def:crs:OGC:1.3:CRS84" } },
"features": [
{ "type": "Feature", "properties": { "HYRIV_ID": 41398524, "NEXT_DOWN": 0, "MAIN_RIV": 41398524, "LENGTH_KM": 20.09, "DIST_DN_KM": 0.0, "DIST_UP_KM": 24.4, "CATCH_SKM": 94.419998, "UPLAND_SKM": 90.199997, "ENDORHEIC": 0, "DIS_AV_CMS": 0.83, "ORD_STRA": 1, "ORD_CLAS": 1, "ORD_FLOW": 7, "HYBAS_L12": 4120049290.0, "Shape_Length": 0.18213834764847792 }, "geometry": { "type": "MultiLineString", "coordinates": [ [ [ 80.108333333333093, 8.702083333333199 ], [ 80.102083333332956, 8.702083333333199 ], [ 80.097916666666293, 8.697916666666551 ], [ 80.097916666666293, 8.693749999999888 ], [ 80.093749999999631, 8.689583333333182 ], [ 80.081249999999642, 8.689583333333182 ], [ 80.072916666666316, 8.697916666666551 ], [ 80.068749999999596, 8.697916666666551 ], [ 80.06458333333299, 8.702083333333199 ], [ 80.052083333332945, 8.702083333333199 ], [ 80.047916666666396, 8.697916666666551 ], [ 80.031249999999744, 8.697916666666551 ], [ 80.027083333333024, 8.693749999999888 ], [ 80.018749999999699, 8.693749999999888 ], [ 80.014583333333036, 8.697916666666551 ], [ 80.00624999999971, 8.697916666666551 ], [ 80.00208333333299, 8.702083333333199 ], [ 79.997916666666328, 8.702083333333199 ], [ 79.989583333333002, 8.710416666666525 ], [ 79.977083333332956, 8.710416666666525 ], [ 79.972916666666293, 8.706249999999862 ], [ 79.964583333332968, 8.714583333333174 ], [ 79.964583333332968, 8.718749999999879 ], [ 79.960416666666305, 8.722916666666542 ] ] ] } }
]
}
