{
"type": "FeatureCollection",
"name": "main_river_41397730",
"crs": { "type": "name", "properties": { "name": "urn:ogc:def:crs:OGC:1.3:CRS84" } },
"features": [
{ "type": "Feature", "properties": { "HYRIV_ID": 41397730, "NEXT_DOWN": 0, "MAIN_RIV": 41397730, "LENGTH_KM": 8.54, "DIST_DN_KM": 0.0, "DIST_UP_KM": 13.7, "CATCH_SKM": 48.779999, "UPLAND_SKM": 48.400002, "ENDORHEIC": 0, "DIS_AV_CMS": 0.466, "ORD_STRA": 1, "ORD_CLAS": 1, "ORD_FLOW": 7, "HYBAS_L12": 4120049310.0, "Shape_Length": 0.077379449216247204 }, "geometry": { "type": "MultiLineString", "coordinates": [ [ [ 79.970833333333047, 8.852083333333205 ], [ 79.956249999999642, 8.852083333333205 ], [ 79.952083333332979, 8.856249999999868 ], [ 79.947916666666316, 8.856249999999868 ], [ 79.93958333333299, 8.847916666666499 ], [ 79.93958333333299, 8.831249999999862 ], [ 79.931249999999778, 8.822916666666508 ], [ 79.918749999999619, 8.822916666666508 ] ] ] } }
]
}
