{
"type": "FeatureCollection",
"name": "main_river_41409326",
"crs": { "type": "name", "properties": { "name": "urn:ogc:def:crs:OGC:1.3:CRS84" } },
"features": [
{ "type": "Feature", "properties": { "HYRIV_ID": 41408050, "NEXT_DOWN": 41408104, "MAIN_RIV": 41409326, "LENGTH_KM": 1.91, "DIST_DN_KM": 44.5, "DIST_UP_KM": 4.5, "CATCH_SKM": 7.04, "UPLAND_SKM": 7.0, "ENDORHEIC": 0, "DIS_AV_CMS": 0.18700001, "ORD_STRA": 1, "ORD_CLAS": 2, "ORD_FLOW": 7, "HYBAS_L12": 4121602400.0, "Shape_Length": 0.017172168098109362 }, "geometry": { "type": "Polygon", "coordinates": [ ] } },
{ "type": "Feature", "properties": { "HYRIV_ID": 41408051, "NEXT_DOWN": 41408104, "MAIN_RIV": 41409326, "LENGTH_KM": 8.4200001, "DIST_DN_KM": 44.700001, "DIST_UP_KM": 11.3, "CATCH_SKM": 29.43, "UPLAND_SKM": 29.4, "ENDORHEIC": 0, "DIS_AV_CMS": 0.75, "ORD_STRA": 1, "ORD_CLAS": 1, "ORD_FLOW": 7, "HYBAS_L12": 4121602400.0, "Shape_Length": 0.075949675255721008 }, "geometry": { "type": "Polygon", "coordinates": [ ] } },
{ "type": "Feature", "properties": { "HYRIV_ID": 41408104, "NEXT_DOWN": 41408191, "MAIN_RIV": 41409326, "LENGTH_KM": 1.39, "DIST_DN_KM": 43.099998, "DIST_UP_KM": 12.8, "CATCH_SKM": 3.2, "UPLAND_SKM": 39.700001, "ENDORHEIC": 0, "DIS_AV_CMS": 1.0140001, "ORD_STRA": 2, "ORD_CLAS": 1, "ORD_FLOW": 6, "HYBAS_L12": 4121602400.0, "Shape_Length": 0.012500000000017053 }, "geometry": { "type": "Polygon", "coordinates": [ ] } },
{ "type": "Feature", "properties": { "HYRIV_ID": 41408127, "NEXT_DOWN": 41408191, "MAIN_RIV": 41409326, "LENGTH_KM": 4.25, "DIST_DN_KM": 43.3, "DIST_UP_KM": 6.8, "CATCH_SKM": 12.37, "UPLAND_SKM": 12.4, "ENDORHEIC": 0, "DIS_AV_CMS": 0.311, "ORD_STRA": 1, "ORD_CLAS": 2, "ORD_FLOW": 7, "HYBAS_L12": 4121602400.0, "Shape_Length": 0.038301617314256582 }, "geometry": { "type": "Polygon", "coordinates": [ ] } },
{ "type": "Feature", "properties": { "HYRIV_ID": 41408190, "NEXT_DOWN": 41408220, "MAIN_RIV": 41409326, "LENGTH_KM": 9.1800003, "DIST_DN_KM": 40.900002, "DIST_UP_KM": 11.3, "CATCH_SKM": 25.17, "UPLAND_SKM": 25.200001, "ENDORHEIC": 0, "DIS_AV_CMS": 0.671, "ORD_STRA": 1, "ORD_CLAS": 2, "ORD_FLOW": 7, "HYBAS_L12": 4121602400.0, "Shape_Length": 0.082705176687091778 }, "geometry": { "type": "Polygon", "coordinates": [ ] } },
{ "type": "Feature", "properties": { "HYRIV_ID": 41408191, "NEXT_DOWN": 41408220, "MAIN_RIV": 41409326, "LENGTH_KM": 2.4200001, "DIST_DN_KM": 40.900002, "DIST_UP_KM": 15.1, "CATCH_SKM": 3.84, "UPLAND_SKM": 55.900002, "ENDORHEIC": 0, "DIS_AV_CMS": 1.41, "ORD_STRA": 2, "ORD_CLAS": 1, "ORD_FLOW": 6, "HYBAS_L12": 4121602400.0, "Shape_Length": 0.021844336196290393 }, "geometry": { "type": "Polygon", "coordinates": [ ] } },
{ "type": "Feature", "properties": { "HYRIV_ID": 41408219, "NEXT_DOWN": 41408412, "MAIN_RIV": 41409326, "LENGTH_KM": 1.15, "DIST_DN_KM": 40.200001, "DIST_UP_KM": 4.0, "CATCH_SKM": 6.83, "UPLAND_SKM": 6.8, "ENDORHEIC": 0, "DIS_AV_CMS": 0.185, "ORD_STRA": 1, "ORD_CLAS": 2, "ORD_FLOW": 7, "HYBAS_L12": 4121602400.0, "Shape_Length": 0.010416666666571928 }, "geometry": { "type": "Polygon", "coordinates": [ ] } },
{ "type": "Feature", "properties": { "HYRIV_ID": 41408220, "NEXT_DOWN": 41408412, "MAIN_RIV": 41409326, "LENGTH_KM": 0.46, "DIST_DN_KM": 40.200001, "DIST_UP_KM": 15.7, "CATCH_SKM": 1.0700001, "UPLAND_SKM": 82.099998, "ENDORHEIC": 0, "DIS_AV_CMS": 2.1040001, "ORD_STRA": 2, "ORD_CLAS": 1, "ORD_FLOW": 6, "HYBAS_L12": 4121602400.0, "Shape_Length": 0.0041666666667055097 }, "geometry": { "type": "Polygon", "coordinates": [ ] } },
{ "type": "Feature", "properties": { "HYRIV_ID": 41408310, "NEXT_DOWN": 41408385, "MAIN_RIV": 41409326, "LENGTH_KM": 2.75, "DIST_DN_KM": 34.599998, "DIST_UP_KM": 5.3, "CATCH_SKM": 8.1099997, "UPLAND_SKM": 8.1, "ENDORHEIC": 0, "DIS_AV_CMS": 0.20100001, "ORD_STRA": 1, "ORD_CLAS": 2, "ORD_FLOW": 7, "HYBAS_L12": 4121602480.0, "Shape_Length": 0.024790614451327981 }, "geometry": { "type": "Polygon", "coordinates": [ ] } },
{ "type": "Feature", "properties": { "HYRIV_ID": 41408311, "NEXT_DOWN": 41408385, "MAIN_RIV": 41409326, "LENGTH_KM": 1.35, "DIST_DN_KM": 34.599998, "DIST_UP_KM": 4.7, "CATCH_SKM": 8.1099997, "UPLAND_SKM": 8.1, "ENDORHEIC": 0, "DIS_AV_CMS": 0.197, "ORD_STRA": 1, "ORD_CLAS": 3, "ORD_FLOW": 7, "HYBAS_L12": 4121602480.0, "Shape_Length": 0.012142556509919484 }, "geometry": { "type": "Polygon", "coordinates": [ ] } },
{ "type": "Feature", "properties": { "HYRIV_ID": 41408385, "NEXT_DOWN": 41408454, "MAIN_RIV": 41409326, "LENGTH_KM": 2.23, "DIST_DN_KM": 32.400002, "DIST_UP_KM": 7.5, "CATCH_SKM": 4.27, "UPLAND_SKM": 20.5, "ENDORHEIC": 0, "DIS_AV_CMS": 0.498, "ORD_STRA": 2, "ORD_CLAS": 2, "ORD_FLOW": 7, "HYBAS_L12": 4121602480.0, "Shape_Length": 0.020118446353066567 }, "geometry": { "type": "Polygon", "coordinates": [ ] } },
{ "type": "Feature", "properties": { "HYRIV_ID": 41408386, "NEXT_DOWN": 41408454, "MAIN_RIV": 41409326, "LENGTH_KM": 0.69, "DIST_DN_KM": 32.200001, "DIST_UP_KM": 3.3, "CATCH_SKM": 6.1900001, "UPLAND_SKM": 6.2, "ENDORHEIC": 0, "DIS_AV_CMS": 0.146, "ORD_STRA": 1, "ORD_CLAS": 3, "ORD_FLOW": 7, "HYBAS_L12": 4121602480.0, "Shape_Length": 0.0062499999999090505 }, "geometry": { "type": "Polygon", "coordinates": [ ] } },
{ "type": "Feature", "properties": { "HYRIV_ID": 41408411, "NEXT_DOWN": 41408453, "MAIN_RIV": 41409326, "LENGTH_KM": 0.69, "DIST_DN_KM": 35.5, "DIST_UP_KM": 4.0, "CATCH_SKM": 5.33, "UPLAND_SKM": 5.3, "ENDORHEIC": 0, "DIS_AV_CMS": 0.14300001, "ORD_STRA": 1, "ORD_CLAS": 2, "ORD_FLOW": 7, "HYBAS_L12": 4121602400.0, "Shape_Length": 0.0062499999999090505 }, "geometry": { "type": "Polygon", "coordinates": [ ] } },
{ "type": "Feature", "properties": { "HYRIV_ID": 41408412, "NEXT_DOWN": 41408453, "MAIN_RIV": 41409326, "LENGTH_KM": 4.7399998, "DIST_DN_KM": 35.5, "DIST_UP_KM": 20.5, "CATCH_SKM": 13.01, "UPLAND_SKM": 102.0, "ENDORHEIC": 0, "DIS_AV_CMS": 2.5669999, "ORD_STRA": 2, "ORD_CLAS": 1, "ORD_FLOW": 6, "HYBAS_L12": 4121602400.0, "Shape_Length": 0.042677669529671669 }, "geometry": { "type": "Polygon", "coordinates": [ ] } },
{ "type": "Feature", "properties": { "HYRIV_ID": 41408452, "NEXT_DOWN": 41408530, "MAIN_RIV": 41409326, "LENGTH_KM": 1.61, "DIST_DN_KM": 34.5, "DIST_UP_KM": 4.5, "CATCH_SKM": 9.3900003, "UPLAND_SKM": 9.4, "ENDORHEIC": 0, "DIS_AV_CMS": 0.25, "ORD_STRA": 1, "ORD_CLAS": 2, "ORD_FLOW": 7, "HYBAS_L12": 4121602400.0, "Shape_Length": 0.014583333333234805 }, "geometry": { "type": "Polygon", "coordinates": [ ] } },
{ "type": "Feature", "properties": { "HYRIV_ID": 41408453, "NEXT_DOWN": 41408530, "MAIN_RIV": 41409326, "LENGTH_KM": 0.93, "DIST_DN_KM": 34.5, "DIST_UP_KM": 21.4, "CATCH_SKM": 1.71, "UPLAND_SKM": 109.0, "ENDORHEIC": 0, "DIS_AV_CMS": 2.7379999, "ORD_STRA": 2, "ORD_CLAS": 1, "ORD_FLOW": 6, "HYBAS_L12": 4121602400.0, "Shape_Length": 0.0083333333333115434 }, "geometry": { "type": "Polygon", "coordinates": [ ] } },
{ "type": "Feature", "properties": { "HYRIV_ID": 41408454, "NEXT_DOWN": 41408584, "MAIN_RIV": 41409326, "LENGTH_KM": 1.77, "DIST_DN_KM": 30.6, "DIST_UP_KM": 9.3, "CATCH_SKM": 4.6900001, "UPLAND_SKM": 31.4, "ENDORHEIC": 0, "DIS_AV_CMS": 0.75199997, "ORD_STRA": 2, "ORD_CLAS": 2, "ORD_FLOW": 7, "HYBAS_L12": 4121602480.0, "Shape_Length": 0.015951779686528438 }, "geometry": { "type": "Polygon", "coordinates": [ ] } },
{ "type": "Feature", "properties": { "HYRIV_ID": 41408470, "NEXT_DOWN": 41408584, "MAIN_RIV": 41409326, "LENGTH_KM": 0.98, "DIST_DN_KM": 30.6, "DIST_UP_KM": 4.5, "CATCH_SKM": 4.48, "UPLAND_SKM": 4.5, "ENDORHEIC": 0, "DIS_AV_CMS": 0.105, "ORD_STRA": 1, "ORD_CLAS": 3, "ORD_FLOW": 7, "HYBAS_L12": 4121602480.0, "Shape_Length": 0.008838834764843902 }, "geometry": { "type": "Polygon", "coordinates": [ ] } },
{ "type": "Feature", "properties": { "HYRIV_ID": 41408530, "NEXT_DOWN": 41408582, "MAIN_RIV": 41409326, "LENGTH_KM": 2.8800001, "DIST_DN_KM": 31.9, "DIST_UP_KM": 24.1, "CATCH_SKM": 7.4699998, "UPLAND_SKM": 125.8, "ENDORHEIC": 0, "DIS_AV_CMS": 3.1359999, "ORD_STRA": 2, "ORD_CLAS": 1, "ORD_FLOW": 6, "HYBAS_L12": 4121602400.0, "Shape_Length": 0.026011002863020157 }, "geometry": { "type": "Polygon", "coordinates": [ ] } },
{ "type": "Feature", "properties": { "HYRIV_ID": 41408542, "NEXT_DOWN": 41408583, "MAIN_RIV": 41409326, "LENGTH_KM": 5.25, "DIST_DN_KM": 28.1, "DIST_UP_KM": 9.2, "CATCH_SKM": 14.93, "UPLAND_SKM": 14.9, "ENDORHEIC": 0, "DIS_AV_CMS": 0.369, "ORD_STRA": 1, "ORD_CLAS": 2, "ORD_FLOW": 7, "HYBAS_L12": 4121602480.0, "Shape_Length": 0.04720177968648652 }, "geometry": { "type": "Polygon", "coordinates": [ ] } },
{ "type": "Feature", "properties": { "HYRIV_ID": 41408559, "NEXT_DOWN": 41408582, "MAIN_RIV": 41409326, "LENGTH_KM": 1.81, "DIST_DN_KM": 31.700001, "DIST_UP_KM": 4.7, "CATCH_SKM": 9.1700001, "UPLAND_SKM": 9.2, "ENDORHEIC": 0, "DIS_AV_CMS": 0.237, "ORD_STRA": 1, "ORD_CLAS": 2, "ORD_FLOW": 7, "HYBAS_L12": 4121602400.0, "Shape_Length": 0.016309223176667626 }, "geometry": { "type": "Polygon", "coordinates": [ ] } },
{ "type": "Feature", "properties": { "HYRIV_ID": 41408582, "NEXT_DOWN": 41408583, "MAIN_RIV": 41409326, "LENGTH_KM": 3.54, "DIST_DN_KM": 28.3, "DIST_UP_KM": 27.6, "CATCH_SKM": 7.89, "UPLAND_SKM": 142.89999, "ENDORHEIC": 0, "DIS_AV_CMS": 3.51, "ORD_STRA": 2, "ORD_CLAS": 1, "ORD_FLOW": 6, "HYBAS_L12": 4121602480.0, "Shape_Length": 0.031903559372906141 }, "geometry": { "type": "Polygon", "coordinates": [ ] } },
{ "type": "Feature", "properties": { "HYRIV_ID": 41408583, "NEXT_DOWN": 41408680, "MAIN_RIV": 41409326, "LENGTH_KM": 1.31, "DIST_DN_KM": 27.0, "DIST_UP_KM": 28.9, "CATCH_SKM": 1.92, "UPLAND_SKM": 159.8, "ENDORHEIC": 0, "DIS_AV_CMS": 3.9030001, "ORD_STRA": 2, "ORD_CLAS": 1, "ORD_FLOW": 6, "HYBAS_L12": 4121602480.0, "Shape_Length": 0.011785113019674637 }, "geometry": { "type": "Polygon", "coordinates": [ ] } },
{ "type": "Feature", "properties": { "HYRIV_ID": 41408584, "NEXT_DOWN": 41408680, "MAIN_RIV": 41409326, "LENGTH_KM": 3.62, "DIST_DN_KM": 26.8, "DIST_UP_KM": 13.1, "CATCH_SKM": 7.89, "UPLAND_SKM": 43.700001, "ENDORHEIC": 0, "DIS_AV_CMS": 1.031, "ORD_STRA": 2, "ORD_CLAS": 2, "ORD_FLOW": 6, "HYBAS_L12": 4121602480.0, "Shape_Length": 0.032618446352932894 }, "geometry": { "type": "Polygon", "coordinates": [ ] } },
{ "type": "Feature", "properties": { "HYRIV_ID": 41408680, "NEXT_DOWN": 41408754, "MAIN_RIV": 41409326, "LENGTH_KM": 2.8900001, "DIST_DN_KM": 24.1, "DIST_UP_KM": 31.8, "CATCH_SKM": 9.6, "UPLAND_SKM": 213.10001, "ENDORHEIC": 0, "DIS_AV_CMS": 5.0910001, "ORD_STRA": 3, "ORD_CLAS": 1, "ORD_FLOW": 6, "HYBAS_L12": 4121602480.0, "Shape_Length": 0.026011002863086337 }, "geometry": { "type": "Polygon", "coordinates": [ ] } },
{ "type": "Feature", "properties": { "HYRIV_ID": 41408681, "NEXT_DOWN": 41408754, "MAIN_RIV": 41409326, "LENGTH_KM": 5.4400001, "DIST_DN_KM": 23.9, "DIST_UP_KM": 8.5, "CATCH_SKM": 22.4, "UPLAND_SKM": 22.4, "ENDORHEIC": 0, "DIS_AV_CMS": 0.50800002, "ORD_STRA": 1, "ORD_CLAS": 2, "ORD_FLOW": 7, "HYBAS_L12": 4121602480.0, "Shape_Length": 0.049075727471114688 }, "geometry": { "type": "Polygon", "coordinates": [ ] } },
{ "type": "Feature", "properties": { "HYRIV_ID": 41408753, "NEXT_DOWN": 41408890, "MAIN_RIV": 41409326, "LENGTH_KM": 2.1, "DIST_DN_KM": 21.700001, "DIST_UP_KM": 5.1, "CATCH_SKM": 9.1700001, "UPLAND_SKM": 9.2, "ENDORHEIC": 0, "DIS_AV_CMS": 0.225, "ORD_STRA": 1, "ORD_CLAS": 2, "ORD_FLOW": 7, "HYBAS_L12": 4121602480.0, "Shape_Length": 0.018898057941445445 }, "geometry": { "type": "Polygon", "coordinates": [ ] } },
{ "type": "Feature", "properties": { "HYRIV_ID": 41408754, "NEXT_DOWN": 41408890, "MAIN_RIV": 41409326, "LENGTH_KM": 2.23, "DIST_DN_KM": 21.9, "DIST_UP_KM": 34.099998, "CATCH_SKM": 3.84, "UPLAND_SKM": 239.3, "ENDORHEIC": 0, "DIS_AV_CMS": 5.6230001, "ORD_STRA": 3, "ORD_CLAS": 1, "ORD_FLOW": 6, "HYBAS_L12": 4121602480.0, "Shape_Length": 0.0201184463531092 }, "geometry": { "type": "Polygon", "coordinates": [ ] } },
{ "type": "Feature", "properties": { "HYRIV_ID": 41408782, "NEXT_DOWN": 41408890, "MAIN_RIV": 41409326, "LENGTH_KM": 1.4400001, "DIST_DN_KM": 21.700001, "DIST_UP_KM": 4.2, "CATCH_SKM": 7.25, "UPLAND_SKM": 7.3, "ENDORHEIC": 0, "DIS_AV_CMS": 0.178, "ORD_STRA": 1, "ORD_CLAS": 3, "ORD_FLOW": 7, "HYBAS_L12": 4121602480.0, "Shape_Length": 0.01300550143157712 }, "geometry": { "type": "Polygon", "coordinates": [ ] } },
{ "type": "Feature", "properties": { "HYRIV_ID": 41408890, "NEXT_DOWN": 41408951, "MAIN_RIV": 41409326, "LENGTH_KM": 4.0, "DIST_DN_KM": 17.9, "DIST_UP_KM": 38.099998, "CATCH_SKM": 6.83, "UPLAND_SKM": 262.60001, "ENDORHEIC": 0, "DIS_AV_CMS": 6.0609999, "ORD_STRA": 3, "ORD_CLAS": 1, "ORD_FLOW": 6, "HYBAS_L12": 4121602480.0, "Shape_Length": 0.036070226039607495 }, "geometry": { "type": "Polygon", "coordinates": [ ] } },
{ "type": "Feature", "properties": { "HYRIV_ID": 41408891, "NEXT_DOWN": 41408951, "MAIN_RIV": 41409326, "LENGTH_KM": 2.08, "DIST_DN_KM": 17.700001, "DIST_UP_KM": 5.8, "CATCH_SKM": 10.24, "UPLAND_SKM": 10.2, "ENDORHEIC": 0, "DIS_AV_CMS": 0.236, "ORD_STRA": 1, "ORD_CLAS": 2, "ORD_FLOW": 7, "HYBAS_L12": 4121602480.0, "Shape_Length": 0.018749999999997158 }, "geometry": { "type": "Polygon", "coordinates": [ ] } },
{ "type": "Feature", "properties": { "HYRIV_ID": 41408950, "NEXT_DOWN": 41408993, "MAIN_RIV": 41409326, "LENGTH_KM": 2.73, "DIST_DN_KM": 16.3, "DIST_UP_KM": 4.9, "CATCH_SKM": 10.03, "UPLAND_SKM": 10.0, "ENDORHEIC": 0, "DIS_AV_CMS": 0.241, "ORD_STRA": 1, "ORD_CLAS": 2, "ORD_FLOW": 7, "HYBAS_L12": 4120050060.0, "Shape_Length": 0.024642556509997544 }, "geometry": { "type": "Polygon", "coordinates": [ ] } },
{ "type": "Feature", "properties": { "HYRIV_ID": 41408951, "NEXT_DOWN": 41408993, "MAIN_RIV": 41409326, "LENGTH_KM": 1.39, "DIST_DN_KM": 16.3, "DIST_UP_KM": 39.599998, "CATCH_SKM": 2.1300001, "UPLAND_SKM": 275.0, "ENDORHEIC": 0, "DIS_AV_CMS": 6.2880001, "ORD_STRA": 3, "ORD_CLAS": 1, "ORD_FLOW": 6, "HYBAS_L12": 4120050060.0, "Shape_Length": 0.01249999999997442 }, "geometry": { "type": "Polygon", "coordinates": [ ] } },
{ "type": "Feature", "properties": { "HYRIV_ID": 41408993, "NEXT_DOWN": 41409011, "MAIN_RIV": 41409326, "LENGTH_KM": 1.31, "DIST_DN_KM": 15.2, "DIST_UP_KM": 40.8, "CATCH_SKM": 2.35, "UPLAND_SKM": 287.39999, "ENDORHEIC": 0, "DIS_AV_CMS": 6.5430002, "ORD_STRA": 3, "ORD_CLAS": 1, "ORD_FLOW": 6, "HYBAS_L12": 4120050060.0, "Shape_Length": 0.011785113019684684 }, "geometry": { "type": "Polygon", "coordinates": [ ] } },
{ "type": "Feature", "properties": { "HYRIV_ID": 41408994, "NEXT_DOWN": 41408995, "MAIN_RIV": 41409326, "LENGTH_KM": 1.16, "DIST_DN_KM": 12.3, "DIST_UP_KM": 4.3, "CATCH_SKM": 6.1900001, "UPLAND_SKM": 6.2, "ENDORHEIC": 0, "DIS_AV_CMS": 0.14, "ORD_STRA": 1, "ORD_CLAS": 2, "ORD_FLOW": 7, "HYBAS_L12": 4120050060.0, "Shape_Length": 0.010416666666657193 }, "geometry": { "type": "Polygon", "coordinates": [ ] } },
{ "type": "Feature", "properties": { "HYRIV_ID": 41408995, "NEXT_DOWN": 41409166, "MAIN_RIV": 41409326, "LENGTH_KM": 1.38, "DIST_DN_KM": 10.9, "DIST_UP_KM": 45.0, "CATCH_SKM": 2.77, "UPLAND_SKM": 308.5, "ENDORHEIC": 0, "DIS_AV_CMS": 6.862, "ORD_STRA": 3, "ORD_CLAS": 1, "ORD_FLOW": 6, "HYBAS_L12": 4120050060.0, "Shape_Length": 0.012499999999931788 }, "geometry": { "type": "Polygon", "coordinates": [ ] } },
{ "type": "Feature", "properties": { "HYRIV_ID": 41408996, "NEXT_DOWN": 41409166, "MAIN_RIV": 41409326, "LENGTH_KM": 7.0900002, "DIST_DN_KM": 10.9, "DIST_UP_KM": 10.2, "CATCH_SKM": 35.630001, "UPLAND_SKM": 35.599998, "ENDORHEIC": 0, "DIS_AV_CMS": 0.765, "ORD_STRA": 1, "ORD_CLAS": 2, "ORD_FLOW": 7, "HYBAS_L12": 4120050060.0, "Shape_Length": 0.063868446353111327 }, "geometry": { "type": "Polygon", "coordinates": [ ] } },
{ "type": "Feature", "properties": { "HYRIV_ID": 41409010, "NEXT_DOWN": 41409011, "MAIN_RIV": 41409326, "LENGTH_KM": 1.4400001, "DIST_DN_KM": 15.0, "DIST_UP_KM": 4.3, "CATCH_SKM": 7.25, "UPLAND_SKM": 7.3, "ENDORHEIC": 0, "DIS_AV_CMS": 0.17200001, "ORD_STRA": 1, "ORD_CLAS": 2, "ORD_FLOW": 7, "HYBAS_L12": 4120050060.0, "Shape_Length": 0.013005501431486682 }, "geometry": { "type": "Polygon", "coordinates": [ ] } },
{ "type": "Feature", "properties": { "HYRIV_ID": 41409011, "NEXT_DOWN": 41408995, "MAIN_RIV": 41409326, "LENGTH_KM": 2.6900001, "DIST_DN_KM": 12.3, "DIST_UP_KM": 43.599998, "CATCH_SKM": 4.9099998, "UPLAND_SKM": 299.5, "ENDORHEIC": 0, "DIS_AV_CMS": 6.724, "ORD_STRA": 3, "ORD_CLAS": 1, "ORD_FLOW": 6, "HYBAS_L12": 4120050060.0, "Shape_Length": 0.024285113019740505 }, "geometry": { "type": "Polygon", "coordinates": [ ] } },
{ "type": "Feature", "properties": { "HYRIV_ID": 41409165, "NEXT_DOWN": 41409222, "MAIN_RIV": 41409326, "LENGTH_KM": 4.6900001, "DIST_DN_KM": 6.7, "DIST_UP_KM": 7.8, "CATCH_SKM": 13.23, "UPLAND_SKM": 13.2, "ENDORHEIC": 0, "DIS_AV_CMS": 0.302, "ORD_STRA": 1, "ORD_CLAS": 2, "ORD_FLOW": 7, "HYBAS_L12": 4120050060.0, "Shape_Length": 0.042320226039571363 }, "geometry": { "type": "Polygon", "coordinates": [ ] } },
{ "type": "Feature", "properties": { "HYRIV_ID": 41409166, "NEXT_DOWN": 41409222, "MAIN_RIV": 41409326, "LENGTH_KM": 4.4699998, "DIST_DN_KM": 6.7, "DIST_UP_KM": 49.3, "CATCH_SKM": 11.1, "UPLAND_SKM": 355.20001, "ENDORHEIC": 0, "DIS_AV_CMS": 7.6739998, "ORD_STRA": 3, "ORD_CLAS": 1, "ORD_FLOW": 6, "HYBAS_L12": 4120050060.0, "Shape_Length": 0.040236892706283861 }, "geometry": { "type": "Polygon", "coordinates": [ ] } },
{ "type": "Feature", "properties": { "HYRIV_ID": 41409221, "NEXT_DOWN": 41409326, "MAIN_RIV": 41409326, "LENGTH_KM": 2.55, "DIST_DN_KM": 5.5, "DIST_UP_KM": 6.0, "CATCH_SKM": 11.31, "UPLAND_SKM": 11.3, "ENDORHEIC": 0, "DIS_AV_CMS": 0.26, "ORD_STRA": 1, "ORD_CLAS": 2, "ORD_FLOW": 7, "HYBAS_L12": 4120050060.0, "Shape_Length": 0.023064724607981854 }, "geometry": { "type": "Polygon", "coordinates": [ ] } },
{ "type": "Feature", "properties": { "HYRIV_ID": 41409222, "NEXT_DOWN": 41409326, "MAIN_RIV": 41409326, "LENGTH_KM": 0.93, "DIST_DN_KM": 5.5, "DIST_UP_KM": 50.400002, "CATCH_SKM": 1.49, "UPLAND_SKM": 369.89999, "ENDORHEIC": 0, "DIS_AV_CMS": 7.9590001, "ORD_STRA": 3, "ORD_CLAS": 1, "ORD_FLOW": 6, "HYBAS_L12": 4120050060.0, "Shape_Length": 0.0083333333333115434 }, "geometry": { "type": "Polygon", "coordinates": [ ] } },
{ "type": "Feature", "properties": { "HYRIV_ID": 41409326, "NEXT_DOWN": 0, "MAIN_RIV": 41409326, "LENGTH_KM": 5.31, "DIST_DN_KM": 0.0, "DIST_UP_KM": 55.700001, "CATCH_SKM": 16.219999, "UPLAND_SKM": 396.60001, "ENDORHEIC": 0, "DIS_AV_CMS": 8.316, "ORD_STRA": 3, "ORD_CLAS": 1, "ORD_FLOW": 6, "HYBAS_L12": 4120050060.0, "Shape_Length": 0.047855339059305675 }, "geometry": { "type": "Polygon", "coordinates": [ ] } }
]
}
