{
"type": "FeatureCollection",
"name": "main_river_41409739",
"crs": { "type": "name", "properties": { "name": "urn:ogc:def:crs:OGC:1.3:CRS84" } },
"features": [
{ "type": "Feature", "properties": { "HYRIV_ID": 41409739, "NEXT_DOWN": 0, "MAIN_RIV": 41409739, "LENGTH_KM": 0.98, "DIST_DN_KM": 0.0, "DIST_UP_KM": 3.6, "CATCH_SKM": 8.1099997, "UPLAND_SKM": 7.7, "ENDORHEIC": 0, "DIS_AV_CMS": 0.208, "ORD_STRA": 1, "ORD_CLAS": 1, "ORD_FLOW": 7, "HYBAS_L12": 4120050090.0, "Shape_Length": 0.0088388347647635132 }, "geometry": { "type": "Polygon", "coordinates": [ ] } }
]
}
