{
"type": "FeatureCollection",
"name": "main_river_41399515",
"crs": { "type": "name", "properties": { "name": "urn:ogc:def:crs:OGC:1.3:CRS84" } },
"features": [
{ "type": "Feature", "properties": { "HYRIV_ID": 41399515, "NEXT_DOWN": 0, "MAIN_RIV": 41399515, "LENGTH_KM": 11.04, "DIST_DN_KM": 0.0, "DIST_UP_KM": 23.9, "CATCH_SKM": 30.780001, "UPLAND_SKM": 83.699997, "ENDORHEIC": 0, "DIS_AV_CMS": 0.85100001, "ORD_STRA": 2, "ORD_CLAS": 1, "ORD_FLOW": 7, "HYBAS_L12": 4120049250.0, "Shape_Length": 0.099877344785447186 }, "geometry": { "type": "Polygon", "coordinates": [ ] } },
{ "type": "Feature", "properties": { "HYRIV_ID": 41399516, "NEXT_DOWN": 41399515, "MAIN_RIV": 41399515, "LENGTH_KM": 4.35, "DIST_DN_KM": 11.2, "DIST_UP_KM": 10.1, "CATCH_SKM": 19.110001, "UPLAND_SKM": 19.1, "ENDORHEIC": 0, "DIS_AV_CMS": 0.197, "ORD_STRA": 1, "ORD_CLAS": 2, "ORD_FLOW": 7, "HYBAS_L12": 4120049250.0, "Shape_Length": 0.039583333333325754 }, "geometry": { "type": "Polygon", "coordinates": [ ] } },
{ "type": "Feature", "properties": { "HYRIV_ID": 41399639, "NEXT_DOWN": 41399515, "MAIN_RIV": 41399515, "LENGTH_KM": 7.1900001, "DIST_DN_KM": 11.4, "DIST_UP_KM": 12.9, "CATCH_SKM": 34.610001, "UPLAND_SKM": 34.599998, "ENDORHEIC": 0, "DIS_AV_CMS": 0.35600001, "ORD_STRA": 1, "ORD_CLAS": 1, "ORD_FLOW": 7, "HYBAS_L12": 4120049250.0, "Shape_Length": 0.065027507157478487 }, "geometry": { "type": "Polygon", "coordinates": [ ] } }
]
}
