{
"type": "FeatureCollection",
"name": "main_river_41406076",
"crs": { "type": "name", "properties": { "name": "urn:ogc:def:crs:OGC:1.3:CRS84" } },
"features": [
{ "type": "Feature", "properties": { "HYRIV_ID": 41405368, "NEXT_DOWN": 41405548, "MAIN_RIV": 41406076, "LENGTH_KM": 6.35, "DIST_DN_KM": 37.200001, "DIST_UP_KM": 8.3, "CATCH_SKM": 30.889999, "UPLAND_SKM": 30.9, "ENDORHEIC": 0, "DIS_AV_CMS": 0.62900001, "ORD_STRA": 1, "ORD_CLAS": 2, "ORD_FLOW": 7, "HYBAS_L12": 4121158670.0, "Shape_Length": 0.057409060804411605 }, "geometry": { "type": "Polygon", "coordinates": [ ] } },
{ "type": "Feature", "properties": { "HYRIV_ID": 41405369, "NEXT_DOWN": 41405548, "MAIN_RIV": 41406076, "LENGTH_KM": 3.3900001, "DIST_DN_KM": 37.200001, "DIST_UP_KM": 6.0, "CATCH_SKM": 12.99, "UPLAND_SKM": 13.0, "ENDORHEIC": 0, "DIS_AV_CMS": 0.265, "ORD_STRA": 1, "ORD_CLAS": 3, "ORD_FLOW": 7, "HYBAS_L12": 4121158670.0, "Shape_Length": 0.030535113019766393 }, "geometry": { "type": "Polygon", "coordinates": [ ] } },
{ "type": "Feature", "properties": { "HYRIV_ID": 41405386, "NEXT_DOWN": 41405471, "MAIN_RIV": 41406076, "LENGTH_KM": 4.6, "DIST_DN_KM": 29.8, "DIST_UP_KM": 7.9, "CATCH_SKM": 23.219999, "UPLAND_SKM": 23.200001, "ENDORHEIC": 0, "DIS_AV_CMS": 0.465, "ORD_STRA": 1, "ORD_CLAS": 2, "ORD_FLOW": 7, "HYBAS_L12": 4121158640.0, "Shape_Length": 0.041457281118002023 }, "geometry": { "type": "Polygon", "coordinates": [ ] } },
{ "type": "Feature", "properties": { "HYRIV_ID": 41405422, "NEXT_DOWN": 41405471, "MAIN_RIV": 41406076, "LENGTH_KM": 1.4400001, "DIST_DN_KM": 29.6, "DIST_UP_KM": 4.5, "CATCH_SKM": 9.5900002, "UPLAND_SKM": 9.6, "ENDORHEIC": 0, "DIS_AV_CMS": 0.186, "ORD_STRA": 1, "ORD_CLAS": 3, "ORD_FLOW": 7, "HYBAS_L12": 4121158640.0, "Shape_Length": 0.013005501431456536 }, "geometry": { "type": "Polygon", "coordinates": [ ] } },
{ "type": "Feature", "properties": { "HYRIV_ID": 41405471, "NEXT_DOWN": 41405473, "MAIN_RIV": 41406076, "LENGTH_KM": 4.4499998, "DIST_DN_KM": 25.200001, "DIST_UP_KM": 12.5, "CATCH_SKM": 11.72, "UPLAND_SKM": 44.5, "ENDORHEIC": 0, "DIS_AV_CMS": 0.86, "ORD_STRA": 2, "ORD_CLAS": 2, "ORD_FLOW": 7, "HYBAS_L12": 4121158640.0, "Shape_Length": 0.040236892706201753 }, "geometry": { "type": "Polygon", "coordinates": [ ] } },
{ "type": "Feature", "properties": { "HYRIV_ID": 41405472, "NEXT_DOWN": 41405473, "MAIN_RIV": 41406076, "LENGTH_KM": 5.52, "DIST_DN_KM": 25.200001, "DIST_UP_KM": 8.5, "CATCH_SKM": 14.06, "UPLAND_SKM": 14.1, "ENDORHEIC": 0, "DIS_AV_CMS": 0.27500001, "ORD_STRA": 1, "ORD_CLAS": 3, "ORD_FLOW": 7, "HYBAS_L12": 4121158640.0, "Shape_Length": 0.049790614451259874 }, "geometry": { "type": "Polygon", "coordinates": [ ] } },
{ "type": "Feature", "properties": { "HYRIV_ID": 41405473, "NEXT_DOWN": 41405591, "MAIN_RIV": 41406076, "LENGTH_KM": 1.38, "DIST_DN_KM": 23.8, "DIST_UP_KM": 13.9, "CATCH_SKM": 1.7, "UPLAND_SKM": 60.3, "ENDORHEIC": 0, "DIS_AV_CMS": 1.155, "ORD_STRA": 2, "ORD_CLAS": 2, "ORD_FLOW": 6, "HYBAS_L12": 4121158640.0, "Shape_Length": 0.012500000000045475 }, "geometry": { "type": "Polygon", "coordinates": [ ] } },
{ "type": "Feature", "properties": { "HYRIV_ID": 41405474, "NEXT_DOWN": 41405591, "MAIN_RIV": 41406076, "LENGTH_KM": 1.81, "DIST_DN_KM": 23.8, "DIST_UP_KM": 5.0, "CATCH_SKM": 6.8200002, "UPLAND_SKM": 6.8, "ENDORHEIC": 0, "DIS_AV_CMS": 0.132, "ORD_STRA": 1, "ORD_CLAS": 3, "ORD_FLOW": 7, "HYBAS_L12": 4121158640.0, "Shape_Length": 0.01630922317656815 }, "geometry": { "type": "Polygon", "coordinates": [ ] } },
{ "type": "Feature", "properties": { "HYRIV_ID": 41405548, "NEXT_DOWN": 41405639, "MAIN_RIV": 41406076, "LENGTH_KM": 4.7399998, "DIST_DN_KM": 32.400002, "DIST_UP_KM": 13.0, "CATCH_SKM": 15.98, "UPLAND_SKM": 59.900002, "ENDORHEIC": 0, "DIS_AV_CMS": 1.186, "ORD_STRA": 2, "ORD_CLAS": 2, "ORD_FLOW": 6, "HYBAS_L12": 4121158670.0, "Shape_Length": 0.042677669529659186 }, "geometry": { "type": "Polygon", "coordinates": [ ] } },
{ "type": "Feature", "properties": { "HYRIV_ID": 41405588, "NEXT_DOWN": 41405590, "MAIN_RIV": 41406076, "LENGTH_KM": 0.69, "DIST_DN_KM": 38.200001, "DIST_UP_KM": 4.0, "CATCH_SKM": 9.3800001, "UPLAND_SKM": 9.4, "ENDORHEIC": 0, "DIS_AV_CMS": 0.18, "ORD_STRA": 1, "ORD_CLAS": 2, "ORD_FLOW": 7, "HYBAS_L12": 4121158670.0, "Shape_Length": 0.0062499999999658939 }, "geometry": { "type": "Polygon", "coordinates": [ ] } },
{ "type": "Feature", "properties": { "HYRIV_ID": 41405589, "NEXT_DOWN": 41405590, "MAIN_RIV": 41406076, "LENGTH_KM": 7.85, "DIST_DN_KM": 38.400002, "DIST_UP_KM": 11.2, "CATCH_SKM": 29.610001, "UPLAND_SKM": 29.6, "ENDORHEIC": 0, "DIS_AV_CMS": 0.584, "ORD_STRA": 1, "ORD_CLAS": 1, "ORD_FLOW": 7, "HYBAS_L12": 4121158670.0, "Shape_Length": 0.070772005726046819 }, "geometry": { "type": "Polygon", "coordinates": [ ] } },
{ "type": "Feature", "properties": { "HYRIV_ID": 41405590, "NEXT_DOWN": 41405639, "MAIN_RIV": 41406076, "LENGTH_KM": 5.7600002, "DIST_DN_KM": 32.599998, "DIST_UP_KM": 17.0, "CATCH_SKM": 18.959999, "UPLAND_SKM": 58.0, "ENDORHEIC": 0, "DIS_AV_CMS": 1.098, "ORD_STRA": 2, "ORD_CLAS": 1, "ORD_FLOW": 6, "HYBAS_L12": 4121158670.0, "Shape_Length": 0.0520220057261543 }, "geometry": { "type": "Polygon", "coordinates": [ ] } },
{ "type": "Feature", "properties": { "HYRIV_ID": 41405591, "NEXT_DOWN": 41405837, "MAIN_RIV": 41406076, "LENGTH_KM": 3.35, "DIST_DN_KM": 20.700001, "DIST_UP_KM": 17.1, "CATCH_SKM": 10.87, "UPLAND_SKM": 78.0, "ENDORHEIC": 0, "DIS_AV_CMS": 1.461, "ORD_STRA": 2, "ORD_CLAS": 2, "ORD_FLOW": 6, "HYBAS_L12": 4121158640.0, "Shape_Length": 0.030177669529654613 }, "geometry": { "type": "Polygon", "coordinates": [ ] } },
{ "type": "Feature", "properties": { "HYRIV_ID": 41405606, "NEXT_DOWN": 41405837, "MAIN_RIV": 41406076, "LENGTH_KM": 4.4899998, "DIST_DN_KM": 20.700001, "DIST_UP_KM": 7.7, "CATCH_SKM": 15.34, "UPLAND_SKM": 15.3, "ENDORHEIC": 0, "DIS_AV_CMS": 0.278, "ORD_STRA": 1, "ORD_CLAS": 3, "ORD_FLOW": 7, "HYBAS_L12": 4121158640.0, "Shape_Length": 0.040594336196334346 }, "geometry": { "type": "Polygon", "coordinates": [ ] } },
{ "type": "Feature", "properties": { "HYRIV_ID": 41405638, "NEXT_DOWN": 41405800, "MAIN_RIV": 41406076, "LENGTH_KM": 3.45, "DIST_DN_KM": 28.700001, "DIST_UP_KM": 6.3, "CATCH_SKM": 14.06, "UPLAND_SKM": 14.1, "ENDORHEIC": 0, "DIS_AV_CMS": 0.26, "ORD_STRA": 1, "ORD_CLAS": 2, "ORD_FLOW": 7, "HYBAS_L12": 4121158670.0, "Shape_Length": 0.03125 }, "geometry": { "type": "Polygon", "coordinates": [ ] } },
{ "type": "Feature", "properties": { "HYRIV_ID": 41405639, "NEXT_DOWN": 41405800, "MAIN_RIV": 41406076, "LENGTH_KM": 3.72, "DIST_DN_KM": 28.9, "DIST_UP_KM": 20.700001, "CATCH_SKM": 10.44, "UPLAND_SKM": 128.3, "ENDORHEIC": 0, "DIS_AV_CMS": 2.4300001, "ORD_STRA": 3, "ORD_CLAS": 1, "ORD_FLOW": 6, "HYBAS_L12": 4121158670.0, "Shape_Length": 0.033629449216055457 }, "geometry": { "type": "Polygon", "coordinates": [ ] } },
{ "type": "Feature", "properties": { "HYRIV_ID": 41405800, "NEXT_DOWN": 41405866, "MAIN_RIV": 41406076, "LENGTH_KM": 5.1100001, "DIST_DN_KM": 23.8, "DIST_UP_KM": 25.8, "CATCH_SKM": 16.41, "UPLAND_SKM": 158.7, "ENDORHEIC": 0, "DIS_AV_CMS": 2.8959999, "ORD_STRA": 3, "ORD_CLAS": 1, "ORD_FLOW": 6, "HYBAS_L12": 4121158670.0, "Shape_Length": 0.046129449216084584 }, "geometry": { "type": "Polygon", "coordinates": [ ] } },
{ "type": "Feature", "properties": { "HYRIV_ID": 41405818, "NEXT_DOWN": 41405866, "MAIN_RIV": 41406076, "LENGTH_KM": 3.6700001, "DIST_DN_KM": 23.6, "DIST_UP_KM": 7.1, "CATCH_SKM": 13.21, "UPLAND_SKM": 13.2, "ENDORHEIC": 0, "DIS_AV_CMS": 0.236, "ORD_STRA": 1, "ORD_CLAS": 2, "ORD_FLOW": 7, "HYBAS_L12": 4121158670.0, "Shape_Length": 0.03312394778456431 }, "geometry": { "type": "Polygon", "coordinates": [ ] } },
{ "type": "Feature", "properties": { "HYRIV_ID": 41405837, "NEXT_DOWN": 41405900, "MAIN_RIV": 41406076, "LENGTH_KM": 8.08, "DIST_DN_KM": 12.4, "DIST_UP_KM": 25.3, "CATCH_SKM": 30.68, "UPLAND_SKM": 124.0, "ENDORHEIC": 0, "DIS_AV_CMS": 2.1760001, "ORD_STRA": 2, "ORD_CLAS": 2, "ORD_FLOW": 6, "HYBAS_L12": 4121158640.0, "Shape_Length": 0.072855339059361618 }, "geometry": { "type": "Polygon", "coordinates": [ ] } },
{ "type": "Feature", "properties": { "HYRIV_ID": 41405866, "NEXT_DOWN": 41405900, "MAIN_RIV": 41406076, "LENGTH_KM": 11.2, "DIST_DN_KM": 12.4, "DIST_UP_KM": 37.200001, "CATCH_SKM": 34.950001, "UPLAND_SKM": 206.89999, "ENDORHEIC": 0, "DIS_AV_CMS": 3.474, "ORD_STRA": 3, "ORD_CLAS": 1, "ORD_FLOW": 6, "HYBAS_L12": 4121158670.0, "Shape_Length": 0.10130711874579139 }, "geometry": { "type": "Polygon", "coordinates": [ ] } },
{ "type": "Feature", "properties": { "HYRIV_ID": 41405900, "NEXT_DOWN": 41406076, "MAIN_RIV": 41406076, "LENGTH_KM": 3.34, "DIST_DN_KM": 9.2, "DIST_UP_KM": 40.400002, "CATCH_SKM": 9.5900002, "UPLAND_SKM": 340.5, "ENDORHEIC": 0, "DIS_AV_CMS": 5.677, "ORD_STRA": 3, "ORD_CLAS": 1, "ORD_FLOW": 6, "HYBAS_L12": 4120049920.0, "Shape_Length": 0.030177669529532603 }, "geometry": { "type": "Polygon", "coordinates": [ ] } },
{ "type": "Feature", "properties": { "HYRIV_ID": 41405943, "NEXT_DOWN": 41406076, "MAIN_RIV": 41406076, "LENGTH_KM": 1.4400001, "DIST_DN_KM": 9.0, "DIST_UP_KM": 5.6, "CATCH_SKM": 7.8800001, "UPLAND_SKM": 7.9, "ENDORHEIC": 0, "DIS_AV_CMS": 0.131, "ORD_STRA": 1, "ORD_CLAS": 2, "ORD_FLOW": 7, "HYBAS_L12": 4120049920.0, "Shape_Length": 0.013005501431466584 }, "geometry": { "type": "Polygon", "coordinates": [ ] } },
{ "type": "Feature", "properties": { "HYRIV_ID": 41406076, "NEXT_DOWN": 0, "MAIN_RIV": 41406076, "LENGTH_KM": 8.9099998, "DIST_DN_KM": 0.0, "DIST_UP_KM": 49.3, "CATCH_SKM": 33.889999, "UPLAND_SKM": 378.0, "ENDORHEIC": 0, "DIS_AV_CMS": 5.9070001, "ORD_STRA": 3, "ORD_CLAS": 1, "ORD_FLOW": 6, "HYBAS_L12": 4120049920.0, "Shape_Length": 0.080473785412532126 }, "geometry": { "type": "Polygon", "coordinates": [ ] } }
]
}
