{
"type": "FeatureCollection",
"name": "main_river_41409327",
"crs": { "type": "name", "properties": { "name": "urn:ogc:def:crs:OGC:1.3:CRS84" } },
"features": [
{ "type": "Feature", "properties": { "HYRIV_ID": 41409167, "NEXT_DOWN": 41409241, "MAIN_RIV": 41409327, "LENGTH_KM": 2.83, "DIST_DN_KM": 7.7, "DIST_UP_KM": 5.5, "CATCH_SKM": 11.74, "UPLAND_SKM": 11.7, "ENDORHEIC": 0, "DIS_AV_CMS": 0.239, "ORD_STRA": 1, "ORD_CLAS": 3, "ORD_FLOW": 7, "HYBAS_L12": 4120050050.0, "Shape_Length": 0.025505501431433396 }, "geometry": { "type": "MultiLineString", "coordinates": [ [ [ 81.212499999999608, 6.237499999999891 ], [ 81.206249999999699, 6.23125 ], [ 81.206249999999699, 6.214583333333231 ] ] ] } },
{ "type": "Feature", "properties": { "HYRIV_ID": 41409168, "NEXT_DOWN": 41409241, "MAIN_RIV": 41409327, "LENGTH_KM": 2.09, "DIST_DN_KM": 7.7, "DIST_UP_KM": 6.4, "CATCH_SKM": 8.54, "UPLAND_SKM": 8.5, "ENDORHEIC": 0, "DIS_AV_CMS": 0.171, "ORD_STRA": 1, "ORD_CLAS": 2, "ORD_FLOW": 7, "HYBAS_L12": 4120050050.0, "Shape_Length": 0.018898057941329025 }, "geometry": { "type": "MultiLineString", "coordinates": [ [ [ 81.220833333332934, 6.225 ], [ 81.210416666666362, 6.214583333333231 ], [ 81.206249999999699, 6.214583333333231 ] ] ] } },
{ "type": "Feature", "properties": { "HYRIV_ID": 41409240, "NEXT_DOWN": 41409327, "MAIN_RIV": 41409327, "LENGTH_KM": 9.3500004, "DIST_DN_KM": 5.9, "DIST_UP_KM": 12.3, "CATCH_SKM": 28.17, "UPLAND_SKM": 28.200001, "ENDORHEIC": 0, "DIS_AV_CMS": 0.583, "ORD_STRA": 1, "ORD_CLAS": 1, "ORD_FLOW": 7, "HYBAS_L12": 4120050050.0, "Shape_Length": 0.08428300858909428 }, "geometry": { "type": "MultiLineString", "coordinates": [ [ [ 81.185416666666328, 6.266666666666588 ], [ 81.185416666666328, 6.260416666666565 ], [ 81.168749999999619, 6.24375 ], [ 81.168749999999619, 6.227083333333248 ], [ 81.177083333332945, 6.21875 ], [ 81.181249999999665, 6.21875 ], [ 81.18958333333299, 6.210416666666568 ], [ 81.18958333333299, 6.20625 ], [ 81.193749999999653, 6.202083333333213 ] ] ] } },
{ "type": "Feature", "properties": { "HYRIV_ID": 41409241, "NEXT_DOWN": 41409327, "MAIN_RIV": 41409327, "LENGTH_KM": 1.96, "DIST_DN_KM": 5.9, "DIST_UP_KM": 8.2, "CATCH_SKM": 2.56, "UPLAND_SKM": 22.8, "ENDORHEIC": 0, "DIS_AV_CMS": 0.46, "ORD_STRA": 2, "ORD_CLAS": 2, "ORD_FLOW": 7, "HYBAS_L12": 4120050050.0, "Shape_Length": 0.017677669529707903 }, "geometry": { "type": "MultiLineString", "coordinates": [ [ [ 81.206249999999699, 6.214583333333231 ], [ 81.193749999999653, 6.202083333333213 ] ] ] } },
{ "type": "Feature", "properties": { "HYRIV_ID": 41409327, "NEXT_DOWN": 0, "MAIN_RIV": 41409327, "LENGTH_KM": 5.5700002, "DIST_DN_KM": 0.0, "DIST_UP_KM": 17.8, "CATCH_SKM": 14.51, "UPLAND_SKM": 65.300003, "ENDORHEIC": 0, "DIS_AV_CMS": 1.3049999, "ORD_STRA": 2, "ORD_CLAS": 1, "ORD_FLOW": 6, "HYBAS_L12": 4120050050.0, "Shape_Length": 0.050296115882804013 }, "geometry": { "type": "MultiLineString", "coordinates": [ [ [ 81.193749999999653, 6.202083333333213 ], [ 81.197916666666316, 6.197916666666551 ], [ 81.210416666666362, 6.197916666666551 ], [ 81.218749999999687, 6.189583333333239 ], [ 81.227083333333013, 6.189583333333239 ], [ 81.235416666666396, 6.18125 ] ] ] } }
]
}
