{
"type": "FeatureCollection",
"name": "main_river_41408073",
"crs": { "type": "name", "properties": { "name": "urn:ogc:def:crs:OGC:1.3:CRS84" } },
"features": [
{ "type": "Feature", "properties": { "HYRIV_ID": 41407628, "NEXT_DOWN": 41407704, "MAIN_RIV": 41408073, "LENGTH_KM": 1.81, "DIST_DN_KM": 17.8, "DIST_UP_KM": 5.9, "CATCH_SKM": 17.700001, "UPLAND_SKM": 17.700001, "ENDORHEIC": 0, "DIS_AV_CMS": 0.27500001, "ORD_STRA": 1, "ORD_CLAS": 2, "ORD_FLOW": 7, "HYBAS_L12": 4120050000.0, "Shape_Length": 0.016309223176555664 }, "geometry": { "type": "Polygon", "coordinates": [ ] } },
{ "type": "Feature", "properties": { "HYRIV_ID": 41407644, "NEXT_DOWN": 41407704, "MAIN_RIV": 41408073, "LENGTH_KM": 4.39, "DIST_DN_KM": 17.6, "DIST_UP_KM": 7.4, "CATCH_SKM": 17.49, "UPLAND_SKM": 17.5, "ENDORHEIC": 0, "DIS_AV_CMS": 0.273, "ORD_STRA": 1, "ORD_CLAS": 1, "ORD_FLOW": 7, "HYBAS_L12": 4120050000.0, "Shape_Length": 0.039731391274737002 }, "geometry": { "type": "Polygon", "coordinates": [ ] } },
{ "type": "Feature", "properties": { "HYRIV_ID": 41407704, "NEXT_DOWN": 41408073, "MAIN_RIV": 41408073, "LENGTH_KM": 3.34, "DIST_DN_KM": 14.3, "DIST_UP_KM": 10.8, "CATCH_SKM": 10.24, "UPLAND_SKM": 45.400002, "ENDORHEIC": 0, "DIS_AV_CMS": 0.68900001, "ORD_STRA": 2, "ORD_CLAS": 1, "ORD_FLOW": 7, "HYBAS_L12": 4120050000.0, "Shape_Length": 0.03017766952971318 }, "geometry": { "type": "Polygon", "coordinates": [ ] } },
{ "type": "Feature", "properties": { "HYRIV_ID": 41407705, "NEXT_DOWN": 41408073, "MAIN_RIV": 41408073, "LENGTH_KM": 0.69, "DIST_DN_KM": 14.3, "DIST_UP_KM": 5.8, "CATCH_SKM": 10.66, "UPLAND_SKM": 10.7, "ENDORHEIC": 0, "DIS_AV_CMS": 0.159, "ORD_STRA": 1, "ORD_CLAS": 2, "ORD_FLOW": 7, "HYBAS_L12": 4120050000.0, "Shape_Length": 0.0062500000000369482 }, "geometry": { "type": "Polygon", "coordinates": [ ] } },
{ "type": "Feature", "properties": { "HYRIV_ID": 41408073, "NEXT_DOWN": 0, "MAIN_RIV": 41408073, "LENGTH_KM": 14.04, "DIST_DN_KM": 0.0, "DIST_UP_KM": 24.8, "CATCH_SKM": 52.040001, "UPLAND_SKM": 107.9, "ENDORHEIC": 0, "DIS_AV_CMS": 1.329, "ORD_STRA": 2, "ORD_CLAS": 1, "ORD_FLOW": 6, "HYBAS_L12": 4120050000.0, "Shape_Length": 0.12660323462845663 }, "geometry": { "type": "Polygon", "coordinates": [ ] } }
]
}
