{
"type": "FeatureCollection",
"name": "main_river_41404317",
"crs": { "type": "name", "properties": { "name": "urn:ogc:def:crs:OGC:1.3:CRS84" } },
"features": [
{ "type": "Feature", "properties": { "HYRIV_ID": 41404235, "NEXT_DOWN": 41404317, "MAIN_RIV": 41404317, "LENGTH_KM": 3.01, "DIST_DN_KM": 7.4, "DIST_UP_KM": 5.4, "CATCH_SKM": 9.58, "UPLAND_SKM": 9.6, "ENDORHEIC": 0, "DIS_AV_CMS": 0.267, "ORD_STRA": 1, "ORD_CLAS": 1, "ORD_FLOW": 7, "HYBAS_L12": 4120049100.0, "Shape_Length": 0.027231391274703295 }, "geometry": { "type": "Polygon", "coordinates": [ ] } },
{ "type": "Feature", "properties": { "HYRIV_ID": 41404254, "NEXT_DOWN": 41404317, "MAIN_RIV": 41404317, "LENGTH_KM": 0.98, "DIST_DN_KM": 7.6, "DIST_UP_KM": 3.0, "CATCH_SKM": 4.04, "UPLAND_SKM": 4.0, "ENDORHEIC": 0, "DIS_AV_CMS": 0.114, "ORD_STRA": 1, "ORD_CLAS": 2, "ORD_FLOW": 7, "HYBAS_L12": 4120049100.0, "Shape_Length": 0.0088388347648037068 }, "geometry": { "type": "Polygon", "coordinates": [ ] } },
{ "type": "Feature", "properties": { "HYRIV_ID": 41404317, "NEXT_DOWN": 0, "MAIN_RIV": 41404317, "LENGTH_KM": 7.1300001, "DIST_DN_KM": 0.0, "DIST_UP_KM": 12.5, "CATCH_SKM": 13.84, "UPLAND_SKM": 27.3, "ENDORHEIC": 0, "DIS_AV_CMS": 0.76599997, "ORD_STRA": 2, "ORD_CLAS": 1, "ORD_FLOW": 7, "HYBAS_L12": 4120049100.0, "Shape_Length": 0.064522005726009149 }, "geometry": { "type": "Polygon", "coordinates": [ ] } }
]
}
