{
"type": "FeatureCollection",
"name": "main_river_41409791",
"crs": { "type": "name", "properties": { "name": "urn:ogc:def:crs:OGC:1.3:CRS84" } },
"features": [
{ "type": "Feature", "properties": { "HYRIV_ID": 41409731, "NEXT_DOWN": 41409791, "MAIN_RIV": 41409791, "LENGTH_KM": 1.16, "DIST_DN_KM": 1.3, "DIST_UP_KM": 3.3, "CATCH_SKM": 3.2, "UPLAND_SKM": 3.2, "ENDORHEIC": 0, "DIS_AV_CMS": 0.147, "ORD_STRA": 1, "ORD_CLAS": 2, "ORD_FLOW": 7, "HYBAS_L12": 4120048960.0, "Shape_Length": 0.010416666666699825 }, "geometry": { "type": "Polygon", "coordinates": [ ] } },
{ "type": "Feature", "properties": { "HYRIV_ID": 41409732, "NEXT_DOWN": 41409791, "MAIN_RIV": 41409791, "LENGTH_KM": 1.35, "DIST_DN_KM": 1.4, "DIST_UP_KM": 3.3, "CATCH_SKM": 3.6300001, "UPLAND_SKM": 3.6, "ENDORHEIC": 0, "DIS_AV_CMS": 0.167, "ORD_STRA": 1, "ORD_CLAS": 1, "ORD_FLOW": 7, "HYBAS_L12": 4120048960.0, "Shape_Length": 0.012142556509919484 }, "geometry": { "type": "Polygon", "coordinates": [ ] } },
{ "type": "Feature", "properties": { "HYRIV_ID": 41409791, "NEXT_DOWN": 0, "MAIN_RIV": 41409791, "LENGTH_KM": 1.12, "DIST_DN_KM": 0.0, "DIST_UP_KM": 4.5, "CATCH_SKM": 2.99, "UPLAND_SKM": 9.6, "ENDORHEIC": 0, "DIS_AV_CMS": 0.443, "ORD_STRA": 2, "ORD_CLAS": 1, "ORD_FLOW": 7, "HYBAS_L12": 4120048960.0, "Shape_Length": 0.010059223176571397 }, "geometry": { "type": "Polygon", "coordinates": [ ] } }
]
}
