{
"type": "FeatureCollection",
"name": "main_river_41403465",
"crs": { "type": "name", "properties": { "name": "urn:ogc:def:crs:OGC:1.3:CRS84" } },
"features": [
{ "type": "Feature", "properties": { "HYRIV_ID": 41403465, "NEXT_DOWN": 0, "MAIN_RIV": 41403465, "LENGTH_KM": 4.2199998, "DIST_DN_KM": 0.0, "DIST_UP_KM": 7.2, "CATCH_SKM": 18.73, "UPLAND_SKM": 18.3, "ENDORHEIC": 0, "DIS_AV_CMS": 0.429, "ORD_STRA": 1, "ORD_CLAS": 1, "ORD_FLOW": 7, "HYBAS_L12": 4120049790.0, "Shape_Length": 0.038153559372945831 }, "geometry": { "type": "Polygon", "coordinates": [ ] } }
]
}
