{
"type": "FeatureCollection",
"name": "main_river_41402333",
"crs": { "type": "name", "properties": { "name": "urn:ogc:def:crs:OGC:1.3:CRS84" } },
"features": [
{ "type": "Feature", "properties": { "HYRIV_ID": 41402333, "NEXT_DOWN": 0, "MAIN_RIV": 41402333, "LENGTH_KM": 1.81, "DIST_DN_KM": 0.0, "DIST_UP_KM": 5.4, "CATCH_SKM": 11.48, "UPLAND_SKM": 11.3, "ENDORHEIC": 0, "DIS_AV_CMS": 0.259, "ORD_STRA": 1, "ORD_CLAS": 1, "ORD_FLOW": 7, "HYBAS_L12": 4120049750.0, "Shape_Length": 0.016309223176572313 }, "geometry": { "type": "MultiLineString", "coordinates": [ [ [ 81.577083333332979, 7.829166666666531 ], [ 81.577083333332979, 7.835416666666568 ], [ 81.581249999999642, 7.835416666666568 ], [ 81.585416666666305, 7.839583333333216 ] ] ] } }
]
}
