{
"type": "FeatureCollection",
"name": "main_river_41401801",
"crs": { "type": "name", "properties": { "name": "urn:ogc:def:crs:OGC:1.3:CRS84" } },
"features": [
{ "type": "Feature", "properties": { "HYRIV_ID": 41401801, "NEXT_DOWN": 0, "MAIN_RIV": 41401801, "LENGTH_KM": 1.11, "DIST_DN_KM": 0.0, "DIST_UP_KM": 22.700001, "CATCH_SKM": 1.28, "UPLAND_SKM": 157.8, "ENDORHEIC": 0, "DIS_AV_CMS": 2.414, "ORD_STRA": 2, "ORD_CLAS": 1, "ORD_FLOW": 6, "HYBAS_L12": 4120049180.0, "Shape_Length": 0.010059223176531202 }, "geometry": { "type": "Polygon", "coordinates": [ ] } },
{ "type": "Feature", "properties": { "HYRIV_ID": 41401813, "NEXT_DOWN": 41401801, "MAIN_RIV": 41401801, "LENGTH_KM": 0.46, "DIST_DN_KM": 1.3, "DIST_UP_KM": 21.8, "CATCH_SKM": 0.42, "UPLAND_SKM": 138.8, "ENDORHEIC": 0, "DIS_AV_CMS": 2.1340001, "ORD_STRA": 2, "ORD_CLAS": 1, "ORD_FLOW": 6, "HYBAS_L12": 4120049180.0, "Shape_Length": 0.0041666666667055097 }, "geometry": { "type": "Polygon", "coordinates": [ ] } },
{ "type": "Feature", "properties": { "HYRIV_ID": 41401814, "NEXT_DOWN": 41401801, "MAIN_RIV": 41401801, "LENGTH_KM": 5.2, "DIST_DN_KM": 1.2, "DIST_UP_KM": 10.1, "CATCH_SKM": 18.07, "UPLAND_SKM": 18.1, "ENDORHEIC": 0, "DIS_AV_CMS": 0.269, "ORD_STRA": 1, "ORD_CLAS": 2, "ORD_FLOW": 7, "HYBAS_L12": 4120049180.0, "Shape_Length": 0.047201779686488241 }, "geometry": { "type": "Polygon", "coordinates": [ ] } },
{ "type": "Feature", "properties": { "HYRIV_ID": 41401857, "NEXT_DOWN": 41401813, "MAIN_RIV": 41401801, "LENGTH_KM": 1.39, "DIST_DN_KM": 1.7, "DIST_UP_KM": 21.3, "CATCH_SKM": 1.91, "UPLAND_SKM": 113.7, "ENDORHEIC": 0, "DIS_AV_CMS": 1.761, "ORD_STRA": 2, "ORD_CLAS": 1, "ORD_FLOW": 6, "HYBAS_L12": 4120049180.0, "Shape_Length": 0.01249999999997442 }, "geometry": { "type": "Polygon", "coordinates": [ ] } },
{ "type": "Feature", "properties": { "HYRIV_ID": 41401880, "NEXT_DOWN": 41401813, "MAIN_RIV": 41401801, "LENGTH_KM": 4.58, "DIST_DN_KM": 1.7, "DIST_UP_KM": 8.4, "CATCH_SKM": 24.66, "UPLAND_SKM": 24.700001, "ENDORHEIC": 0, "DIS_AV_CMS": 0.36700001, "ORD_STRA": 1, "ORD_CLAS": 2, "ORD_FLOW": 7, "HYBAS_L12": 4120049180.0, "Shape_Length": 0.04145728111791331 }, "geometry": { "type": "Polygon", "coordinates": [ ] } },
{ "type": "Feature", "properties": { "HYRIV_ID": 41401902, "NEXT_DOWN": 41401857, "MAIN_RIV": 41401801, "LENGTH_KM": 4.75, "DIST_DN_KM": 3.1, "DIST_UP_KM": 9.0, "CATCH_SKM": 14.67, "UPLAND_SKM": 14.7, "ENDORHEIC": 0, "DIS_AV_CMS": 0.222, "ORD_STRA": 1, "ORD_CLAS": 2, "ORD_FLOW": 7, "HYBAS_L12": 4120049180.0, "Shape_Length": 0.043035113019765071 }, "geometry": { "type": "Polygon", "coordinates": [ ] } },
{ "type": "Feature", "properties": { "HYRIV_ID": 41401950, "NEXT_DOWN": 41401857, "MAIN_RIV": 41401801, "LENGTH_KM": 2.32, "DIST_DN_KM": 3.1, "DIST_UP_KM": 19.9, "CATCH_SKM": 3.61, "UPLAND_SKM": 97.199997, "ENDORHEIC": 0, "DIS_AV_CMS": 1.512, "ORD_STRA": 2, "ORD_CLAS": 1, "ORD_FLOW": 6, "HYBAS_L12": 4120049180.0, "Shape_Length": 0.020833333333342807 }, "geometry": { "type": "Polygon", "coordinates": [ ] } },
{ "type": "Feature", "properties": { "HYRIV_ID": 41401983, "NEXT_DOWN": 41401950, "MAIN_RIV": 41401801, "LENGTH_KM": 7.62, "DIST_DN_KM": 5.4, "DIST_UP_KM": 11.2, "CATCH_SKM": 23.809999, "UPLAND_SKM": 23.8, "ENDORHEIC": 0, "DIS_AV_CMS": 0.368, "ORD_STRA": 1, "ORD_CLAS": 2, "ORD_FLOW": 7, "HYBAS_L12": 4120049180.0, "Shape_Length": 0.069046115882845524 }, "geometry": { "type": "Polygon", "coordinates": [ ] } },
{ "type": "Feature", "properties": { "HYRIV_ID": 41402019, "NEXT_DOWN": 41402020, "MAIN_RIV": 41401801, "LENGTH_KM": 0.98, "DIST_DN_KM": 7.8, "DIST_UP_KM": 5.3, "CATCH_SKM": 8.08, "UPLAND_SKM": 8.1, "ENDORHEIC": 0, "DIS_AV_CMS": 0.123, "ORD_STRA": 1, "ORD_CLAS": 2, "ORD_FLOW": 7, "HYBAS_L12": 4120049180.0, "Shape_Length": 0.0088388347647936592 }, "geometry": { "type": "Polygon", "coordinates": [ ] } },
{ "type": "Feature", "properties": { "HYRIV_ID": 41402020, "NEXT_DOWN": 41401950, "MAIN_RIV": 41401801, "LENGTH_KM": 2.23, "DIST_DN_KM": 5.4, "DIST_UP_KM": 17.6, "CATCH_SKM": 11.91, "UPLAND_SKM": 69.699997, "ENDORHEIC": 0, "DIS_AV_CMS": 1.092, "ORD_STRA": 2, "ORD_CLAS": 1, "ORD_FLOW": 6, "HYBAS_L12": 4120049180.0, "Shape_Length": 0.0201184463531092 }, "geometry": { "type": "Polygon", "coordinates": [ ] } },
{ "type": "Feature", "properties": { "HYRIV_ID": 41402137, "NEXT_DOWN": 41402020, "MAIN_RIV": 41401801, "LENGTH_KM": 10.24, "DIST_DN_KM": 7.8, "DIST_UP_KM": 15.2, "CATCH_SKM": 49.75, "UPLAND_SKM": 49.8, "ENDORHEIC": 0, "DIS_AV_CMS": 0.78500003, "ORD_STRA": 1, "ORD_CLAS": 1, "ORD_FLOW": 7, "HYBAS_L12": 4120049180.0, "Shape_Length": 0.092616341922411721 }, "geometry": { "type": "Polygon", "coordinates": [ ] } }
]
}
