{
"type": "FeatureCollection",
"name": "main_river_41399030",
"crs": { "type": "name", "properties": { "name": "urn:ogc:def:crs:OGC:1.3:CRS84" } },
"features": [
{ "type": "Feature", "properties": { "HYRIV_ID": 41399030, "NEXT_DOWN": 0, "MAIN_RIV": 41399030, "LENGTH_KM": 11.98, "DIST_DN_KM": 0.0, "DIST_UP_KM": 18.5, "CATCH_SKM": 52.639999, "UPLAND_SKM": 52.400002, "ENDORHEIC": 0, "DIS_AV_CMS": 0.519, "ORD_STRA": 1, "ORD_CLAS": 1, "ORD_FLOW": 7, "HYBAS_L12": 4120049270.0, "Shape_Length": 0.10856812160858284 }, "geometry": { "type": "Polygon", "coordinates": [ ] } }
]
}
