{
"type": "FeatureCollection",
"name": "main_river_41401373",
"crs": { "type": "name", "properties": { "name": "urn:ogc:def:crs:OGC:1.3:CRS84" } },
"features": [
{ "type": "Feature", "properties": { "HYRIV_ID": 41401175, "NEXT_DOWN": 41401330, "MAIN_RIV": 41401373, "LENGTH_KM": 0.69, "DIST_DN_KM": 25.700001, "DIST_UP_KM": 5.1, "CATCH_SKM": 10.84, "UPLAND_SKM": 10.8, "ENDORHEIC": 0, "DIS_AV_CMS": 0.14, "ORD_STRA": 1, "ORD_CLAS": 4, "ORD_FLOW": 7, "HYBAS_L12": 4121156690.0, "Shape_Length": 0.0062499999999943157 }, "geometry": { "type": "Polygon", "coordinates": [ ] } },
{ "type": "Feature", "properties": { "HYRIV_ID": 41401204, "NEXT_DOWN": 41401330, "MAIN_RIV": 41401373, "LENGTH_KM": 7.35, "DIST_DN_KM": 25.9, "DIST_UP_KM": 10.9, "CATCH_SKM": 36.34, "UPLAND_SKM": 36.3, "ENDORHEIC": 0, "DIS_AV_CMS": 0.489, "ORD_STRA": 1, "ORD_CLAS": 3, "ORD_FLOW": 7, "HYBAS_L12": 4121156690.0, "Shape_Length": 0.066605339059295221 }, "geometry": { "type": "Polygon", "coordinates": [ ] } },
{ "type": "Feature", "properties": { "HYRIV_ID": 41401313, "NEXT_DOWN": 41401355, "MAIN_RIV": 41401373, "LENGTH_KM": 7.37, "DIST_DN_KM": 11.2, "DIST_UP_KM": 11.5, "CATCH_SKM": 22.74, "UPLAND_SKM": 22.700001, "ENDORHEIC": 0, "DIS_AV_CMS": 0.28400001, "ORD_STRA": 1, "ORD_CLAS": 2, "ORD_FLOW": 7, "HYBAS_L12": 4120049200.0, "Shape_Length": 0.066605339059192012 }, "geometry": { "type": "Polygon", "coordinates": [ ] } },
{ "type": "Feature", "properties": { "HYRIV_ID": 41401330, "NEXT_DOWN": 41401358, "MAIN_RIV": 41401373, "LENGTH_KM": 5.7600002, "DIST_DN_KM": 19.9, "DIST_UP_KM": 16.9, "CATCH_SKM": 21.040001, "UPLAND_SKM": 68.199997, "ENDORHEIC": 0, "DIS_AV_CMS": 0.885, "ORD_STRA": 2, "ORD_CLAS": 3, "ORD_FLOW": 7, "HYBAS_L12": 4121156690.0, "Shape_Length": 0.052022005725976872 }, "geometry": { "type": "Polygon", "coordinates": [ ] } },
{ "type": "Feature", "properties": { "HYRIV_ID": 41401331, "NEXT_DOWN": 41401358, "MAIN_RIV": 41401373, "LENGTH_KM": 1.15, "DIST_DN_KM": 19.9, "DIST_UP_KM": 5.6, "CATCH_SKM": 8.29, "UPLAND_SKM": 8.3, "ENDORHEIC": 0, "DIS_AV_CMS": 0.112, "ORD_STRA": 1, "ORD_CLAS": 4, "ORD_FLOW": 7, "HYBAS_L12": 4121156690.0, "Shape_Length": 0.010416666666628771 }, "geometry": { "type": "Polygon", "coordinates": [ ] } },
{ "type": "Feature", "properties": { "HYRIV_ID": 41401338, "NEXT_DOWN": 41401355, "MAIN_RIV": 41401373, "LENGTH_KM": 1.3, "DIST_DN_KM": 11.4, "DIST_UP_KM": 97.099998, "CATCH_SKM": 1.27, "UPLAND_SKM": 1433.9, "ENDORHEIC": 0, "DIS_AV_CMS": 21.819, "ORD_STRA": 4, "ORD_CLAS": 1, "ORD_FLOW": 5, "HYBAS_L12": 4120049200.0, "Shape_Length": 0.011785113019755026 }, "geometry": { "type": "Polygon", "coordinates": [ ] } },
{ "type": "Feature", "properties": { "HYRIV_ID": 41401339, "NEXT_DOWN": 41401338, "MAIN_RIV": 41401373, "LENGTH_KM": 2.6800001, "DIST_DN_KM": 12.7, "DIST_UP_KM": 49.8, "CATCH_SKM": 3.4, "UPLAND_SKM": 421.5, "ENDORHEIC": 0, "DIS_AV_CMS": 5.75, "ORD_STRA": 3, "ORD_CLAS": 2, "ORD_FLOW": 6, "HYBAS_L12": 4121156690.0, "Shape_Length": 0.024285113019660114 }, "geometry": { "type": "Polygon", "coordinates": [ ] } },
{ "type": "Feature", "properties": { "HYRIV_ID": 41401340, "NEXT_DOWN": 41401339, "MAIN_RIV": 41401373, "LENGTH_KM": 2.09, "DIST_DN_KM": 15.2, "DIST_UP_KM": 6.9, "CATCH_SKM": 17.0, "UPLAND_SKM": 17.0, "ENDORHEIC": 0, "DIS_AV_CMS": 0.221, "ORD_STRA": 1, "ORD_CLAS": 3, "ORD_FLOW": 7, "HYBAS_L12": 4121156690.0, "Shape_Length": 0.018898057941435398 }, "geometry": { "type": "Polygon", "coordinates": [ ] } },
{ "type": "Feature", "properties": { "HYRIV_ID": 41401355, "NEXT_DOWN": 41401373, "MAIN_RIV": 41401373, "LENGTH_KM": 3.1400001, "DIST_DN_KM": 8.3, "DIST_UP_KM": 100.2, "CATCH_SKM": 12.75, "UPLAND_SKM": 1469.4, "ENDORHEIC": 0, "DIS_AV_CMS": 21.898001, "ORD_STRA": 4, "ORD_CLAS": 1, "ORD_FLOW": 5, "HYBAS_L12": 4120049200.0, "Shape_Length": 0.028451779686442562 }, "geometry": { "type": "Polygon", "coordinates": [ ] } },
{ "type": "Feature", "properties": { "HYRIV_ID": 41401356, "NEXT_DOWN": 41401373, "MAIN_RIV": 41401373, "LENGTH_KM": 0.69, "DIST_DN_KM": 8.1, "DIST_UP_KM": 4.5, "CATCH_SKM": 7.8600001, "UPLAND_SKM": 7.9, "ENDORHEIC": 0, "DIS_AV_CMS": 0.105, "ORD_STRA": 1, "ORD_CLAS": 2, "ORD_FLOW": 7, "HYBAS_L12": 4120049200.0, "Shape_Length": 0.0062499999999658939 }, "geometry": { "type": "Polygon", "coordinates": [ ] } },
{ "type": "Feature", "properties": { "HYRIV_ID": 41401357, "NEXT_DOWN": 41401339, "MAIN_RIV": 41401373, "LENGTH_KM": 2.03, "DIST_DN_KM": 15.4, "DIST_UP_KM": 47.099998, "CATCH_SKM": 4.6799998, "UPLAND_SKM": 401.10001, "ENDORHEIC": 0, "DIS_AV_CMS": 5.5630002, "ORD_STRA": 3, "ORD_CLAS": 2, "ORD_FLOW": 6, "HYBAS_L12": 4121156690.0, "Shape_Length": 0.018392556509837871 }, "geometry": { "type": "Polygon", "coordinates": [ ] } },
{ "type": "Feature", "properties": { "HYRIV_ID": 41401358, "NEXT_DOWN": 41401357, "MAIN_RIV": 41401373, "LENGTH_KM": 2.6800001, "DIST_DN_KM": 17.3, "DIST_UP_KM": 19.5, "CATCH_SKM": 4.46, "UPLAND_SKM": 81.0, "ENDORHEIC": 0, "DIS_AV_CMS": 1.045, "ORD_STRA": 2, "ORD_CLAS": 3, "ORD_FLOW": 6, "HYBAS_L12": 4121156690.0, "Shape_Length": 0.024285113019817148 }, "geometry": { "type": "Polygon", "coordinates": [ ] } },
{ "type": "Feature", "properties": { "HYRIV_ID": 41401373, "NEXT_DOWN": 0, "MAIN_RIV": 41401373, "LENGTH_KM": 7.9699998, "DIST_DN_KM": 0.0, "DIST_UP_KM": 108.2, "CATCH_SKM": 27.200001, "UPLAND_SKM": 1504.0, "ENDORHEIC": 0, "DIS_AV_CMS": 21.476999, "ORD_STRA": 4, "ORD_CLAS": 1, "ORD_FLOW": 5, "HYBAS_L12": 4120049200.0, "Shape_Length": 0.072140452079104453 }, "geometry": { "type": "Polygon", "coordinates": [ ] } },
{ "type": "Feature", "properties": { "HYRIV_ID": 41401416, "NEXT_DOWN": 41401357, "MAIN_RIV": 41401373, "LENGTH_KM": 2.8800001, "DIST_DN_KM": 17.5, "DIST_UP_KM": 45.099998, "CATCH_SKM": 5.5300002, "UPLAND_SKM": 315.39999, "ENDORHEIC": 0, "DIS_AV_CMS": 4.5159998, "ORD_STRA": 3, "ORD_CLAS": 2, "ORD_FLOW": 6, "HYBAS_L12": 4121156690.0, "Shape_Length": 0.026011002863033657 }, "geometry": { "type": "Polygon", "coordinates": [ ] } },
{ "type": "Feature", "properties": { "HYRIV_ID": 41401417, "NEXT_DOWN": 41401416, "MAIN_RIV": 41401373, "LENGTH_KM": 4.58, "DIST_DN_KM": 20.1, "DIST_UP_KM": 8.9, "CATCH_SKM": 15.73, "UPLAND_SKM": 15.7, "ENDORHEIC": 0, "DIS_AV_CMS": 0.21600001, "ORD_STRA": 1, "ORD_CLAS": 3, "ORD_FLOW": 7, "HYBAS_L12": 4121156690.0, "Shape_Length": 0.041457281117960106 }, "geometry": { "type": "Polygon", "coordinates": [ ] } },
{ "type": "Feature", "properties": { "HYRIV_ID": 41401435, "NEXT_DOWN": 41401338, "MAIN_RIV": 41401373, "LENGTH_KM": 4.1799998, "DIST_DN_KM": 12.6, "DIST_UP_KM": 96.0, "CATCH_SKM": 12.96, "UPLAND_SKM": 1011.2, "ENDORHEIC": 0, "DIS_AV_CMS": 16.174, "ORD_STRA": 3, "ORD_CLAS": 1, "ORD_FLOW": 5, "HYBAS_L12": 4121156700.0, "Shape_Length": 0.037796115882788681 }, "geometry": { "type": "Polygon", "coordinates": [ ] } },
{ "type": "Feature", "properties": { "HYRIV_ID": 41401436, "NEXT_DOWN": 41401470, "MAIN_RIV": 41401373, "LENGTH_KM": 3.77, "DIST_DN_KM": 27.9, "DIST_UP_KM": 7.4, "CATCH_SKM": 18.700001, "UPLAND_SKM": 18.700001, "ENDORHEIC": 0, "DIS_AV_CMS": 0.265, "ORD_STRA": 1, "ORD_CLAS": 4, "ORD_FLOW": 7, "HYBAS_L12": 4121601230.0, "Shape_Length": 0.033986892706179016 }, "geometry": { "type": "Polygon", "coordinates": [ ] } },
{ "type": "Feature", "properties": { "HYRIV_ID": 41401451, "NEXT_DOWN": 41401470, "MAIN_RIV": 41401373, "LENGTH_KM": 2.72, "DIST_DN_KM": 28.1, "DIST_UP_KM": 8.5, "CATCH_SKM": 11.48, "UPLAND_SKM": 11.5, "ENDORHEIC": 0, "DIS_AV_CMS": 0.166, "ORD_STRA": 1, "ORD_CLAS": 3, "ORD_FLOW": 7, "HYBAS_L12": 4121601230.0, "Shape_Length": 0.024642556509837061 }, "geometry": { "type": "Polygon", "coordinates": [ ] } },
{ "type": "Feature", "properties": { "HYRIV_ID": 41401470, "NEXT_DOWN": 41401485, "MAIN_RIV": 41401373, "LENGTH_KM": 1.76, "DIST_DN_KM": 26.1, "DIST_UP_KM": 10.5, "CATCH_SKM": 3.1900001, "UPLAND_SKM": 33.400002, "ENDORHEIC": 0, "DIS_AV_CMS": 0.475, "ORD_STRA": 2, "ORD_CLAS": 3, "ORD_FLOW": 7, "HYBAS_L12": 4121601230.0, "Shape_Length": 0.015951779686468145 }, "geometry": { "type": "Polygon", "coordinates": [ ] } },
{ "type": "Feature", "properties": { "HYRIV_ID": 41401485, "NEXT_DOWN": 41401416, "MAIN_RIV": 41401373, "LENGTH_KM": 6.0100002, "DIST_DN_KM": 20.3, "DIST_UP_KM": 42.200001, "CATCH_SKM": 18.700001, "UPLAND_SKM": 294.20001, "ENDORHEIC": 0, "DIS_AV_CMS": 4.2859998, "ORD_STRA": 3, "ORD_CLAS": 2, "ORD_FLOW": 6, "HYBAS_L12": 4121156690.0, "Shape_Length": 0.054462782549420094 }, "geometry": { "type": "Polygon", "coordinates": [ ] } },
{ "type": "Feature", "properties": { "HYRIV_ID": 41401501, "NEXT_DOWN": 41401435, "MAIN_RIV": 41401373, "LENGTH_KM": 3.54, "DIST_DN_KM": 16.9, "DIST_UP_KM": 14.4, "CATCH_SKM": 5.5300002, "UPLAND_SKM": 45.700001, "ENDORHEIC": 0, "DIS_AV_CMS": 0.649, "ORD_STRA": 2, "ORD_CLAS": 2, "ORD_FLOW": 7, "HYBAS_L12": 4121156700.0, "Shape_Length": 0.031903559372824034 }, "geometry": { "type": "Polygon", "coordinates": [ ] } },
{ "type": "Feature", "properties": { "HYRIV_ID": 41401502, "NEXT_DOWN": 41401520, "MAIN_RIV": 41401373, "LENGTH_KM": 1.16, "DIST_DN_KM": 33.700001, "DIST_UP_KM": 5.2, "CATCH_SKM": 7.6500001, "UPLAND_SKM": 7.7, "ENDORHEIC": 0, "DIS_AV_CMS": 0.112, "ORD_STRA": 1, "ORD_CLAS": 3, "ORD_FLOW": 7, "HYBAS_L12": 4121601230.0, "Shape_Length": 0.010416666666685614 }, "geometry": { "type": "Polygon", "coordinates": [ ] } },
{ "type": "Feature", "properties": { "HYRIV_ID": 41401519, "NEXT_DOWN": 41401485, "MAIN_RIV": 41401373, "LENGTH_KM": 3.33, "DIST_DN_KM": 26.3, "DIST_UP_KM": 36.200001, "CATCH_SKM": 7.0100002, "UPLAND_SKM": 242.10001, "ENDORHEIC": 0, "DIS_AV_CMS": 3.6659999, "ORD_STRA": 3, "ORD_CLAS": 2, "ORD_FLOW": 6, "HYBAS_L12": 4121601230.0, "Shape_Length": 0.03017766952971318 }, "geometry": { "type": "Polygon", "coordinates": [ ] } },
{ "type": "Feature", "properties": { "HYRIV_ID": 41401520, "NEXT_DOWN": 41401519, "MAIN_RIV": 41401373, "LENGTH_KM": 4.25, "DIST_DN_KM": 29.5, "DIST_UP_KM": 33.099998, "CATCH_SKM": 9.3500004, "UPLAND_SKM": 205.10001, "ENDORHEIC": 0, "DIS_AV_CMS": 3.1229999, "ORD_STRA": 2, "ORD_CLAS": 2, "ORD_FLOW": 6, "HYBAS_L12": 4121601230.0, "Shape_Length": 0.038511002863132526 }, "geometry": { "type": "Polygon", "coordinates": [ ] } },
{ "type": "Feature", "properties": { "HYRIV_ID": 41401521, "NEXT_DOWN": 41401520, "MAIN_RIV": 41401373, "LENGTH_KM": 3.33, "DIST_DN_KM": 33.700001, "DIST_UP_KM": 28.8, "CATCH_SKM": 9.9899998, "UPLAND_SKM": 188.10001, "ENDORHEIC": 0, "DIS_AV_CMS": 2.8929999, "ORD_STRA": 2, "ORD_CLAS": 2, "ORD_FLOW": 6, "HYBAS_L12": 4121601230.0, "Shape_Length": 0.030177669529562749 }, "geometry": { "type": "Polygon", "coordinates": [ ] } },
{ "type": "Feature", "properties": { "HYRIV_ID": 41401522, "NEXT_DOWN": 41401521, "MAIN_RIV": 41401373, "LENGTH_KM": 4.3200002, "DIST_DN_KM": 37.099998, "DIST_UP_KM": 7.8, "CATCH_SKM": 23.8, "UPLAND_SKM": 23.8, "ENDORHEIC": 0, "DIS_AV_CMS": 0.352, "ORD_STRA": 1, "ORD_CLAS": 3, "ORD_FLOW": 7, "HYBAS_L12": 4121601230.0, "Shape_Length": 0.039016504294409803 }, "geometry": { "type": "Polygon", "coordinates": [ ] } },
{ "type": "Feature", "properties": { "HYRIV_ID": 41401534, "NEXT_DOWN": 41401575, "MAIN_RIV": 41401373, "LENGTH_KM": 2.9300001, "DIST_DN_KM": 42.700001, "DIST_UP_KM": 6.1, "CATCH_SKM": 14.66, "UPLAND_SKM": 14.7, "ENDORHEIC": 0, "DIS_AV_CMS": 0.221, "ORD_STRA": 1, "ORD_CLAS": 3, "ORD_FLOW": 7, "HYBAS_L12": 4121601260.0, "Shape_Length": 0.026368446353113563 }, "geometry": { "type": "Polygon", "coordinates": [ ] } },
{ "type": "Feature", "properties": { "HYRIV_ID": 41401550, "NEXT_DOWN": 41401617, "MAIN_RIV": 41401373, "LENGTH_KM": 4.5100002, "DIST_DN_KM": 50.700001, "DIST_UP_KM": 8.2, "CATCH_SKM": 17.639999, "UPLAND_SKM": 17.6, "ENDORHEIC": 0, "DIS_AV_CMS": 0.274, "ORD_STRA": 1, "ORD_CLAS": 3, "ORD_FLOW": 7, "HYBAS_L12": 4121601260.0, "Shape_Length": 0.040742394137820388 }, "geometry": { "type": "Polygon", "coordinates": [ ] } },
{ "type": "Feature", "properties": { "HYRIV_ID": 41401551, "NEXT_DOWN": 41401617, "MAIN_RIV": 41401373, "LENGTH_KM": 2.55, "DIST_DN_KM": 50.5, "DIST_UP_KM": 5.8, "CATCH_SKM": 11.48, "UPLAND_SKM": 11.5, "ENDORHEIC": 0, "DIS_AV_CMS": 0.182, "ORD_STRA": 1, "ORD_CLAS": 4, "ORD_FLOW": 7, "HYBAS_L12": 4121601260.0, "Shape_Length": 0.023064724608001949 }, "geometry": { "type": "Polygon", "coordinates": [ ] } },
{ "type": "Feature", "properties": { "HYRIV_ID": 41401573, "NEXT_DOWN": 41401519, "MAIN_RIV": 41401373, "LENGTH_KM": 2.4200001, "DIST_DN_KM": 29.5, "DIST_UP_KM": 9.1, "CATCH_SKM": 5.1, "UPLAND_SKM": 30.0, "ENDORHEIC": 0, "DIS_AV_CMS": 0.459, "ORD_STRA": 2, "ORD_CLAS": 3, "ORD_FLOW": 7, "HYBAS_L12": 4121601230.0, "Shape_Length": 0.02184433619637078 }, "geometry": { "type": "Polygon", "coordinates": [ ] } },
{ "type": "Feature", "properties": { "HYRIV_ID": 41401574, "NEXT_DOWN": 41401521, "MAIN_RIV": 41401373, "LENGTH_KM": 3.07, "DIST_DN_KM": 37.3, "DIST_UP_KM": 25.3, "CATCH_SKM": 12.54, "UPLAND_SKM": 154.3, "ENDORHEIC": 0, "DIS_AV_CMS": 2.405, "ORD_STRA": 2, "ORD_CLAS": 2, "ORD_FLOW": 6, "HYBAS_L12": 4121601230.0, "Shape_Length": 0.027736892706213118 }, "geometry": { "type": "Polygon", "coordinates": [ ] } },
{ "type": "Feature", "properties": { "HYRIV_ID": 41401575, "NEXT_DOWN": 41401574, "MAIN_RIV": 41401373, "LENGTH_KM": 2.4200001, "DIST_DN_KM": 40.3, "DIST_UP_KM": 22.200001, "CATCH_SKM": 8.5, "UPLAND_SKM": 132.39999, "ENDORHEIC": 0, "DIS_AV_CMS": 2.072, "ORD_STRA": 2, "ORD_CLAS": 2, "ORD_FLOW": 6, "HYBAS_L12": 4121601260.0, "Shape_Length": 0.02184433619637078 }, "geometry": { "type": "Polygon", "coordinates": [ ] } },
{ "type": "Feature", "properties": { "HYRIV_ID": 41401576, "NEXT_DOWN": 41401575, "MAIN_RIV": 41401373, "LENGTH_KM": 2.87, "DIST_DN_KM": 42.700001, "DIST_UP_KM": 19.8, "CATCH_SKM": 7.6500001, "UPLAND_SKM": 109.3, "ENDORHEIC": 0, "DIS_AV_CMS": 1.726, "ORD_STRA": 2, "ORD_CLAS": 2, "ORD_FLOW": 6, "HYBAS_L12": 4121601260.0, "Shape_Length": 0.026011002863033653 }, "geometry": { "type": "Polygon", "coordinates": [ ] } },
{ "type": "Feature", "properties": { "HYRIV_ID": 41401577, "NEXT_DOWN": 41401576, "MAIN_RIV": 41401373, "LENGTH_KM": 2.46, "DIST_DN_KM": 45.599998, "DIST_UP_KM": 7.0, "CATCH_SKM": 9.3500004, "UPLAND_SKM": 9.4, "ENDORHEIC": 0, "DIS_AV_CMS": 0.145, "ORD_STRA": 1, "ORD_CLAS": 3, "ORD_FLOW": 7, "HYBAS_L12": 4121601260.0, "Shape_Length": 0.022201779686438203 }, "geometry": { "type": "Polygon", "coordinates": [ ] } },
{ "type": "Feature", "properties": { "HYRIV_ID": 41401597, "NEXT_DOWN": 41401573, "MAIN_RIV": 41401373, "LENGTH_KM": 1.9, "DIST_DN_KM": 31.9, "DIST_UP_KM": 6.5, "CATCH_SKM": 11.48, "UPLAND_SKM": 11.5, "ENDORHEIC": 0, "DIS_AV_CMS": 0.177, "ORD_STRA": 1, "ORD_CLAS": 4, "ORD_FLOW": 7, "HYBAS_L12": 4121601230.0, "Shape_Length": 0.01717216809804592 }, "geometry": { "type": "Polygon", "coordinates": [ ] } },
{ "type": "Feature", "properties": { "HYRIV_ID": 41401615, "NEXT_DOWN": 41401574, "MAIN_RIV": 41401373, "LENGTH_KM": 1.62, "DIST_DN_KM": 40.099998, "DIST_UP_KM": 5.8, "CATCH_SKM": 9.3500004, "UPLAND_SKM": 9.4, "ENDORHEIC": 0, "DIS_AV_CMS": 0.149, "ORD_STRA": 1, "ORD_CLAS": 3, "ORD_FLOW": 7, "HYBAS_L12": 4121601260.0, "Shape_Length": 0.014583333333305859 }, "geometry": { "type": "Polygon", "coordinates": [ ] } },
{ "type": "Feature", "properties": { "HYRIV_ID": 41401616, "NEXT_DOWN": 41401576, "MAIN_RIV": 41401373, "LENGTH_KM": 1.3, "DIST_DN_KM": 45.599998, "DIST_UP_KM": 17.0, "CATCH_SKM": 1.91, "UPLAND_SKM": 92.199997, "ENDORHEIC": 0, "DIS_AV_CMS": 1.4680001, "ORD_STRA": 2, "ORD_CLAS": 2, "ORD_FLOW": 6, "HYBAS_L12": 4121601260.0, "Shape_Length": 0.011785113019755026 }, "geometry": { "type": "Polygon", "coordinates": [ ] } },
{ "type": "Feature", "properties": { "HYRIV_ID": 41401617, "NEXT_DOWN": 41401616, "MAIN_RIV": 41401373, "LENGTH_KM": 3.8, "DIST_DN_KM": 46.900002, "DIST_UP_KM": 12.0, "CATCH_SKM": 9.5600004, "UPLAND_SKM": 38.700001, "ENDORHEIC": 0, "DIS_AV_CMS": 0.60600001, "ORD_STRA": 2, "ORD_CLAS": 3, "ORD_FLOW": 7, "HYBAS_L12": 4121601260.0, "Shape_Length": 0.034344336196342765 }, "geometry": { "type": "Polygon", "coordinates": [ ] } },
{ "type": "Feature", "properties": { "HYRIV_ID": 41401631, "NEXT_DOWN": 41401501, "MAIN_RIV": 41401373, "LENGTH_KM": 7.6500001, "DIST_DN_KM": 20.3, "DIST_UP_KM": 11.0, "CATCH_SKM": 24.02, "UPLAND_SKM": 24.0, "ENDORHEIC": 0, "DIS_AV_CMS": 0.347, "ORD_STRA": 1, "ORD_CLAS": 2, "ORD_FLOW": 7, "HYBAS_L12": 4121156700.0, "Shape_Length": 0.069194173824128874 }, "geometry": { "type": "Polygon", "coordinates": [ ] } },
{ "type": "Feature", "properties": { "HYRIV_ID": 41401632, "NEXT_DOWN": 41401573, "MAIN_RIV": 41401373, "LENGTH_KM": 1.81, "DIST_DN_KM": 31.9, "DIST_UP_KM": 6.7, "CATCH_SKM": 13.39, "UPLAND_SKM": 13.4, "ENDORHEIC": 0, "DIS_AV_CMS": 0.207, "ORD_STRA": 1, "ORD_CLAS": 3, "ORD_FLOW": 7, "HYBAS_L12": 4121601230.0, "Shape_Length": 0.01630922317643092 }, "geometry": { "type": "Polygon", "coordinates": [ ] } },
{ "type": "Feature", "properties": { "HYRIV_ID": 41401668, "NEXT_DOWN": 41401501, "MAIN_RIV": 41401373, "LENGTH_KM": 5.4299998, "DIST_DN_KM": 20.3, "DIST_UP_KM": 10.4, "CATCH_SKM": 16.16, "UPLAND_SKM": 16.200001, "ENDORHEIC": 0, "DIS_AV_CMS": 0.234, "ORD_STRA": 1, "ORD_CLAS": 3, "ORD_FLOW": 7, "HYBAS_L12": 4121156700.0, "Shape_Length": 0.048927669529657658 }, "geometry": { "type": "Polygon", "coordinates": [ ] } },
{ "type": "Feature", "properties": { "HYRIV_ID": 41401691, "NEXT_DOWN": 41401435, "MAIN_RIV": 41401373, "LENGTH_KM": 8.08, "DIST_DN_KM": 16.700001, "DIST_UP_KM": 91.800003, "CATCH_SKM": 30.610001, "UPLAND_SKM": 952.5, "ENDORHEIC": 0, "DIS_AV_CMS": 15.66, "ORD_STRA": 3, "ORD_CLAS": 1, "ORD_FLOW": 5, "HYBAS_L12": 4121156700.0, "Shape_Length": 0.072855339059484617 }, "geometry": { "type": "Polygon", "coordinates": [ ] } },
{ "type": "Feature", "properties": { "HYRIV_ID": 41401692, "NEXT_DOWN": 41401616, "MAIN_RIV": 41401373, "LENGTH_KM": 12.83, "DIST_DN_KM": 46.700001, "DIST_UP_KM": 15.8, "CATCH_SKM": 51.650002, "UPLAND_SKM": 51.700001, "ENDORHEIC": 0, "DIS_AV_CMS": 0.834, "ORD_STRA": 1, "ORD_CLAS": 2, "ORD_FLOW": 7, "HYBAS_L12": 4121601260.0, "Shape_Length": 0.11603851002045122 }, "geometry": { "type": "Polygon", "coordinates": [ ] } },
{ "type": "Feature", "properties": { "HYRIV_ID": 41401765, "NEXT_DOWN": 41401783, "MAIN_RIV": 41401373, "LENGTH_KM": 1.4400001, "DIST_DN_KM": 69.400002, "DIST_UP_KM": 4.0, "CATCH_SKM": 7.0100002, "UPLAND_SKM": 7.0, "ENDORHEIC": 0, "DIS_AV_CMS": 0.117, "ORD_STRA": 1, "ORD_CLAS": 3, "ORD_FLOW": 7, "HYBAS_L12": 4121156990.0, "Shape_Length": 0.013005501431535201 }, "geometry": { "type": "Polygon", "coordinates": [ ] } },
{ "type": "Feature", "properties": { "HYRIV_ID": 41401766, "NEXT_DOWN": 41401783, "MAIN_RIV": 41401373, "LENGTH_KM": 6.0500002, "DIST_DN_KM": 69.599998, "DIST_UP_KM": 8.5, "CATCH_SKM": 38.900002, "UPLAND_SKM": 38.900002, "ENDORHEIC": 0, "DIS_AV_CMS": 0.66, "ORD_STRA": 1, "ORD_CLAS": 2, "ORD_FLOW": 7, "HYBAS_L12": 4121156990.0, "Shape_Length": 0.054820226039563741 }, "geometry": { "type": "Polygon", "coordinates": [ ] } },
{ "type": "Feature", "properties": { "HYRIV_ID": 41401783, "NEXT_DOWN": 41401816, "MAIN_RIV": 41401373, "LENGTH_KM": 0.65, "DIST_DN_KM": 68.900002, "DIST_UP_KM": 9.2, "CATCH_SKM": 0.64, "UPLAND_SKM": 46.599998, "ENDORHEIC": 0, "DIS_AV_CMS": 0.788, "ORD_STRA": 2, "ORD_CLAS": 2, "ORD_FLOW": 7, "HYBAS_L12": 4121156990.0, "Shape_Length": 0.0058925565098825365 }, "geometry": { "type": "Polygon", "coordinates": [ ] } },
{ "type": "Feature", "properties": { "HYRIV_ID": 41401802, "NEXT_DOWN": 41401841, "MAIN_RIV": 41401373, "LENGTH_KM": 1.34, "DIST_DN_KM": 38.200001, "DIST_UP_KM": 4.3, "CATCH_SKM": 9.3500004, "UPLAND_SKM": 9.4, "ENDORHEIC": 0, "DIS_AV_CMS": 0.146, "ORD_STRA": 1, "ORD_CLAS": 2, "ORD_FLOW": 7, "HYBAS_L12": 4121156880.0, "Shape_Length": 0.012142556509838382 }, "geometry": { "type": "Polygon", "coordinates": [ ] } },
{ "type": "Feature", "properties": { "HYRIV_ID": 41401815, "NEXT_DOWN": 41401938, "MAIN_RIV": 41401373, "LENGTH_KM": 0.69, "DIST_DN_KM": 63.200001, "DIST_UP_KM": 3.9, "CATCH_SKM": 6.5900002, "UPLAND_SKM": 6.6, "ENDORHEIC": 0, "DIS_AV_CMS": 0.11, "ORD_STRA": 1, "ORD_CLAS": 2, "ORD_FLOW": 7, "HYBAS_L12": 4121156990.0, "Shape_Length": 0.0062500000000227374 }, "geometry": { "type": "Polygon", "coordinates": [ ] } },
{ "type": "Feature", "properties": { "HYRIV_ID": 41401816, "NEXT_DOWN": 41401938, "MAIN_RIV": 41401373, "LENGTH_KM": 5.5500002, "DIST_DN_KM": 63.200001, "DIST_UP_KM": 45.3, "CATCH_SKM": 24.66, "UPLAND_SKM": 375.10001, "ENDORHEIC": 0, "DIS_AV_CMS": 6.8280001, "ORD_STRA": 3, "ORD_CLAS": 1, "ORD_FLOW": 6, "HYBAS_L12": 4121156990.0, "Shape_Length": 0.050296115882804013 }, "geometry": { "type": "Polygon", "coordinates": [ ] } },
{ "type": "Feature", "properties": { "HYRIV_ID": 41401817, "NEXT_DOWN": 41401816, "MAIN_RIV": 41401373, "LENGTH_KM": 2.4200001, "DIST_DN_KM": 68.699997, "DIST_UP_KM": 39.8, "CATCH_SKM": 7.0100002, "UPLAND_SKM": 303.79999, "ENDORHEIC": 0, "DIS_AV_CMS": 5.6360002, "ORD_STRA": 3, "ORD_CLAS": 1, "ORD_FLOW": 6, "HYBAS_L12": 4121156990.0, "Shape_Length": 0.021844336196330586 }, "geometry": { "type": "Polygon", "coordinates": [ ] } },
{ "type": "Feature", "properties": { "HYRIV_ID": 41401826, "NEXT_DOWN": 41401841, "MAIN_RIV": 41401373, "LENGTH_KM": 3.53, "DIST_DN_KM": 38.200001, "DIST_UP_KM": 70.400002, "CATCH_SKM": 6.8, "UPLAND_SKM": 710.29999, "ENDORHEIC": 0, "DIS_AV_CMS": 12.515, "ORD_STRA": 3, "ORD_CLAS": 1, "ORD_FLOW": 5, "HYBAS_L12": 4121156880.0, "Shape_Length": 0.031903559372812557 }, "geometry": { "type": "Polygon", "coordinates": [ ] } },
{ "type": "Feature", "properties": { "HYRIV_ID": 41401827, "NEXT_DOWN": 41401826, "MAIN_RIV": 41401373, "LENGTH_KM": 6.81, "DIST_DN_KM": 41.5, "DIST_UP_KM": 67.0, "CATCH_SKM": 24.450001, "UPLAND_SKM": 600.79999, "ENDORHEIC": 0, "DIS_AV_CMS": 10.647, "ORD_STRA": 3, "ORD_CLAS": 1, "ORD_FLOW": 5, "HYBAS_L12": 4121156950.0, "Shape_Length": 0.061785113019759787 }, "geometry": { "type": "Polygon", "coordinates": [ ] } },
{ "type": "Feature", "properties": { "HYRIV_ID": 41401828, "NEXT_DOWN": 41401827, "MAIN_RIV": 41401373, "LENGTH_KM": 1.4400001, "DIST_DN_KM": 48.3, "DIST_UP_KM": 4.7, "CATCH_SKM": 8.08, "UPLAND_SKM": 8.1, "ENDORHEIC": 0, "DIS_AV_CMS": 0.131, "ORD_STRA": 1, "ORD_CLAS": 2, "ORD_FLOW": 7, "HYBAS_L12": 4121156950.0, "Shape_Length": 0.013005501431617314 }, "geometry": { "type": "Polygon", "coordinates": [ ] } },
{ "type": "Feature", "properties": { "HYRIV_ID": 41401840, "NEXT_DOWN": 41401691, "MAIN_RIV": 41401373, "LENGTH_KM": 10.27, "DIST_DN_KM": 24.8, "DIST_UP_KM": 83.699997, "CATCH_SKM": 35.93, "UPLAND_SKM": 815.59998, "ENDORHEIC": 0, "DIS_AV_CMS": 14.117, "ORD_STRA": 3, "ORD_CLAS": 1, "ORD_FLOW": 5, "HYBAS_L12": 4121156880.0, "Shape_Length": 0.092973785412401172 }, "geometry": { "type": "Polygon", "coordinates": [ ] } },
{ "type": "Feature", "properties": { "HYRIV_ID": 41401841, "NEXT_DOWN": 41401840, "MAIN_RIV": 41401373, "LENGTH_KM": 2.87, "DIST_DN_KM": 35.3, "DIST_UP_KM": 73.199997, "CATCH_SKM": 8.9300003, "UPLAND_SKM": 728.59998, "ENDORHEIC": 0, "DIS_AV_CMS": 12.784, "ORD_STRA": 3, "ORD_CLAS": 1, "ORD_FLOW": 5, "HYBAS_L12": 4121156880.0, "Shape_Length": 0.026011002863033657 }, "geometry": { "type": "Polygon", "coordinates": [ ] } },
{ "type": "Feature", "properties": { "HYRIV_ID": 41401842, "NEXT_DOWN": 41401827, "MAIN_RIV": 41401373, "LENGTH_KM": 1.11, "DIST_DN_KM": 48.5, "DIST_UP_KM": 60.0, "CATCH_SKM": 1.28, "UPLAND_SKM": 568.29999, "ENDORHEIC": 0, "DIS_AV_CMS": 10.161, "ORD_STRA": 3, "ORD_CLAS": 1, "ORD_FLOW": 5, "HYBAS_L12": 4121156950.0, "Shape_Length": 0.010059223176535365 }, "geometry": { "type": "Polygon", "coordinates": [ ] } },
{ "type": "Feature", "properties": { "HYRIV_ID": 41401843, "NEXT_DOWN": 41401842, "MAIN_RIV": 41401373, "LENGTH_KM": 2.55, "DIST_DN_KM": 49.400002, "DIST_UP_KM": 6.5, "CATCH_SKM": 13.61, "UPLAND_SKM": 13.6, "ENDORHEIC": 0, "DIS_AV_CMS": 0.22400001, "ORD_STRA": 1, "ORD_CLAS": 2, "ORD_FLOW": 7, "HYBAS_L12": 4121156950.0, "Shape_Length": 0.023064724608088942 }, "geometry": { "type": "Polygon", "coordinates": [ ] } },
{ "type": "Feature", "properties": { "HYRIV_ID": 41401903, "NEXT_DOWN": 41401842, "MAIN_RIV": 41401373, "LENGTH_KM": 2.87, "DIST_DN_KM": 49.599998, "DIST_UP_KM": 58.900002, "CATCH_SKM": 6.1700001, "UPLAND_SKM": 553.40002, "ENDORHEIC": 0, "DIS_AV_CMS": 9.9209995, "ORD_STRA": 3, "ORD_CLAS": 1, "ORD_FLOW": 6, "HYBAS_L12": 4121156950.0, "Shape_Length": 0.026011002863013555 }, "geometry": { "type": "Polygon", "coordinates": [ ] } },
{ "type": "Feature", "properties": { "HYRIV_ID": 41401904, "NEXT_DOWN": 41401903, "MAIN_RIV": 41401373, "LENGTH_KM": 2.9100001, "DIST_DN_KM": 52.3, "DIST_UP_KM": 6.7, "CATCH_SKM": 10.42, "UPLAND_SKM": 10.4, "ENDORHEIC": 0, "DIS_AV_CMS": 0.174, "ORD_STRA": 1, "ORD_CLAS": 2, "ORD_FLOW": 7, "HYBAS_L12": 4121156950.0, "Shape_Length": 0.026368446353096917 }, "geometry": { "type": "Polygon", "coordinates": [ ] } },
{ "type": "Feature", "properties": { "HYRIV_ID": 41401905, "NEXT_DOWN": 41401817, "MAIN_RIV": 41401373, "LENGTH_KM": 3.1500001, "DIST_DN_KM": 71.199997, "DIST_UP_KM": 19.700001, "CATCH_SKM": 4.25, "UPLAND_SKM": 69.300003, "ENDORHEIC": 0, "DIS_AV_CMS": 1.24, "ORD_STRA": 2, "ORD_CLAS": 2, "ORD_FLOW": 6, "HYBAS_L12": 4121601290.0, "Shape_Length": 0.028451779686442566 }, "geometry": { "type": "Polygon", "coordinates": [ ] } },
{ "type": "Feature", "properties": { "HYRIV_ID": 41401921, "NEXT_DOWN": 41401691, "MAIN_RIV": 41401373, "LENGTH_KM": 7.62, "DIST_DN_KM": 24.8, "DIST_UP_KM": 24.0, "CATCH_SKM": 29.549999, "UPLAND_SKM": 106.3, "ENDORHEIC": 0, "DIS_AV_CMS": 1.7, "ORD_STRA": 2, "ORD_CLAS": 2, "ORD_FLOW": 6, "HYBAS_L12": 4121156900.0, "Shape_Length": 0.068688672392568095 }, "geometry": { "type": "Polygon", "coordinates": [ ] } },
{ "type": "Feature", "properties": { "HYRIV_ID": 41401922, "NEXT_DOWN": 41401905, "MAIN_RIV": 41401373, "LENGTH_KM": 6.4400001, "DIST_DN_KM": 74.5, "DIST_UP_KM": 8.7, "CATCH_SKM": 20.200001, "UPLAND_SKM": 20.200001, "ENDORHEIC": 0, "DIS_AV_CMS": 0.35600001, "ORD_STRA": 1, "ORD_CLAS": 3, "ORD_FLOW": 7, "HYBAS_L12": 4121601290.0, "Shape_Length": 0.058272005725894957 }, "geometry": { "type": "Polygon", "coordinates": [ ] } },
{ "type": "Feature", "properties": { "HYRIV_ID": 41401937, "NEXT_DOWN": 41401903, "MAIN_RIV": 41401373, "LENGTH_KM": 4.52, "DIST_DN_KM": 52.5, "DIST_UP_KM": 56.099998, "CATCH_SKM": 22.959999, "UPLAND_SKM": 536.90002, "ENDORHEIC": 0, "DIS_AV_CMS": 9.6560001, "ORD_STRA": 3, "ORD_CLAS": 1, "ORD_FLOW": 6, "HYBAS_L12": 4121156950.0, "Shape_Length": 0.040951779686522347 }, "geometry": { "type": "Polygon", "coordinates": [ ] } },
{ "type": "Feature", "properties": { "HYRIV_ID": 41401938, "NEXT_DOWN": 41401937, "MAIN_RIV": 41401373, "LENGTH_KM": 6.4, "DIST_DN_KM": 57.0, "DIST_UP_KM": 51.5, "CATCH_SKM": 18.5, "UPLAND_SKM": 400.10001, "ENDORHEIC": 0, "DIS_AV_CMS": 7.2319999, "ORD_STRA": 3, "ORD_CLAS": 1, "ORD_FLOW": 6, "HYBAS_L12": 4121156990.0, "Shape_Length": 0.057914562235849065 }, "geometry": { "type": "Polygon", "coordinates": [ ] } },
{ "type": "Feature", "properties": { "HYRIV_ID": 41401951, "NEXT_DOWN": 41401937, "MAIN_RIV": 41401373, "LENGTH_KM": 0.65, "DIST_DN_KM": 57.0, "DIST_UP_KM": 20.5, "CATCH_SKM": 0.21, "UPLAND_SKM": 113.8, "ENDORHEIC": 0, "DIS_AV_CMS": 2.05, "ORD_STRA": 2, "ORD_CLAS": 2, "ORD_FLOW": 6, "HYBAS_L12": 4121157000.0, "Shape_Length": 0.0058925565098021477 }, "geometry": { "type": "Polygon", "coordinates": [ ] } },
{ "type": "Feature", "properties": { "HYRIV_ID": 41401967, "NEXT_DOWN": 41401921, "MAIN_RIV": 41401373, "LENGTH_KM": 4.9400001, "DIST_DN_KM": 32.400002, "DIST_UP_KM": 9.4, "CATCH_SKM": 24.450001, "UPLAND_SKM": 24.4, "ENDORHEIC": 0, "DIS_AV_CMS": 0.39700001, "ORD_STRA": 1, "ORD_CLAS": 3, "ORD_FLOW": 7, "HYBAS_L12": 4121156900.0, "Shape_Length": 0.044761002862988182 }, "geometry": { "type": "Polygon", "coordinates": [ ] } },
{ "type": "Feature", "properties": { "HYRIV_ID": 41401968, "NEXT_DOWN": 41401817, "MAIN_RIV": 41401373, "LENGTH_KM": 4.7399998, "DIST_DN_KM": 71.199997, "DIST_UP_KM": 37.400002, "CATCH_SKM": 9.5699997, "UPLAND_SKM": 227.5, "ENDORHEIC": 0, "DIS_AV_CMS": 4.2810001, "ORD_STRA": 3, "ORD_CLAS": 1, "ORD_FLOW": 6, "HYBAS_L12": 4121601290.0, "Shape_Length": 0.042677669529616546 }, "geometry": { "type": "Polygon", "coordinates": [ ] } },
{ "type": "Feature", "properties": { "HYRIV_ID": 41401984, "NEXT_DOWN": 41401826, "MAIN_RIV": 41401373, "LENGTH_KM": 9.6599998, "DIST_DN_KM": 41.700001, "DIST_UP_KM": 26.0, "CATCH_SKM": 27.85, "UPLAND_SKM": 102.7, "ENDORHEIC": 0, "DIS_AV_CMS": 1.78, "ORD_STRA": 2, "ORD_CLAS": 2, "ORD_FLOW": 6, "HYBAS_L12": 4121156960.0, "Shape_Length": 0.087377344785391373 }, "geometry": { "type": "Polygon", "coordinates": [ ] } },
{ "type": "Feature", "properties": { "HYRIV_ID": 41402005, "NEXT_DOWN": 41401984, "MAIN_RIV": 41401373, "LENGTH_KM": 1.15, "DIST_DN_KM": 51.200001, "DIST_UP_KM": 5.6, "CATCH_SKM": 8.29, "UPLAND_SKM": 8.3, "ENDORHEIC": 0, "DIS_AV_CMS": 0.142, "ORD_STRA": 1, "ORD_CLAS": 3, "ORD_FLOW": 7, "HYBAS_L12": 4121156960.0, "Shape_Length": 0.010416666666571928 }, "geometry": { "type": "Polygon", "coordinates": [ ] } },
{ "type": "Feature", "properties": { "HYRIV_ID": 41402006, "NEXT_DOWN": 41401905, "MAIN_RIV": 41401373, "LENGTH_KM": 12.54, "DIST_DN_KM": 74.300003, "DIST_UP_KM": 16.6, "CATCH_SKM": 44.860001, "UPLAND_SKM": 44.900002, "ENDORHEIC": 0, "DIS_AV_CMS": 0.811, "ORD_STRA": 1, "ORD_CLAS": 2, "ORD_FLOW": 7, "HYBAS_L12": 4121601290.0, "Shape_Length": 0.11344967525580343 }, "geometry": { "type": "Polygon", "coordinates": [ ] } },
{ "type": "Feature", "properties": { "HYRIV_ID": 41402021, "NEXT_DOWN": 41401840, "MAIN_RIV": 41401373, "LENGTH_KM": 7.25, "DIST_DN_KM": 35.099998, "DIST_UP_KM": 13.5, "CATCH_SKM": 24.02, "UPLAND_SKM": 51.0, "ENDORHEIC": 0, "DIS_AV_CMS": 0.852, "ORD_STRA": 2, "ORD_CLAS": 2, "ORD_FLOW": 7, "HYBAS_L12": 4121156880.0, "Shape_Length": 0.065533008588974095 }, "geometry": { "type": "Polygon", "coordinates": [ ] } },
{ "type": "Feature", "properties": { "HYRIV_ID": 41402022, "NEXT_DOWN": 41402021, "MAIN_RIV": 41401373, "LENGTH_KM": 1.63, "DIST_DN_KM": 42.5, "DIST_UP_KM": 4.8, "CATCH_SKM": 10.21, "UPLAND_SKM": 10.2, "ENDORHEIC": 0, "DIS_AV_CMS": 0.173, "ORD_STRA": 1, "ORD_CLAS": 3, "ORD_FLOW": 7, "HYBAS_L12": 4121156880.0, "Shape_Length": 0.014731391274706341 }, "geometry": { "type": "Polygon", "coordinates": [ ] } },
{ "type": "Feature", "properties": { "HYRIV_ID": 41402037, "NEXT_DOWN": 41401984, "MAIN_RIV": 41401373, "LENGTH_KM": 1.58, "DIST_DN_KM": 51.3, "DIST_UP_KM": 16.3, "CATCH_SKM": 3.61, "UPLAND_SKM": 66.599998, "ENDORHEIC": 0, "DIS_AV_CMS": 1.181, "ORD_STRA": 2, "ORD_CLAS": 2, "ORD_FLOW": 6, "HYBAS_L12": 4121156960.0, "Shape_Length": 0.014225889843194079 }, "geometry": { "type": "Polygon", "coordinates": [ ] } },
{ "type": "Feature", "properties": { "HYRIV_ID": 41402076, "NEXT_DOWN": 41402021, "MAIN_RIV": 41401373, "LENGTH_KM": 2.75, "DIST_DN_KM": 42.5, "DIST_UP_KM": 6.0, "CATCH_SKM": 16.8, "UPLAND_SKM": 16.8, "ENDORHEIC": 0, "DIS_AV_CMS": 0.287, "ORD_STRA": 1, "ORD_CLAS": 2, "ORD_FLOW": 7, "HYBAS_L12": 4121156880.0, "Shape_Length": 0.02479061445124759 }, "geometry": { "type": "Polygon", "coordinates": [ ] } },
{ "type": "Feature", "properties": { "HYRIV_ID": 41402077, "NEXT_DOWN": 41402159, "MAIN_RIV": 41401373, "LENGTH_KM": 4.12, "DIST_DN_KM": 97.800003, "DIST_UP_KM": 7.6, "CATCH_SKM": 13.61, "UPLAND_SKM": 13.6, "ENDORHEIC": 0, "DIS_AV_CMS": 0.258, "ORD_STRA": 1, "ORD_CLAS": 2, "ORD_FLOW": 7, "HYBAS_L12": 4121601330.0, "Shape_Length": 0.037290614451257031 }, "geometry": { "type": "Polygon", "coordinates": [ ] } },
{ "type": "Feature", "properties": { "HYRIV_ID": 41402084, "NEXT_DOWN": 41401951, "MAIN_RIV": 41401373, "LENGTH_KM": 5.5700002, "DIST_DN_KM": 57.5, "DIST_UP_KM": 12.1, "CATCH_SKM": 16.8, "UPLAND_SKM": 42.099998, "ENDORHEIC": 0, "DIS_AV_CMS": 0.75800002, "ORD_STRA": 2, "ORD_CLAS": 3, "ORD_FLOW": 7, "HYBAS_L12": 4121157000.0, "Shape_Length": 0.05029611588271559 }, "geometry": { "type": "Polygon", "coordinates": [ ] } },
{ "type": "Feature", "properties": { "HYRIV_ID": 41402085, "NEXT_DOWN": 41402084, "MAIN_RIV": 41401373, "LENGTH_KM": 0.69, "DIST_DN_KM": 63.0, "DIST_UP_KM": 4.1, "CATCH_SKM": 8.9300003, "UPLAND_SKM": 8.9, "ENDORHEIC": 0, "DIS_AV_CMS": 0.162, "ORD_STRA": 1, "ORD_CLAS": 4, "ORD_FLOW": 7, "HYBAS_L12": 4121157000.0, "Shape_Length": 0.0062500000000795808 }, "geometry": { "type": "Polygon", "coordinates": [ ] } },
{ "type": "Feature", "properties": { "HYRIV_ID": 41402086, "NEXT_DOWN": 41402159, "MAIN_RIV": 41401373, "LENGTH_KM": 0.69, "DIST_DN_KM": 97.800003, "DIST_UP_KM": 4.7, "CATCH_SKM": 7.6599998, "UPLAND_SKM": 7.7, "ENDORHEIC": 0, "DIS_AV_CMS": 0.146, "ORD_STRA": 1, "ORD_CLAS": 3, "ORD_FLOW": 7, "HYBAS_L12": 4121601330.0, "Shape_Length": 0.0062499999999943157 }, "geometry": { "type": "Polygon", "coordinates": [ ] } },
{ "type": "Feature", "properties": { "HYRIV_ID": 41402120, "NEXT_DOWN": 41402037, "MAIN_RIV": 41401373, "LENGTH_KM": 3.48, "DIST_DN_KM": 52.700001, "DIST_UP_KM": 6.9, "CATCH_SKM": 14.88, "UPLAND_SKM": 14.9, "ENDORHEIC": 0, "DIS_AV_CMS": 0.26, "ORD_STRA": 1, "ORD_CLAS": 3, "ORD_FLOW": 7, "HYBAS_L12": 4121156960.0, "Shape_Length": 0.031398057941315935 }, "geometry": { "type": "Polygon", "coordinates": [ ] } },
{ "type": "Feature", "properties": { "HYRIV_ID": 41402121, "NEXT_DOWN": 41402140, "MAIN_RIV": 41401373, "LENGTH_KM": 5.71, "DIST_DN_KM": 90.900002, "DIST_UP_KM": 8.9, "CATCH_SKM": 26.15, "UPLAND_SKM": 26.200001, "ENDORHEIC": 0, "DIS_AV_CMS": 0.487, "ORD_STRA": 1, "ORD_CLAS": 2, "ORD_FLOW": 7, "HYBAS_L12": 4121601330.0, "Shape_Length": 0.051664562235840122 }, "geometry": { "type": "Polygon", "coordinates": [ ] } },
{ "type": "Feature", "properties": { "HYRIV_ID": 41402138, "NEXT_DOWN": 41402037, "MAIN_RIV": 41401373, "LENGTH_KM": 3.81, "DIST_DN_KM": 52.900002, "DIST_UP_KM": 14.7, "CATCH_SKM": 9.9899998, "UPLAND_SKM": 48.099998, "ENDORHEIC": 0, "DIS_AV_CMS": 0.86, "ORD_STRA": 2, "ORD_CLAS": 2, "ORD_FLOW": 7, "HYBAS_L12": 4121156960.0, "Shape_Length": 0.034344336196357683 }, "geometry": { "type": "Polygon", "coordinates": [ ] } },
{ "type": "Feature", "properties": { "HYRIV_ID": 41402139, "NEXT_DOWN": 41402138, "MAIN_RIV": 41401373, "LENGTH_KM": 1.61, "DIST_DN_KM": 56.5, "DIST_UP_KM": 4.4, "CATCH_SKM": 6.5900002, "UPLAND_SKM": 6.6, "ENDORHEIC": 0, "DIS_AV_CMS": 0.117, "ORD_STRA": 1, "ORD_CLAS": 3, "ORD_FLOW": 7, "HYBAS_L12": 4121156960.0, "Shape_Length": 0.014583333333291648 }, "geometry": { "type": "Polygon", "coordinates": [ ] } },
{ "type": "Feature", "properties": { "HYRIV_ID": 41402140, "NEXT_DOWN": 41401968, "MAIN_RIV": 41401373, "LENGTH_KM": 14.76, "DIST_DN_KM": 76.099998, "DIST_UP_KM": 32.400002, "CATCH_SKM": 42.52, "UPLAND_SKM": 178.8, "ENDORHEIC": 0, "DIS_AV_CMS": 3.388, "ORD_STRA": 3, "ORD_CLAS": 1, "ORD_FLOW": 6, "HYBAS_L12": 4121601290.0, "Shape_Length": 0.13350679400133558 }, "geometry": { "type": "Polygon", "coordinates": [ ] } },
{ "type": "Feature", "properties": { "HYRIV_ID": 41402157, "NEXT_DOWN": 41401921, "MAIN_RIV": 41401373, "LENGTH_KM": 10.98, "DIST_DN_KM": 32.400002, "DIST_UP_KM": 16.4, "CATCH_SKM": 52.3, "UPLAND_SKM": 52.3, "ENDORHEIC": 0, "DIS_AV_CMS": 0.85799998, "ORD_STRA": 1, "ORD_CLAS": 2, "ORD_FLOW": 7, "HYBAS_L12": 4121156900.0, "Shape_Length": 0.099223785412511922 }, "geometry": { "type": "Polygon", "coordinates": [ ] } },
{ "type": "Feature", "properties": { "HYRIV_ID": 41402158, "NEXT_DOWN": 41402140, "MAIN_RIV": 41401373, "LENGTH_KM": 1.3, "DIST_DN_KM": 90.900002, "DIST_UP_KM": 17.700001, "CATCH_SKM": 1.7, "UPLAND_SKM": 110.1, "ENDORHEIC": 0, "DIS_AV_CMS": 2.131, "ORD_STRA": 3, "ORD_CLAS": 1, "ORD_FLOW": 6, "HYBAS_L12": 4121601330.0, "Shape_Length": 0.011785113019795219 }, "geometry": { "type": "Polygon", "coordinates": [ ] } },
{ "type": "Feature", "properties": { "HYRIV_ID": 41402159, "NEXT_DOWN": 41402158, "MAIN_RIV": 41401373, "LENGTH_KM": 5.83, "DIST_DN_KM": 92.199997, "DIST_UP_KM": 13.2, "CATCH_SKM": 12.33, "UPLAND_SKM": 33.599998, "ENDORHEIC": 0, "DIS_AV_CMS": 0.63800001, "ORD_STRA": 2, "ORD_CLAS": 2, "ORD_FLOW": 7, "HYBAS_L12": 4121601330.0, "Shape_Length": 0.052736892706202868 }, "geometry": { "type": "Polygon", "coordinates": [ ] } },
{ "type": "Feature", "properties": { "HYRIV_ID": 41402173, "NEXT_DOWN": 41402084, "MAIN_RIV": 41401373, "LENGTH_KM": 3.29, "DIST_DN_KM": 63.0, "DIST_UP_KM": 6.5, "CATCH_SKM": 16.370001, "UPLAND_SKM": 16.4, "ENDORHEIC": 0, "DIS_AV_CMS": 0.3, "ORD_STRA": 1, "ORD_CLAS": 3, "ORD_FLOW": 7, "HYBAS_L12": 4121157000.0, "Shape_Length": 0.029672168098216857 }, "geometry": { "type": "Polygon", "coordinates": [ ] } },
{ "type": "Feature", "properties": { "HYRIV_ID": 41402218, "NEXT_DOWN": 41401951, "MAIN_RIV": 41401373, "LENGTH_KM": 17.540001, "DIST_DN_KM": 57.400002, "DIST_UP_KM": 20.0, "CATCH_SKM": 71.440002, "UPLAND_SKM": 71.400002, "ENDORHEIC": 0, "DIS_AV_CMS": 1.289, "ORD_STRA": 1, "ORD_CLAS": 2, "ORD_FLOW": 6, "HYBAS_L12": 4121157000.0, "Shape_Length": 0.1585681216088177 }, "geometry": { "type": "Polygon", "coordinates": [ ] } },
{ "type": "Feature", "properties": { "HYRIV_ID": 41402219, "NEXT_DOWN": 41402158, "MAIN_RIV": 41401373, "LENGTH_KM": 2.04, "DIST_DN_KM": 92.0, "DIST_UP_KM": 16.6, "CATCH_SKM": 3.4, "UPLAND_SKM": 74.900002, "ENDORHEIC": 0, "DIS_AV_CMS": 1.461, "ORD_STRA": 2, "ORD_CLAS": 1, "ORD_FLOW": 6, "HYBAS_L12": 4121601330.0, "Shape_Length": 0.018392556509899589 }, "geometry": { "type": "Polygon", "coordinates": [ ] } },
{ "type": "Feature", "properties": { "HYRIV_ID": 41402253, "NEXT_DOWN": 41402138, "MAIN_RIV": 41401373, "LENGTH_KM": 7.5500002, "DIST_DN_KM": 56.700001, "DIST_UP_KM": 10.9, "CATCH_SKM": 31.469999, "UPLAND_SKM": 31.5, "ENDORHEIC": 0, "DIS_AV_CMS": 0.57, "ORD_STRA": 1, "ORD_CLAS": 2, "ORD_FLOW": 7, "HYBAS_L12": 4121156960.0, "Shape_Length": 0.068331228902528379 }, "geometry": { "type": "Polygon", "coordinates": [ ] } },
{ "type": "Feature", "properties": { "HYRIV_ID": 41402263, "NEXT_DOWN": 41401968, "MAIN_RIV": 41401373, "LENGTH_KM": 14.53, "DIST_DN_KM": 76.099998, "DIST_UP_KM": 17.8, "CATCH_SKM": 39.130001, "UPLAND_SKM": 39.099998, "ENDORHEIC": 0, "DIS_AV_CMS": 0.73500001, "ORD_STRA": 1, "ORD_CLAS": 2, "ORD_FLOW": 7, "HYBAS_L12": 4121601290.0, "Shape_Length": 0.13127540272660912 }, "geometry": { "type": "Polygon", "coordinates": [ ] } },
{ "type": "Feature", "properties": { "HYRIV_ID": 41402264, "NEXT_DOWN": 41402219, "MAIN_RIV": 41401373, "LENGTH_KM": 2.87, "DIST_DN_KM": 94.0, "DIST_UP_KM": 14.5, "CATCH_SKM": 5.9499998, "UPLAND_SKM": 59.3, "ENDORHEIC": 0, "DIS_AV_CMS": 1.16, "ORD_STRA": 2, "ORD_CLAS": 1, "ORD_FLOW": 6, "HYBAS_L12": 4121601330.0, "Shape_Length": 0.026011002863033657 }, "geometry": { "type": "Polygon", "coordinates": [ ] } },
{ "type": "Feature", "properties": { "HYRIV_ID": 41402265, "NEXT_DOWN": 41402264, "MAIN_RIV": 41401373, "LENGTH_KM": 7.89, "DIST_DN_KM": 97.099998, "DIST_UP_KM": 10.5, "CATCH_SKM": 25.73, "UPLAND_SKM": 25.700001, "ENDORHEIC": 0, "DIS_AV_CMS": 0.49900001, "ORD_STRA": 1, "ORD_CLAS": 2, "ORD_FLOW": 7, "HYBAS_L12": 4121601330.0, "Shape_Length": 0.071486892706191699 }, "geometry": { "type": "Polygon", "coordinates": [ ] } },
{ "type": "Feature", "properties": { "HYRIV_ID": 41402294, "NEXT_DOWN": 41402219, "MAIN_RIV": 41401373, "LENGTH_KM": 3.12, "DIST_DN_KM": 94.199997, "DIST_UP_KM": 6.5, "CATCH_SKM": 12.12, "UPLAND_SKM": 12.1, "ENDORHEIC": 0, "DIS_AV_CMS": 0.23800001, "ORD_STRA": 1, "ORD_CLAS": 2, "ORD_FLOW": 7, "HYBAS_L12": 4121601330.0, "Shape_Length": 0.028094336196319011 }, "geometry": { "type": "Polygon", "coordinates": [ ] } },
{ "type": "Feature", "properties": { "HYRIV_ID": 41402295, "NEXT_DOWN": 41402327, "MAIN_RIV": 41401373, "LENGTH_KM": 0.69, "DIST_DN_KM": 102.9, "DIST_UP_KM": 4.9, "CATCH_SKM": 5.7399998, "UPLAND_SKM": 5.7, "ENDORHEIC": 0, "DIS_AV_CMS": 0.113, "ORD_STRA": 1, "ORD_CLAS": 2, "ORD_FLOW": 7, "HYBAS_L12": 4121601330.0, "Shape_Length": 0.0062499999999090505 }, "geometry": { "type": "Polygon", "coordinates": [ ] } },
{ "type": "Feature", "properties": { "HYRIV_ID": 41402311, "NEXT_DOWN": 41402327, "MAIN_RIV": 41401373, "LENGTH_KM": 2.72, "DIST_DN_KM": 103.1, "DIST_UP_KM": 5.4, "CATCH_SKM": 11.48, "UPLAND_SKM": 11.5, "ENDORHEIC": 0, "DIS_AV_CMS": 0.229, "ORD_STRA": 1, "ORD_CLAS": 1, "ORD_FLOW": 7, "HYBAS_L12": 4121601330.0, "Shape_Length": 0.02464255650986031 }, "geometry": { "type": "Polygon", "coordinates": [ ] } },
{ "type": "Feature", "properties": { "HYRIV_ID": 41402327, "NEXT_DOWN": 41402264, "MAIN_RIV": 41401373, "LENGTH_KM": 6.02, "DIST_DN_KM": 97.099998, "DIST_UP_KM": 11.5, "CATCH_SKM": 10.42, "UPLAND_SKM": 27.6, "ENDORHEIC": 0, "DIS_AV_CMS": 0.547, "ORD_STRA": 2, "ORD_CLAS": 1, "ORD_FLOW": 7, "HYBAS_L12": 4121601330.0, "Shape_Length": 0.054462782549432882 }, "geometry": { "type": "Polygon", "coordinates": [ ] } }
]
}
