{
"type": "FeatureCollection",
"name": "main_river_41396507",
"crs": { "type": "name", "properties": { "name": "urn:ogc:def:crs:OGC:1.3:CRS84" } },
"features": [
{ "type": "Feature", "properties": { "HYRIV_ID": 41396507, "NEXT_DOWN": 0, "MAIN_RIV": 41396507, "LENGTH_KM": 1.63, "DIST_DN_KM": 0.0, "DIST_UP_KM": 6.4, "CATCH_SKM": 15.05, "UPLAND_SKM": 13.8, "ENDORHEIC": 0, "DIS_AV_CMS": 0.118, "ORD_STRA": 1, "ORD_CLAS": 1, "ORD_FLOW": 7, "HYBAS_L12": 4120049310.0, "Shape_Length": 0.01473139127471639 }, "geometry": { "type": "MultiLineString", "coordinates": [ [ [ 79.862499999999642, 9.045833333333199 ], [ 79.872916666666328, 9.035416666666556 ] ] ] } }
]
}
