{
"type": "FeatureCollection",
"name": "main_river_41402969",
"crs": { "type": "name", "properties": { "name": "urn:ogc:def:crs:OGC:1.3:CRS84" } },
"features": [
{ "type": "Feature", "properties": { "HYRIV_ID": 41402969, "NEXT_DOWN": 0, "MAIN_RIV": 41402969, "LENGTH_KM": 4.87, "DIST_DN_KM": 0.0, "DIST_UP_KM": 7.7, "CATCH_SKM": 13.83, "UPLAND_SKM": 13.6, "ENDORHEIC": 0, "DIS_AV_CMS": 0.32100001, "ORD_STRA": 1, "ORD_CLAS": 1, "ORD_FLOW": 7, "HYBAS_L12": 4120049790.0, "Shape_Length": 0.044046115882767065 }, "geometry": { "type": "MultiLineString", "coordinates": [ [ [ 81.633333333332956, 7.660416666666528 ], [ 81.639583333332922, 7.660416666666528 ], [ 81.643749999999699, 7.664583333333191 ], [ 81.643749999999699, 7.668749999999896 ], [ 81.660416666666293, 7.685416666666519 ], [ 81.664583333332956, 7.685416666666519 ] ] ] } }
]
}
