{
"type": "FeatureCollection",
"name": "main_river_41409863",
"crs": { "type": "name", "properties": { "name": "urn:ogc:def:crs:OGC:1.3:CRS84" } },
"features": [
{ "type": "Feature", "properties": { "HYRIV_ID": 41409771, "NEXT_DOWN": 41409863, "MAIN_RIV": 41409863, "LENGTH_KM": 1.4400001, "DIST_DN_KM": 2.7, "DIST_UP_KM": 4.7, "CATCH_SKM": 9.6099997, "UPLAND_SKM": 9.6, "ENDORHEIC": 0, "DIS_AV_CMS": 0.29100001, "ORD_STRA": 1, "ORD_CLAS": 3, "ORD_FLOW": 7, "HYBAS_L12": 4120050100.0, "Shape_Length": 0.013005501431416343 }, "geometry": { "type": "Polygon", "coordinates": [ ] } },
{ "type": "Feature", "properties": { "HYRIV_ID": 41409772, "NEXT_DOWN": 41409863, "MAIN_RIV": 41409863, "LENGTH_KM": 3.86, "DIST_DN_KM": 2.9, "DIST_UP_KM": 6.2, "CATCH_SKM": 7.2600002, "UPLAND_SKM": 7.3, "ENDORHEIC": 0, "DIS_AV_CMS": 0.219, "ORD_STRA": 1, "ORD_CLAS": 2, "ORD_FLOW": 7, "HYBAS_L12": 4120050100.0, "Shape_Length": 0.034849837627879993 }, "geometry": { "type": "Polygon", "coordinates": [ ] } },
{ "type": "Feature", "properties": { "HYRIV_ID": 41409863, "NEXT_DOWN": 0, "MAIN_RIV": 41409863, "LENGTH_KM": 2.61, "DIST_DN_KM": 0.0, "DIST_UP_KM": 8.8, "CATCH_SKM": 3.6300001, "UPLAND_SKM": 20.5, "ENDORHEIC": 0, "DIS_AV_CMS": 0.61799997, "ORD_STRA": 2, "ORD_CLAS": 2, "ORD_FLOW": 7, "HYBAS_L12": 4120050100.0, "Shape_Length": 0.023570226039590438 }, "geometry": { "type": "Polygon", "coordinates": [ ] } }
]
}
