{
"type": "FeatureCollection",
"name": "main_river_41402604",
"crs": { "type": "name", "properties": { "name": "urn:ogc:def:crs:OGC:1.3:CRS84" } },
"features": [
{ "type": "Feature", "properties": { "HYRIV_ID": 41402603, "NEXT_DOWN": 41402604, "MAIN_RIV": 41402604, "LENGTH_KM": 0.98, "DIST_DN_KM": 6.4, "DIST_UP_KM": 4.4, "CATCH_SKM": 5.7399998, "UPLAND_SKM": 5.7, "ENDORHEIC": 0, "DIS_AV_CMS": 0.133, "ORD_STRA": 1, "ORD_CLAS": 2, "ORD_FLOW": 7, "HYBAS_L12": 4120049760.0, "Shape_Length": 0.0088388347647936592 }, "geometry": { "type": "MultiLineString", "coordinates": [ [ [ 81.53333333333299, 7.758333333333219 ], [ 81.539583333332956, 7.764583333333199 ] ] ] } },
{ "type": "Feature", "properties": { "HYRIV_ID": 41402604, "NEXT_DOWN": 0, "MAIN_RIV": 41402604, "LENGTH_KM": 6.0900002, "DIST_DN_KM": 0.0, "DIST_UP_KM": 85.800003, "CATCH_SKM": 27.65, "UPLAND_SKM": 1337.1, "ENDORHEIC": 0, "DIS_AV_CMS": 29.650999, "ORD_STRA": 4, "ORD_CLAS": 1, "ORD_FLOW": 5, "HYBAS_L12": 4120049760.0, "Shape_Length": 0.0551776695296603 }, "geometry": { "type": "MultiLineString", "coordinates": [ [ [ 81.539583333332956, 7.764583333333199 ], [ 81.556249999999608, 7.764583333333199 ], [ 81.560416666666271, 7.768749999999862 ], [ 81.577083333332979, 7.768749999999862 ], [ 81.581249999999642, 7.764583333333199 ], [ 81.585416666666305, 7.764583333333199 ], [ 81.589583333332968, 7.760416666666551 ] ] ] } },
{ "type": "Feature", "properties": { "HYRIV_ID": 41402629, "NEXT_DOWN": 41402630, "MAIN_RIV": 41402604, "LENGTH_KM": 3.76, "DIST_DN_KM": 11.4, "DIST_UP_KM": 5.3, "CATCH_SKM": 17.440001, "UPLAND_SKM": 17.4, "ENDORHEIC": 0, "DIS_AV_CMS": 0.398, "ORD_STRA": 1, "ORD_CLAS": 2, "ORD_FLOW": 7, "HYBAS_L12": 4120049760.0, "Shape_Length": 0.033986892706222363 }, "geometry": { "type": "MultiLineString", "coordinates": [ [ [ 81.474999999999596, 7.764583333333199 ], [ 81.481249999999676, 7.764583333333199 ], [ 81.485416666666339, 7.768749999999862 ], [ 81.497916666666271, 7.756249999999888 ], [ 81.497916666666271, 7.752083333333225 ] ] ] } },
{ "type": "Feature", "properties": { "HYRIV_ID": 41402630, "NEXT_DOWN": 41402631, "MAIN_RIV": 41402604, "LENGTH_KM": 0.92, "DIST_DN_KM": 10.5, "DIST_UP_KM": 75.599998, "CATCH_SKM": 1.49, "UPLAND_SKM": 1274.5, "ENDORHEIC": 0, "DIS_AV_CMS": 28.895, "ORD_STRA": 4, "ORD_CLAS": 1, "ORD_FLOW": 5, "HYBAS_L12": 4120049760.0, "Shape_Length": 0.0083333333333257542 }, "geometry": { "type": "MultiLineString", "coordinates": [ [ [ 81.497916666666271, 7.752083333333225 ], [ 81.506249999999596, 7.752083333333225 ] ] ] } },
{ "type": "Feature", "properties": { "HYRIV_ID": 41402631, "NEXT_DOWN": 41402604, "MAIN_RIV": 41402604, "LENGTH_KM": 4.25, "DIST_DN_KM": 6.2, "DIST_UP_KM": 79.900002, "CATCH_SKM": 12.76, "UPLAND_SKM": 1304.1, "ENDORHEIC": 0, "DIS_AV_CMS": 29.302999, "ORD_STRA": 4, "ORD_CLAS": 1, "ORD_FLOW": 5, "HYBAS_L12": 4120049760.0, "Shape_Length": 0.038511002863042085 }, "geometry": { "type": "MultiLineString", "coordinates": [ [ [ 81.506249999999596, 7.752083333333225 ], [ 81.510416666666259, 7.756249999999888 ], [ 81.518749999999756, 7.756249999999888 ], [ 81.527083333332968, 7.764583333333199 ], [ 81.539583333332956, 7.764583333333199 ] ] ] } },
{ "type": "Feature", "properties": { "HYRIV_ID": 41402706, "NEXT_DOWN": 41402707, "MAIN_RIV": 41402604, "LENGTH_KM": 0.69, "DIST_DN_KM": 15.1, "DIST_UP_KM": 4.0, "CATCH_SKM": 4.6799998, "UPLAND_SKM": 4.7, "ENDORHEIC": 0, "DIS_AV_CMS": 0.107, "ORD_STRA": 1, "ORD_CLAS": 3, "ORD_FLOW": 7, "HYBAS_L12": 4120049760.0, "Shape_Length": 0.0062499999999801048 }, "geometry": { "type": "MultiLineString", "coordinates": [ [ [ 81.47291666666635, 7.737499999999876 ], [ 81.47291666666635, 7.731249999999896 ] ] ] } },
{ "type": "Feature", "properties": { "HYRIV_ID": 41402707, "NEXT_DOWN": 41402630, "MAIN_RIV": 41402604, "LENGTH_KM": 3.72, "DIST_DN_KM": 11.6, "DIST_UP_KM": 74.5, "CATCH_SKM": 13.83, "UPLAND_SKM": 1255.6, "ENDORHEIC": 0, "DIS_AV_CMS": 28.506001, "ORD_STRA": 4, "ORD_CLAS": 1, "ORD_FLOW": 5, "HYBAS_L12": 4120049760.0, "Shape_Length": 0.033629449216045416 }, "geometry": { "type": "MultiLineString", "coordinates": [ [ [ 81.47291666666635, 7.731249999999896 ], [ 81.477083333333013, 7.731249999999896 ], [ 81.497916666666271, 7.752083333333225 ] ] ] } },
{ "type": "Feature", "properties": { "HYRIV_ID": 41402724, "NEXT_DOWN": 41402725, "MAIN_RIV": 41402604, "LENGTH_KM": 2.0, "DIST_DN_KM": 17.8, "DIST_UP_KM": 3.8, "CATCH_SKM": 7.87, "UPLAND_SKM": 7.9, "ENDORHEIC": 0, "DIS_AV_CMS": 0.178, "ORD_STRA": 1, "ORD_CLAS": 3, "ORD_FLOW": 7, "HYBAS_L12": 4120049760.0, "Shape_Length": 0.018035113019779486 }, "geometry": { "type": "MultiLineString", "coordinates": [ [ [ 81.443749999999653, 7.741666666666539 ], [ 81.443749999999653, 7.735416666666545 ], [ 81.452083333332979, 7.727083333333191 ] ] ] } },
{ "type": "Feature", "properties": { "HYRIV_ID": 41402725, "NEXT_DOWN": 41402726, "MAIN_RIV": 41402604, "LENGTH_KM": 0.92, "DIST_DN_KM": 16.700001, "DIST_UP_KM": 18.6, "CATCH_SKM": 1.91, "UPLAND_SKM": 72.5, "ENDORHEIC": 0, "DIS_AV_CMS": 1.631, "ORD_STRA": 2, "ORD_CLAS": 2, "ORD_FLOW": 6, "HYBAS_L12": 4120049760.0, "Shape_Length": 0.0083333333333257542 }, "geometry": { "type": "MultiLineString", "coordinates": [ [ [ 81.452083333332979, 7.727083333333191 ], [ 81.460416666666305, 7.727083333333191 ] ] ] } },
{ "type": "Feature", "properties": { "HYRIV_ID": 41402726, "NEXT_DOWN": 41402707, "MAIN_RIV": 41402604, "LENGTH_KM": 1.5700001, "DIST_DN_KM": 15.1, "DIST_UP_KM": 71.0, "CATCH_SKM": 3.62, "UPLAND_SKM": 1237.1, "ENDORHEIC": 0, "DIS_AV_CMS": 28.135, "ORD_STRA": 4, "ORD_CLAS": 1, "ORD_FLOW": 5, "HYBAS_L12": 4120049760.0, "Shape_Length": 0.014225889843295279 }, "geometry": { "type": "MultiLineString", "coordinates": [ [ [ 81.460416666666305, 7.727083333333191 ], [ 81.464583333332968, 7.731249999999896 ], [ 81.47291666666635, 7.731249999999896 ] ] ] } },
{ "type": "Feature", "properties": { "HYRIV_ID": 41402756, "NEXT_DOWN": 41402757, "MAIN_RIV": 41402604, "LENGTH_KM": 3.3900001, "DIST_DN_KM": 21.3, "DIST_UP_KM": 6.0, "CATCH_SKM": 9.1499996, "UPLAND_SKM": 9.1, "ENDORHEIC": 0, "DIS_AV_CMS": 0.206, "ORD_STRA": 1, "ORD_CLAS": 3, "ORD_FLOW": 7, "HYBAS_L12": 4120049760.0, "Shape_Length": 0.030683170961204632 }, "geometry": { "type": "MultiLineString", "coordinates": [ [ [ 81.416666666666373, 7.737499999999876 ], [ 81.410416666666293, 7.731249999999896 ], [ 81.414583333332956, 7.727083333333191 ], [ 81.418749999999619, 7.727083333333191 ], [ 81.427083333332945, 7.718749999999879 ] ] ] } },
{ "type": "Feature", "properties": { "HYRIV_ID": 41402757, "NEXT_DOWN": 41402725, "MAIN_RIV": 41402604, "LENGTH_KM": 3.53, "DIST_DN_KM": 17.8, "DIST_UP_KM": 17.5, "CATCH_SKM": 6.1700001, "UPLAND_SKM": 62.8, "ENDORHEIC": 0, "DIS_AV_CMS": 1.41, "ORD_STRA": 2, "ORD_CLAS": 2, "ORD_FLOW": 6, "HYBAS_L12": 4120049760.0, "Shape_Length": 0.031903559372882598 }, "geometry": { "type": "MultiLineString", "coordinates": [ [ [ 81.427083333332945, 7.718749999999879 ], [ 81.431249999999608, 7.722916666666528 ], [ 81.435416666666271, 7.718749999999879 ], [ 81.43958333333299, 7.718749999999879 ], [ 81.443749999999653, 7.722916666666528 ], [ 81.447916666666316, 7.722916666666528 ], [ 81.452083333332979, 7.727083333333191 ] ] ] } },
{ "type": "Feature", "properties": { "HYRIV_ID": 41402770, "NEXT_DOWN": 41402726, "MAIN_RIV": 41402604, "LENGTH_KM": 1.58, "DIST_DN_KM": 16.9, "DIST_UP_KM": 69.199997, "CATCH_SKM": 3.83, "UPLAND_SKM": 1161.0, "ENDORHEIC": 0, "DIS_AV_CMS": 26.447001, "ORD_STRA": 4, "ORD_CLAS": 1, "ORD_FLOW": 5, "HYBAS_L12": 4120049760.0, "Shape_Length": 0.014225889843194079 }, "geometry": { "type": "MultiLineString", "coordinates": [ [ [ 81.456249999999642, 7.714583333333216 ], [ 81.456249999999642, 7.722916666666528 ], [ 81.460416666666305, 7.727083333333191 ] ] ] } },
{ "type": "Feature", "properties": { "HYRIV_ID": 41402779, "NEXT_DOWN": 41402780, "MAIN_RIV": 41402604, "LENGTH_KM": 4.4200001, "DIST_DN_KM": 22.6, "DIST_UP_KM": 6.9, "CATCH_SKM": 15.1, "UPLAND_SKM": 15.1, "ENDORHEIC": 0, "DIS_AV_CMS": 0.339, "ORD_STRA": 1, "ORD_CLAS": 3, "ORD_FLOW": 7, "HYBAS_L12": 4120049760.0, "Shape_Length": 0.039879449216059112 }, "geometry": { "type": "MultiLineString", "coordinates": [ [ [ 81.393749999999642, 7.737499999999876 ], [ 81.393749999999642, 7.731249999999896 ], [ 81.402083333332968, 7.722916666666528 ], [ 81.406249999999574, 7.722916666666528 ], [ 81.418749999999619, 7.710416666666553 ] ] ] } },
{ "type": "Feature", "properties": { "HYRIV_ID": 41402780, "NEXT_DOWN": 41402757, "MAIN_RIV": 41402604, "LENGTH_KM": 1.3, "DIST_DN_KM": 21.3, "DIST_UP_KM": 14.0, "CATCH_SKM": 3.1900001, "UPLAND_SKM": 47.400002, "ENDORHEIC": 0, "DIS_AV_CMS": 1.066, "ORD_STRA": 2, "ORD_CLAS": 2, "ORD_FLOW": 6, "HYBAS_L12": 4120049760.0, "Shape_Length": 0.011785113019765073 }, "geometry": { "type": "MultiLineString", "coordinates": [ [ [ 81.418749999999619, 7.710416666666553 ], [ 81.427083333332945, 7.718749999999879 ] ] ] } },
{ "type": "Feature", "properties": { "HYRIV_ID": 41402781, "NEXT_DOWN": 41402631, "MAIN_RIV": 41402604, "LENGTH_KM": 6.54, "DIST_DN_KM": 10.5, "DIST_UP_KM": 10.1, "CATCH_SKM": 16.8, "UPLAND_SKM": 16.8, "ENDORHEIC": 0, "DIS_AV_CMS": 0.385, "ORD_STRA": 1, "ORD_CLAS": 2, "ORD_FLOW": 7, "HYBAS_L12": 4120049760.0, "Shape_Length": 0.0589868927061847 }, "geometry": { "type": "MultiLineString", "coordinates": [ [ [ 81.497916666666271, 7.708333333333236 ], [ 81.497916666666271, 7.714583333333216 ], [ 81.502083333332934, 7.714583333333216 ], [ 81.506249999999596, 7.718749999999879 ], [ 81.510416666666259, 7.718749999999879 ], [ 81.514583333332922, 7.722916666666528 ], [ 81.514583333332922, 7.727083333333191 ], [ 81.510416666666259, 7.731249999999896 ], [ 81.510416666666259, 7.735416666666545 ], [ 81.506249999999596, 7.739583333333208 ], [ 81.506249999999596, 7.752083333333225 ] ] ] } },
{ "type": "Feature", "properties": { "HYRIV_ID": 41402833, "NEXT_DOWN": 41402780, "MAIN_RIV": 41402604, "LENGTH_KM": 9.8900003, "DIST_DN_KM": 22.4, "DIST_UP_KM": 12.9, "CATCH_SKM": 29.139999, "UPLAND_SKM": 29.1, "ENDORHEIC": 0, "DIS_AV_CMS": 0.65499997, "ORD_STRA": 1, "ORD_CLAS": 2, "ORD_FLOW": 7, "HYBAS_L12": 4120049760.0, "Shape_Length": 0.089312620177240495 }, "geometry": { "type": "MultiLineString", "coordinates": [ [ [ 81.362499999999642, 7.712499999999885 ], [ 81.372916666666271, 7.722916666666528 ], [ 81.377083333332934, 7.722916666666528 ], [ 81.377083333332934, 7.718749999999879 ], [ 81.385416666666259, 7.710416666666553 ], [ 81.389583333332922, 7.710416666666553 ], [ 81.393749999999642, 7.70625 ], [ 81.393749999999642, 7.702083333333199 ], [ 81.402083333332968, 7.693749999999888 ], [ 81.406249999999574, 7.697916666666536 ], [ 81.414583333332956, 7.697916666666536 ], [ 81.418749999999619, 7.702083333333199 ], [ 81.418749999999619, 7.710416666666553 ] ] ] } },
{ "type": "Feature", "properties": { "HYRIV_ID": 41402910, "NEXT_DOWN": 41402911, "MAIN_RIV": 41402604, "LENGTH_KM": 2.82, "DIST_DN_KM": 28.0, "DIST_UP_KM": 5.9, "CATCH_SKM": 9.1499996, "UPLAND_SKM": 9.1, "ENDORHEIC": 0, "DIS_AV_CMS": 0.207, "ORD_STRA": 1, "ORD_CLAS": 3, "ORD_FLOW": 7, "HYBAS_L12": 4121157410.0, "Shape_Length": 0.025505501431502011 }, "geometry": { "type": "MultiLineString", "coordinates": [ [ [ 81.383333333332956, 7.683333333333188 ], [ 81.389583333332922, 7.677083333333208 ], [ 81.389583333332922, 7.672916666666545 ], [ 81.402083333332968, 7.672916666666545 ] ] ] } },
{ "type": "Feature", "properties": { "HYRIV_ID": 41402911, "NEXT_DOWN": 41402912, "MAIN_RIV": 41402604, "LENGTH_KM": 2.22, "DIST_DN_KM": 25.8, "DIST_UP_KM": 17.3, "CATCH_SKM": 3.83, "UPLAND_SKM": 90.0, "ENDORHEIC": 0, "DIS_AV_CMS": 2.02, "ORD_STRA": 2, "ORD_CLAS": 2, "ORD_FLOW": 6, "HYBAS_L12": 4121157410.0, "Shape_Length": 0.020118446353074179 }, "geometry": { "type": "MultiLineString", "coordinates": [ [ [ 81.402083333332968, 7.672916666666545 ], [ 81.406249999999574, 7.672916666666545 ], [ 81.410416666666293, 7.677083333333208 ], [ 81.414583333332956, 7.672916666666545 ], [ 81.418749999999619, 7.672916666666545 ] ] ] } },
{ "type": "Feature", "properties": { "HYRIV_ID": 41402912, "NEXT_DOWN": 41402770, "MAIN_RIV": 41402604, "LENGTH_KM": 7.5300002, "DIST_DN_KM": 18.3, "DIST_UP_KM": 24.9, "CATCH_SKM": 13.62, "UPLAND_SKM": 111.7, "ENDORHEIC": 0, "DIS_AV_CMS": 2.506, "ORD_STRA": 2, "ORD_CLAS": 2, "ORD_FLOW": 6, "HYBAS_L12": 4121157410.0, "Shape_Length": 0.067973785412501153 }, "geometry": { "type": "MultiLineString", "coordinates": [ [ [ 81.418749999999619, 7.672916666666545 ], [ 81.422916666666282, 7.672916666666545 ], [ 81.431249999999608, 7.68125 ], [ 81.435416666666271, 7.677083333333208 ], [ 81.447916666666316, 7.689583333333225 ], [ 81.447916666666316, 7.702083333333199 ], [ 81.456249999999642, 7.710416666666553 ], [ 81.456249999999642, 7.714583333333216 ] ] ] } },
{ "type": "Feature", "properties": { "HYRIV_ID": 41402913, "NEXT_DOWN": 41402770, "MAIN_RIV": 41402604, "LENGTH_KM": 5.0100002, "DIST_DN_KM": 18.5, "DIST_UP_KM": 67.599998, "CATCH_SKM": 11.91, "UPLAND_SKM": 1045.4, "ENDORHEIC": 0, "DIS_AV_CMS": 23.879, "ORD_STRA": 4, "ORD_CLAS": 1, "ORD_FLOW": 5, "HYBAS_L12": 4121157420.0, "Shape_Length": 0.045118446353110721 }, "geometry": { "type": "MultiLineString", "coordinates": [ [ [ 81.456249999999642, 7.672916666666545 ], [ 81.456249999999642, 7.697916666666536 ], [ 81.460416666666305, 7.702083333333199 ], [ 81.460416666666305, 7.710416666666553 ], [ 81.456249999999642, 7.714583333333216 ] ] ] } },
{ "type": "Feature", "properties": { "HYRIV_ID": 41402947, "NEXT_DOWN": 41402965, "MAIN_RIV": 41402604, "LENGTH_KM": 7.39, "DIST_DN_KM": 32.200001, "DIST_UP_KM": 10.0, "CATCH_SKM": 21.27, "UPLAND_SKM": 21.3, "ENDORHEIC": 0, "DIS_AV_CMS": 0.47600001, "ORD_STRA": 1, "ORD_CLAS": 3, "ORD_FLOW": 7, "HYBAS_L12": 4121157410.0, "Shape_Length": 0.066753397000781672 }, "geometry": { "type": "MultiLineString", "coordinates": [ [ [ 81.333333333332945, 7.712499999999885 ], [ 81.339583333333024, 7.70625 ], [ 81.339583333333024, 7.702083333333199 ], [ 81.343749999999574, 7.697916666666536 ], [ 81.34791666666635, 7.697916666666536 ], [ 81.352083333333013, 7.693749999999888 ], [ 81.352083333333013, 7.689583333333225 ], [ 81.360416666666396, 7.68125 ], [ 81.360416666666396, 7.677083333333208 ], [ 81.372916666666271, 7.664583333333191 ] ] ] } },
{ "type": "Feature", "properties": { "HYRIV_ID": 41402962, "NEXT_DOWN": 41402963, "MAIN_RIV": 41402604, "LENGTH_KM": 4.6799998, "DIST_DN_KM": 35.099998, "DIST_UP_KM": 8.0, "CATCH_SKM": 20.85, "UPLAND_SKM": 20.8, "ENDORHEIC": 0, "DIS_AV_CMS": 0.468, "ORD_STRA": 1, "ORD_CLAS": 2, "ORD_FLOW": 7, "HYBAS_L12": 4121157410.0, "Shape_Length": 0.042320226039670422 }, "geometry": { "type": "MultiLineString", "coordinates": [ [ [ 81.320833333332956, 7.677083333333208 ], [ 81.331249999999642, 7.677083333333208 ], [ 81.335416666666362, 7.68125 ], [ 81.343749999999574, 7.672916666666545 ], [ 81.343749999999574, 7.664583333333191 ], [ 81.34791666666635, 7.660416666666528 ] ] ] } },
{ "type": "Feature", "properties": { "HYRIV_ID": 41402963, "NEXT_DOWN": 41402964, "MAIN_RIV": 41402604, "LENGTH_KM": 0.46, "DIST_DN_KM": 34.5, "DIST_UP_KM": 8.6, "CATCH_SKM": 0.64, "UPLAND_SKM": 31.5, "ENDORHEIC": 0, "DIS_AV_CMS": 0.708, "ORD_STRA": 2, "ORD_CLAS": 2, "ORD_FLOW": 7, "HYBAS_L12": 4121157410.0, "Shape_Length": 0.0041666666666628771 }, "geometry": { "type": "MultiLineString", "coordinates": [ [ [ 81.34791666666635, 7.660416666666528 ], [ 81.352083333333013, 7.660416666666528 ] ] ] } },
{ "type": "Feature", "properties": { "HYRIV_ID": 41402964, "NEXT_DOWN": 41402965, "MAIN_RIV": 41402604, "LENGTH_KM": 2.49, "DIST_DN_KM": 32.200001, "DIST_UP_KM": 10.9, "CATCH_SKM": 5.96, "UPLAND_SKM": 46.8, "ENDORHEIC": 0, "DIS_AV_CMS": 1.053, "ORD_STRA": 2, "ORD_CLAS": 2, "ORD_FLOW": 6, "HYBAS_L12": 4121157410.0, "Shape_Length": 0.022559223176477201 }, "geometry": { "type": "MultiLineString", "coordinates": [ [ [ 81.352083333333013, 7.660416666666528 ], [ 81.368749999999608, 7.660416666666528 ], [ 81.372916666666271, 7.664583333333191 ] ] ] } },
{ "type": "Feature", "properties": { "HYRIV_ID": 41402965, "NEXT_DOWN": 41402911, "MAIN_RIV": 41402604, "LENGTH_KM": 3.99, "DIST_DN_KM": 28.200001, "DIST_UP_KM": 14.9, "CATCH_SKM": 8.9399996, "UPLAND_SKM": 77.0, "ENDORHEIC": 0, "DIS_AV_CMS": 1.729, "ORD_STRA": 2, "ORD_CLAS": 2, "ORD_FLOW": 6, "HYBAS_L12": 4121157410.0, "Shape_Length": 0.036070226039579073 }, "geometry": { "type": "MultiLineString", "coordinates": [ [ [ 81.372916666666271, 7.664583333333191 ], [ 81.381249999999596, 7.664583333333191 ], [ 81.385416666666259, 7.660416666666528 ], [ 81.389583333332922, 7.660416666666528 ], [ 81.402083333332968, 7.672916666666545 ] ] ] } },
{ "type": "Feature", "properties": { "HYRIV_ID": 41402966, "NEXT_DOWN": 41402912, "MAIN_RIV": 41402604, "LENGTH_KM": 2.09, "DIST_DN_KM": 25.8, "DIST_UP_KM": 4.6, "CATCH_SKM": 8.08, "UPLAND_SKM": 8.1, "ENDORHEIC": 0, "DIS_AV_CMS": 0.184, "ORD_STRA": 1, "ORD_CLAS": 3, "ORD_FLOW": 7, "HYBAS_L12": 4121157410.0, "Shape_Length": 0.018898057941365058 }, "geometry": { "type": "MultiLineString", "coordinates": [ [ [ 81.40833333333299, 7.658333333333196 ], [ 81.418749999999619, 7.668749999999896 ], [ 81.418749999999619, 7.672916666666545 ] ] ] } },
{ "type": "Feature", "properties": { "HYRIV_ID": 41402984, "NEXT_DOWN": 41402913, "MAIN_RIV": 41402604, "LENGTH_KM": 2.37, "DIST_DN_KM": 23.3, "DIST_UP_KM": 5.2, "CATCH_SKM": 10.85, "UPLAND_SKM": 10.8, "ENDORHEIC": 0, "DIS_AV_CMS": 0.249, "ORD_STRA": 1, "ORD_CLAS": 2, "ORD_FLOW": 7, "HYBAS_L12": 4121157420.0, "Shape_Length": 0.021338834764850906 }, "geometry": { "type": "MultiLineString", "coordinates": [ [ [ 81.449999999999619, 7.654166666666548 ], [ 81.456249999999642, 7.660416666666528 ], [ 81.456249999999642, 7.672916666666545 ] ] ] } },
{ "type": "Feature", "properties": { "HYRIV_ID": 41402985, "NEXT_DOWN": 41402913, "MAIN_RIV": 41402604, "LENGTH_KM": 3.35, "DIST_DN_KM": 23.5, "DIST_UP_KM": 62.599998, "CATCH_SKM": 7.4499998, "UPLAND_SKM": 1022.7, "ENDORHEIC": 0, "DIS_AV_CMS": 23.431, "ORD_STRA": 4, "ORD_CLAS": 1, "ORD_FLOW": 5, "HYBAS_L12": 4121157420.0, "Shape_Length": 0.030177669529674711 }, "geometry": { "type": "MultiLineString", "coordinates": [ [ [ 81.468749999999687, 7.656249999999879 ], [ 81.468749999999687, 7.668749999999896 ], [ 81.464583333332968, 7.672916666666545 ], [ 81.460416666666305, 7.668749999999896 ], [ 81.456249999999642, 7.672916666666545 ] ] ] } },
{ "type": "Feature", "properties": { "HYRIV_ID": 41402995, "NEXT_DOWN": 41402963, "MAIN_RIV": 41402604, "LENGTH_KM": 2.9100001, "DIST_DN_KM": 34.900002, "DIST_UP_KM": 5.6, "CATCH_SKM": 10.0, "UPLAND_SKM": 10.0, "ENDORHEIC": 0, "DIS_AV_CMS": 0.226, "ORD_STRA": 1, "ORD_CLAS": 3, "ORD_FLOW": 7, "HYBAS_L12": 4121157410.0, "Shape_Length": 0.026368446353177005 }, "geometry": { "type": "MultiLineString", "coordinates": [ [ [ 81.324999999999619, 7.652083333333216 ], [ 81.331249999999642, 7.652083333333216 ], [ 81.335416666666362, 7.656249999999879 ], [ 81.339583333333024, 7.656249999999879 ], [ 81.343749999999574, 7.660416666666528 ], [ 81.34791666666635, 7.660416666666528 ] ] ] } },
{ "type": "Feature", "properties": { "HYRIV_ID": 41403024, "NEXT_DOWN": 41402964, "MAIN_RIV": 41402604, "LENGTH_KM": 2.37, "DIST_DN_KM": 34.5, "DIST_UP_KM": 6.1, "CATCH_SKM": 9.3599997, "UPLAND_SKM": 9.4, "ENDORHEIC": 0, "DIS_AV_CMS": 0.212, "ORD_STRA": 1, "ORD_CLAS": 3, "ORD_FLOW": 7, "HYBAS_L12": 4121157410.0, "Shape_Length": 0.02133883476484847 }, "geometry": { "type": "MultiLineString", "coordinates": [ [ [ 81.345833333332934, 7.641666666666573 ], [ 81.352083333333013, 7.647916666666553 ], [ 81.352083333333013, 7.660416666666528 ] ] ] } },
{ "type": "Feature", "properties": { "HYRIV_ID": 41403106, "NEXT_DOWN": 41403107, "MAIN_RIV": 41402604, "LENGTH_KM": 2.74, "DIST_DN_KM": 32.400002, "DIST_UP_KM": 5.1, "CATCH_SKM": 6.5900002, "UPLAND_SKM": 6.6, "ENDORHEIC": 0, "DIS_AV_CMS": 0.151, "ORD_STRA": 1, "ORD_CLAS": 2, "ORD_FLOW": 7, "HYBAS_L12": 4121157420.0, "Shape_Length": 0.024790614451318648 }, "geometry": { "type": "MultiLineString", "coordinates": [ [ [ 81.420833333332922, 7.633333333333205 ], [ 81.435416666666271, 7.618749999999899 ], [ 81.43958333333299, 7.618749999999899 ] ] ] } },
{ "type": "Feature", "properties": { "HYRIV_ID": 41403107, "NEXT_DOWN": 41402985, "MAIN_RIV": 41402604, "LENGTH_KM": 5.7600002, "DIST_DN_KM": 26.6, "DIST_UP_KM": 59.5, "CATCH_SKM": 18.09, "UPLAND_SKM": 944.40002, "ENDORHEIC": 0, "DIS_AV_CMS": 21.666, "ORD_STRA": 4, "ORD_CLAS": 1, "ORD_FLOW": 5, "HYBAS_L12": 4121157420.0, "Shape_Length": 0.052022005725992811 }, "geometry": { "type": "MultiLineString", "coordinates": [ [ [ 81.43958333333299, 7.618749999999899 ], [ 81.443749999999653, 7.618749999999899 ], [ 81.464583333332968, 7.639583333333242 ], [ 81.464583333332968, 7.643749999999891 ], [ 81.468749999999687, 7.647916666666553 ], [ 81.468749999999687, 7.656249999999879 ] ] ] } },
{ "type": "Feature", "properties": { "HYRIV_ID": 41403124, "NEXT_DOWN": 41403125, "MAIN_RIV": 41402604, "LENGTH_KM": 1.35, "DIST_DN_KM": 36.900002, "DIST_UP_KM": 4.5, "CATCH_SKM": 7.23, "UPLAND_SKM": 7.2, "ENDORHEIC": 0, "DIS_AV_CMS": 0.16500001, "ORD_STRA": 1, "ORD_CLAS": 2, "ORD_FLOW": 7, "HYBAS_L12": 4121157420.0, "Shape_Length": 0.012142556509937143 }, "geometry": { "type": "MultiLineString", "coordinates": [ [ [ 81.397916666666248, 7.624999999999893 ], [ 81.397916666666248, 7.618749999999899 ], [ 81.402083333332968, 7.614583333333208 ] ] ] } },
{ "type": "Feature", "properties": { "HYRIV_ID": 41403125, "NEXT_DOWN": 41403126, "MAIN_RIV": 41402604, "LENGTH_KM": 2.3, "DIST_DN_KM": 34.400002, "DIST_UP_KM": 51.700001, "CATCH_SKM": 4.4699998, "UPLAND_SKM": 873.70001, "ENDORHEIC": 0, "DIS_AV_CMS": 20.132, "ORD_STRA": 4, "ORD_CLAS": 1, "ORD_FLOW": 5, "HYBAS_L12": 4121157420.0, "Shape_Length": 0.020833333333314386 }, "geometry": { "type": "MultiLineString", "coordinates": [ [ [ 81.402083333332968, 7.614583333333208 ], [ 81.422916666666282, 7.614583333333208 ] ] ] } },
{ "type": "Feature", "properties": { "HYRIV_ID": 41403126, "NEXT_DOWN": 41403127, "MAIN_RIV": 41402604, "LENGTH_KM": 1.38, "DIST_DN_KM": 33.0, "DIST_UP_KM": 53.099998, "CATCH_SKM": 4.4699998, "UPLAND_SKM": 904.20001, "ENDORHEIC": 0, "DIS_AV_CMS": 20.813, "ORD_STRA": 4, "ORD_CLAS": 1, "ORD_FLOW": 5, "HYBAS_L12": 4121157420.0, "Shape_Length": 0.012499999999988631 }, "geometry": { "type": "MultiLineString", "coordinates": [ [ [ 81.422916666666282, 7.614583333333208 ], [ 81.435416666666271, 7.614583333333208 ] ] ] } },
{ "type": "Feature", "properties": { "HYRIV_ID": 41403127, "NEXT_DOWN": 41403107, "MAIN_RIV": 41402604, "LENGTH_KM": 0.65, "DIST_DN_KM": 32.599998, "DIST_UP_KM": 53.5, "CATCH_SKM": 0.85, "UPLAND_SKM": 919.70001, "ENDORHEIC": 0, "DIS_AV_CMS": 21.164, "ORD_STRA": 4, "ORD_CLAS": 1, "ORD_FLOW": 5, "HYBAS_L12": 4121157420.0, "Shape_Length": 0.0058925565099428286 }, "geometry": { "type": "MultiLineString", "coordinates": [ [ [ 81.435416666666271, 7.614583333333208 ], [ 81.43958333333299, 7.618749999999899 ] ] ] } },
{ "type": "Feature", "properties": { "HYRIV_ID": 41403169, "NEXT_DOWN": 41403204, "MAIN_RIV": 41402604, "LENGTH_KM": 0.98, "DIST_DN_KM": 41.900002, "DIST_UP_KM": 3.8, "CATCH_SKM": 6.1700001, "UPLAND_SKM": 6.2, "ENDORHEIC": 0, "DIS_AV_CMS": 0.14, "ORD_STRA": 1, "ORD_CLAS": 3, "ORD_FLOW": 7, "HYBAS_L12": 4121157630.0, "Shape_Length": 0.0088388347647936592 }, "geometry": { "type": "MultiLineString", "coordinates": [ [ [ 81.362499999999642, 7.608333333333213 ], [ 81.368749999999608, 7.602083333333233 ] ] ] } },
{ "type": "Feature", "properties": { "HYRIV_ID": 41403170, "NEXT_DOWN": 41403171, "MAIN_RIV": 41402604, "LENGTH_KM": 1.4400001, "DIST_DN_KM": 38.700001, "DIST_UP_KM": 4.4, "CATCH_SKM": 5.96, "UPLAND_SKM": 6.0, "ENDORHEIC": 0, "DIS_AV_CMS": 0.13600001, "ORD_STRA": 1, "ORD_CLAS": 2, "ORD_FLOW": 7, "HYBAS_L12": 4121157420.0, "Shape_Length": 0.013005501431482519 }, "geometry": { "type": "MultiLineString", "coordinates": [ [ [ 81.383333333332956, 7.6125 ], [ 81.389583333332922, 7.606249999999882 ], [ 81.389583333332922, 7.602083333333233 ] ] ] } },
{ "type": "Feature", "properties": { "HYRIV_ID": 41403171, "NEXT_DOWN": 41403125, "MAIN_RIV": 41402604, "LENGTH_KM": 1.96, "DIST_DN_KM": 36.900002, "DIST_UP_KM": 49.200001, "CATCH_SKM": 7.87, "UPLAND_SKM": 862.0, "ENDORHEIC": 0, "DIS_AV_CMS": 19.896, "ORD_STRA": 4, "ORD_CLAS": 1, "ORD_FLOW": 5, "HYBAS_L12": 4121157420.0, "Shape_Length": 0.017677669529677757 }, "geometry": { "type": "MultiLineString", "coordinates": [ [ [ 81.389583333332922, 7.602083333333233 ], [ 81.402083333332968, 7.614583333333208 ] ] ] } },
{ "type": "Feature", "properties": { "HYRIV_ID": 41403183, "NEXT_DOWN": 41403171, "MAIN_RIV": 41402604, "LENGTH_KM": 0.65, "DIST_DN_KM": 38.900002, "DIST_UP_KM": 47.200001, "CATCH_SKM": 0.43, "UPLAND_SKM": 848.20001, "ENDORHEIC": 0, "DIS_AV_CMS": 19.598, "ORD_STRA": 4, "ORD_CLAS": 1, "ORD_FLOW": 5, "HYBAS_L12": 4121157420.0, "Shape_Length": 0.0058925565099126826 }, "geometry": { "type": "MultiLineString", "coordinates": [ [ [ 81.385416666666259, 7.597916666666528 ], [ 81.389583333332922, 7.602083333333233 ] ] ] } },
{ "type": "Feature", "properties": { "HYRIV_ID": 41403202, "NEXT_DOWN": 41403203, "MAIN_RIV": 41402604, "LENGTH_KM": 4.4899998, "DIST_DN_KM": 44.0, "DIST_UP_KM": 8.6, "CATCH_SKM": 12.55, "UPLAND_SKM": 12.6, "ENDORHEIC": 0, "DIS_AV_CMS": 0.285, "ORD_STRA": 1, "ORD_CLAS": 3, "ORD_FLOW": 7, "HYBAS_L12": 4121157630.0, "Shape_Length": 0.040594336196407121 }, "geometry": { "type": "MultiLineString", "coordinates": [ [ [ 81.324999999999619, 7.614583333333208 ], [ 81.335416666666362, 7.614583333333208 ], [ 81.343749999999574, 7.606249999999882 ], [ 81.343749999999574, 7.597916666666528 ], [ 81.34791666666635, 7.593749999999865 ], [ 81.352083333333013, 7.593749999999865 ] ] ] } },
{ "type": "Feature", "properties": { "HYRIV_ID": 41403203, "NEXT_DOWN": 41403204, "MAIN_RIV": 41402604, "LENGTH_KM": 2.22, "DIST_DN_KM": 41.900002, "DIST_UP_KM": 37.3, "CATCH_SKM": 4.89, "UPLAND_SKM": 303.89999, "ENDORHEIC": 0, "DIS_AV_CMS": 6.9819999, "ORD_STRA": 3, "ORD_CLAS": 2, "ORD_FLOW": 6, "HYBAS_L12": 4121157630.0, "Shape_Length": 0.020118446353097428 }, "geometry": { "type": "MultiLineString", "coordinates": [ [ [ 81.352083333333013, 7.593749999999865 ], [ 81.360416666666396, 7.593749999999865 ], [ 81.368749999999608, 7.602083333333233 ] ] ] } },
{ "type": "Feature", "properties": { "HYRIV_ID": 41403204, "NEXT_DOWN": 41403183, "MAIN_RIV": 41402604, "LENGTH_KM": 2.4200001, "DIST_DN_KM": 39.3, "DIST_UP_KM": 39.900002, "CATCH_SKM": 3.62, "UPLAND_SKM": 313.70001, "ENDORHEIC": 0, "DIS_AV_CMS": 7.1960001, "ORD_STRA": 3, "ORD_CLAS": 2, "ORD_FLOW": 6, "HYBAS_L12": 4121157630.0, "Shape_Length": 0.021844336196340634 }, "geometry": { "type": "MultiLineString", "coordinates": [ [ [ 81.368749999999608, 7.602083333333233 ], [ 81.377083333332934, 7.593749999999865 ], [ 81.381249999999596, 7.597916666666528 ], [ 81.385416666666259, 7.597916666666528 ] ] ] } },
{ "type": "Feature", "properties": { "HYRIV_ID": 41403219, "NEXT_DOWN": 41403248, "MAIN_RIV": 41402604, "LENGTH_KM": 4.3200002, "DIST_DN_KM": 47.5, "DIST_UP_KM": 7.5, "CATCH_SKM": 11.7, "UPLAND_SKM": 11.7, "ENDORHEIC": 0, "DIS_AV_CMS": 0.265, "ORD_STRA": 1, "ORD_CLAS": 4, "ORD_FLOW": 7, "HYBAS_L12": 4121157630.0, "Shape_Length": 0.039016504294405639 }, "geometry": { "type": "MultiLineString", "coordinates": [ [ [ 81.308333333333081, 7.616666666666539 ], [ 81.31458333333299, 7.610416666666545 ], [ 81.318749999999653, 7.610416666666545 ], [ 81.331249999999642, 7.597916666666528 ], [ 81.331249999999642, 7.589583333333216 ] ] ] } },
{ "type": "Feature", "properties": { "HYRIV_ID": 41403220, "NEXT_DOWN": 41403127, "MAIN_RIV": 41402604, "LENGTH_KM": 3.6700001, "DIST_DN_KM": 33.200001, "DIST_UP_KM": 7.0, "CATCH_SKM": 14.68, "UPLAND_SKM": 14.7, "ENDORHEIC": 0, "DIS_AV_CMS": 0.339, "ORD_STRA": 1, "ORD_CLAS": 2, "ORD_FLOW": 7, "HYBAS_L12": 4121157420.0, "Shape_Length": 0.033123947784603494 }, "geometry": { "type": "MultiLineString", "coordinates": [ [ [ 81.449999999999619, 7.587499999999885 ], [ 81.443749999999653, 7.593749999999865 ], [ 81.443749999999653, 7.597916666666528 ], [ 81.43958333333299, 7.602083333333233 ], [ 81.43958333333299, 7.610416666666545 ], [ 81.435416666666271, 7.614583333333208 ] ] ] } },
{ "type": "Feature", "properties": { "HYRIV_ID": 41403235, "NEXT_DOWN": 41403248, "MAIN_RIV": 41402604, "LENGTH_KM": 7.9200001, "DIST_DN_KM": 47.700001, "DIST_UP_KM": 10.3, "CATCH_SKM": 28.940001, "UPLAND_SKM": 28.9, "ENDORHEIC": 0, "DIS_AV_CMS": 0.65700001, "ORD_STRA": 1, "ORD_CLAS": 3, "ORD_FLOW": 7, "HYBAS_L12": 4121157630.0, "Shape_Length": 0.07163495064758213 }, "geometry": { "type": "MultiLineString", "coordinates": [ [ [ 81.279166666666328, 7.608333333333213 ], [ 81.285416666666293, 7.602083333333233 ], [ 81.285416666666293, 7.597916666666528 ], [ 81.289583333332956, 7.597916666666528 ], [ 81.289583333332956, 7.593749999999865 ], [ 81.297916666666282, 7.585416666666553 ], [ 81.306249999999608, 7.585416666666553 ], [ 81.310416666666328, 7.589583333333216 ], [ 81.322916666666316, 7.589583333333216 ], [ 81.327083333332979, 7.585416666666553 ], [ 81.331249999999642, 7.589583333333216 ] ] ] } },
{ "type": "Feature", "properties": { "HYRIV_ID": 41403248, "NEXT_DOWN": 41403249, "MAIN_RIV": 41402604, "LENGTH_KM": 1.3, "DIST_DN_KM": 46.400002, "DIST_UP_KM": 11.6, "CATCH_SKM": 1.49, "UPLAND_SKM": 42.099998, "ENDORHEIC": 0, "DIS_AV_CMS": 0.95599997, "ORD_STRA": 2, "ORD_CLAS": 3, "ORD_FLOW": 7, "HYBAS_L12": 4121157630.0, "Shape_Length": 0.011785113019805267 }, "geometry": { "type": "MultiLineString", "coordinates": [ [ [ 81.331249999999642, 7.589583333333216 ], [ 81.339583333333024, 7.581249999999891 ] ] ] } },
{ "type": "Feature", "properties": { "HYRIV_ID": 41403249, "NEXT_DOWN": 41403203, "MAIN_RIV": 41402604, "LENGTH_KM": 2.23, "DIST_DN_KM": 44.0, "DIST_UP_KM": 35.3, "CATCH_SKM": 4.89, "UPLAND_SKM": 286.5, "ENDORHEIC": 0, "DIS_AV_CMS": 6.5939999, "ORD_STRA": 3, "ORD_CLAS": 2, "ORD_FLOW": 6, "HYBAS_L12": 4121157630.0, "Shape_Length": 0.020118446353109914 }, "geometry": { "type": "MultiLineString", "coordinates": [ [ [ 81.339583333333024, 7.581249999999891 ], [ 81.343749999999574, 7.585416666666553 ], [ 81.34791666666635, 7.585416666666553 ], [ 81.352083333333013, 7.589583333333216 ], [ 81.352083333333013, 7.593749999999865 ] ] ] } },
{ "type": "Feature", "properties": { "HYRIV_ID": 41403265, "NEXT_DOWN": 41403385, "MAIN_RIV": 41402604, "LENGTH_KM": 1.91, "DIST_DN_KM": 62.599998, "DIST_UP_KM": 4.3, "CATCH_SKM": 10.0, "UPLAND_SKM": 10.0, "ENDORHEIC": 0, "DIS_AV_CMS": 0.228, "ORD_STRA": 1, "ORD_CLAS": 3, "ORD_FLOW": 7, "HYBAS_L12": 4121157630.0, "Shape_Length": 0.017172168098065009 }, "geometry": { "type": "MultiLineString", "coordinates": [ [ [ 81.258333333333013, 7.591666666666534 ], [ 81.264583333332922, 7.585416666666553 ], [ 81.264583333332922, 7.577083333333242 ] ] ] } },
{ "type": "Feature", "properties": { "HYRIV_ID": 41403273, "NEXT_DOWN": 41403385, "MAIN_RIV": 41402604, "LENGTH_KM": 0.98, "DIST_DN_KM": 62.8, "DIST_UP_KM": 3.1, "CATCH_SKM": 4.89, "UPLAND_SKM": 4.9, "ENDORHEIC": 0, "DIS_AV_CMS": 0.112, "ORD_STRA": 1, "ORD_CLAS": 4, "ORD_FLOW": 7, "HYBAS_L12": 4121157630.0, "Shape_Length": 0.0088388347647936592 }, "geometry": { "type": "MultiLineString", "coordinates": [ [ [ 81.258333333333013, 7.570833333333205 ], [ 81.264583333332922, 7.577083333333242 ] ] ] } },
{ "type": "Feature", "properties": { "HYRIV_ID": 41403274, "NEXT_DOWN": 41403249, "MAIN_RIV": 41402604, "LENGTH_KM": 0.93, "DIST_DN_KM": 46.200001, "DIST_UP_KM": 33.099998, "CATCH_SKM": 1.49, "UPLAND_SKM": 239.39999, "ENDORHEIC": 0, "DIS_AV_CMS": 5.5339999, "ORD_STRA": 3, "ORD_CLAS": 2, "ORD_FLOW": 6, "HYBAS_L12": 4121157630.0, "Shape_Length": 0.0083333333333541759 }, "geometry": { "type": "MultiLineString", "coordinates": [ [ [ 81.339583333333024, 7.572916666666536 ], [ 81.339583333333024, 7.581249999999891 ] ] ] } },
{ "type": "Feature", "properties": { "HYRIV_ID": 41403292, "NEXT_DOWN": 41403274, "MAIN_RIV": 41402604, "LENGTH_KM": 1.8, "DIST_DN_KM": 47.3, "DIST_UP_KM": 4.7, "CATCH_SKM": 6.6, "UPLAND_SKM": 6.6, "ENDORHEIC": 0, "DIS_AV_CMS": 0.151, "ORD_STRA": 1, "ORD_CLAS": 3, "ORD_FLOW": 7, "HYBAS_L12": 4121157630.0, "Shape_Length": 0.016309223176624994 }, "geometry": { "type": "MultiLineString", "coordinates": [ [ [ 81.324999999999619, 7.568749999999874 ], [ 81.335416666666362, 7.568749999999874 ], [ 81.339583333333024, 7.572916666666536 ] ] ] } },
{ "type": "Feature", "properties": { "HYRIV_ID": 41403350, "NEXT_DOWN": 41403126, "MAIN_RIV": 41402604, "LENGTH_KM": 7.6599998, "DIST_DN_KM": 34.400002, "DIST_UP_KM": 11.0, "CATCH_SKM": 25.959999, "UPLAND_SKM": 26.0, "ENDORHEIC": 0, "DIS_AV_CMS": 0.597, "ORD_STRA": 1, "ORD_CLAS": 2, "ORD_FLOW": 7, "HYBAS_L12": 4121157420.0, "Shape_Length": 0.069046115882717626 }, "geometry": { "type": "MultiLineString", "coordinates": [ [ [ 81.402083333332968, 7.554166666666568 ], [ 81.402083333332968, 7.568749999999874 ], [ 81.418749999999619, 7.585416666666553 ], [ 81.418749999999619, 7.597916666666528 ], [ 81.422916666666282, 7.602083333333233 ], [ 81.422916666666282, 7.614583333333208 ] ] ] } },
{ "type": "Feature", "properties": { "HYRIV_ID": 41403385, "NEXT_DOWN": 41403478, "MAIN_RIV": 41402604, "LENGTH_KM": 4.46, "DIST_DN_KM": 58.200001, "DIST_UP_KM": 8.7, "CATCH_SKM": 12.34, "UPLAND_SKM": 27.200001, "ENDORHEIC": 0, "DIS_AV_CMS": 0.621, "ORD_STRA": 2, "ORD_CLAS": 3, "ORD_FLOW": 7, "HYBAS_L12": 4121157630.0, "Shape_Length": 0.040236892706266209 }, "geometry": { "type": "MultiLineString", "coordinates": [ [ [ 81.264583333332922, 7.577083333333242 ], [ 81.268749999999642, 7.572916666666536 ], [ 81.268749999999642, 7.568749999999874 ], [ 81.272916666666248, 7.564583333333225 ], [ 81.277083333332968, 7.564583333333225 ], [ 81.281249999999574, 7.560416666666519 ], [ 81.281249999999574, 7.556249999999899 ], [ 81.285416666666293, 7.552083333333208 ], [ 81.285416666666293, 7.547916666666545 ] ] ] } },
{ "type": "Feature", "properties": { "HYRIV_ID": 41403386, "NEXT_DOWN": 41402985, "MAIN_RIV": 41402604, "LENGTH_KM": 16.3, "DIST_DN_KM": 26.6, "DIST_UP_KM": 19.9, "CATCH_SKM": 70.849998, "UPLAND_SKM": 70.900002, "ENDORHEIC": 0, "DIS_AV_CMS": 1.638, "ORD_STRA": 1, "ORD_CLAS": 2, "ORD_FLOW": 6, "HYBAS_L12": 4121157420.0, "Shape_Length": 0.14707912447170951 }, "geometry": { "type": "MultiLineString", "coordinates": [ [ [ 81.454166666666282, 7.547916666666545 ], [ 81.460416666666305, 7.547916666666545 ], [ 81.460416666666305, 7.556249999999899 ], [ 81.464583333332968, 7.560416666666519 ], [ 81.464583333332968, 7.572916666666536 ], [ 81.481249999999676, 7.589583333333216 ], [ 81.485416666666339, 7.589583333333216 ], [ 81.497916666666271, 7.602083333333233 ], [ 81.493749999999721, 7.606249999999882 ], [ 81.493749999999721, 7.635416666666536 ], [ 81.47291666666635, 7.656249999999879 ], [ 81.468749999999687, 7.656249999999879 ] ] ] } },
{ "type": "Feature", "properties": { "HYRIV_ID": 41403420, "NEXT_DOWN": 41403478, "MAIN_RIV": 41402604, "LENGTH_KM": 1.99, "DIST_DN_KM": 58.400002, "DIST_UP_KM": 6.7, "CATCH_SKM": 12.98, "UPLAND_SKM": 13.0, "ENDORHEIC": 0, "DIS_AV_CMS": 0.299, "ORD_STRA": 1, "ORD_CLAS": 4, "ORD_FLOW": 7, "HYBAS_L12": 4121157630.0, "Shape_Length": 0.018035113019730965 }, "geometry": { "type": "MultiLineString", "coordinates": [ [ [ 81.270833333333002, 7.539583333333219 ], [ 81.277083333332968, 7.539583333333219 ], [ 81.285416666666293, 7.547916666666545 ] ] ] } },
{ "type": "Feature", "properties": { "HYRIV_ID": 41403435, "NEXT_DOWN": 41403183, "MAIN_RIV": 41402604, "LENGTH_KM": 8.7299995, "DIST_DN_KM": 39.3, "DIST_UP_KM": 46.8, "CATCH_SKM": 31.07, "UPLAND_SKM": 534.09998, "ENDORHEIC": 0, "DIS_AV_CMS": 12.399, "ORD_STRA": 3, "ORD_CLAS": 1, "ORD_FLOW": 5, "HYBAS_L12": 4121157650.0, "Shape_Length": 0.078747895568997084 }, "geometry": { "type": "MultiLineString", "coordinates": [ [ [ 81.368749999999608, 7.535416666666571 ], [ 81.368749999999608, 7.543749999999882 ], [ 81.360416666666396, 7.552083333333208 ], [ 81.360416666666396, 7.564583333333225 ], [ 81.372916666666271, 7.577083333333242 ], [ 81.377083333332934, 7.577083333333242 ], [ 81.381249999999596, 7.581249999999891 ], [ 81.381249999999596, 7.589583333333216 ], [ 81.385416666666259, 7.593749999999865 ], [ 81.385416666666259, 7.597916666666528 ] ] ] } },
{ "type": "Feature", "properties": { "HYRIV_ID": 41403461, "NEXT_DOWN": 41403462, "MAIN_RIV": 41402604, "LENGTH_KM": 2.75, "DIST_DN_KM": 49.400002, "DIST_UP_KM": 5.8, "CATCH_SKM": 7.4499998, "UPLAND_SKM": 7.4, "ENDORHEIC": 0, "DIS_AV_CMS": 0.17200001, "ORD_STRA": 1, "ORD_CLAS": 2, "ORD_FLOW": 7, "HYBAS_L12": 4121157770.0, "Shape_Length": 0.024790614451402484 }, "geometry": { "type": "MultiLineString", "coordinates": [ [ [ 81.345833333332934, 7.524999999999885 ], [ 81.356249999999676, 7.535416666666571 ], [ 81.360416666666396, 7.531249999999865 ], [ 81.360416666666396, 7.527083333333202 ] ] ] } },
{ "type": "Feature", "properties": { "HYRIV_ID": 41403462, "NEXT_DOWN": 41403435, "MAIN_RIV": 41402604, "LENGTH_KM": 1.3, "DIST_DN_KM": 48.200001, "DIST_UP_KM": 37.8, "CATCH_SKM": 1.7, "UPLAND_SKM": 303.10001, "ENDORHEIC": 0, "DIS_AV_CMS": 7.0970001, "ORD_STRA": 3, "ORD_CLAS": 1, "ORD_FLOW": 6, "HYBAS_L12": 4121157770.0, "Shape_Length": 0.01178511301971483 }, "geometry": { "type": "MultiLineString", "coordinates": [ [ [ 81.360416666666396, 7.527083333333202 ], [ 81.368749999999608, 7.535416666666571 ] ] ] } },
{ "type": "Feature", "properties": { "HYRIV_ID": 41403478, "NEXT_DOWN": 41403479, "MAIN_RIV": 41402604, "LENGTH_KM": 3.54, "DIST_DN_KM": 54.599998, "DIST_UP_KM": 12.3, "CATCH_SKM": 8.0900002, "UPLAND_SKM": 48.3, "ENDORHEIC": 0, "DIS_AV_CMS": 1.105, "ORD_STRA": 2, "ORD_CLAS": 3, "ORD_FLOW": 6, "HYBAS_L12": 4121157630.0, "Shape_Length": 0.031903559372857625 }, "geometry": { "type": "MultiLineString", "coordinates": [ [ [ 81.285416666666293, 7.547916666666545 ], [ 81.293749999999619, 7.539583333333219 ], [ 81.293749999999619, 7.535416666666571 ], [ 81.302083333332945, 7.527083333333202 ], [ 81.302083333332945, 7.522916666666553 ] ] ] } },
{ "type": "Feature", "properties": { "HYRIV_ID": 41403479, "NEXT_DOWN": 41403274, "MAIN_RIV": 41402604, "LENGTH_KM": 7.5300002, "DIST_DN_KM": 47.099998, "DIST_UP_KM": 32.099998, "CATCH_SKM": 20.219999, "UPLAND_SKM": 231.3, "ENDORHEIC": 0, "DIS_AV_CMS": 5.3520002, "ORD_STRA": 3, "ORD_CLAS": 2, "ORD_FLOW": 6, "HYBAS_L12": 4121157630.0, "Shape_Length": 0.067973785412491813 }, "geometry": { "type": "MultiLineString", "coordinates": [ [ [ 81.302083333332945, 7.522916666666553 ], [ 81.310416666666328, 7.531249999999865 ], [ 81.31458333333299, 7.531249999999865 ], [ 81.318749999999653, 7.535416666666571 ], [ 81.318749999999653, 7.539583333333219 ], [ 81.331249999999642, 7.552083333333208 ], [ 81.331249999999642, 7.556249999999899 ], [ 81.335416666666362, 7.560416666666519 ], [ 81.335416666666362, 7.564583333333225 ], [ 81.339583333333024, 7.568749999999874 ], [ 81.339583333333024, 7.572916666666536 ] ] ] } },
{ "type": "Feature", "properties": { "HYRIV_ID": 41403494, "NEXT_DOWN": 41403479, "MAIN_RIV": 41402604, "LENGTH_KM": 0.46, "DIST_DN_KM": 54.599998, "DIST_UP_KM": 24.6, "CATCH_SKM": 0.43, "UPLAND_SKM": 162.8, "ENDORHEIC": 0, "DIS_AV_CMS": 3.803, "ORD_STRA": 3, "ORD_CLAS": 2, "ORD_FLOW": 6, "HYBAS_L12": 4121601550.0, "Shape_Length": 0.0041666666666628771 }, "geometry": { "type": "MultiLineString", "coordinates": [ [ [ 81.302083333332945, 7.518749999999891 ], [ 81.302083333332945, 7.522916666666553 ] ] ] } },
{ "type": "Feature", "properties": { "HYRIV_ID": 41403510, "NEXT_DOWN": 41403435, "MAIN_RIV": 41402604, "LENGTH_KM": 3.07, "DIST_DN_KM": 48.200001, "DIST_UP_KM": 36.900002, "CATCH_SKM": 8.9399996, "UPLAND_SKM": 199.89999, "ENDORHEIC": 0, "DIS_AV_CMS": 4.6469998, "ORD_STRA": 2, "ORD_CLAS": 2, "ORD_FLOW": 6, "HYBAS_L12": 4121157780.0, "Shape_Length": 0.027736892706213122 }, "geometry": { "type": "MultiLineString", "coordinates": [ [ [ 81.385416666666259, 7.514583333333228 ], [ 81.372916666666271, 7.527083333333202 ], [ 81.372916666666271, 7.531249999999865 ], [ 81.368749999999608, 7.535416666666571 ] ] ] } },
{ "type": "Feature", "properties": { "HYRIV_ID": 41403511, "NEXT_DOWN": 41403510, "MAIN_RIV": 41402604, "LENGTH_KM": 4.3200002, "DIST_DN_KM": 51.3, "DIST_UP_KM": 6.7, "CATCH_SKM": 15.75, "UPLAND_SKM": 15.7, "ENDORHEIC": 0, "DIS_AV_CMS": 0.364, "ORD_STRA": 1, "ORD_CLAS": 3, "ORD_FLOW": 7, "HYBAS_L12": 4121157780.0, "Shape_Length": 0.039016504294500244 }, "geometry": { "type": "MultiLineString", "coordinates": [ [ [ 81.412499999999653, 7.516666666666559 ], [ 81.402083333332968, 7.527083333333202 ], [ 81.397916666666248, 7.522916666666553 ], [ 81.397916666666248, 7.518749999999891 ], [ 81.389583333332922, 7.518749999999891 ], [ 81.385416666666259, 7.514583333333228 ] ] ] } },
{ "type": "Feature", "properties": { "HYRIV_ID": 41403522, "NEXT_DOWN": 41403494, "MAIN_RIV": 41402604, "LENGTH_KM": 0.93, "DIST_DN_KM": 55.099998, "DIST_UP_KM": 8.7, "CATCH_SKM": 1.49, "UPLAND_SKM": 26.200001, "ENDORHEIC": 0, "DIS_AV_CMS": 0.60799998, "ORD_STRA": 2, "ORD_CLAS": 3, "ORD_FLOW": 7, "HYBAS_L12": 4121601550.0, "Shape_Length": 0.0083333333333115434 }, "geometry": { "type": "MultiLineString", "coordinates": [ [ [ 81.302083333332945, 7.510416666666579 ], [ 81.302083333332945, 7.518749999999891 ] ] ] } },
{ "type": "Feature", "properties": { "HYRIV_ID": 41403523, "NEXT_DOWN": 41403522, "MAIN_RIV": 41402604, "LENGTH_KM": 0.69, "DIST_DN_KM": 56.0, "DIST_UP_KM": 4.5, "CATCH_SKM": 5.3200002, "UPLAND_SKM": 5.3, "ENDORHEIC": 0, "DIS_AV_CMS": 0.123, "ORD_STRA": 1, "ORD_CLAS": 4, "ORD_FLOW": 7, "HYBAS_L12": 4121601550.0, "Shape_Length": 0.0062500000001364242 }, "geometry": { "type": "MultiLineString", "coordinates": [ [ [ 81.308333333333081, 7.510416666666579 ], [ 81.302083333332945, 7.510416666666579 ] ] ] } },
{ "type": "Feature", "properties": { "HYRIV_ID": 41403561, "NEXT_DOWN": 41403462, "MAIN_RIV": 41402604, "LENGTH_KM": 2.97, "DIST_DN_KM": 49.5, "DIST_UP_KM": 36.5, "CATCH_SKM": 7.2399998, "UPLAND_SKM": 294.0, "ENDORHEIC": 0, "DIS_AV_CMS": 6.8909998, "ORD_STRA": 3, "ORD_CLAS": 1, "ORD_FLOW": 6, "HYBAS_L12": 4121157770.0, "Shape_Length": 0.026725889843255489 }, "geometry": { "type": "MultiLineString", "coordinates": [ [ [ 81.356249999999676, 7.502083333333211 ], [ 81.356249999999676, 7.522916666666553 ], [ 81.360416666666396, 7.527083333333202 ] ] ] } },
{ "type": "Feature", "properties": { "HYRIV_ID": 41403584, "NEXT_DOWN": 41403598, "MAIN_RIV": 41402604, "LENGTH_KM": 4.04, "DIST_DN_KM": 62.400002, "DIST_UP_KM": 7.0, "CATCH_SKM": 15.32, "UPLAND_SKM": 15.3, "ENDORHEIC": 0, "DIS_AV_CMS": 0.354, "ORD_STRA": 1, "ORD_CLAS": 3, "ORD_FLOW": 7, "HYBAS_L12": 4121601550.0, "Shape_Length": 0.036427669529649938 }, "geometry": { "type": "MultiLineString", "coordinates": [ [ [ 81.235416666666396, 7.520833333333222 ], [ 81.235416666666396, 7.514583333333228 ], [ 81.239583333332945, 7.514583333333228 ], [ 81.247916666666271, 7.506249999999874 ], [ 81.247916666666271, 7.502083333333211 ], [ 81.252083333333047, 7.497916666666562 ], [ 81.252083333333047, 7.493749999999856 ] ] ] } },
{ "type": "Feature", "properties": { "HYRIV_ID": 41403598, "NEXT_DOWN": 41403599, "MAIN_RIV": 41402604, "LENGTH_KM": 0.65, "DIST_DN_KM": 62.0, "DIST_UP_KM": 7.4, "CATCH_SKM": 0.64, "UPLAND_SKM": 33.599998, "ENDORHEIC": 0, "DIS_AV_CMS": 0.783, "ORD_STRA": 2, "ORD_CLAS": 3, "ORD_FLOW": 7, "HYBAS_L12": 4121601550.0, "Shape_Length": 0.0058925565098021477 }, "geometry": { "type": "MultiLineString", "coordinates": [ [ [ 81.252083333333047, 7.493749999999856 ], [ 81.256249999999596, 7.489583333333194 ] ] ] } },
{ "type": "Feature", "properties": { "HYRIV_ID": 41403599, "NEXT_DOWN": 41403494, "MAIN_RIV": 41402604, "LENGTH_KM": 6.6700001, "DIST_DN_KM": 55.099998, "DIST_UP_KM": 24.200001, "CATCH_SKM": 18.940001, "UPLAND_SKM": 136.2, "ENDORHEIC": 0, "DIS_AV_CMS": 3.187, "ORD_STRA": 3, "ORD_CLAS": 2, "ORD_FLOW": 6, "HYBAS_L12": 4121601550.0, "Shape_Length": 0.060355339059398654 }, "geometry": { "type": "MultiLineString", "coordinates": [ [ [ 81.256249999999596, 7.489583333333194 ], [ 81.260416666666259, 7.493749999999856 ], [ 81.260416666666259, 7.497916666666562 ], [ 81.264583333332922, 7.502083333333211 ], [ 81.268749999999642, 7.502083333333211 ], [ 81.281249999999574, 7.514583333333228 ], [ 81.285416666666293, 7.514583333333228 ], [ 81.289583333332956, 7.518749999999891 ], [ 81.302083333332945, 7.518749999999891 ] ] ] } },
{ "type": "Feature", "properties": { "HYRIV_ID": 41403642, "NEXT_DOWN": 41403522, "MAIN_RIV": 41402604, "LENGTH_KM": 4.7, "DIST_DN_KM": 56.0, "DIST_UP_KM": 7.7, "CATCH_SKM": 19.370001, "UPLAND_SKM": 19.4, "ENDORHEIC": 0, "DIS_AV_CMS": 0.45100001, "ORD_STRA": 1, "ORD_CLAS": 3, "ORD_FLOW": 7, "HYBAS_L12": 4121601550.0, "Shape_Length": 0.04232022603956577 }, "geometry": { "type": "MultiLineString", "coordinates": [ [ [ 81.285416666666293, 7.474999999999888 ], [ 81.285416666666293, 7.485416666666545 ], [ 81.289583333332956, 7.489583333333194 ], [ 81.289583333332956, 7.493749999999856 ], [ 81.302083333332945, 7.506249999999874 ], [ 81.302083333332945, 7.510416666666579 ] ] ] } },
{ "type": "Feature", "properties": { "HYRIV_ID": 41403653, "NEXT_DOWN": 41403510, "MAIN_RIV": 41402604, "LENGTH_KM": 5.2, "DIST_DN_KM": 51.099998, "DIST_UP_KM": 34.0, "CATCH_SKM": 15.54, "UPLAND_SKM": 175.2, "ENDORHEIC": 0, "DIS_AV_CMS": 4.0830002, "ORD_STRA": 2, "ORD_CLAS": 2, "ORD_FLOW": 6, "HYBAS_L12": 4121157780.0, "Shape_Length": 0.046844336196307845 }, "geometry": { "type": "MultiLineString", "coordinates": [ [ [ 81.397916666666248, 7.472916666666571 ], [ 81.397916666666248, 7.477083333333219 ], [ 81.393749999999642, 7.481249999999882 ], [ 81.393749999999642, 7.485416666666545 ], [ 81.389583333332922, 7.489583333333194 ], [ 81.389583333332922, 7.493749999999856 ], [ 81.385416666666259, 7.497916666666562 ], [ 81.385416666666259, 7.514583333333228 ] ] ] } },
{ "type": "Feature", "properties": { "HYRIV_ID": 41403654, "NEXT_DOWN": 41403653, "MAIN_RIV": 41402604, "LENGTH_KM": 2.72, "DIST_DN_KM": 56.3, "DIST_UP_KM": 5.6, "CATCH_SKM": 11.92, "UPLAND_SKM": 11.9, "ENDORHEIC": 0, "DIS_AV_CMS": 0.27700001, "ORD_STRA": 1, "ORD_CLAS": 3, "ORD_FLOW": 7, "HYBAS_L12": 4121157780.0, "Shape_Length": 0.024642556509883857 }, "geometry": { "type": "MultiLineString", "coordinates": [ [ [ 81.420833333332922, 7.477083333333219 ], [ 81.414583333332956, 7.477083333333219 ], [ 81.410416666666293, 7.472916666666571 ], [ 81.397916666666248, 7.472916666666571 ] ] ] } },
{ "type": "Feature", "properties": { "HYRIV_ID": 41403667, "NEXT_DOWN": 41403598, "MAIN_RIV": 41402604, "LENGTH_KM": 4.9699998, "DIST_DN_KM": 62.400002, "DIST_UP_KM": 6.9, "CATCH_SKM": 17.66, "UPLAND_SKM": 17.700001, "ENDORHEIC": 0, "DIS_AV_CMS": 0.414, "ORD_STRA": 1, "ORD_CLAS": 4, "ORD_FLOW": 7, "HYBAS_L12": 4121601550.0, "Shape_Length": 0.044909060804482259 }, "geometry": { "type": "MultiLineString", "coordinates": [ [ [ 81.220833333332934, 7.466666666666534 ], [ 81.227083333333013, 7.472916666666571 ], [ 81.227083333333013, 7.477083333333219 ], [ 81.231249999999733, 7.481249999999882 ], [ 81.235416666666396, 7.481249999999882 ], [ 81.247916666666271, 7.493749999999856 ], [ 81.252083333333047, 7.493749999999856 ] ] ] } },
{ "type": "Feature", "properties": { "HYRIV_ID": 41403668, "NEXT_DOWN": 41403561, "MAIN_RIV": 41402604, "LENGTH_KM": 4.6500001, "DIST_DN_KM": 52.5, "DIST_UP_KM": 33.599998, "CATCH_SKM": 10.43, "UPLAND_SKM": 265.29999, "ENDORHEIC": 0, "DIS_AV_CMS": 6.237, "ORD_STRA": 3, "ORD_CLAS": 1, "ORD_FLOW": 6, "HYBAS_L12": 4121157770.0, "Shape_Length": 0.041962782549306715 }, "geometry": { "type": "MultiLineString", "coordinates": [ [ [ 81.360416666666396, 7.468749999999865 ], [ 81.368749999999608, 7.477083333333219 ], [ 81.364583333333059, 7.481249999999882 ], [ 81.364583333333059, 7.493749999999856 ], [ 81.356249999999676, 7.502083333333211 ] ] ] } },
{ "type": "Feature", "properties": { "HYRIV_ID": 41403693, "NEXT_DOWN": 41403561, "MAIN_RIV": 41402604, "LENGTH_KM": 7.1799998, "DIST_DN_KM": 52.3, "DIST_UP_KM": 9.4, "CATCH_SKM": 21.5, "UPLAND_SKM": 21.5, "ENDORHEIC": 0, "DIS_AV_CMS": 0.5, "ORD_STRA": 1, "ORD_CLAS": 2, "ORD_FLOW": 7, "HYBAS_L12": 4121157770.0, "Shape_Length": 0.064879449216171586 }, "geometry": { "type": "MultiLineString", "coordinates": [ [ [ 81.318749999999653, 7.462499999999871 ], [ 81.318749999999653, 7.472916666666571 ], [ 81.327083333332979, 7.481249999999882 ], [ 81.331249999999642, 7.481249999999882 ], [ 81.335416666666362, 7.485416666666545 ], [ 81.339583333333024, 7.485416666666545 ], [ 81.343749999999574, 7.489583333333194 ], [ 81.352083333333013, 7.489583333333194 ], [ 81.356249999999676, 7.493749999999856 ], [ 81.356249999999676, 7.502083333333211 ] ] ] } },
{ "type": "Feature", "properties": { "HYRIV_ID": 41403694, "NEXT_DOWN": 41403695, "MAIN_RIV": 41402604, "LENGTH_KM": 0.98, "DIST_DN_KM": 57.8, "DIST_UP_KM": 3.3, "CATCH_SKM": 4.6799998, "UPLAND_SKM": 4.7, "ENDORHEIC": 0, "DIS_AV_CMS": 0.109, "ORD_STRA": 1, "ORD_CLAS": 2, "ORD_FLOW": 7, "HYBAS_L12": 4121157770.0, "Shape_Length": 0.0088388347649142433 }, "geometry": { "type": "MultiLineString", "coordinates": [ [ [ 81.349999999999596, 7.470833333333239 ], [ 81.356249999999676, 7.464583333333202 ] ] ] } },
{ "type": "Feature", "properties": { "HYRIV_ID": 41403695, "NEXT_DOWN": 41403668, "MAIN_RIV": 41402604, "LENGTH_KM": 0.65, "DIST_DN_KM": 57.200001, "DIST_UP_KM": 28.9, "CATCH_SKM": 0.85, "UPLAND_SKM": 243.8, "ENDORHEIC": 0, "DIS_AV_CMS": 5.7410002, "ORD_STRA": 3, "ORD_CLAS": 1, "ORD_FLOW": 6, "HYBAS_L12": 4121157770.0, "Shape_Length": 0.005892556509922731 }, "geometry": { "type": "MultiLineString", "coordinates": [ [ [ 81.356249999999676, 7.464583333333202 ], [ 81.360416666666396, 7.468749999999865 ] ] ] } },
{ "type": "Feature", "properties": { "HYRIV_ID": 41403737, "NEXT_DOWN": 41403668, "MAIN_RIV": 41402604, "LENGTH_KM": 2.9200001, "DIST_DN_KM": 57.0, "DIST_UP_KM": 6.2, "CATCH_SKM": 11.07, "UPLAND_SKM": 11.1, "ENDORHEIC": 0, "DIS_AV_CMS": 0.258, "ORD_STRA": 1, "ORD_CLAS": 2, "ORD_FLOW": 7, "HYBAS_L12": 4121157770.0, "Shape_Length": 0.026368446353033176 }, "geometry": { "type": "MultiLineString", "coordinates": [ [ [ 81.372916666666271, 7.449999999999854 ], [ 81.372916666666271, 7.456249999999891 ], [ 81.368749999999608, 7.460416666666553 ], [ 81.368749999999608, 7.464583333333202 ], [ 81.364583333333059, 7.468749999999865 ], [ 81.360416666666396, 7.468749999999865 ] ] ] } },
{ "type": "Feature", "properties": { "HYRIV_ID": 41403774, "NEXT_DOWN": 41403599, "MAIN_RIV": 41402604, "LENGTH_KM": 6.04, "DIST_DN_KM": 62.0, "DIST_UP_KM": 17.3, "CATCH_SKM": 16.6, "UPLAND_SKM": 83.699997, "ENDORHEIC": 0, "DIS_AV_CMS": 1.974, "ORD_STRA": 3, "ORD_CLAS": 2, "ORD_FLOW": 6, "HYBAS_L12": 4121601550.0, "Shape_Length": 0.054462782549359087 }, "geometry": { "type": "MultiLineString", "coordinates": [ [ [ 81.260416666666259, 7.44375 ], [ 81.260416666666259, 7.447916666666536 ], [ 81.256249999999596, 7.452083333333228 ], [ 81.256249999999596, 7.456249999999891 ], [ 81.252083333333047, 7.460416666666553 ], [ 81.252083333333047, 7.468749999999865 ], [ 81.247916666666271, 7.472916666666571 ], [ 81.247916666666271, 7.477083333333219 ], [ 81.252083333333047, 7.481249999999882 ], [ 81.252083333333047, 7.485416666666545 ], [ 81.256249999999596, 7.489583333333194 ] ] ] } },
{ "type": "Feature", "properties": { "HYRIV_ID": 41403789, "NEXT_DOWN": 41403790, "MAIN_RIV": 41402604, "LENGTH_KM": 2.55, "DIST_DN_KM": 69.400002, "DIST_UP_KM": 5.1, "CATCH_SKM": 8.9399996, "UPLAND_SKM": 8.9, "ENDORHEIC": 0, "DIS_AV_CMS": 0.211, "ORD_STRA": 1, "ORD_CLAS": 3, "ORD_FLOW": 7, "HYBAS_L12": 4121601550.0, "Shape_Length": 0.023064724608042146 }, "geometry": { "type": "MultiLineString", "coordinates": [ [ [ 81.229166666666259, 7.449999999999854 ], [ 81.239583333332945, 7.439583333333211 ], [ 81.247916666666271, 7.439583333333211 ] ] ] } },
{ "type": "Feature", "properties": { "HYRIV_ID": 41403790, "NEXT_DOWN": 41403774, "MAIN_RIV": 41402604, "LENGTH_KM": 1.5700001, "DIST_DN_KM": 67.800003, "DIST_UP_KM": 6.7, "CATCH_SKM": 2.55, "UPLAND_SKM": 20.4, "ENDORHEIC": 0, "DIS_AV_CMS": 0.48300001, "ORD_STRA": 2, "ORD_CLAS": 3, "ORD_FLOW": 7, "HYBAS_L12": 4121601550.0, "Shape_Length": 0.014225889843271736 }, "geometry": { "type": "MultiLineString", "coordinates": [ [ [ 81.247916666666271, 7.439583333333211 ], [ 81.252083333333047, 7.439583333333211 ], [ 81.256249999999596, 7.44375 ], [ 81.260416666666259, 7.44375 ] ] ] } },
{ "type": "Feature", "properties": { "HYRIV_ID": 41403825, "NEXT_DOWN": 41403790, "MAIN_RIV": 41402604, "LENGTH_KM": 2.26, "DIST_DN_KM": 69.400002, "DIST_UP_KM": 4.9, "CATCH_SKM": 8.9399996, "UPLAND_SKM": 8.9, "ENDORHEIC": 0, "DIS_AV_CMS": 0.212, "ORD_STRA": 1, "ORD_CLAS": 4, "ORD_FLOW": 7, "HYBAS_L12": 4121601550.0, "Shape_Length": 0.020475889843164136 }, "geometry": { "type": "MultiLineString", "coordinates": [ [ [ 81.233333333332979, 7.431249999999899 ], [ 81.239583333332945, 7.431249999999899 ], [ 81.243749999999608, 7.435416666666548 ], [ 81.247916666666271, 7.435416666666548 ], [ 81.247916666666271, 7.439583333333211 ] ] ] } },
{ "type": "Feature", "properties": { "HYRIV_ID": 41403826, "NEXT_DOWN": 41403695, "MAIN_RIV": 41402604, "LENGTH_KM": 4.27, "DIST_DN_KM": 57.599998, "DIST_UP_KM": 28.5, "CATCH_SKM": 15.11, "UPLAND_SKM": 238.2, "ENDORHEIC": 0, "DIS_AV_CMS": 5.6129999, "ORD_STRA": 3, "ORD_CLAS": 1, "ORD_FLOW": 6, "HYBAS_L12": 4121157770.0, "Shape_Length": 0.038511002863021573 }, "geometry": { "type": "MultiLineString", "coordinates": [ [ [ 81.343749999999574, 7.431249999999899 ], [ 81.343749999999574, 7.439583333333211 ], [ 81.34791666666635, 7.44375 ], [ 81.34791666666635, 7.447916666666536 ], [ 81.352083333333013, 7.452083333333228 ], [ 81.352083333333013, 7.456249999999891 ], [ 81.356249999999676, 7.460416666666553 ], [ 81.356249999999676, 7.464583333333202 ] ] ] } },
{ "type": "Feature", "properties": { "HYRIV_ID": 41403848, "NEXT_DOWN": 41403774, "MAIN_RIV": 41402604, "LENGTH_KM": 2.51, "DIST_DN_KM": 68.0, "DIST_UP_KM": 11.2, "CATCH_SKM": 10.0, "UPLAND_SKM": 46.599998, "ENDORHEIC": 0, "DIS_AV_CMS": 1.104, "ORD_STRA": 2, "ORD_CLAS": 2, "ORD_FLOW": 6, "HYBAS_L12": 4121601550.0, "Shape_Length": 0.022559223176592612 }, "geometry": { "type": "MultiLineString", "coordinates": [ [ [ 81.264583333332922, 7.422916666666531 ], [ 81.264583333332922, 7.439583333333211 ], [ 81.260416666666259, 7.44375 ] ] ] } },
{ "type": "Feature", "properties": { "HYRIV_ID": 41403849, "NEXT_DOWN": 41403826, "MAIN_RIV": 41402604, "LENGTH_KM": 1.99, "DIST_DN_KM": 62.099998, "DIST_UP_KM": 4.5, "CATCH_SKM": 7.8800001, "UPLAND_SKM": 7.9, "ENDORHEIC": 0, "DIS_AV_CMS": 0.184, "ORD_STRA": 1, "ORD_CLAS": 2, "ORD_FLOW": 7, "HYBAS_L12": 4121157770.0, "Shape_Length": 0.018035113019784658 }, "geometry": { "type": "MultiLineString", "coordinates": [ [ [ 81.358333333332922, 7.422916666666531 ], [ 81.352083333333013, 7.422916666666531 ], [ 81.343749999999574, 7.431249999999899 ] ] ] } },
{ "type": "Feature", "properties": { "HYRIV_ID": 41403862, "NEXT_DOWN": 41403653, "MAIN_RIV": 41402604, "LENGTH_KM": 6.5900002, "DIST_DN_KM": 56.3, "DIST_UP_KM": 28.8, "CATCH_SKM": 25.120001, "UPLAND_SKM": 147.7, "ENDORHEIC": 0, "DIS_AV_CMS": 3.4519999, "ORD_STRA": 2, "ORD_CLAS": 2, "ORD_FLOW": 6, "HYBAS_L12": 4121157780.0, "Shape_Length": 0.059344336196349157 }, "geometry": { "type": "MultiLineString", "coordinates": [ [ [ 81.410416666666293, 7.41875 ], [ 81.410416666666293, 7.427083333333236 ], [ 81.406249999999574, 7.431249999999899 ], [ 81.406249999999574, 7.456249999999891 ], [ 81.397916666666248, 7.464583333333202 ], [ 81.397916666666248, 7.472916666666571 ] ] ] } },
{ "type": "Feature", "properties": { "HYRIV_ID": 41403873, "NEXT_DOWN": 41403874, "MAIN_RIV": 41402604, "LENGTH_KM": 1.8, "DIST_DN_KM": 67.300003, "DIST_UP_KM": 4.9, "CATCH_SKM": 11.92, "UPLAND_SKM": 11.9, "ENDORHEIC": 0, "DIS_AV_CMS": 0.28, "ORD_STRA": 1, "ORD_CLAS": 3, "ORD_FLOW": 7, "HYBAS_L12": 4121601610.0, "Shape_Length": 0.016309223176497096 }, "geometry": { "type": "MultiLineString", "coordinates": [ [ [ 81.299999999999699, 7.422916666666531 ], [ 81.306249999999608, 7.422916666666531 ], [ 81.310416666666328, 7.41875 ], [ 81.310416666666328, 7.414583333333219 ] ] ] } },
{ "type": "Feature", "properties": { "HYRIV_ID": 41403874, "NEXT_DOWN": 41403875, "MAIN_RIV": 41402604, "LENGTH_KM": 3.1400001, "DIST_DN_KM": 64.300003, "DIST_UP_KM": 16.3, "CATCH_SKM": 7.8800001, "UPLAND_SKM": 58.099998, "ENDORHEIC": 0, "DIS_AV_CMS": 1.373, "ORD_STRA": 2, "ORD_CLAS": 2, "ORD_FLOW": 6, "HYBAS_L12": 4121601610.0, "Shape_Length": 0.028451779686517069 }, "geometry": { "type": "MultiLineString", "coordinates": [ [ [ 81.310416666666328, 7.414583333333219 ], [ 81.322916666666316, 7.414583333333219 ], [ 81.327083333332979, 7.41875 ], [ 81.331249999999642, 7.41875 ], [ 81.335416666666362, 7.414583333333219 ] ] ] } },
{ "type": "Feature", "properties": { "HYRIV_ID": 41403875, "NEXT_DOWN": 41403826, "MAIN_RIV": 41402604, "LENGTH_KM": 2.23, "DIST_DN_KM": 62.099998, "DIST_UP_KM": 24.0, "CATCH_SKM": 4.4699998, "UPLAND_SKM": 215.2, "ENDORHEIC": 0, "DIS_AV_CMS": 5.0809999, "ORD_STRA": 3, "ORD_CLAS": 1, "ORD_FLOW": 6, "HYBAS_L12": 4121157770.0, "Shape_Length": 0.020118446353026374 }, "geometry": { "type": "MultiLineString", "coordinates": [ [ [ 81.335416666666362, 7.414583333333219 ], [ 81.339583333333024, 7.41875 ], [ 81.339583333333024, 7.427083333333236 ], [ 81.343749999999574, 7.431249999999899 ] ] ] } },
{ "type": "Feature", "properties": { "HYRIV_ID": 41403876, "NEXT_DOWN": 41403862, "MAIN_RIV": 41402604, "LENGTH_KM": 1.4400001, "DIST_DN_KM": 62.900002, "DIST_UP_KM": 4.8, "CATCH_SKM": 6.39, "UPLAND_SKM": 6.4, "ENDORHEIC": 0, "DIS_AV_CMS": 0.149, "ORD_STRA": 1, "ORD_CLAS": 3, "ORD_FLOW": 7, "HYBAS_L12": 4121157780.0, "Shape_Length": 0.01300550143151338 }, "geometry": { "type": "MultiLineString", "coordinates": [ [ [ 81.399999999999665, 7.412499999999888 ], [ 81.406249999999574, 7.41875 ], [ 81.410416666666293, 7.41875 ] ] ] } },
{ "type": "Feature", "properties": { "HYRIV_ID": 41403904, "NEXT_DOWN": 41403848, "MAIN_RIV": 41402604, "LENGTH_KM": 3.85, "DIST_DN_KM": 70.5, "DIST_UP_KM": 6.2, "CATCH_SKM": 11.28, "UPLAND_SKM": 11.3, "ENDORHEIC": 0, "DIS_AV_CMS": 0.26800001, "ORD_STRA": 1, "ORD_CLAS": 3, "ORD_FLOW": 7, "HYBAS_L12": 4121601550.0, "Shape_Length": 0.034849837627756973 }, "geometry": { "type": "MultiLineString", "coordinates": [ [ [ 81.237499999999642, 7.404166666666576 ], [ 81.243749999999608, 7.410416666666556 ], [ 81.247916666666271, 7.410416666666556 ], [ 81.256249999999596, 7.41875 ], [ 81.260416666666259, 7.41875 ], [ 81.264583333332922, 7.422916666666531 ] ] ] } },
{ "type": "Feature", "properties": { "HYRIV_ID": 41403934, "NEXT_DOWN": 41403875, "MAIN_RIV": 41402604, "LENGTH_KM": 2.23, "DIST_DN_KM": 64.099998, "DIST_UP_KM": 22.0, "CATCH_SKM": 5.75, "UPLAND_SKM": 152.7, "ENDORHEIC": 0, "DIS_AV_CMS": 3.605, "ORD_STRA": 3, "ORD_CLAS": 1, "ORD_FLOW": 6, "HYBAS_L12": 4121601610.0, "Shape_Length": 0.020118446353123411 }, "geometry": { "type": "MultiLineString", "coordinates": [ [ [ 81.335416666666362, 7.397916666666539 ], [ 81.339583333333024, 7.402083333333202 ], [ 81.339583333333024, 7.40625 ], [ 81.335416666666362, 7.410416666666556 ], [ 81.335416666666362, 7.414583333333219 ] ] ] } },
{ "type": "Feature", "properties": { "HYRIV_ID": 41403972, "NEXT_DOWN": 41403934, "MAIN_RIV": 41402604, "LENGTH_KM": 1.58, "DIST_DN_KM": 66.400002, "DIST_UP_KM": 19.700001, "CATCH_SKM": 3.4100001, "UPLAND_SKM": 132.0, "ENDORHEIC": 0, "DIS_AV_CMS": 3.122, "ORD_STRA": 3, "ORD_CLAS": 1, "ORD_FLOW": 6, "HYBAS_L12": 4121601610.0, "Shape_Length": 0.014225889843234274 }, "geometry": { "type": "MultiLineString", "coordinates": [ [ [ 81.331249999999642, 7.385416666666565 ], [ 81.331249999999642, 7.389583333333228 ], [ 81.335416666666362, 7.393749999999891 ], [ 81.335416666666362, 7.397916666666539 ] ] ] } },
{ "type": "Feature", "properties": { "HYRIV_ID": 41403990, "NEXT_DOWN": 41403848, "MAIN_RIV": 41402604, "LENGTH_KM": 6.0900002, "DIST_DN_KM": 70.300003, "DIST_UP_KM": 8.9, "CATCH_SKM": 25.33, "UPLAND_SKM": 25.3, "ENDORHEIC": 0, "DIS_AV_CMS": 0.602, "ORD_STRA": 1, "ORD_CLAS": 2, "ORD_FLOW": 7, "HYBAS_L12": 4121601550.0, "Shape_Length": 0.054968283980964226 }, "geometry": { "type": "MultiLineString", "coordinates": [ [ [ 81.245833333332968, 7.379166666666542 ], [ 81.252083333333047, 7.385416666666565 ], [ 81.252083333333047, 7.389583333333228 ], [ 81.264583333332922, 7.402083333333202 ], [ 81.264583333332922, 7.40625 ], [ 81.268749999999642, 7.410416666666556 ], [ 81.268749999999642, 7.414583333333219 ], [ 81.264583333332922, 7.41875 ], [ 81.264583333332922, 7.422916666666531 ] ] ] } },
{ "type": "Feature", "properties": { "HYRIV_ID": 41404002, "NEXT_DOWN": 41403972, "MAIN_RIV": 41402604, "LENGTH_KM": 1.4400001, "DIST_DN_KM": 68.0, "DIST_UP_KM": 4.6, "CATCH_SKM": 6.1700001, "UPLAND_SKM": 6.2, "ENDORHEIC": 0, "DIS_AV_CMS": 0.145, "ORD_STRA": 1, "ORD_CLAS": 2, "ORD_FLOW": 7, "HYBAS_L12": 4121601610.0, "Shape_Length": 0.013005501431495006 }, "geometry": { "type": "MultiLineString", "coordinates": [ [ [ 81.337499999999608, 7.374999999999879 ], [ 81.331249999999642, 7.381249999999874 ], [ 81.331249999999642, 7.385416666666565 ] ] ] } },
{ "type": "Feature", "properties": { "HYRIV_ID": 41404003, "NEXT_DOWN": 41403934, "MAIN_RIV": 41402604, "LENGTH_KM": 4.7800002, "DIST_DN_KM": 66.400002, "DIST_UP_KM": 7.6, "CATCH_SKM": 14.9, "UPLAND_SKM": 14.9, "ENDORHEIC": 0, "DIS_AV_CMS": 0.35, "ORD_STRA": 1, "ORD_CLAS": 2, "ORD_FLOW": 7, "HYBAS_L12": 4121601610.0, "Shape_Length": 0.043183170961146176 }, "geometry": { "type": "MultiLineString", "coordinates": [ [ [ 81.366666666666305, 7.374999999999879 ], [ 81.356249999999676, 7.385416666666565 ], [ 81.352083333333013, 7.385416666666565 ], [ 81.34791666666635, 7.389583333333228 ], [ 81.343749999999574, 7.389583333333228 ], [ 81.343749999999574, 7.393749999999891 ], [ 81.339583333333024, 7.397916666666539 ], [ 81.335416666666362, 7.397916666666539 ] ] ] } },
{ "type": "Feature", "properties": { "HYRIV_ID": 41404014, "NEXT_DOWN": 41403862, "MAIN_RIV": 41402604, "LENGTH_KM": 5.4699998, "DIST_DN_KM": 62.900002, "DIST_UP_KM": 22.200001, "CATCH_SKM": 24.690001, "UPLAND_SKM": 116.2, "ENDORHEIC": 0, "DIS_AV_CMS": 2.72, "ORD_STRA": 2, "ORD_CLAS": 2, "ORD_FLOW": 6, "HYBAS_L12": 4121157780.0, "Shape_Length": 0.049285113019812074 }, "geometry": { "type": "MultiLineString", "coordinates": [ [ [ 81.410416666666293, 7.372916666666548 ], [ 81.410416666666293, 7.381249999999874 ], [ 81.414583333332956, 7.385416666666565 ], [ 81.414583333332956, 7.40625 ], [ 81.410416666666293, 7.410416666666556 ], [ 81.410416666666293, 7.41875 ] ] ] } },
{ "type": "Feature", "properties": { "HYRIV_ID": 41404069, "NEXT_DOWN": 41404014, "MAIN_RIV": 41402604, "LENGTH_KM": 2.9200001, "DIST_DN_KM": 68.400002, "DIST_UP_KM": 6.0, "CATCH_SKM": 10.43, "UPLAND_SKM": 10.4, "ENDORHEIC": 0, "DIS_AV_CMS": 0.245, "ORD_STRA": 1, "ORD_CLAS": 3, "ORD_FLOW": 7, "HYBAS_L12": 4121157780.0, "Shape_Length": 0.026368446353072658 }, "geometry": { "type": "MultiLineString", "coordinates": [ [ [ 81.391666666666339, 7.360416666666531 ], [ 81.402083333332968, 7.360416666666531 ], [ 81.410416666666293, 7.368749999999899 ], [ 81.410416666666293, 7.372916666666548 ] ] ] } },
{ "type": "Feature", "properties": { "HYRIV_ID": 41404084, "NEXT_DOWN": 41404014, "MAIN_RIV": 41402604, "LENGTH_KM": 2.4200001, "DIST_DN_KM": 68.599998, "DIST_UP_KM": 16.6, "CATCH_SKM": 4.4699998, "UPLAND_SKM": 81.099998, "ENDORHEIC": 0, "DIS_AV_CMS": 1.9, "ORD_STRA": 2, "ORD_CLAS": 2, "ORD_FLOW": 6, "HYBAS_L12": 4121157780.0, "Shape_Length": 0.021844336196333022 }, "geometry": { "type": "MultiLineString", "coordinates": [ [ [ 81.414583333332956, 7.356249999999882 ], [ 81.418749999999619, 7.360416666666531 ], [ 81.414583333332956, 7.364583333333194 ], [ 81.414583333332956, 7.368749999999899 ], [ 81.410416666666293, 7.372916666666548 ] ] ] } },
{ "type": "Feature", "properties": { "HYRIV_ID": 41404103, "NEXT_DOWN": 41403972, "MAIN_RIV": 41402604, "LENGTH_KM": 4.46, "DIST_DN_KM": 68.099998, "DIST_UP_KM": 17.9, "CATCH_SKM": 16.82, "UPLAND_SKM": 122.4, "ENDORHEIC": 0, "DIS_AV_CMS": 2.898, "ORD_STRA": 3, "ORD_CLAS": 1, "ORD_FLOW": 6, "HYBAS_L12": 4121601610.0, "Shape_Length": 0.040236892706203474 }, "geometry": { "type": "MultiLineString", "coordinates": [ [ [ 81.31458333333299, 7.352083333333219 ], [ 81.31458333333299, 7.360416666666531 ], [ 81.322916666666316, 7.368749999999899 ], [ 81.322916666666316, 7.372916666666548 ], [ 81.327083333332979, 7.377083333333211 ], [ 81.327083333332979, 7.381249999999874 ], [ 81.331249999999642, 7.385416666666565 ] ] ] } },
{ "type": "Feature", "properties": { "HYRIV_ID": 41404114, "NEXT_DOWN": 41403874, "MAIN_RIV": 41402604, "LENGTH_KM": 9.9899998, "DIST_DN_KM": 67.5, "DIST_UP_KM": 13.2, "CATCH_SKM": 38.32, "UPLAND_SKM": 38.3, "ENDORHEIC": 0, "DIS_AV_CMS": 0.91, "ORD_STRA": 1, "ORD_CLAS": 2, "ORD_FLOW": 7, "HYBAS_L12": 4121601610.0, "Shape_Length": 0.090175565098857227 }, "geometry": { "type": "MultiLineString", "coordinates": [ [ [ 81.262499999999676, 7.347916666666556 ], [ 81.268749999999642, 7.347916666666556 ], [ 81.272916666666248, 7.352083333333219 ], [ 81.272916666666248, 7.356249999999882 ], [ 81.277083333332968, 7.360416666666531 ], [ 81.277083333332968, 7.364583333333194 ], [ 81.285416666666293, 7.372916666666548 ], [ 81.285416666666293, 7.377083333333211 ], [ 81.293749999999619, 7.385416666666565 ], [ 81.293749999999619, 7.389583333333228 ], [ 81.297916666666282, 7.393749999999891 ], [ 81.297916666666282, 7.397916666666539 ], [ 81.302083333332945, 7.402083333333202 ], [ 81.302083333332945, 7.40625 ], [ 81.310416666666328, 7.414583333333219 ] ] ] } },
{ "type": "Feature", "properties": { "HYRIV_ID": 41404142, "NEXT_DOWN": 41404103, "MAIN_RIV": 41402604, "LENGTH_KM": 1.77, "DIST_DN_KM": 72.400002, "DIST_UP_KM": 13.7, "CATCH_SKM": 1.49, "UPLAND_SKM": 56.0, "ENDORHEIC": 0, "DIS_AV_CMS": 1.322, "ORD_STRA": 2, "ORD_CLAS": 1, "ORD_FLOW": 6, "HYBAS_L12": 4121601610.0, "Shape_Length": 0.015951779686417901 }, "geometry": { "type": "MultiLineString", "coordinates": [ [ [ 81.322916666666316, 7.339583333333245 ], [ 81.31458333333299, 7.347916666666556 ], [ 81.31458333333299, 7.352083333333219 ] ] ] } },
{ "type": "Feature", "properties": { "HYRIV_ID": 41404143, "NEXT_DOWN": 41404142, "MAIN_RIV": 41402604, "LENGTH_KM": 1.4400001, "DIST_DN_KM": 74.199997, "DIST_UP_KM": 4.6, "CATCH_SKM": 5.54, "UPLAND_SKM": 5.5, "ENDORHEIC": 0, "DIS_AV_CMS": 0.13, "ORD_STRA": 1, "ORD_CLAS": 2, "ORD_FLOW": 7, "HYBAS_L12": 4121601610.0, "Shape_Length": 0.013005501431456536 }, "geometry": { "type": "MultiLineString", "coordinates": [ [ [ 81.333333333332945, 7.345833333333225 ], [ 81.327083333332979, 7.339583333333245 ], [ 81.322916666666316, 7.339583333333245 ] ] ] } },
{ "type": "Feature", "properties": { "HYRIV_ID": 41404158, "NEXT_DOWN": 41404142, "MAIN_RIV": 41402604, "LENGTH_KM": 0.46, "DIST_DN_KM": 74.199997, "DIST_UP_KM": 11.9, "CATCH_SKM": 0.64, "UPLAND_SKM": 49.0, "ENDORHEIC": 0, "DIS_AV_CMS": 1.156, "ORD_STRA": 2, "ORD_CLAS": 1, "ORD_FLOW": 6, "HYBAS_L12": 4121601610.0, "Shape_Length": 0.0041666666667055097 }, "geometry": { "type": "MultiLineString", "coordinates": [ [ [ 81.322916666666316, 7.335416666666539 ], [ 81.322916666666316, 7.339583333333245 ] ] ] } },
{ "type": "Feature", "properties": { "HYRIV_ID": 41404159, "NEXT_DOWN": 41404158, "MAIN_RIV": 41402604, "LENGTH_KM": 0.69, "DIST_DN_KM": 74.599998, "DIST_UP_KM": 4.1, "CATCH_SKM": 5.54, "UPLAND_SKM": 5.5, "ENDORHEIC": 0, "DIS_AV_CMS": 0.131, "ORD_STRA": 1, "ORD_CLAS": 3, "ORD_FLOW": 7, "HYBAS_L12": 4121601610.0, "Shape_Length": 0.0062499999999658939 }, "geometry": { "type": "MultiLineString", "coordinates": [ [ [ 81.329166666666282, 7.335416666666539 ], [ 81.322916666666316, 7.335416666666539 ] ] ] } },
{ "type": "Feature", "properties": { "HYRIV_ID": 41404170, "NEXT_DOWN": 41404084, "MAIN_RIV": 41402604, "LENGTH_KM": 3.58, "DIST_DN_KM": 71.0, "DIST_UP_KM": 5.5, "CATCH_SKM": 13.41, "UPLAND_SKM": 13.4, "ENDORHEIC": 0, "DIS_AV_CMS": 0.31400001, "ORD_STRA": 1, "ORD_CLAS": 3, "ORD_FLOW": 7, "HYBAS_L12": 4121157780.0, "Shape_Length": 0.032261002862986055 }, "geometry": { "type": "MultiLineString", "coordinates": [ [ [ 81.427083333332945, 7.329166666666559 ], [ 81.427083333332945, 7.339583333333245 ], [ 81.418749999999619, 7.347916666666556 ], [ 81.418749999999619, 7.352083333333219 ], [ 81.414583333332956, 7.356249999999882 ] ] ] } },
{ "type": "Feature", "properties": { "HYRIV_ID": 41404230, "NEXT_DOWN": 41404231, "MAIN_RIV": 41402604, "LENGTH_KM": 2.45, "DIST_DN_KM": 75.900002, "DIST_UP_KM": 6.0, "CATCH_SKM": 15.54, "UPLAND_SKM": 15.5, "ENDORHEIC": 0, "DIS_AV_CMS": 0.36500001, "ORD_STRA": 1, "ORD_CLAS": 3, "ORD_FLOW": 7, "HYBAS_L12": 4121157780.0, "Shape_Length": 0.022201779686393842 }, "geometry": { "type": "MultiLineString", "coordinates": [ [ [ 81.379166666666293, 7.327083333333228 ], [ 81.389583333332922, 7.327083333333228 ], [ 81.397916666666248, 7.31875 ] ] ] } },
{ "type": "Feature", "properties": { "HYRIV_ID": 41404231, "NEXT_DOWN": 41404084, "MAIN_RIV": 41402604, "LENGTH_KM": 4.9299998, "DIST_DN_KM": 71.0, "DIST_UP_KM": 14.1, "CATCH_SKM": 14.69, "UPLAND_SKM": 63.200001, "ENDORHEIC": 0, "DIS_AV_CMS": 1.482, "ORD_STRA": 2, "ORD_CLAS": 2, "ORD_FLOW": 6, "HYBAS_L12": 4121157780.0, "Shape_Length": 0.044403559372898943 }, "geometry": { "type": "MultiLineString", "coordinates": [ [ [ 81.397916666666248, 7.31875 ], [ 81.402083333332968, 7.322916666666522 ], [ 81.402083333332968, 7.335416666666539 ], [ 81.406249999999574, 7.339583333333245 ], [ 81.406249999999574, 7.347916666666556 ], [ 81.414583333332956, 7.356249999999882 ] ] ] } },
{ "type": "Feature", "properties": { "HYRIV_ID": 41404244, "NEXT_DOWN": 41404158, "MAIN_RIV": 41402604, "LENGTH_KM": 3.4, "DIST_DN_KM": 74.800003, "DIST_UP_KM": 6.4, "CATCH_SKM": 9.1499996, "UPLAND_SKM": 9.2, "ENDORHEIC": 0, "DIS_AV_CMS": 0.21600001, "ORD_STRA": 1, "ORD_CLAS": 2, "ORD_FLOW": 7, "HYBAS_L12": 4121601610.0, "Shape_Length": 0.030683170961111755 }, "geometry": { "type": "MultiLineString", "coordinates": [ [ [ 81.341666666666271, 7.312499999999879 ], [ 81.335416666666362, 7.31875 ], [ 81.335416666666362, 7.322916666666522 ], [ 81.322916666666316, 7.335416666666539 ] ] ] } },
{ "type": "Feature", "properties": { "HYRIV_ID": 41404264, "NEXT_DOWN": 41404265, "MAIN_RIV": 41402604, "LENGTH_KM": 0.69, "DIST_DN_KM": 76.900002, "DIST_UP_KM": 3.8, "CATCH_SKM": 4.4699998, "UPLAND_SKM": 4.5, "ENDORHEIC": 0, "DIS_AV_CMS": 0.105, "ORD_STRA": 1, "ORD_CLAS": 3, "ORD_FLOW": 7, "HYBAS_L12": 4121157780.0, "Shape_Length": 0.0062499999999658939 }, "geometry": { "type": "MultiLineString", "coordinates": [ [ [ 81.387499999999676, 7.310416666666548 ], [ 81.393749999999642, 7.310416666666548 ] ] ] } },
{ "type": "Feature", "properties": { "HYRIV_ID": 41404265, "NEXT_DOWN": 41404231, "MAIN_RIV": 41402604, "LENGTH_KM": 1.12, "DIST_DN_KM": 75.900002, "DIST_UP_KM": 9.2, "CATCH_SKM": 1.06, "UPLAND_SKM": 33.0, "ENDORHEIC": 0, "DIS_AV_CMS": 0.774, "ORD_STRA": 2, "ORD_CLAS": 2, "ORD_FLOW": 7, "HYBAS_L12": 4121157780.0, "Shape_Length": 0.010059223176525318 }, "geometry": { "type": "MultiLineString", "coordinates": [ [ [ 81.393749999999642, 7.310416666666548 ], [ 81.393749999999642, 7.314583333333211 ], [ 81.397916666666248, 7.31875 ] ] ] } },
{ "type": "Feature", "properties": { "HYRIV_ID": 41404346, "NEXT_DOWN": 41404103, "MAIN_RIV": 41402604, "LENGTH_KM": 8.9300003, "DIST_DN_KM": 72.599998, "DIST_UP_KM": 13.2, "CATCH_SKM": 35.34, "UPLAND_SKM": 49.599998, "ENDORHEIC": 0, "DIS_AV_CMS": 1.181, "ORD_STRA": 2, "ORD_CLAS": 2, "ORD_FLOW": 6, "HYBAS_L12": 4121601610.0, "Shape_Length": 0.08047378541244786 }, "geometry": { "type": "MultiLineString", "coordinates": [ [ [ 81.289583333332956, 7.285416666666556 ], [ 81.289583333332956, 7.297916666666531 ], [ 81.297916666666282, 7.306249999999885 ], [ 81.293749999999619, 7.310416666666548 ], [ 81.297916666666282, 7.314583333333211 ], [ 81.297916666666282, 7.327083333333228 ], [ 81.302083333332945, 7.331249999999876 ], [ 81.302083333332945, 7.335416666666539 ], [ 81.310416666666328, 7.343749999999893 ], [ 81.310416666666328, 7.347916666666556 ], [ 81.31458333333299, 7.352083333333219 ] ] ] } },
{ "type": "Feature", "properties": { "HYRIV_ID": 41404375, "NEXT_DOWN": 41404346, "MAIN_RIV": 41402604, "LENGTH_KM": 0.98, "DIST_DN_KM": 81.5, "DIST_UP_KM": 3.7, "CATCH_SKM": 4.9, "UPLAND_SKM": 4.9, "ENDORHEIC": 0, "DIS_AV_CMS": 0.116, "ORD_STRA": 1, "ORD_CLAS": 3, "ORD_FLOW": 7, "HYBAS_L12": 4121601610.0, "Shape_Length": 0.0088388347648037068 }, "geometry": { "type": "MultiLineString", "coordinates": [ [ [ 81.295833333332922, 7.279166666666562 ], [ 81.289583333332956, 7.285416666666556 ] ] ] } },
{ "type": "Feature", "properties": { "HYRIV_ID": 41404376, "NEXT_DOWN": 41404158, "MAIN_RIV": 41402604, "LENGTH_KM": 8.2399998, "DIST_DN_KM": 74.800003, "DIST_UP_KM": 11.3, "CATCH_SKM": 33.639999, "UPLAND_SKM": 33.599998, "ENDORHEIC": 0, "DIS_AV_CMS": 0.79500002, "ORD_STRA": 1, "ORD_CLAS": 1, "ORD_FLOW": 7, "HYBAS_L12": 4121601610.0, "Shape_Length": 0.074371843353751105 }, "geometry": { "type": "MultiLineString", "coordinates": [ [ [ 81.341666666666271, 7.279166666666562 ], [ 81.331249999999642, 7.289583333333219 ], [ 81.331249999999642, 7.29375 ], [ 81.318749999999653, 7.306249999999885 ], [ 81.318749999999653, 7.310416666666548 ], [ 81.31458333333299, 7.314583333333211 ], [ 81.318749999999653, 7.31875 ], [ 81.318749999999653, 7.322916666666522 ], [ 81.322916666666316, 7.327083333333228 ], [ 81.318749999999653, 7.331249999999876 ], [ 81.322916666666316, 7.335416666666539 ] ] ] } },
{ "type": "Feature", "properties": { "HYRIV_ID": 41404439, "NEXT_DOWN": 41404346, "MAIN_RIV": 41402604, "LENGTH_KM": 2.37, "DIST_DN_KM": 81.300003, "DIST_UP_KM": 4.5, "CATCH_SKM": 9.37, "UPLAND_SKM": 9.4, "ENDORHEIC": 0, "DIS_AV_CMS": 0.22400001, "ORD_STRA": 1, "ORD_CLAS": 2, "ORD_FLOW": 7, "HYBAS_L12": 4121601610.0, "Shape_Length": 0.02133883476482076 }, "geometry": { "type": "MultiLineString", "coordinates": [ [ [ 81.295833333332922, 7.266666666666545 ], [ 81.289583333332956, 7.272916666666539 ], [ 81.289583333332956, 7.285416666666556 ] ] ] } },
{ "type": "Feature", "properties": { "HYRIV_ID": 41404456, "NEXT_DOWN": 41404265, "MAIN_RIV": 41402604, "LENGTH_KM": 5.9, "DIST_DN_KM": 76.900002, "DIST_UP_KM": 8.3, "CATCH_SKM": 27.469999, "UPLAND_SKM": 27.5, "ENDORHEIC": 0, "DIS_AV_CMS": 0.644, "ORD_STRA": 1, "ORD_CLAS": 2, "ORD_FLOW": 7, "HYBAS_L12": 4121157780.0, "Shape_Length": 0.053094336196342358 }, "geometry": { "type": "MultiLineString", "coordinates": [ [ [ 81.381249999999596, 7.262499999999896 ], [ 81.381249999999596, 7.277083333333245 ], [ 81.385416666666259, 7.281249999999893 ], [ 81.385416666666259, 7.285416666666556 ], [ 81.389583333332922, 7.289583333333219 ], [ 81.389583333332922, 7.297916666666531 ], [ 81.393749999999642, 7.302083333333236 ], [ 81.393749999999642, 7.310416666666548 ] ] ] } }
]
}
