{
"type": "FeatureCollection",
"name": "main_river_41393543",
"crs": { "type": "name", "properties": { "name": "urn:ogc:def:crs:OGC:1.3:CRS84" } },
"features": [
{ "type": "Feature", "properties": { "HYRIV_ID": 41393543, "NEXT_DOWN": 0, "MAIN_RIV": 41393543, "LENGTH_KM": 2.6900001, "DIST_DN_KM": 0.0, "DIST_UP_KM": 89.0, "CATCH_SKM": 16.3, "UPLAND_SKM": 772.40002, "ENDORHEIC": 0, "DIS_AV_CMS": 6.8610001, "ORD_STRA": 3, "ORD_CLAS": 1, "ORD_FLOW": 6, "HYBAS_L12": 4120049440.0, "Shape_Length": 0.024285113019782124 }, "geometry": { "type": "Polygon", "coordinates": [ ] } },
{ "type": "Feature", "properties": { "HYRIV_ID": 41393580, "NEXT_DOWN": 41393543, "MAIN_RIV": 41393543, "LENGTH_KM": 1.43, "DIST_DN_KM": 2.9, "DIST_UP_KM": 6.2, "CATCH_SKM": 10.16, "UPLAND_SKM": 10.2, "ENDORHEIC": 0, "DIS_AV_CMS": 0.13, "ORD_STRA": 1, "ORD_CLAS": 2, "ORD_FLOW": 7, "HYBAS_L12": 4120049440.0, "Shape_Length": 0.013005501431536925 }, "geometry": { "type": "Polygon", "coordinates": [ ] } },
{ "type": "Feature", "properties": { "HYRIV_ID": 41393744, "NEXT_DOWN": 41393543, "MAIN_RIV": 41393543, "LENGTH_KM": 3.62, "DIST_DN_KM": 2.9, "DIST_UP_KM": 86.300003, "CATCH_SKM": 19.48, "UPLAND_SKM": 746.40002, "ENDORHEIC": 0, "DIS_AV_CMS": 6.7080002, "ORD_STRA": 3, "ORD_CLAS": 1, "ORD_FLOW": 6, "HYBAS_L12": 4120049440.0, "Shape_Length": 0.032618446353123817 }, "geometry": { "type": "Polygon", "coordinates": [ ] } },
{ "type": "Feature", "properties": { "HYRIV_ID": 41393920, "NEXT_DOWN": 41393744, "MAIN_RIV": 41393543, "LENGTH_KM": 4.2600002, "DIST_DN_KM": 6.5, "DIST_UP_KM": 17.200001, "CATCH_SKM": 11.01, "UPLAND_SKM": 56.8, "ENDORHEIC": 0, "DIS_AV_CMS": 0.68300003, "ORD_STRA": 2, "ORD_CLAS": 2, "ORD_FLOW": 7, "HYBAS_L12": 4120049440.0, "Shape_Length": 0.038511002862970323 }, "geometry": { "type": "Polygon", "coordinates": [ ] } },
{ "type": "Feature", "properties": { "HYRIV_ID": 41393988, "NEXT_DOWN": 41393920, "MAIN_RIV": 41393543, "LENGTH_KM": 2.08, "DIST_DN_KM": 10.8, "DIST_UP_KM": 7.1, "CATCH_SKM": 17.58, "UPLAND_SKM": 17.6, "ENDORHEIC": 0, "DIS_AV_CMS": 0.223, "ORD_STRA": 1, "ORD_CLAS": 3, "ORD_FLOW": 7, "HYBAS_L12": 4120049440.0, "Shape_Length": 0.018898057941489802 }, "geometry": { "type": "Polygon", "coordinates": [ ] } },
{ "type": "Feature", "properties": { "HYRIV_ID": 41394156, "NEXT_DOWN": 41393744, "MAIN_RIV": 41393543, "LENGTH_KM": 8.5299997, "DIST_DN_KM": 6.5, "DIST_UP_KM": 82.699997, "CATCH_SKM": 38.970001, "UPLAND_SKM": 670.09998, "ENDORHEIC": 0, "DIS_AV_CMS": 6.0219998, "ORD_STRA": 3, "ORD_CLAS": 1, "ORD_FLOW": 6, "HYBAS_L12": 4120049440.0, "Shape_Length": 0.07702200572597423 }, "geometry": { "type": "Polygon", "coordinates": [ ] } },
{ "type": "Feature", "properties": { "HYRIV_ID": 41394321, "NEXT_DOWN": 41393920, "MAIN_RIV": 41393543, "LENGTH_KM": 7.5700002, "DIST_DN_KM": 10.8, "DIST_UP_KM": 12.9, "CATCH_SKM": 28.17, "UPLAND_SKM": 28.200001, "ENDORHEIC": 0, "DIS_AV_CMS": 0.338, "ORD_STRA": 1, "ORD_CLAS": 2, "ORD_FLOW": 7, "HYBAS_L12": 4120049440.0, "Shape_Length": 0.068331228902540869 }, "geometry": { "type": "Polygon", "coordinates": [ ] } },
{ "type": "Feature", "properties": { "HYRIV_ID": 41394424, "NEXT_DOWN": 41394156, "MAIN_RIV": 41393543, "LENGTH_KM": 4.8200002, "DIST_DN_KM": 15.1, "DIST_UP_KM": 74.199997, "CATCH_SKM": 17.58, "UPLAND_SKM": 592.59998, "ENDORHEIC": 0, "DIS_AV_CMS": 5.599, "ORD_STRA": 3, "ORD_CLAS": 1, "ORD_FLOW": 6, "HYBAS_L12": 4121599890.0, "Shape_Length": 0.043392556510011643 }, "geometry": { "type": "Polygon", "coordinates": [ ] } },
{ "type": "Feature", "properties": { "HYRIV_ID": 41394587, "NEXT_DOWN": 41394156, "MAIN_RIV": 41393543, "LENGTH_KM": 11.37, "DIST_DN_KM": 15.1, "DIST_UP_KM": 16.200001, "CATCH_SKM": 38.549999, "UPLAND_SKM": 38.5, "ENDORHEIC": 0, "DIS_AV_CMS": 0.431, "ORD_STRA": 1, "ORD_CLAS": 2, "ORD_FLOW": 7, "HYBAS_L12": 4121599890.0, "Shape_Length": 0.10282362304034612 }, "geometry": { "type": "Polygon", "coordinates": [ ] } },
{ "type": "Feature", "properties": { "HYRIV_ID": 41394588, "NEXT_DOWN": 41394424, "MAIN_RIV": 41393543, "LENGTH_KM": 2.5, "DIST_DN_KM": 20.1, "DIST_UP_KM": 69.199997, "CATCH_SKM": 7.2, "UPLAND_SKM": 561.09998, "ENDORHEIC": 0, "DIS_AV_CMS": 5.4990001, "ORD_STRA": 3, "ORD_CLAS": 1, "ORD_FLOW": 6, "HYBAS_L12": 4121599890.0, "Shape_Length": 0.022559223176427674 }, "geometry": { "type": "Polygon", "coordinates": [ ] } },
{ "type": "Feature", "properties": { "HYRIV_ID": 41394621, "NEXT_DOWN": 41394424, "MAIN_RIV": 41393543, "LENGTH_KM": 3.2, "DIST_DN_KM": 19.9, "DIST_UP_KM": 8.4, "CATCH_SKM": 13.98, "UPLAND_SKM": 14.0, "ENDORHEIC": 0, "DIS_AV_CMS": 0.16, "ORD_STRA": 1, "ORD_CLAS": 2, "ORD_FLOW": 7, "HYBAS_L12": 4121599890.0, "Shape_Length": 0.028809223176654832 }, "geometry": { "type": "Polygon", "coordinates": [ ] } },
{ "type": "Feature", "properties": { "HYRIV_ID": 41394649, "NEXT_DOWN": 41394588, "MAIN_RIV": 41393543, "LENGTH_KM": 2.26, "DIST_DN_KM": 22.4, "DIST_UP_KM": 6.9, "CATCH_SKM": 11.65, "UPLAND_SKM": 11.7, "ENDORHEIC": 0, "DIS_AV_CMS": 0.139, "ORD_STRA": 1, "ORD_CLAS": 2, "ORD_FLOW": 7, "HYBAS_L12": 4121599890.0, "Shape_Length": 0.020475889843275384 }, "geometry": { "type": "Polygon", "coordinates": [ ] } },
{ "type": "Feature", "properties": { "HYRIV_ID": 41394916, "NEXT_DOWN": 41394588, "MAIN_RIV": 41393543, "LENGTH_KM": 5.56, "DIST_DN_KM": 22.4, "DIST_UP_KM": 66.900002, "CATCH_SKM": 24.57, "UPLAND_SKM": 542.20001, "ENDORHEIC": 0, "DIS_AV_CMS": 5.4029999, "ORD_STRA": 3, "ORD_CLAS": 1, "ORD_FLOW": 6, "HYBAS_L12": 4121599890.0, "Shape_Length": 0.049999999999982947 }, "geometry": { "type": "Polygon", "coordinates": [ ] } },
{ "type": "Feature", "properties": { "HYRIV_ID": 41394973, "NEXT_DOWN": 41394916, "MAIN_RIV": 41393543, "LENGTH_KM": 2.08, "DIST_DN_KM": 28.0, "DIST_UP_KM": 5.9, "CATCH_SKM": 11.02, "UPLAND_SKM": 11.0, "ENDORHEIC": 0, "DIS_AV_CMS": 0.124, "ORD_STRA": 1, "ORD_CLAS": 3, "ORD_FLOW": 7, "HYBAS_L12": 4121600060.0, "Shape_Length": 0.018898057941329323 }, "geometry": { "type": "Polygon", "coordinates": [ ] } },
{ "type": "Feature", "properties": { "HYRIV_ID": 41395070, "NEXT_DOWN": 41394916, "MAIN_RIV": 41393543, "LENGTH_KM": 2.9200001, "DIST_DN_KM": 28.0, "DIST_UP_KM": 8.4, "CATCH_SKM": 13.35, "UPLAND_SKM": 13.3, "ENDORHEIC": 0, "DIS_AV_CMS": 0.149, "ORD_STRA": 1, "ORD_CLAS": 2, "ORD_FLOW": 7, "HYBAS_L12": 4121600060.0, "Shape_Length": 0.026368446353160359 }, "geometry": { "type": "Polygon", "coordinates": [ ] } },
{ "type": "Feature", "properties": { "HYRIV_ID": 41395209, "NEXT_DOWN": 41394916, "MAIN_RIV": 41393543, "LENGTH_KM": 5.3800001, "DIST_DN_KM": 28.1, "DIST_UP_KM": 61.099998, "CATCH_SKM": 25.209999, "UPLAND_SKM": 493.29999, "ENDORHEIC": 0, "DIS_AV_CMS": 5.14, "ORD_STRA": 3, "ORD_CLAS": 1, "ORD_FLOW": 6, "HYBAS_L12": 4121600060.0, "Shape_Length": 0.048570226039590235 }, "geometry": { "type": "Polygon", "coordinates": [ ] } },
{ "type": "Feature", "properties": { "HYRIV_ID": 41395286, "NEXT_DOWN": 41395209, "MAIN_RIV": 41393543, "LENGTH_KM": 4.5500002, "DIST_DN_KM": 33.3, "DIST_UP_KM": 9.6, "CATCH_SKM": 16.530001, "UPLAND_SKM": 16.5, "ENDORHEIC": 0, "DIS_AV_CMS": 0.196, "ORD_STRA": 1, "ORD_CLAS": 2, "ORD_FLOW": 7, "HYBAS_L12": 4121600060.0, "Shape_Length": 0.041309223176545416 }, "geometry": { "type": "Polygon", "coordinates": [ ] } },
{ "type": "Feature", "properties": { "HYRIV_ID": 41395411, "NEXT_DOWN": 41395209, "MAIN_RIV": 41393543, "LENGTH_KM": 3.99, "DIST_DN_KM": 33.5, "DIST_UP_KM": 55.700001, "CATCH_SKM": 18.860001, "UPLAND_SKM": 451.5, "ENDORHEIC": 0, "DIS_AV_CMS": 4.8720002, "ORD_STRA": 3, "ORD_CLAS": 1, "ORD_FLOW": 6, "HYBAS_L12": 4121600060.0, "Shape_Length": 0.036070226039567298 }, "geometry": { "type": "Polygon", "coordinates": [ ] } },
{ "type": "Feature", "properties": { "HYRIV_ID": 41395412, "NEXT_DOWN": 41395411, "MAIN_RIV": 41393543, "LENGTH_KM": 1.79, "DIST_DN_KM": 37.3, "DIST_UP_KM": 6.9, "CATCH_SKM": 12.5, "UPLAND_SKM": 12.5, "ENDORHEIC": 0, "DIS_AV_CMS": 0.147, "ORD_STRA": 1, "ORD_CLAS": 2, "ORD_FLOW": 7, "HYBAS_L12": 4121600060.0, "Shape_Length": 0.01630922317665514 }, "geometry": { "type": "Polygon", "coordinates": [ ] } },
{ "type": "Feature", "properties": { "HYRIV_ID": 41395588, "NEXT_DOWN": 41395411, "MAIN_RIV": 41393543, "LENGTH_KM": 3.34, "DIST_DN_KM": 37.5, "DIST_UP_KM": 51.700001, "CATCH_SKM": 9.1099997, "UPLAND_SKM": 420.20001, "ENDORHEIC": 0, "DIS_AV_CMS": 4.6550002, "ORD_STRA": 3, "ORD_CLAS": 1, "ORD_FLOW": 6, "HYBAS_L12": 4121600060.0, "Shape_Length": 0.030177669529654616 }, "geometry": { "type": "Polygon", "coordinates": [ ] } },
{ "type": "Feature", "properties": { "HYRIV_ID": 41395620, "NEXT_DOWN": 41395588, "MAIN_RIV": 41393543, "LENGTH_KM": 4.7600002, "DIST_DN_KM": 40.700001, "DIST_UP_KM": 9.1, "CATCH_SKM": 25.01, "UPLAND_SKM": 25.0, "ENDORHEIC": 0, "DIS_AV_CMS": 0.273, "ORD_STRA": 1, "ORD_CLAS": 2, "ORD_FLOW": 7, "HYBAS_L12": 4121600180.0, "Shape_Length": 0.043183170961189524 }, "geometry": { "type": "Polygon", "coordinates": [ ] } },
{ "type": "Feature", "properties": { "HYRIV_ID": 41395762, "NEXT_DOWN": 41395588, "MAIN_RIV": 41393543, "LENGTH_KM": 4.37, "DIST_DN_KM": 40.700001, "DIST_UP_KM": 48.599998, "CATCH_SKM": 19.92, "UPLAND_SKM": 386.10001, "ENDORHEIC": 0, "DIS_AV_CMS": 4.3920002, "ORD_STRA": 3, "ORD_CLAS": 1, "ORD_FLOW": 6, "HYBAS_L12": 4121600180.0, "Shape_Length": 0.039522005725968146 }, "geometry": { "type": "Polygon", "coordinates": [ ] } },
{ "type": "Feature", "properties": { "HYRIV_ID": 41395780, "NEXT_DOWN": 41395762, "MAIN_RIV": 41393543, "LENGTH_KM": 0.46, "DIST_DN_KM": 45.0, "DIST_UP_KM": 44.200001, "CATCH_SKM": 1.06, "UPLAND_SKM": 340.89999, "ENDORHEIC": 0, "DIS_AV_CMS": 3.983, "ORD_STRA": 3, "ORD_CLAS": 1, "ORD_FLOW": 6, "HYBAS_L12": 4121600180.0, "Shape_Length": 0.0041666666667055097 }, "geometry": { "type": "Polygon", "coordinates": [ ] } },
{ "type": "Feature", "properties": { "HYRIV_ID": 41395781, "NEXT_DOWN": 41395762, "MAIN_RIV": 41393543, "LENGTH_KM": 4.4699998, "DIST_DN_KM": 45.0, "DIST_UP_KM": 8.0, "CATCH_SKM": 25.219999, "UPLAND_SKM": 25.200001, "ENDORHEIC": 0, "DIS_AV_CMS": 0.301, "ORD_STRA": 1, "ORD_CLAS": 2, "ORD_FLOW": 7, "HYBAS_L12": 4121600180.0, "Shape_Length": 0.040594336196365495 }, "geometry": { "type": "Polygon", "coordinates": [ ] } },
{ "type": "Feature", "properties": { "HYRIV_ID": 41395838, "NEXT_DOWN": 41395780, "MAIN_RIV": 41393543, "LENGTH_KM": 2.9, "DIST_DN_KM": 45.700001, "DIST_UP_KM": 6.7, "CATCH_SKM": 23.309999, "UPLAND_SKM": 23.3, "ENDORHEIC": 0, "DIS_AV_CMS": 0.259, "ORD_STRA": 1, "ORD_CLAS": 2, "ORD_FLOW": 7, "HYBAS_L12": 4121600180.0, "Shape_Length": 0.026368446353046672 }, "geometry": { "type": "Polygon", "coordinates": [ ] } },
{ "type": "Feature", "properties": { "HYRIV_ID": 41395897, "NEXT_DOWN": 41395780, "MAIN_RIV": 41393543, "LENGTH_KM": 2.23, "DIST_DN_KM": 45.700001, "DIST_UP_KM": 43.599998, "CATCH_SKM": 4.0300002, "UPLAND_SKM": 316.5, "ENDORHEIC": 0, "DIS_AV_CMS": 3.7279999, "ORD_STRA": 3, "ORD_CLAS": 1, "ORD_FLOW": 6, "HYBAS_L12": 4121600180.0, "Shape_Length": 0.020118446353066567 }, "geometry": { "type": "Polygon", "coordinates": [ ] } },
{ "type": "Feature", "properties": { "HYRIV_ID": 41395970, "NEXT_DOWN": 41395897, "MAIN_RIV": 41393543, "LENGTH_KM": 1.81, "DIST_DN_KM": 47.900002, "DIST_UP_KM": 6.0, "CATCH_SKM": 13.35, "UPLAND_SKM": 13.4, "ENDORHEIC": 0, "DIS_AV_CMS": 0.152, "ORD_STRA": 1, "ORD_CLAS": 2, "ORD_FLOW": 7, "HYBAS_L12": 4121600180.0, "Shape_Length": 0.01630922317656815 }, "geometry": { "type": "Polygon", "coordinates": [ ] } },
{ "type": "Feature", "properties": { "HYRIV_ID": 41396015, "NEXT_DOWN": 41395897, "MAIN_RIV": 41393543, "LENGTH_KM": 3.07, "DIST_DN_KM": 47.900002, "DIST_UP_KM": 41.3, "CATCH_SKM": 6.5700002, "UPLAND_SKM": 299.20001, "ENDORHEIC": 0, "DIS_AV_CMS": 3.5880001, "ORD_STRA": 3, "ORD_CLAS": 1, "ORD_FLOW": 6, "HYBAS_L12": 4121600180.0, "Shape_Length": 0.027736892706213122 }, "geometry": { "type": "Polygon", "coordinates": [ ] } },
{ "type": "Feature", "properties": { "HYRIV_ID": 41396016, "NEXT_DOWN": 41396015, "MAIN_RIV": 41393543, "LENGTH_KM": 1.43, "DIST_DN_KM": 50.8, "DIST_UP_KM": 5.1, "CATCH_SKM": 10.81, "UPLAND_SKM": 10.8, "ENDORHEIC": 0, "DIS_AV_CMS": 0.133, "ORD_STRA": 1, "ORD_CLAS": 2, "ORD_FLOW": 7, "HYBAS_L12": 4121600180.0, "Shape_Length": 0.013005501431523427 }, "geometry": { "type": "Polygon", "coordinates": [ ] } },
{ "type": "Feature", "properties": { "HYRIV_ID": 41396063, "NEXT_DOWN": 41396015, "MAIN_RIV": 41393543, "LENGTH_KM": 1.11, "DIST_DN_KM": 51.0, "DIST_UP_KM": 38.3, "CATCH_SKM": 2.33, "UPLAND_SKM": 281.79999, "ENDORHEIC": 0, "DIS_AV_CMS": 3.448, "ORD_STRA": 3, "ORD_CLAS": 1, "ORD_FLOW": 6, "HYBAS_L12": 4121600180.0, "Shape_Length": 0.010059223176618191 }, "geometry": { "type": "Polygon", "coordinates": [ ] } },
{ "type": "Feature", "properties": { "HYRIV_ID": 41396114, "NEXT_DOWN": 41396063, "MAIN_RIV": 41393543, "LENGTH_KM": 3.0, "DIST_DN_KM": 51.900002, "DIST_UP_KM": 7.7, "CATCH_SKM": 15.26, "UPLAND_SKM": 15.3, "ENDORHEIC": 0, "DIS_AV_CMS": 0.175, "ORD_STRA": 1, "ORD_CLAS": 2, "ORD_FLOW": 7, "HYBAS_L12": 4121600180.0, "Shape_Length": 0.027231391274681476 }, "geometry": { "type": "Polygon", "coordinates": [ ] } },
{ "type": "Feature", "properties": { "HYRIV_ID": 41396224, "NEXT_DOWN": 41396063, "MAIN_RIV": 41393543, "LENGTH_KM": 2.6900001, "DIST_DN_KM": 52.099998, "DIST_UP_KM": 37.099998, "CATCH_SKM": 9.96, "UPLAND_SKM": 264.20001, "ENDORHEIC": 0, "DIS_AV_CMS": 3.2550001, "ORD_STRA": 3, "ORD_CLAS": 1, "ORD_FLOW": 6, "HYBAS_L12": 4121600180.0, "Shape_Length": 0.024285113019772077 }, "geometry": { "type": "Polygon", "coordinates": [ ] } },
{ "type": "Feature", "properties": { "HYRIV_ID": 41396225, "NEXT_DOWN": 41396224, "MAIN_RIV": 41393543, "LENGTH_KM": 2.52, "DIST_DN_KM": 54.599998, "DIST_UP_KM": 6.3, "CATCH_SKM": 16.959999, "UPLAND_SKM": 17.0, "ENDORHEIC": 0, "DIS_AV_CMS": 0.212, "ORD_STRA": 1, "ORD_CLAS": 2, "ORD_FLOW": 7, "HYBAS_L12": 4121600280.0, "Shape_Length": 0.022916666666674246 }, "geometry": { "type": "Polygon", "coordinates": [ ] } },
{ "type": "Feature", "properties": { "HYRIV_ID": 41396374, "NEXT_DOWN": 41396224, "MAIN_RIV": 41393543, "LENGTH_KM": 2.6900001, "DIST_DN_KM": 54.599998, "DIST_UP_KM": 34.599998, "CATCH_SKM": 12.08, "UPLAND_SKM": 237.3, "ENDORHEIC": 0, "DIS_AV_CMS": 2.944, "ORD_STRA": 3, "ORD_CLAS": 1, "ORD_FLOW": 6, "HYBAS_L12": 4121600280.0, "Shape_Length": 0.024285113019773801 }, "geometry": { "type": "Polygon", "coordinates": [ ] } },
{ "type": "Feature", "properties": { "HYRIV_ID": 41396466, "NEXT_DOWN": 41396374, "MAIN_RIV": 41393543, "LENGTH_KM": 4.3, "DIST_DN_KM": 57.3, "DIST_UP_KM": 8.4, "CATCH_SKM": 22.049999, "UPLAND_SKM": 22.0, "ENDORHEIC": 0, "DIS_AV_CMS": 0.27700001, "ORD_STRA": 1, "ORD_CLAS": 2, "ORD_FLOW": 7, "HYBAS_L12": 4121600280.0, "Shape_Length": 0.0390165042944767 }, "geometry": { "type": "Polygon", "coordinates": [ ] } },
{ "type": "Feature", "properties": { "HYRIV_ID": 41396508, "NEXT_DOWN": 41396374, "MAIN_RIV": 41393543, "LENGTH_KM": 2.6900001, "DIST_DN_KM": 57.3, "DIST_UP_KM": 31.9, "CATCH_SKM": 9.33, "UPLAND_SKM": 203.10001, "ENDORHEIC": 0, "DIS_AV_CMS": 2.5409999, "ORD_STRA": 3, "ORD_CLAS": 1, "ORD_FLOW": 6, "HYBAS_L12": 4121600280.0, "Shape_Length": 0.024285113019773801 }, "geometry": { "type": "Polygon", "coordinates": [ ] } },
{ "type": "Feature", "properties": { "HYRIV_ID": 41396738, "NEXT_DOWN": 41396508, "MAIN_RIV": 41393543, "LENGTH_KM": 5.75, "DIST_DN_KM": 60.0, "DIST_UP_KM": 29.3, "CATCH_SKM": 15.48, "UPLAND_SKM": 156.89999, "ENDORHEIC": 0, "DIS_AV_CMS": 1.995, "ORD_STRA": 3, "ORD_CLAS": 1, "ORD_FLOW": 6, "HYBAS_L12": 4121600280.0, "Shape_Length": 0.052022005726025396 }, "geometry": { "type": "Polygon", "coordinates": [ ] } },
{ "type": "Feature", "properties": { "HYRIV_ID": 41396739, "NEXT_DOWN": 41396738, "MAIN_RIV": 41393543, "LENGTH_KM": 0.69, "DIST_DN_KM": 65.800003, "DIST_UP_KM": 5.2, "CATCH_SKM": 10.81, "UPLAND_SKM": 10.8, "ENDORHEIC": 0, "DIS_AV_CMS": 0.141, "ORD_STRA": 1, "ORD_CLAS": 2, "ORD_FLOW": 7, "HYBAS_L12": 4121600280.0, "Shape_Length": 0.0062499999999090505 }, "geometry": { "type": "Polygon", "coordinates": [ ] } },
{ "type": "Feature", "properties": { "HYRIV_ID": 41396846, "NEXT_DOWN": 41396738, "MAIN_RIV": 41393543, "LENGTH_KM": 1.85, "DIST_DN_KM": 65.800003, "DIST_UP_KM": 23.5, "CATCH_SKM": 2.33, "UPLAND_SKM": 130.60001, "ENDORHEIC": 0, "DIS_AV_CMS": 1.684, "ORD_STRA": 3, "ORD_CLAS": 1, "ORD_FLOW": 6, "HYBAS_L12": 4121600280.0, "Shape_Length": 0.01666666666667993 }, "geometry": { "type": "Polygon", "coordinates": [ ] } },
{ "type": "Feature", "properties": { "HYRIV_ID": 41396847, "NEXT_DOWN": 41396846, "MAIN_RIV": 41393543, "LENGTH_KM": 0.92, "DIST_DN_KM": 67.599998, "DIST_UP_KM": 8.2, "CATCH_SKM": 1.48, "UPLAND_SKM": 26.1, "ENDORHEIC": 0, "DIS_AV_CMS": 0.343, "ORD_STRA": 2, "ORD_CLAS": 2, "ORD_FLOW": 7, "HYBAS_L12": 4121600430.0, "Shape_Length": 0.0083333333333257542 }, "geometry": { "type": "Polygon", "coordinates": [ ] } },
{ "type": "Feature", "properties": { "HYRIV_ID": 41396848, "NEXT_DOWN": 41396847, "MAIN_RIV": 41393543, "LENGTH_KM": 0.69, "DIST_DN_KM": 68.5, "DIST_UP_KM": 5.1, "CATCH_SKM": 8.2700005, "UPLAND_SKM": 8.3, "ENDORHEIC": 0, "DIS_AV_CMS": 0.109, "ORD_STRA": 1, "ORD_CLAS": 3, "ORD_FLOW": 7, "HYBAS_L12": 4121600430.0, "Shape_Length": 0.0062499999999090505 }, "geometry": { "type": "Polygon", "coordinates": [ ] } },
{ "type": "Feature", "properties": { "HYRIV_ID": 41396906, "NEXT_DOWN": 41396508, "MAIN_RIV": 41393543, "LENGTH_KM": 8.8500004, "DIST_DN_KM": 60.200001, "DIST_UP_KM": 13.4, "CATCH_SKM": 36.889999, "UPLAND_SKM": 36.900002, "ENDORHEIC": 0, "DIS_AV_CMS": 0.449, "ORD_STRA": 1, "ORD_CLAS": 2, "ORD_FLOW": 7, "HYBAS_L12": 4121600280.0, "Shape_Length": 0.079820226039650527 }, "geometry": { "type": "Polygon", "coordinates": [ ] } },
{ "type": "Feature", "properties": { "HYRIV_ID": 41396937, "NEXT_DOWN": 41396847, "MAIN_RIV": 41393543, "LENGTH_KM": 2.9300001, "DIST_DN_KM": 68.699997, "DIST_UP_KM": 7.0, "CATCH_SKM": 16.33, "UPLAND_SKM": 16.3, "ENDORHEIC": 0, "DIS_AV_CMS": 0.215, "ORD_STRA": 1, "ORD_CLAS": 2, "ORD_FLOW": 7, "HYBAS_L12": 4121600430.0, "Shape_Length": 0.026516504294471416 }, "geometry": { "type": "Polygon", "coordinates": [ ] } },
{ "type": "Feature", "properties": { "HYRIV_ID": 41397072, "NEXT_DOWN": 41396846, "MAIN_RIV": 41393543, "LENGTH_KM": 5.5700002, "DIST_DN_KM": 67.800003, "DIST_UP_KM": 21.5, "CATCH_SKM": 21.42, "UPLAND_SKM": 102.2, "ENDORHEIC": 0, "DIS_AV_CMS": 1.3150001, "ORD_STRA": 2, "ORD_CLAS": 1, "ORD_FLOW": 6, "HYBAS_L12": 4121600430.0, "Shape_Length": 0.05029611588268515 }, "geometry": { "type": "Polygon", "coordinates": [ ] } },
{ "type": "Feature", "properties": { "HYRIV_ID": 41397272, "NEXT_DOWN": 41397072, "MAIN_RIV": 41393543, "LENGTH_KM": 4.77, "DIST_DN_KM": 73.199997, "DIST_UP_KM": 10.4, "CATCH_SKM": 32.450001, "UPLAND_SKM": 32.400002, "ENDORHEIC": 0, "DIS_AV_CMS": 0.413, "ORD_STRA": 1, "ORD_CLAS": 2, "ORD_FLOW": 7, "HYBAS_L12": 4121600430.0, "Shape_Length": 0.043035113019826376 }, "geometry": { "type": "Polygon", "coordinates": [ ] } },
{ "type": "Feature", "properties": { "HYRIV_ID": 41397558, "NEXT_DOWN": 41397072, "MAIN_RIV": 41393543, "LENGTH_KM": 11.0, "DIST_DN_KM": 73.400002, "DIST_UP_KM": 15.9, "CATCH_SKM": 48.349998, "UPLAND_SKM": 48.400002, "ENDORHEIC": 0, "DIS_AV_CMS": 0.635, "ORD_STRA": 1, "ORD_CLAS": 1, "ORD_FLOW": 7, "HYBAS_L12": 4121600430.0, "Shape_Length": 0.099223785412296733 }, "geometry": { "type": "Polygon", "coordinates": [ ] } }
]
}
