{
"type": "FeatureCollection",
"name": "main_river_41398945",
"crs": { "type": "name", "properties": { "name": "urn:ogc:def:crs:OGC:1.3:CRS84" } },
"features": [
{ "type": "Feature", "properties": { "HYRIV_ID": 41398944, "NEXT_DOWN": 41398945, "MAIN_RIV": 41398945, "LENGTH_KM": 0.98, "DIST_DN_KM": 2.8, "DIST_UP_KM": 4.9, "CATCH_SKM": 8.2799997, "UPLAND_SKM": 8.3, "ENDORHEIC": 0, "DIS_AV_CMS": 0.133, "ORD_STRA": 1, "ORD_CLAS": 2, "ORD_FLOW": 7, "HYBAS_L12": 4120049630.0, "Shape_Length": 0.0088388347648338528 }, "geometry": { "type": "MultiLineString", "coordinates": [ [ [ 81.195833333332956, 8.612499999999876 ], [ 81.202083333332979, 8.606249999999896 ] ] ] } },
{ "type": "Feature", "properties": { "HYRIV_ID": 41398945, "NEXT_DOWN": 0, "MAIN_RIV": 41398945, "LENGTH_KM": 2.4100001, "DIST_DN_KM": 0.0, "DIST_UP_KM": 7.5, "CATCH_SKM": 12.31, "UPLAND_SKM": 27.6, "ENDORHEIC": 0, "DIS_AV_CMS": 0.442, "ORD_STRA": 2, "ORD_CLAS": 1, "ORD_FLOW": 7, "HYBAS_L12": 4120049630.0, "Shape_Length": 0.021844336196340634 }, "geometry": { "type": "MultiLineString", "coordinates": [ [ [ 81.202083333332979, 8.606249999999896 ], [ 81.214583333333024, 8.618749999999871 ], [ 81.218749999999687, 8.618749999999871 ] ] ] } },
{ "type": "Feature", "properties": { "HYRIV_ID": 41398977, "NEXT_DOWN": 41398945, "MAIN_RIV": 41398945, "LENGTH_KM": 0.69, "DIST_DN_KM": 2.6, "DIST_UP_KM": 5.1, "CATCH_SKM": 7.4299998, "UPLAND_SKM": 7.4, "ENDORHEIC": 0, "DIS_AV_CMS": 0.121, "ORD_STRA": 1, "ORD_CLAS": 1, "ORD_FLOW": 7, "HYBAS_L12": 4120049630.0, "Shape_Length": 0.0062500000000369482 }, "geometry": { "type": "MultiLineString", "coordinates": [ [ [ 81.202083333332979, 8.599999999999859 ], [ 81.202083333332979, 8.606249999999896 ] ] ] } }
]
}
