{
"type": "FeatureCollection",
"name": "main_river_41399767",
"crs": { "type": "name", "properties": { "name": "urn:ogc:def:crs:OGC:1.3:CRS84" } },
"features": [
{ "type": "Feature", "properties": { "HYRIV_ID": 41399724, "NEXT_DOWN": 41399768, "MAIN_RIV": 41399767, "LENGTH_KM": 3.2, "DIST_DN_KM": 3.0, "DIST_UP_KM": 8.5, "CATCH_SKM": 27.389999, "UPLAND_SKM": 27.4, "ENDORHEIC": 0, "DIS_AV_CMS": 0.278, "ORD_STRA": 1, "ORD_CLAS": 2, "ORD_FLOW": 7, "HYBAS_L12": 4120049240.0, "Shape_Length": 0.028809223176627125 }, "geometry": { "type": "MultiLineString", "coordinates": [ [ [ 79.885416666666373, 8.474999999999859 ], [ 79.885416666666373, 8.468749999999865 ], [ 79.881249999999596, 8.464583333333216 ], [ 79.881249999999596, 8.447916666666536 ] ] ] } },
{ "type": "Feature", "properties": { "HYRIV_ID": 41399725, "NEXT_DOWN": 41399768, "MAIN_RIV": 41399767, "LENGTH_KM": 2.75, "DIST_DN_KM": 3.0, "DIST_UP_KM": 13.4, "CATCH_SKM": 5.31, "UPLAND_SKM": 70.099998, "ENDORHEIC": 0, "DIS_AV_CMS": 0.71600002, "ORD_STRA": 2, "ORD_CLAS": 1, "ORD_FLOW": 7, "HYBAS_L12": 4120049240.0, "Shape_Length": 0.025000000000147793 }, "geometry": { "type": "MultiLineString", "coordinates": [ [ [ 79.906249999999744, 8.447916666666536 ], [ 79.881249999999596, 8.447916666666536 ] ] ] } },
{ "type": "Feature", "properties": { "HYRIV_ID": 41399726, "NEXT_DOWN": 41399725, "MAIN_RIV": 41399767, "LENGTH_KM": 1.83, "DIST_DN_KM": 5.8, "DIST_UP_KM": 8.7, "CATCH_SKM": 4.0300002, "UPLAND_SKM": 34.400002, "ENDORHEIC": 0, "DIS_AV_CMS": 0.35600001, "ORD_STRA": 2, "ORD_CLAS": 2, "ORD_FLOW": 7, "HYBAS_L12": 4120049240.0, "Shape_Length": 0.016666666666651508 }, "geometry": { "type": "MultiLineString", "coordinates": [ [ [ 79.922916666666396, 8.447916666666536 ], [ 79.906249999999744, 8.447916666666536 ] ] ] } },
{ "type": "Feature", "properties": { "HYRIV_ID": 41399745, "NEXT_DOWN": 41399726, "MAIN_RIV": 41399767, "LENGTH_KM": 2.26, "DIST_DN_KM": 7.6, "DIST_UP_KM": 6.1, "CATCH_SKM": 16.77, "UPLAND_SKM": 16.8, "ENDORHEIC": 0, "DIS_AV_CMS": 0.174, "ORD_STRA": 1, "ORD_CLAS": 3, "ORD_FLOW": 7, "HYBAS_L12": 4120049240.0, "Shape_Length": 0.020475889843224133 }, "geometry": { "type": "MultiLineString", "coordinates": [ [ [ 79.94166666666635, 8.443749999999874 ], [ 79.935416666666271, 8.443749999999874 ], [ 79.931249999999778, 8.447916666666536 ], [ 79.922916666666396, 8.447916666666536 ] ] ] } },
{ "type": "Feature", "properties": { "HYRIV_ID": 41399767, "NEXT_DOWN": 0, "MAIN_RIV": 41399767, "LENGTH_KM": 0.65, "DIST_DN_KM": 0.0, "DIST_UP_KM": 16.1, "CATCH_SKM": 1.27, "UPLAND_SKM": 146.10001, "ENDORHEIC": 0, "DIS_AV_CMS": 1.477, "ORD_STRA": 3, "ORD_CLAS": 1, "ORD_FLOW": 6, "HYBAS_L12": 4120049240.0, "Shape_Length": 0.0058925565098825365 }, "geometry": { "type": "MultiLineString", "coordinates": [ [ [ 79.864583333333002, 8.439583333333211 ], [ 79.860416666666339, 8.443749999999874 ] ] ] } },
{ "type": "Feature", "properties": { "HYRIV_ID": 41399768, "NEXT_DOWN": 41399767, "MAIN_RIV": 41399767, "LENGTH_KM": 2.22, "DIST_DN_KM": 0.8, "DIST_UP_KM": 15.6, "CATCH_SKM": 4.0300002, "UPLAND_SKM": 101.5, "ENDORHEIC": 0, "DIS_AV_CMS": 1.024, "ORD_STRA": 2, "ORD_CLAS": 1, "ORD_FLOW": 6, "HYBAS_L12": 4120049240.0, "Shape_Length": 0.020118446353050636 }, "geometry": { "type": "MultiLineString", "coordinates": [ [ [ 79.881249999999596, 8.447916666666536 ], [ 79.872916666666328, 8.439583333333211 ], [ 79.864583333333002, 8.439583333333211 ] ] ] } },
{ "type": "Feature", "properties": { "HYRIV_ID": 41399816, "NEXT_DOWN": 41399726, "MAIN_RIV": 41399767, "LENGTH_KM": 2.6500001, "DIST_DN_KM": 7.8, "DIST_UP_KM": 6.7, "CATCH_SKM": 13.59, "UPLAND_SKM": 13.6, "ENDORHEIC": 0, "DIS_AV_CMS": 0.14300001, "ORD_STRA": 1, "ORD_CLAS": 2, "ORD_FLOW": 7, "HYBAS_L12": 4120049240.0, "Shape_Length": 0.023927669529581634 }, "geometry": { "type": "MultiLineString", "coordinates": [ [ [ 79.935416666666271, 8.429166666666525 ], [ 79.935416666666271, 8.435416666666519 ], [ 79.922916666666396, 8.447916666666536 ] ] ] } },
{ "type": "Feature", "properties": { "HYRIV_ID": 41399942, "NEXT_DOWN": 41399725, "MAIN_RIV": 41399767, "LENGTH_KM": 6.1700001, "DIST_DN_KM": 5.8, "DIST_UP_KM": 10.7, "CATCH_SKM": 30.370001, "UPLAND_SKM": 30.4, "ENDORHEIC": 0, "DIS_AV_CMS": 0.315, "ORD_STRA": 1, "ORD_CLAS": 1, "ORD_FLOW": 7, "HYBAS_L12": 4120049240.0, "Shape_Length": 0.055683170961121603 }, "geometry": { "type": "MultiLineString", "coordinates": [ [ [ 79.929166666666362, 8.404166666666534 ], [ 79.922916666666396, 8.410416666666528 ], [ 79.922916666666396, 8.418749999999839 ], [ 79.918749999999619, 8.422916666666545 ], [ 79.918749999999619, 8.427083333333194 ], [ 79.914583333332956, 8.427083333333194 ], [ 79.910416666666293, 8.431249999999856 ], [ 79.910416666666293, 8.439583333333211 ], [ 79.906249999999744, 8.443749999999874 ], [ 79.906249999999744, 8.447916666666536 ] ] ] } },
{ "type": "Feature", "properties": { "HYRIV_ID": 41399987, "NEXT_DOWN": 41399767, "MAIN_RIV": 41399767, "LENGTH_KM": 6.6, "DIST_DN_KM": 1.0, "DIST_UP_KM": 12.6, "CATCH_SKM": 19.32, "UPLAND_SKM": 43.5, "ENDORHEIC": 0, "DIS_AV_CMS": 0.445, "ORD_STRA": 2, "ORD_CLAS": 2, "ORD_FLOW": 7, "HYBAS_L12": 4120049240.0, "Shape_Length": 0.059640452079117542 }, "geometry": { "type": "MultiLineString", "coordinates": [ [ [ 79.885416666666373, 8.397916666666553 ], [ 79.877083333333047, 8.406249999999865 ], [ 79.877083333333047, 8.414583333333219 ], [ 79.872916666666328, 8.418749999999839 ], [ 79.868749999999665, 8.418749999999839 ], [ 79.856249999999676, 8.431249999999856 ], [ 79.864583333333002, 8.439583333333211 ] ] ] } },
{ "type": "Feature", "properties": { "HYRIV_ID": 41400008, "NEXT_DOWN": 41399987, "MAIN_RIV": 41399767, "LENGTH_KM": 0.98, "DIST_DN_KM": 7.6, "DIST_UP_KM": 4.9, "CATCH_SKM": 10.62, "UPLAND_SKM": 10.6, "ENDORHEIC": 0, "DIS_AV_CMS": 0.112, "ORD_STRA": 1, "ORD_CLAS": 3, "ORD_FLOW": 7, "HYBAS_L12": 4120049240.0, "Shape_Length": 0.0088388347648338528 }, "geometry": { "type": "MultiLineString", "coordinates": [ [ [ 79.891666666666339, 8.391666666666517 ], [ 79.885416666666373, 8.397916666666553 ] ] ] } },
{ "type": "Feature", "properties": { "HYRIV_ID": 41400027, "NEXT_DOWN": 41399987, "MAIN_RIV": 41399767, "LENGTH_KM": 1.4400001, "DIST_DN_KM": 7.4, "DIST_UP_KM": 6.2, "CATCH_SKM": 13.59, "UPLAND_SKM": 13.6, "ENDORHEIC": 0, "DIS_AV_CMS": 0.142, "ORD_STRA": 1, "ORD_CLAS": 2, "ORD_FLOW": 7, "HYBAS_L12": 4120049240.0, "Shape_Length": 0.013005501431589607 }, "geometry": { "type": "MultiLineString", "coordinates": [ [ [ 79.879166666666293, 8.387499999999854 ], [ 79.885416666666373, 8.393749999999848 ], [ 79.885416666666373, 8.397916666666553 ] ] ] } }
]
}
