{
"type": "FeatureCollection",
"name": "main_river_41401284",
"crs": { "type": "name", "properties": { "name": "urn:ogc:def:crs:OGC:1.3:CRS84" } },
"features": [
{ "type": "Feature", "properties": { "HYRIV_ID": 41400903, "NEXT_DOWN": 41400956, "MAIN_RIV": 41401284, "LENGTH_KM": 0.98, "DIST_DN_KM": 21.5, "DIST_UP_KM": 4.3, "CATCH_SKM": 11.26, "UPLAND_SKM": 11.3, "ENDORHEIC": 0, "DIS_AV_CMS": 0.227, "ORD_STRA": 1, "ORD_CLAS": 4, "ORD_FLOW": 7, "HYBAS_L12": 4121156600.0, "Shape_Length": 0.0088388347648740481 }, "geometry": { "type": "Polygon", "coordinates": [ ] } },
{ "type": "Feature", "properties": { "HYRIV_ID": 41400956, "NEXT_DOWN": 41401083, "MAIN_RIV": 41401284, "LENGTH_KM": 2.8800001, "DIST_DN_KM": 18.6, "DIST_UP_KM": 11.4, "CATCH_SKM": 9.5600004, "UPLAND_SKM": 41.400002, "ENDORHEIC": 0, "DIS_AV_CMS": 0.83700001, "ORD_STRA": 2, "ORD_CLAS": 3, "ORD_FLOW": 7, "HYBAS_L12": 4121156600.0, "Shape_Length": 0.026011002863022596 }, "geometry": { "type": "Polygon", "coordinates": [ ] } },
{ "type": "Feature", "properties": { "HYRIV_ID": 41400957, "NEXT_DOWN": 41401083, "MAIN_RIV": 41401284, "LENGTH_KM": 0.98, "DIST_DN_KM": 18.6, "DIST_UP_KM": 4.8, "CATCH_SKM": 6.1599998, "UPLAND_SKM": 6.2, "ENDORHEIC": 0, "DIS_AV_CMS": 0.125, "ORD_STRA": 1, "ORD_CLAS": 4, "ORD_FLOW": 7, "HYBAS_L12": 4121156600.0, "Shape_Length": 0.0088388347647534657 }, "geometry": { "type": "Polygon", "coordinates": [ ] } },
{ "type": "Feature", "properties": { "HYRIV_ID": 41400986, "NEXT_DOWN": 41400956, "MAIN_RIV": 41401284, "LENGTH_KM": 4.7800002, "DIST_DN_KM": 21.3, "DIST_UP_KM": 8.7, "CATCH_SKM": 20.610001, "UPLAND_SKM": 20.6, "ENDORHEIC": 0, "DIS_AV_CMS": 0.41800001, "ORD_STRA": 1, "ORD_CLAS": 3, "ORD_FLOW": 7, "HYBAS_L12": 4121156600.0, "Shape_Length": 0.04318317096113785 }, "geometry": { "type": "Polygon", "coordinates": [ ] } },
{ "type": "Feature", "properties": { "HYRIV_ID": 41401032, "NEXT_DOWN": 41401126, "MAIN_RIV": 41401284, "LENGTH_KM": 2.74, "DIST_DN_KM": 13.2, "DIST_UP_KM": 5.8, "CATCH_SKM": 13.6, "UPLAND_SKM": 13.6, "ENDORHEIC": 0, "DIS_AV_CMS": 0.278, "ORD_STRA": 1, "ORD_CLAS": 3, "ORD_FLOW": 7, "HYBAS_L12": 4121156600.0, "Shape_Length": 0.024642556509907404 }, "geometry": { "type": "Polygon", "coordinates": [ ] } },
{ "type": "Feature", "properties": { "HYRIV_ID": 41401033, "NEXT_DOWN": 41401126, "MAIN_RIV": 41401284, "LENGTH_KM": 1.81, "DIST_DN_KM": 13.4, "DIST_UP_KM": 4.5, "CATCH_SKM": 9.9899998, "UPLAND_SKM": 10.0, "ENDORHEIC": 0, "DIS_AV_CMS": 0.205, "ORD_STRA": 1, "ORD_CLAS": 4, "ORD_FLOW": 7, "HYBAS_L12": 4121156600.0, "Shape_Length": 0.016309223176517909 }, "geometry": { "type": "Polygon", "coordinates": [ ] } },
{ "type": "Feature", "properties": { "HYRIV_ID": 41401083, "NEXT_DOWN": 41401125, "MAIN_RIV": 41401284, "LENGTH_KM": 4.7399998, "DIST_DN_KM": 13.9, "DIST_UP_KM": 16.1, "CATCH_SKM": 9.7700005, "UPLAND_SKM": 57.400002, "ENDORHEIC": 0, "DIS_AV_CMS": 1.158, "ORD_STRA": 2, "ORD_CLAS": 3, "ORD_FLOW": 6, "HYBAS_L12": 4121156600.0, "Shape_Length": 0.042677669529716022 }, "geometry": { "type": "Polygon", "coordinates": [ ] } },
{ "type": "Feature", "properties": { "HYRIV_ID": 41401103, "NEXT_DOWN": 41401104, "MAIN_RIV": 41401284, "LENGTH_KM": 1.34, "DIST_DN_KM": 15.0, "DIST_UP_KM": 5.4, "CATCH_SKM": 9.1400003, "UPLAND_SKM": 9.1, "ENDORHEIC": 0, "DIS_AV_CMS": 0.18700001, "ORD_STRA": 1, "ORD_CLAS": 3, "ORD_FLOW": 7, "HYBAS_L12": 4121156600.0, "Shape_Length": 0.012142556509962116 }, "geometry": { "type": "Polygon", "coordinates": [ ] } },
{ "type": "Feature", "properties": { "HYRIV_ID": 41401104, "NEXT_DOWN": 41401125, "MAIN_RIV": 41401284, "LENGTH_KM": 1.11, "DIST_DN_KM": 13.7, "DIST_UP_KM": 18.5, "CATCH_SKM": 4.6700001, "UPLAND_SKM": 85.0, "ENDORHEIC": 0, "DIS_AV_CMS": 1.744, "ORD_STRA": 2, "ORD_CLAS": 2, "ORD_FLOW": 6, "HYBAS_L12": 4121156600.0, "Shape_Length": 0.010059223176585608 }, "geometry": { "type": "Polygon", "coordinates": [ ] } },
{ "type": "Feature", "properties": { "HYRIV_ID": 41401124, "NEXT_DOWN": 41401104, "MAIN_RIV": 41401284, "LENGTH_KM": 1.11, "DIST_DN_KM": 15.0, "DIST_UP_KM": 17.200001, "CATCH_SKM": 1.91, "UPLAND_SKM": 71.199997, "ENDORHEIC": 0, "DIS_AV_CMS": 1.462, "ORD_STRA": 2, "ORD_CLAS": 2, "ORD_FLOW": 6, "HYBAS_L12": 4121156600.0, "Shape_Length": 0.010059223176545413 }, "geometry": { "type": "Polygon", "coordinates": [ ] } },
{ "type": "Feature", "properties": { "HYRIV_ID": 41401125, "NEXT_DOWN": 41401251, "MAIN_RIV": 41401284, "LENGTH_KM": 3.6, "DIST_DN_KM": 10.1, "DIST_UP_KM": 22.1, "CATCH_SKM": 7.4400001, "UPLAND_SKM": 149.8, "ENDORHEIC": 0, "DIS_AV_CMS": 3.046, "ORD_STRA": 3, "ORD_CLAS": 2, "ORD_FLOW": 6, "HYBAS_L12": 4121156600.0, "Shape_Length": 0.032618446353022613 }, "geometry": { "type": "Polygon", "coordinates": [ ] } },
{ "type": "Feature", "properties": { "HYRIV_ID": 41401126, "NEXT_DOWN": 41401251, "MAIN_RIV": 41401284, "LENGTH_KM": 3.1600001, "DIST_DN_KM": 10.1, "DIST_UP_KM": 9.0, "CATCH_SKM": 13.17, "UPLAND_SKM": 36.8, "ENDORHEIC": 0, "DIS_AV_CMS": 0.75199997, "ORD_STRA": 2, "ORD_CLAS": 3, "ORD_FLOW": 7, "HYBAS_L12": 4121156600.0, "Shape_Length": 0.028451779686525389 }, "geometry": { "type": "Polygon", "coordinates": [ ] } },
{ "type": "Feature", "properties": { "HYRIV_ID": 41401250, "NEXT_DOWN": 41401124, "MAIN_RIV": 41401284, "LENGTH_KM": 5.4299998, "DIST_DN_KM": 15.9, "DIST_UP_KM": 9.1, "CATCH_SKM": 24.23, "UPLAND_SKM": 24.200001, "ENDORHEIC": 0, "DIS_AV_CMS": 0.501, "ORD_STRA": 1, "ORD_CLAS": 3, "ORD_FLOW": 7, "HYBAS_L12": 4121156600.0, "Shape_Length": 0.049075727471070925 }, "geometry": { "type": "Polygon", "coordinates": [ ] } },
{ "type": "Feature", "properties": { "HYRIV_ID": 41401251, "NEXT_DOWN": 41401283, "MAIN_RIV": 41401284, "LENGTH_KM": 4.64, "DIST_DN_KM": 5.6, "DIST_UP_KM": 26.6, "CATCH_SKM": 22.309999, "UPLAND_SKM": 208.89999, "ENDORHEIC": 0, "DIS_AV_CMS": 4.2470002, "ORD_STRA": 3, "ORD_CLAS": 2, "ORD_FLOW": 6, "HYBAS_L12": 4121156600.0, "Shape_Length": 0.041962782549384667 }, "geometry": { "type": "Polygon", "coordinates": [ ] } },
{ "type": "Feature", "properties": { "HYRIV_ID": 41401283, "NEXT_DOWN": 41401307, "MAIN_RIV": 41401284, "LENGTH_KM": 1.3, "DIST_DN_KM": 4.3, "DIST_UP_KM": 30.9, "CATCH_SKM": 2.98, "UPLAND_SKM": 361.70001, "ENDORHEIC": 0, "DIS_AV_CMS": 7.3979998, "ORD_STRA": 4, "ORD_CLAS": 1, "ORD_FLOW": 6, "HYBAS_L12": 4120049720.0, "Shape_Length": 0.011785113019795219 }, "geometry": { "type": "Polygon", "coordinates": [ ] } },
{ "type": "Feature", "properties": { "HYRIV_ID": 41401284, "NEXT_DOWN": 0, "MAIN_RIV": 41401284, "LENGTH_KM": 2.23, "DIST_DN_KM": 0.0, "DIST_UP_KM": 34.900002, "CATCH_SKM": 3.61, "UPLAND_SKM": 474.79999, "ENDORHEIC": 0, "DIS_AV_CMS": 9.75, "ORD_STRA": 4, "ORD_CLAS": 1, "ORD_FLOW": 6, "HYBAS_L12": 4120049720.0, "Shape_Length": 0.020118446353123411 }, "geometry": { "type": "Polygon", "coordinates": [ ] } },
{ "type": "Feature", "properties": { "HYRIV_ID": 41401307, "NEXT_DOWN": 41401284, "MAIN_RIV": 41401284, "LENGTH_KM": 1.76, "DIST_DN_KM": 2.6, "DIST_UP_KM": 32.599998, "CATCH_SKM": 2.55, "UPLAND_SKM": 376.10001, "ENDORHEIC": 0, "DIS_AV_CMS": 7.691, "ORD_STRA": 4, "ORD_CLAS": 1, "ORD_FLOW": 6, "HYBAS_L12": 4120049720.0, "Shape_Length": 0.015951779686448047 }, "geometry": { "type": "Polygon", "coordinates": [ ] } },
{ "type": "Feature", "properties": { "HYRIV_ID": 41401318, "NEXT_DOWN": 41401283, "MAIN_RIV": 41401284, "LENGTH_KM": 3.07, "DIST_DN_KM": 5.6, "DIST_UP_KM": 29.6, "CATCH_SKM": 4.46, "UPLAND_SKM": 149.8, "ENDORHEIC": 0, "DIS_AV_CMS": 3.096, "ORD_STRA": 3, "ORD_CLAS": 1, "ORD_FLOW": 6, "HYBAS_L12": 4121156640.0, "Shape_Length": 0.027736892706283461 }, "geometry": { "type": "Polygon", "coordinates": [ ] } },
{ "type": "Feature", "properties": { "HYRIV_ID": 41401346, "NEXT_DOWN": 41401307, "MAIN_RIV": 41401284, "LENGTH_KM": 2.9300001, "DIST_DN_KM": 4.3, "DIST_UP_KM": 6.3, "CATCH_SKM": 11.9, "UPLAND_SKM": 11.9, "ENDORHEIC": 0, "DIS_AV_CMS": 0.251, "ORD_STRA": 1, "ORD_CLAS": 2, "ORD_FLOW": 7, "HYBAS_L12": 4120049720.0, "Shape_Length": 0.026516504294461365 }, "geometry": { "type": "Polygon", "coordinates": [ ] } },
{ "type": "Feature", "properties": { "HYRIV_ID": 41401360, "NEXT_DOWN": 41401124, "MAIN_RIV": 41401284, "LENGTH_KM": 12.73, "DIST_DN_KM": 15.9, "DIST_UP_KM": 16.3, "CATCH_SKM": 45.049999, "UPLAND_SKM": 45.099998, "ENDORHEIC": 0, "DIS_AV_CMS": 0.92299998, "ORD_STRA": 1, "ORD_CLAS": 2, "ORD_FLOW": 7, "HYBAS_L12": 4121156600.0, "Shape_Length": 0.11517556509895308 }, "geometry": { "type": "Polygon", "coordinates": [ ] } },
{ "type": "Feature", "properties": { "HYRIV_ID": 41401361, "NEXT_DOWN": 41401318, "MAIN_RIV": 41401284, "LENGTH_KM": 2.09, "DIST_DN_KM": 8.5, "DIST_UP_KM": 5.7, "CATCH_SKM": 7.23, "UPLAND_SKM": 7.2, "ENDORHEIC": 0, "DIS_AV_CMS": 0.152, "ORD_STRA": 1, "ORD_CLAS": 2, "ORD_FLOW": 7, "HYBAS_L12": 4121156640.0, "Shape_Length": 0.018898057941298878 }, "geometry": { "type": "Polygon", "coordinates": [ ] } },
{ "type": "Feature", "properties": { "HYRIV_ID": 41401439, "NEXT_DOWN": 41401318, "MAIN_RIV": 41401284, "LENGTH_KM": 9.7299995, "DIST_DN_KM": 8.5, "DIST_UP_KM": 26.700001, "CATCH_SKM": 40.8, "UPLAND_SKM": 138.2, "ENDORHEIC": 0, "DIS_AV_CMS": 2.858, "ORD_STRA": 3, "ORD_CLAS": 1, "ORD_FLOW": 6, "HYBAS_L12": 4121156640.0, "Shape_Length": 0.088092231765542442 }, "geometry": { "type": "Polygon", "coordinates": [ ] } },
{ "type": "Feature", "properties": { "HYRIV_ID": 41401491, "NEXT_DOWN": 41401439, "MAIN_RIV": 41401284, "LENGTH_KM": 1.77, "DIST_DN_KM": 18.200001, "DIST_UP_KM": 10.2, "CATCH_SKM": 6.3800001, "UPLAND_SKM": 36.8, "ENDORHEIC": 0, "DIS_AV_CMS": 0.77, "ORD_STRA": 2, "ORD_CLAS": 2, "ORD_FLOW": 7, "HYBAS_L12": 4121156640.0, "Shape_Length": 0.015951779686427948 }, "geometry": { "type": "Polygon", "coordinates": [ ] } },
{ "type": "Feature", "properties": { "HYRIV_ID": 41401492, "NEXT_DOWN": 41401284, "MAIN_RIV": 41401284, "LENGTH_KM": 7.2399998, "DIST_DN_KM": 2.4, "DIST_UP_KM": 19.6, "CATCH_SKM": 25.290001, "UPLAND_SKM": 95.199997, "ENDORHEIC": 0, "DIS_AV_CMS": 2.007, "ORD_STRA": 2, "ORD_CLAS": 2, "ORD_FLOW": 6, "HYBAS_L12": 4120049720.0, "Shape_Length": 0.065236892706312083 }, "geometry": { "type": "Polygon", "coordinates": [ ] } },
{ "type": "Feature", "properties": { "HYRIV_ID": 41401504, "NEXT_DOWN": 41401491, "MAIN_RIV": 41401284, "LENGTH_KM": 0.98, "DIST_DN_KM": 20.200001, "DIST_UP_KM": 3.5, "CATCH_SKM": 5.7399998, "UPLAND_SKM": 5.7, "ENDORHEIC": 0, "DIS_AV_CMS": 0.12, "ORD_STRA": 1, "ORD_CLAS": 3, "ORD_FLOW": 7, "HYBAS_L12": 4121156640.0, "Shape_Length": 0.0088388347649041941 }, "geometry": { "type": "Polygon", "coordinates": [ ] } },
{ "type": "Feature", "properties": { "HYRIV_ID": 41401524, "NEXT_DOWN": 41401492, "MAIN_RIV": 41401284, "LENGTH_KM": 1.76, "DIST_DN_KM": 9.8, "DIST_UP_KM": 12.2, "CATCH_SKM": 2.34, "UPLAND_SKM": 45.099998, "ENDORHEIC": 0, "DIS_AV_CMS": 0.95200002, "ORD_STRA": 2, "ORD_CLAS": 2, "ORD_FLOW": 7, "HYBAS_L12": 4120049720.0, "Shape_Length": 0.015951779686448047 }, "geometry": { "type": "Polygon", "coordinates": [ ] } },
{ "type": "Feature", "properties": { "HYRIV_ID": 41401585, "NEXT_DOWN": 41401524, "MAIN_RIV": 41401284, "LENGTH_KM": 8.0100002, "DIST_DN_KM": 11.6, "DIST_UP_KM": 10.5, "CATCH_SKM": 31.879999, "UPLAND_SKM": 31.9, "ENDORHEIC": 0, "DIS_AV_CMS": 0.67299998, "ORD_STRA": 1, "ORD_CLAS": 2, "ORD_FLOW": 7, "HYBAS_L12": 4120049720.0, "Shape_Length": 0.072497895569115026 }, "geometry": { "type": "Polygon", "coordinates": [ ] } },
{ "type": "Feature", "properties": { "HYRIV_ID": 41401586, "NEXT_DOWN": 41401524, "MAIN_RIV": 41401284, "LENGTH_KM": 3.02, "DIST_DN_KM": 11.4, "DIST_UP_KM": 6.2, "CATCH_SKM": 10.84, "UPLAND_SKM": 10.8, "ENDORHEIC": 0, "DIS_AV_CMS": 0.23100001, "ORD_STRA": 1, "ORD_CLAS": 3, "ORD_FLOW": 7, "HYBAS_L12": 4120049720.0, "Shape_Length": 0.027231391274714061 }, "geometry": { "type": "Polygon", "coordinates": [ ] } },
{ "type": "Feature", "properties": { "HYRIV_ID": 41401601, "NEXT_DOWN": 41401602, "MAIN_RIV": 41401284, "LENGTH_KM": 2.55, "DIST_DN_KM": 29.200001, "DIST_UP_KM": 5.3, "CATCH_SKM": 10.41, "UPLAND_SKM": 10.4, "ENDORHEIC": 0, "DIS_AV_CMS": 0.217, "ORD_STRA": 1, "ORD_CLAS": 2, "ORD_FLOW": 7, "HYBAS_L12": 4121156640.0, "Shape_Length": 0.023064724607975252 }, "geometry": { "type": "Polygon", "coordinates": [ ] } },
{ "type": "Feature", "properties": { "HYRIV_ID": 41401602, "NEXT_DOWN": 41401439, "MAIN_RIV": 41401284, "LENGTH_KM": 10.94, "DIST_DN_KM": 18.200001, "DIST_UP_KM": 17.0, "CATCH_SKM": 36.98, "UPLAND_SKM": 60.599998, "ENDORHEIC": 0, "DIS_AV_CMS": 1.2539999, "ORD_STRA": 2, "ORD_CLAS": 1, "ORD_FLOW": 6, "HYBAS_L12": 4121156640.0, "Shape_Length": 0.098866341922393519 }, "geometry": { "type": "Polygon", "coordinates": [ ] } },
{ "type": "Feature", "properties": { "HYRIV_ID": 41401635, "NEXT_DOWN": 41401491, "MAIN_RIV": 41401284, "LENGTH_KM": 5.6100001, "DIST_DN_KM": 20.0, "DIST_UP_KM": 8.5, "CATCH_SKM": 24.66, "UPLAND_SKM": 24.700001, "ENDORHEIC": 0, "DIS_AV_CMS": 0.51700002, "ORD_STRA": 1, "ORD_CLAS": 2, "ORD_FLOW": 7, "HYBAS_L12": 4121156640.0, "Shape_Length": 0.050653559372966749 }, "geometry": { "type": "Polygon", "coordinates": [ ] } },
{ "type": "Feature", "properties": { "HYRIV_ID": 41401694, "NEXT_DOWN": 41401602, "MAIN_RIV": 41401284, "LENGTH_KM": 3.84, "DIST_DN_KM": 29.200001, "DIST_UP_KM": 6.0, "CATCH_SKM": 13.18, "UPLAND_SKM": 13.2, "ENDORHEIC": 0, "DIS_AV_CMS": 0.276, "ORD_STRA": 1, "ORD_CLAS": 1, "ORD_FLOW": 7, "HYBAS_L12": 4121156640.0, "Shape_Length": 0.034701779686410895 }, "geometry": { "type": "Polygon", "coordinates": [ ] } },
{ "type": "Feature", "properties": { "HYRIV_ID": 41401714, "NEXT_DOWN": 41401492, "MAIN_RIV": 41401284, "LENGTH_KM": 9.1400003, "DIST_DN_KM": 9.6, "DIST_UP_KM": 12.0, "CATCH_SKM": 24.870001, "UPLAND_SKM": 24.9, "ENDORHEIC": 0, "DIS_AV_CMS": 0.53100002, "ORD_STRA": 1, "ORD_CLAS": 3, "ORD_FLOW": 7, "HYBAS_L12": 4120049720.0, "Shape_Length": 0.082557118745694033 }, "geometry": { "type": "Polygon", "coordinates": [ ] } }
]
}
