{
"type": "FeatureCollection",
"name": "main_river_41391773",
"crs": { "type": "name", "properties": { "name": "urn:ogc:def:crs:OGC:1.3:CRS84" } },
"features": [
{ "type": "Feature", "properties": { "HYRIV_ID": 41391773, "NEXT_DOWN": 0, "MAIN_RIV": 41391773, "LENGTH_KM": 0.98, "DIST_DN_KM": 0.0, "DIST_UP_KM": 4.8, "CATCH_SKM": 8.6700001, "UPLAND_SKM": 8.0, "ENDORHEIC": 0, "DIS_AV_CMS": 0.102, "ORD_STRA": 1, "ORD_CLAS": 1, "ORD_FLOW": 7, "HYBAS_L12": 4120050170.0, "Shape_Length": 0.0088388347648840973 }, "geometry": { "type": "Polygon", "coordinates": [ ] } }
]
}
