{
"type": "FeatureCollection",
"name": "main_river_41397662",
"crs": { "type": "name", "properties": { "name": "urn:ogc:def:crs:OGC:1.3:CRS84" } },
"features": [
{ "type": "Feature", "properties": { "HYRIV_ID": 41397662, "NEXT_DOWN": 0, "MAIN_RIV": 41397662, "LENGTH_KM": 3.53, "DIST_DN_KM": 0.0, "DIST_UP_KM": 27.8, "CATCH_SKM": 10.61, "UPLAND_SKM": 126.4, "ENDORHEIC": 0, "DIS_AV_CMS": 1.863, "ORD_STRA": 2, "ORD_CLAS": 1, "ORD_FLOW": 6, "HYBAS_L12": 4120049580.0, "Shape_Length": 0.031903559372861781 }, "geometry": { "type": "MultiLineString", "coordinates": [ [ [ 81.060416666666328, 8.835416666666525 ], [ 81.06458333333299, 8.839583333333188 ], [ 81.06458333333299, 8.847916666666499 ], [ 81.072916666666316, 8.856249999999868 ], [ 81.068749999999653, 8.860416666666517 ] ] ] } },
{ "type": "Feature", "properties": { "HYRIV_ID": 41397684, "NEXT_DOWN": 41397662, "MAIN_RIV": 41397662, "LENGTH_KM": 1.35, "DIST_DN_KM": 3.9, "DIST_UP_KM": 4.5, "CATCH_SKM": 8.4799995, "UPLAND_SKM": 8.5, "ENDORHEIC": 0, "DIS_AV_CMS": 0.126, "ORD_STRA": 1, "ORD_CLAS": 2, "ORD_FLOW": 7, "HYBAS_L12": 4120049580.0, "Shape_Length": 0.012142556509876851 }, "geometry": { "type": "MultiLineString", "coordinates": [ [ [ 81.056249999999665, 8.837499999999856 ], [ 81.056249999999665, 8.831249999999862 ], [ 81.060416666666328, 8.835416666666525 ] ] ] } },
{ "type": "Feature", "properties": { "HYRIV_ID": 41397779, "NEXT_DOWN": 41397662, "MAIN_RIV": 41397662, "LENGTH_KM": 2.6900001, "DIST_DN_KM": 3.7, "DIST_UP_KM": 24.5, "CATCH_SKM": 6.79, "UPLAND_SKM": 107.8, "ENDORHEIC": 0, "DIS_AV_CMS": 1.604, "ORD_STRA": 2, "ORD_CLAS": 1, "ORD_FLOW": 6, "HYBAS_L12": 4120049580.0, "Shape_Length": 0.024285113019772077 }, "geometry": { "type": "MultiLineString", "coordinates": [ [ [ 81.052083333333002, 8.814583333333196 ], [ 81.060416666666328, 8.822916666666508 ], [ 81.060416666666328, 8.835416666666525 ] ] ] } },
{ "type": "Feature", "properties": { "HYRIV_ID": 41397919, "NEXT_DOWN": 41397779, "MAIN_RIV": 41397662, "LENGTH_KM": 4.0500002, "DIST_DN_KM": 6.6, "DIST_UP_KM": 7.7, "CATCH_SKM": 12.94, "UPLAND_SKM": 12.9, "ENDORHEIC": 0, "DIS_AV_CMS": 0.19400001, "ORD_STRA": 1, "ORD_CLAS": 2, "ORD_FLOW": 7, "HYBAS_L12": 4120049580.0, "Shape_Length": 0.036575727471099662 }, "geometry": { "type": "MultiLineString", "coordinates": [ [ [ 81.037499999999596, 8.787499999999874 ], [ 81.047916666666282, 8.797916666666517 ], [ 81.047916666666282, 8.802083333333222 ], [ 81.056249999999665, 8.810416666666534 ], [ 81.052083333333002, 8.814583333333196 ] ] ] } },
{ "type": "Feature", "properties": { "HYRIV_ID": 41397974, "NEXT_DOWN": 41397975, "MAIN_RIV": 41397662, "LENGTH_KM": 0.98, "DIST_DN_KM": 14.1, "DIST_UP_KM": 4.4, "CATCH_SKM": 9.12, "UPLAND_SKM": 9.1, "ENDORHEIC": 0, "DIS_AV_CMS": 0.14, "ORD_STRA": 1, "ORD_CLAS": 2, "ORD_FLOW": 7, "HYBAS_L12": 4120049580.0, "Shape_Length": 0.0088388347648037068 }, "geometry": { "type": "MultiLineString", "coordinates": [ [ [ 80.991666666666305, 8.787499999999874 ], [ 80.997916666666271, 8.781249999999879 ] ] ] } },
{ "type": "Feature", "properties": { "HYRIV_ID": 41397975, "NEXT_DOWN": 41397779, "MAIN_RIV": 41397662, "LENGTH_KM": 7.5, "DIST_DN_KM": 6.4, "DIST_UP_KM": 21.8, "CATCH_SKM": 17.18, "UPLAND_SKM": 88.0, "ENDORHEIC": 0, "DIS_AV_CMS": 1.323, "ORD_STRA": 2, "ORD_CLAS": 1, "ORD_FLOW": 6, "HYBAS_L12": 4120049580.0, "Shape_Length": 0.067973785412481752 }, "geometry": { "type": "MultiLineString", "coordinates": [ [ [ 80.997916666666271, 8.781249999999879 ], [ 81.010416666666316, 8.793749999999854 ], [ 81.018749999999642, 8.793749999999854 ], [ 81.031249999999631, 8.806249999999871 ], [ 81.035416666666293, 8.806249999999871 ], [ 81.043749999999619, 8.814583333333196 ], [ 81.052083333333002, 8.814583333333196 ] ] ] } },
{ "type": "Feature", "properties": { "HYRIV_ID": 41398104, "NEXT_DOWN": 41397975, "MAIN_RIV": 41397662, "LENGTH_KM": 2.5, "DIST_DN_KM": 13.9, "DIST_UP_KM": 14.3, "CATCH_SKM": 6.3600001, "UPLAND_SKM": 61.700001, "ENDORHEIC": 0, "DIS_AV_CMS": 0.95, "ORD_STRA": 2, "ORD_CLAS": 1, "ORD_FLOW": 7, "HYBAS_L12": 4120049580.0, "Shape_Length": 0.022559223176552418 }, "geometry": { "type": "MultiLineString", "coordinates": [ [ [ 80.993749999999608, 8.760416666666551 ], [ 80.993749999999608, 8.764583333333213 ], [ 80.997916666666271, 8.768749999999862 ], [ 80.997916666666271, 8.781249999999879 ] ] ] } },
{ "type": "Feature", "properties": { "HYRIV_ID": 41398132, "NEXT_DOWN": 41398104, "MAIN_RIV": 41397662, "LENGTH_KM": 1.8, "DIST_DN_KM": 16.4, "DIST_UP_KM": 5.8, "CATCH_SKM": 9.3400002, "UPLAND_SKM": 9.3, "ENDORHEIC": 0, "DIS_AV_CMS": 0.144, "ORD_STRA": 1, "ORD_CLAS": 3, "ORD_FLOW": 7, "HYBAS_L12": 4120049580.0, "Shape_Length": 0.016309223176541453 }, "geometry": { "type": "MultiLineString", "coordinates": [ [ [ 80.979166666666316, 8.756249999999845 ], [ 80.985416666666282, 8.756249999999845 ], [ 80.989583333332945, 8.760416666666551 ], [ 80.993749999999608, 8.760416666666551 ] ] ] } },
{ "type": "Feature", "properties": { "HYRIV_ID": 41398323, "NEXT_DOWN": 41398104, "MAIN_RIV": 41397662, "LENGTH_KM": 7.0, "DIST_DN_KM": 16.4, "DIST_UP_KM": 9.4, "CATCH_SKM": 21.85, "UPLAND_SKM": 21.9, "ENDORHEIC": 0, "DIS_AV_CMS": 0.338, "ORD_STRA": 1, "ORD_CLAS": 2, "ORD_FLOW": 7, "HYBAS_L12": 4120049580.0, "Shape_Length": 0.063301617314309777 }, "geometry": { "type": "MultiLineString", "coordinates": [ [ [ 80.954166666666282, 8.720833333333211 ], [ 80.960416666666248, 8.727083333333191 ], [ 80.960416666666248, 8.731249999999854 ], [ 80.968749999999687, 8.731249999999854 ], [ 80.977083333332956, 8.739583333333208 ], [ 80.981249999999619, 8.739583333333208 ], [ 80.989583333332945, 8.747916666666534 ], [ 80.989583333332945, 8.752083333333196 ], [ 80.993749999999608, 8.756249999999845 ], [ 80.993749999999608, 8.760416666666551 ] ] ] } },
{ "type": "Feature", "properties": { "HYRIV_ID": 41398462, "NEXT_DOWN": 41398104, "MAIN_RIV": 41397662, "LENGTH_KM": 8.4, "DIST_DN_KM": 16.6, "DIST_UP_KM": 11.6, "CATCH_SKM": 24.190001, "UPLAND_SKM": 24.200001, "ENDORHEIC": 0, "DIS_AV_CMS": 0.37400001, "ORD_STRA": 1, "ORD_CLAS": 1, "ORD_FLOW": 7, "HYBAS_L12": 4120049580.0, "Shape_Length": 0.075801617314220054 }, "geometry": { "type": "MultiLineString", "coordinates": [ [ [ 80.97083333333299, 8.699999999999868 ], [ 80.977083333332956, 8.706249999999862 ], [ 80.977083333332956, 8.714583333333174 ], [ 80.981249999999619, 8.718749999999879 ], [ 80.981249999999619, 8.722916666666542 ], [ 80.989583333332945, 8.731249999999854 ], [ 80.993749999999608, 8.731249999999854 ], [ 80.997916666666271, 8.735416666666559 ], [ 80.997916666666271, 8.756249999999845 ], [ 80.993749999999608, 8.760416666666551 ] ] ] } }
]
}
