{
"type": "FeatureCollection",
"name": "main_river_41403036",
"crs": { "type": "name", "properties": { "name": "urn:ogc:def:crs:OGC:1.3:CRS84" } },
"features": [
{ "type": "Feature", "properties": { "HYRIV_ID": 41403036, "NEXT_DOWN": 0, "MAIN_RIV": 41403036, "LENGTH_KM": 5.33, "DIST_DN_KM": 0.0, "DIST_UP_KM": 8.4, "CATCH_SKM": 13.19, "UPLAND_SKM": 13.0, "ENDORHEIC": 0, "DIS_AV_CMS": 0.262, "ORD_STRA": 1, "ORD_CLAS": 1, "ORD_FLOW": 7, "HYBAS_L12": 4120049140.0, "Shape_Length": 0.048212782549444153 }, "geometry": { "type": "Polygon", "coordinates": [ ] } }
]
}
