{
"type": "FeatureCollection",
"name": "main_river_41409648",
"crs": { "type": "name", "properties": { "name": "urn:ogc:def:crs:OGC:1.3:CRS84" } },
"features": [
{ "type": "Feature", "properties": { "HYRIV_ID": 41409444, "NEXT_DOWN": 41409465, "MAIN_RIV": 41409648, "LENGTH_KM": 5.81, "DIST_DN_KM": 6.1, "DIST_UP_KM": 8.4, "CATCH_SKM": 17.290001, "UPLAND_SKM": 17.3, "ENDORHEIC": 0, "DIS_AV_CMS": 0.417, "ORD_STRA": 1, "ORD_CLAS": 1, "ORD_FLOW": 7, "HYBAS_L12": 4120050070.0, "Shape_Length": 0.052379449216173199 }, "geometry": { "type": "MultiLineString", "coordinates": [ [ [ 81.081249999999699, 6.199999999999882 ], [ 81.081249999999699, 6.19375 ], [ 81.072916666666316, 6.185416666666576 ], [ 81.072916666666316, 6.172916666666559 ], [ 81.068749999999653, 6.16875 ], [ 81.077083333333036, 6.160416666666542 ], [ 81.081249999999699, 6.160416666666542 ] ] ] } },
{ "type": "Feature", "properties": { "HYRIV_ID": 41409445, "NEXT_DOWN": 41409465, "MAIN_RIV": 41409648, "LENGTH_KM": 2.29, "DIST_DN_KM": 6.3, "DIST_UP_KM": 5.1, "CATCH_SKM": 6.1900001, "UPLAND_SKM": 6.2, "ENDORHEIC": 0, "DIS_AV_CMS": 0.148, "ORD_STRA": 1, "ORD_CLAS": 2, "ORD_FLOW": 7, "HYBAS_L12": 4120050070.0, "Shape_Length": 0.020623947784548683 }, "geometry": { "type": "MultiLineString", "coordinates": [ [ [ 81.087499999999608, 6.174999999999891 ], [ 81.077083333333036, 6.164583333333248 ], [ 81.081249999999699, 6.160416666666542 ] ] ] } },
{ "type": "Feature", "properties": { "HYRIV_ID": 41409465, "NEXT_DOWN": 41409614, "MAIN_RIV": 41409648, "LENGTH_KM": 1.11, "DIST_DN_KM": 5.2, "DIST_UP_KM": 9.3, "CATCH_SKM": 2.77, "UPLAND_SKM": 26.200001, "ENDORHEIC": 0, "DIS_AV_CMS": 0.63, "ORD_STRA": 2, "ORD_CLAS": 1, "ORD_FLOW": 7, "HYBAS_L12": 4120050070.0, "Shape_Length": 0.010059223176471923 }, "geometry": { "type": "MultiLineString", "coordinates": [ [ [ 81.081249999999699, 6.160416666666542 ], [ 81.085416666666248, 6.160416666666542 ], [ 81.089583333333024, 6.15625 ] ] ] } },
{ "type": "Feature", "properties": { "HYRIV_ID": 41409466, "NEXT_DOWN": 41409614, "MAIN_RIV": 41409648, "LENGTH_KM": 3.12, "DIST_DN_KM": 5.0, "DIST_UP_KM": 5.6, "CATCH_SKM": 11.31, "UPLAND_SKM": 11.3, "ENDORHEIC": 0, "DIS_AV_CMS": 0.266, "ORD_STRA": 1, "ORD_CLAS": 2, "ORD_FLOW": 7, "HYBAS_L12": 4120050070.0, "Shape_Length": 0.028094336196320738 }, "geometry": { "type": "MultiLineString", "coordinates": [ [ [ 81.106249999999733, 6.174999999999891 ], [ 81.106249999999733, 6.16875 ], [ 81.093749999999687, 6.15625 ], [ 81.089583333333024, 6.15625 ] ] ] } },
{ "type": "Feature", "properties": { "HYRIV_ID": 41409614, "NEXT_DOWN": 41409648, "MAIN_RIV": 41409648, "LENGTH_KM": 4.2800002, "DIST_DN_KM": 0.9, "DIST_UP_KM": 13.6, "CATCH_SKM": 10.67, "UPLAND_SKM": 48.200001, "ENDORHEIC": 0, "DIS_AV_CMS": 1.1339999, "ORD_STRA": 2, "ORD_CLAS": 1, "ORD_FLOW": 6, "HYBAS_L12": 4120050070.0, "Shape_Length": 0.038511002863063193 }, "geometry": { "type": "MultiLineString", "coordinates": [ [ [ 81.089583333333024, 6.15625 ], [ 81.089583333333024, 6.152083333333231 ], [ 81.093749999999687, 6.147916666666568 ], [ 81.093749999999687, 6.131249999999888 ], [ 81.10208333333307, 6.122916666666576 ] ] ] } },
{ "type": "Feature", "properties": { "HYRIV_ID": 41409615, "NEXT_DOWN": 41409648, "MAIN_RIV": 41409648, "LENGTH_KM": 0.98, "DIST_DN_KM": 0.9, "DIST_UP_KM": 3.8, "CATCH_SKM": 4.9099998, "UPLAND_SKM": 4.9, "ENDORHEIC": 0, "DIS_AV_CMS": 0.116, "ORD_STRA": 1, "ORD_CLAS": 2, "ORD_FLOW": 7, "HYBAS_L12": 4120050070.0, "Shape_Length": 0.0088388347647635132 }, "geometry": { "type": "MultiLineString", "coordinates": [ [ [ 81.108333333332979, 6.129166666666571 ], [ 81.10208333333307, 6.122916666666576 ] ] ] } },
{ "type": "Feature", "properties": { "HYRIV_ID": 41409648, "NEXT_DOWN": 0, "MAIN_RIV": 41409648, "LENGTH_KM": 0.46, "DIST_DN_KM": 0.0, "DIST_UP_KM": 14.2, "CATCH_SKM": 2.1300001, "UPLAND_SKM": 54.8, "ENDORHEIC": 0, "DIS_AV_CMS": 1.2869999, "ORD_STRA": 2, "ORD_CLAS": 1, "ORD_FLOW": 6, "HYBAS_L12": 4120050070.0, "Shape_Length": 0.0041666666666628771 }, "geometry": { "type": "MultiLineString", "coordinates": [ [ [ 81.10208333333307, 6.122916666666576 ], [ 81.10208333333307, 6.11875 ] ] ] } }
]
}
