{
"type": "FeatureCollection",
"name": "main_river_41405819",
"crs": { "type": "name", "properties": { "name": "urn:ogc:def:crs:OGC:1.3:CRS84" } },
"features": [
{ "type": "Feature", "properties": { "HYRIV_ID": 41405564, "NEXT_DOWN": 41405838, "MAIN_RIV": 41405819, "LENGTH_KM": 4.0500002, "DIST_DN_KM": 14.6, "DIST_UP_KM": 7.1, "CATCH_SKM": 12.14, "UPLAND_SKM": 12.1, "ENDORHEIC": 0, "DIS_AV_CMS": 0.225, "ORD_STRA": 1, "ORD_CLAS": 1, "ORD_FLOW": 7, "HYBAS_L12": 4120049900.0, "Shape_Length": 0.03657572747103692 }, "geometry": { "type": "Polygon", "coordinates": [ ] } },
{ "type": "Feature", "properties": { "HYRIV_ID": 41405565, "NEXT_DOWN": 41405838, "MAIN_RIV": 41405819, "LENGTH_KM": 0.69, "DIST_DN_KM": 14.4, "DIST_UP_KM": 5.8, "CATCH_SKM": 6.39, "UPLAND_SKM": 6.4, "ENDORHEIC": 0, "DIS_AV_CMS": 0.118, "ORD_STRA": 1, "ORD_CLAS": 2, "ORD_FLOW": 7, "HYBAS_L12": 4120049900.0, "Shape_Length": 0.0062500000000227374 }, "geometry": { "type": "Polygon", "coordinates": [ ] } },
{ "type": "Feature", "properties": { "HYRIV_ID": 41405735, "NEXT_DOWN": 41405801, "MAIN_RIV": 41405819, "LENGTH_KM": 7.6700001, "DIST_DN_KM": 4.1, "DIST_UP_KM": 11.3, "CATCH_SKM": 37.07, "UPLAND_SKM": 37.099998, "ENDORHEIC": 0, "DIS_AV_CMS": 0.65399998, "ORD_STRA": 1, "ORD_CLAS": 2, "ORD_FLOW": 7, "HYBAS_L12": 4120049900.0, "Shape_Length": 0.069194173824096289 }, "geometry": { "type": "Polygon", "coordinates": [ ] } },
{ "type": "Feature", "properties": { "HYRIV_ID": 41405736, "NEXT_DOWN": 41405801, "MAIN_RIV": 41405819, "LENGTH_KM": 3.6700001, "DIST_DN_KM": 4.3, "DIST_UP_KM": 6.3, "CATCH_SKM": 11.93, "UPLAND_SKM": 11.9, "ENDORHEIC": 0, "DIS_AV_CMS": 0.211, "ORD_STRA": 1, "ORD_CLAS": 3, "ORD_FLOW": 7, "HYBAS_L12": 4120049900.0, "Shape_Length": 0.033123947784628467 }, "geometry": { "type": "Polygon", "coordinates": [ ] } },
{ "type": "Feature", "properties": { "HYRIV_ID": 41405801, "NEXT_DOWN": 41405819, "MAIN_RIV": 41405819, "LENGTH_KM": 3.34, "DIST_DN_KM": 1.0, "DIST_UP_KM": 14.5, "CATCH_SKM": 7.0300002, "UPLAND_SKM": 56.0, "ENDORHEIC": 0, "DIS_AV_CMS": 0.968, "ORD_STRA": 2, "ORD_CLAS": 2, "ORD_FLOW": 7, "HYBAS_L12": 4120049900.0, "Shape_Length": 0.030177669529696534 }, "geometry": { "type": "Polygon", "coordinates": [ ] } },
{ "type": "Feature", "properties": { "HYRIV_ID": 41405819, "NEXT_DOWN": 0, "MAIN_RIV": 41405819, "LENGTH_KM": 0.65, "DIST_DN_KM": 0.0, "DIST_UP_KM": 21.4, "CATCH_SKM": 1.06, "UPLAND_SKM": 116.6, "ENDORHEIC": 0, "DIS_AV_CMS": 1.971, "ORD_STRA": 3, "ORD_CLAS": 1, "ORD_FLOW": 6, "HYBAS_L12": 4120049900.0, "Shape_Length": 0.0058925565098825365 }, "geometry": { "type": "Polygon", "coordinates": [ ] } },
{ "type": "Feature", "properties": { "HYRIV_ID": 41405838, "NEXT_DOWN": 41405819, "MAIN_RIV": 41405819, "LENGTH_KM": 13.64, "DIST_DN_KM": 1.0, "DIST_UP_KM": 20.8, "CATCH_SKM": 41.34, "UPLAND_SKM": 59.900002, "ENDORHEIC": 0, "DIS_AV_CMS": 1.0, "ORD_STRA": 2, "ORD_CLAS": 1, "ORD_FLOW": 6, "HYBAS_L12": 4120049900.0, "Shape_Length": 0.1231514549420845 }, "geometry": { "type": "Polygon", "coordinates": [ ] } }
]
}
