{
"type": "FeatureCollection",
"name": "main_river_41406571",
"crs": { "type": "name", "properties": { "name": "urn:ogc:def:crs:OGC:1.3:CRS84" } },
"features": [
{ "type": "Feature", "properties": { "HYRIV_ID": 41406122, "NEXT_DOWN": 41406165, "MAIN_RIV": 41406571, "LENGTH_KM": 1.4400001, "DIST_DN_KM": 11.9, "DIST_UP_KM": 3.2, "CATCH_SKM": 6.6100001, "UPLAND_SKM": 6.6, "ENDORHEIC": 0, "DIS_AV_CMS": 0.255, "ORD_STRA": 1, "ORD_CLAS": 4, "ORD_FLOW": 7, "HYBAS_L12": 4120049030.0, "Shape_Length": 0.013005501431452373 }, "geometry": { "type": "Polygon", "coordinates": [ ] } },
{ "type": "Feature", "properties": { "HYRIV_ID": 41406123, "NEXT_DOWN": 41406165, "MAIN_RIV": 41406571, "LENGTH_KM": 1.15, "DIST_DN_KM": 11.9, "DIST_UP_KM": 3.8, "CATCH_SKM": 3.84, "UPLAND_SKM": 3.8, "ENDORHEIC": 0, "DIS_AV_CMS": 0.15, "ORD_STRA": 1, "ORD_CLAS": 3, "ORD_FLOW": 7, "HYBAS_L12": 4120049030.0, "Shape_Length": 0.010416666666628771 }, "geometry": { "type": "Polygon", "coordinates": [ ] } },
{ "type": "Feature", "properties": { "HYRIV_ID": 41406164, "NEXT_DOWN": 41406189, "MAIN_RIV": 41406571, "LENGTH_KM": 1.63, "DIST_DN_KM": 11.2, "DIST_UP_KM": 3.1, "CATCH_SKM": 5.54, "UPLAND_SKM": 5.5, "ENDORHEIC": 0, "DIS_AV_CMS": 0.215, "ORD_STRA": 1, "ORD_CLAS": 4, "ORD_FLOW": 7, "HYBAS_L12": 4120049030.0, "Shape_Length": 0.014731391274756585 }, "geometry": { "type": "Polygon", "coordinates": [ ] } },
{ "type": "Feature", "properties": { "HYRIV_ID": 41406165, "NEXT_DOWN": 41406189, "MAIN_RIV": 41406571, "LENGTH_KM": 0.93, "DIST_DN_KM": 11.0, "DIST_UP_KM": 4.7, "CATCH_SKM": 1.71, "UPLAND_SKM": 12.1, "ENDORHEIC": 0, "DIS_AV_CMS": 0.471, "ORD_STRA": 2, "ORD_CLAS": 3, "ORD_FLOW": 7, "HYBAS_L12": 4120049030.0, "Shape_Length": 0.0083333333333683868 }, "geometry": { "type": "Polygon", "coordinates": [ ] } },
{ "type": "Feature", "properties": { "HYRIV_ID": 41406189, "NEXT_DOWN": 41406296, "MAIN_RIV": 41406571, "LENGTH_KM": 0.46, "DIST_DN_KM": 10.5, "DIST_UP_KM": 5.2, "CATCH_SKM": 0.64, "UPLAND_SKM": 18.3, "ENDORHEIC": 0, "DIS_AV_CMS": 0.71100003, "ORD_STRA": 2, "ORD_CLAS": 3, "ORD_FLOW": 7, "HYBAS_L12": 4120049030.0, "Shape_Length": 0.0041666666666486663 }, "geometry": { "type": "Polygon", "coordinates": [ ] } },
{ "type": "Feature", "properties": { "HYRIV_ID": 41406190, "NEXT_DOWN": 41406296, "MAIN_RIV": 41406571, "LENGTH_KM": 0.69, "DIST_DN_KM": 10.5, "DIST_UP_KM": 2.7, "CATCH_SKM": 3.2, "UPLAND_SKM": 3.2, "ENDORHEIC": 0, "DIS_AV_CMS": 0.126, "ORD_STRA": 1, "ORD_CLAS": 4, "ORD_FLOW": 7, "HYBAS_L12": 4120049030.0, "Shape_Length": 0.0062499999999658939 }, "geometry": { "type": "Polygon", "coordinates": [ ] } },
{ "type": "Feature", "properties": { "HYRIV_ID": 41406191, "NEXT_DOWN": 41406277, "MAIN_RIV": 41406571, "LENGTH_KM": 0.69, "DIST_DN_KM": 22.0, "DIST_UP_KM": 2.7, "CATCH_SKM": 3.2, "UPLAND_SKM": 3.2, "ENDORHEIC": 0, "DIS_AV_CMS": 0.137, "ORD_STRA": 1, "ORD_CLAS": 2, "ORD_FLOW": 7, "HYBAS_L12": 4120049030.0, "Shape_Length": 0.0062499999999090505 }, "geometry": { "type": "Polygon", "coordinates": [ ] } },
{ "type": "Feature", "properties": { "HYRIV_ID": 41406211, "NEXT_DOWN": 41406351, "MAIN_RIV": 41406571, "LENGTH_KM": 2.27, "DIST_DN_KM": 19.4, "DIST_UP_KM": 4.7, "CATCH_SKM": 9.3800001, "UPLAND_SKM": 9.4, "ENDORHEIC": 0, "DIS_AV_CMS": 0.383, "ORD_STRA": 1, "ORD_CLAS": 2, "ORD_FLOW": 7, "HYBAS_L12": 4120049030.0, "Shape_Length": 0.02047588984327366 }, "geometry": { "type": "Polygon", "coordinates": [ ] } },
{ "type": "Feature", "properties": { "HYRIV_ID": 41406212, "NEXT_DOWN": 41406351, "MAIN_RIV": 41406571, "LENGTH_KM": 0.69, "DIST_DN_KM": 19.4, "DIST_UP_KM": 2.4, "CATCH_SKM": 3.4100001, "UPLAND_SKM": 3.4, "ENDORHEIC": 0, "DIS_AV_CMS": 0.142, "ORD_STRA": 1, "ORD_CLAS": 3, "ORD_FLOW": 7, "HYBAS_L12": 4120049030.0, "Shape_Length": 0.0062499999999658939 }, "geometry": { "type": "Polygon", "coordinates": [ ] } },
{ "type": "Feature", "properties": { "HYRIV_ID": 41406253, "NEXT_DOWN": 41406297, "MAIN_RIV": 41406571, "LENGTH_KM": 5.1599998, "DIST_DN_KM": 9.3, "DIST_UP_KM": 6.7, "CATCH_SKM": 14.07, "UPLAND_SKM": 14.1, "ENDORHEIC": 0, "DIS_AV_CMS": 0.56199998, "ORD_STRA": 1, "ORD_CLAS": 2, "ORD_FLOW": 7, "HYBAS_L12": 4120049030.0, "Shape_Length": 0.046634950647695732 }, "geometry": { "type": "Polygon", "coordinates": [ ] } },
{ "type": "Feature", "properties": { "HYRIV_ID": 41406254, "NEXT_DOWN": 41406277, "MAIN_RIV": 41406571, "LENGTH_KM": 2.1, "DIST_DN_KM": 22.1, "DIST_UP_KM": 4.8, "CATCH_SKM": 4.9, "UPLAND_SKM": 4.9, "ENDORHEIC": 0, "DIS_AV_CMS": 0.212, "ORD_STRA": 1, "ORD_CLAS": 1, "ORD_FLOW": 7, "HYBAS_L12": 4120049030.0, "Shape_Length": 0.018898057941356732 }, "geometry": { "type": "Polygon", "coordinates": [ ] } },
{ "type": "Feature", "properties": { "HYRIV_ID": 41406276, "NEXT_DOWN": 41406297, "MAIN_RIV": 41406571, "LENGTH_KM": 1.4400001, "DIST_DN_KM": 9.1, "DIST_UP_KM": 3.5, "CATCH_SKM": 3.84, "UPLAND_SKM": 3.8, "ENDORHEIC": 0, "DIS_AV_CMS": 0.154, "ORD_STRA": 1, "ORD_CLAS": 3, "ORD_FLOW": 7, "HYBAS_L12": 4120049030.0, "Shape_Length": 0.013005501431506779 }, "geometry": { "type": "Polygon", "coordinates": [ ] } },
{ "type": "Feature", "properties": { "HYRIV_ID": 41406277, "NEXT_DOWN": 41406353, "MAIN_RIV": 41406571, "LENGTH_KM": 2.8800001, "DIST_DN_KM": 19.3, "DIST_UP_KM": 7.7, "CATCH_SKM": 7.6700001, "UPLAND_SKM": 15.8, "ENDORHEIC": 0, "DIS_AV_CMS": 0.67799997, "ORD_STRA": 2, "ORD_CLAS": 1, "ORD_FLOW": 7, "HYBAS_L12": 4120049030.0, "Shape_Length": 0.026011002863001783 }, "geometry": { "type": "Polygon", "coordinates": [ ] } },
{ "type": "Feature", "properties": { "HYRIV_ID": 41406296, "NEXT_DOWN": 41406432, "MAIN_RIV": 41406571, "LENGTH_KM": 2.7, "DIST_DN_KM": 8.0, "DIST_UP_KM": 7.7, "CATCH_SKM": 6.6100001, "UPLAND_SKM": 28.1, "ENDORHEIC": 0, "DIS_AV_CMS": 1.097, "ORD_STRA": 2, "ORD_CLAS": 3, "ORD_FLOW": 6, "HYBAS_L12": 4120049030.0, "Shape_Length": 0.024285113019834804 }, "geometry": { "type": "Polygon", "coordinates": [ ] } },
{ "type": "Feature", "properties": { "HYRIV_ID": 41406297, "NEXT_DOWN": 41406432, "MAIN_RIV": 41406571, "LENGTH_KM": 1.31, "DIST_DN_KM": 8.0, "DIST_UP_KM": 8.0, "CATCH_SKM": 1.28, "UPLAND_SKM": 19.200001, "ENDORHEIC": 0, "DIS_AV_CMS": 0.76700002, "ORD_STRA": 2, "ORD_CLAS": 2, "ORD_FLOW": 7, "HYBAS_L12": 4120049030.0, "Shape_Length": 0.011785113019684684 }, "geometry": { "type": "Polygon", "coordinates": [ ] } },
{ "type": "Feature", "properties": { "HYRIV_ID": 41406312, "NEXT_DOWN": 41406353, "MAIN_RIV": 41406571, "LENGTH_KM": 2.09, "DIST_DN_KM": 19.1, "DIST_UP_KM": 4.6, "CATCH_SKM": 7.46, "UPLAND_SKM": 7.5, "ENDORHEIC": 0, "DIS_AV_CMS": 0.32300001, "ORD_STRA": 1, "ORD_CLAS": 2, "ORD_FLOW": 7, "HYBAS_L12": 4120049030.0, "Shape_Length": 0.018898057941298878 }, "geometry": { "type": "Polygon", "coordinates": [ ] } },
{ "type": "Feature", "properties": { "HYRIV_ID": 41406349, "NEXT_DOWN": 41406503, "MAIN_RIV": 41406571, "LENGTH_KM": 0.98, "DIST_DN_KM": 15.5, "DIST_UP_KM": 2.5, "CATCH_SKM": 2.77, "UPLAND_SKM": 2.8, "ENDORHEIC": 0, "DIS_AV_CMS": 0.113, "ORD_STRA": 1, "ORD_CLAS": 4, "ORD_FLOW": 7, "HYBAS_L12": 4120049030.0, "Shape_Length": 0.0088388347648338528 }, "geometry": { "type": "Polygon", "coordinates": [ ] } },
{ "type": "Feature", "properties": { "HYRIV_ID": 41406350, "NEXT_DOWN": 41406503, "MAIN_RIV": 41406571, "LENGTH_KM": 1.81, "DIST_DN_KM": 15.3, "DIST_UP_KM": 4.3, "CATCH_SKM": 8.1, "UPLAND_SKM": 8.1, "ENDORHEIC": 0, "DIS_AV_CMS": 0.33, "ORD_STRA": 1, "ORD_CLAS": 3, "ORD_FLOW": 7, "HYBAS_L12": 4120049030.0, "Shape_Length": 0.016309223176555664 }, "geometry": { "type": "Polygon", "coordinates": [ ] } },
{ "type": "Feature", "properties": { "HYRIV_ID": 41406351, "NEXT_DOWN": 41406504, "MAIN_RIV": 41406571, "LENGTH_KM": 3.4300001, "DIST_DN_KM": 16.1, "DIST_UP_KM": 8.0, "CATCH_SKM": 7.46, "UPLAND_SKM": 20.200001, "ENDORHEIC": 0, "DIS_AV_CMS": 0.834, "ORD_STRA": 2, "ORD_CLAS": 2, "ORD_FLOW": 7, "HYBAS_L12": 4120049030.0, "Shape_Length": 0.030892556509874009 }, "geometry": { "type": "Polygon", "coordinates": [ ] } },
{ "type": "Feature", "properties": { "HYRIV_ID": 41406352, "NEXT_DOWN": 41406504, "MAIN_RIV": 41406571, "LENGTH_KM": 0.92, "DIST_DN_KM": 15.9, "DIST_UP_KM": 11.1, "CATCH_SKM": 2.1300001, "UPLAND_SKM": 33.3, "ENDORHEIC": 0, "DIS_AV_CMS": 1.4349999, "ORD_STRA": 2, "ORD_CLAS": 1, "ORD_FLOW": 6, "HYBAS_L12": 4120049030.0, "Shape_Length": 0.0083333333333257542 }, "geometry": { "type": "Polygon", "coordinates": [ ] } },
{ "type": "Feature", "properties": { "HYRIV_ID": 41406353, "NEXT_DOWN": 41406352, "MAIN_RIV": 41406571, "LENGTH_KM": 2.23, "DIST_DN_KM": 17.0, "DIST_UP_KM": 10.0, "CATCH_SKM": 5.12, "UPLAND_SKM": 28.3, "ENDORHEIC": 0, "DIS_AV_CMS": 1.225, "ORD_STRA": 2, "ORD_CLAS": 1, "ORD_FLOW": 6, "HYBAS_L12": 4120049030.0, "Shape_Length": 0.020118446353146954 }, "geometry": { "type": "Polygon", "coordinates": [ ] } },
{ "type": "Feature", "properties": { "HYRIV_ID": 41406354, "NEXT_DOWN": 41406352, "MAIN_RIV": 41406571, "LENGTH_KM": 0.69, "DIST_DN_KM": 16.8, "DIST_UP_KM": 2.4, "CATCH_SKM": 2.77, "UPLAND_SKM": 2.8, "ENDORHEIC": 0, "DIS_AV_CMS": 0.119, "ORD_STRA": 1, "ORD_CLAS": 2, "ORD_FLOW": 7, "HYBAS_L12": 4120049030.0, "Shape_Length": 0.0062499999999658939 }, "geometry": { "type": "Polygon", "coordinates": [ ] } },
{ "type": "Feature", "properties": { "HYRIV_ID": 41406432, "NEXT_DOWN": 41406488, "MAIN_RIV": 41406571, "LENGTH_KM": 3.4300001, "DIST_DN_KM": 4.4, "DIST_UP_KM": 11.6, "CATCH_SKM": 9.3800001, "UPLAND_SKM": 56.700001, "ENDORHEIC": 0, "DIS_AV_CMS": 2.2390001, "ORD_STRA": 3, "ORD_CLAS": 2, "ORD_FLOW": 6, "HYBAS_L12": 4120049030.0, "Shape_Length": 0.030892556509902431 }, "geometry": { "type": "Polygon", "coordinates": [ ] } },
{ "type": "Feature", "properties": { "HYRIV_ID": 41406433, "NEXT_DOWN": 41406488, "MAIN_RIV": 41406571, "LENGTH_KM": 1.15, "DIST_DN_KM": 4.4, "DIST_UP_KM": 3.2, "CATCH_SKM": 5.33, "UPLAND_SKM": 5.3, "ENDORHEIC": 0, "DIS_AV_CMS": 0.21600001, "ORD_STRA": 1, "ORD_CLAS": 3, "ORD_FLOW": 7, "HYBAS_L12": 4120049030.0, "Shape_Length": 0.010416666666571928 }, "geometry": { "type": "Polygon", "coordinates": [ ] } },
{ "type": "Feature", "properties": { "HYRIV_ID": 41406487, "NEXT_DOWN": 41406502, "MAIN_RIV": 41406571, "LENGTH_KM": 0.69, "DIST_DN_KM": 2.8, "DIST_UP_KM": 3.0, "CATCH_SKM": 3.2, "UPLAND_SKM": 3.2, "ENDORHEIC": 0, "DIS_AV_CMS": 0.129, "ORD_STRA": 1, "ORD_CLAS": 3, "ORD_FLOW": 7, "HYBAS_L12": 4120049030.0, "Shape_Length": 0.0062499999999801048 }, "geometry": { "type": "Polygon", "coordinates": [ ] } },
{ "type": "Feature", "properties": { "HYRIV_ID": 41406488, "NEXT_DOWN": 41406502, "MAIN_RIV": 41406571, "LENGTH_KM": 1.58, "DIST_DN_KM": 3.0, "DIST_UP_KM": 13.0, "CATCH_SKM": 2.77, "UPLAND_SKM": 64.800003, "ENDORHEIC": 0, "DIS_AV_CMS": 2.5669999, "ORD_STRA": 3, "ORD_CLAS": 2, "ORD_FLOW": 6, "HYBAS_L12": 4120049030.0, "Shape_Length": 0.014225889843198242 }, "geometry": { "type": "Polygon", "coordinates": [ ] } },
{ "type": "Feature", "properties": { "HYRIV_ID": 41406502, "NEXT_DOWN": 41406571, "MAIN_RIV": 41406571, "LENGTH_KM": 0.46, "DIST_DN_KM": 2.4, "DIST_UP_KM": 13.7, "CATCH_SKM": 0.21, "UPLAND_SKM": 68.199997, "ENDORHEIC": 0, "DIS_AV_CMS": 2.704, "ORD_STRA": 3, "ORD_CLAS": 2, "ORD_FLOW": 6, "HYBAS_L12": 4120049030.0, "Shape_Length": 0.0041666666666628771 }, "geometry": { "type": "Polygon", "coordinates": [ ] } },
{ "type": "Feature", "properties": { "HYRIV_ID": 41406503, "NEXT_DOWN": 41406522, "MAIN_RIV": 41406571, "LENGTH_KM": 4.6599998, "DIST_DN_KM": 10.6, "DIST_UP_KM": 8.9, "CATCH_SKM": 9.8, "UPLAND_SKM": 20.700001, "ENDORHEIC": 0, "DIS_AV_CMS": 0.847, "ORD_STRA": 2, "ORD_CLAS": 3, "ORD_FLOW": 7, "HYBAS_L12": 4120049030.0, "Shape_Length": 0.041962782549409633 }, "geometry": { "type": "Polygon", "coordinates": [ ] } },
{ "type": "Feature", "properties": { "HYRIV_ID": 41406504, "NEXT_DOWN": 41406522, "MAIN_RIV": 41406571, "LENGTH_KM": 5.3, "DIST_DN_KM": 10.8, "DIST_UP_KM": 16.200001, "CATCH_SKM": 14.92, "UPLAND_SKM": 68.400002, "ENDORHEIC": 0, "DIS_AV_CMS": 2.8959999, "ORD_STRA": 3, "ORD_CLAS": 1, "ORD_FLOW": 6, "HYBAS_L12": 4120049030.0, "Shape_Length": 0.047855339059324049 }, "geometry": { "type": "Polygon", "coordinates": [ ] } },
{ "type": "Feature", "properties": { "HYRIV_ID": 41406505, "NEXT_DOWN": 41406547, "MAIN_RIV": 41406571, "LENGTH_KM": 4.9699998, "DIST_DN_KM": 17.5, "DIST_UP_KM": 5.9, "CATCH_SKM": 14.71, "UPLAND_SKM": 14.7, "ENDORHEIC": 0, "DIS_AV_CMS": 0.649, "ORD_STRA": 1, "ORD_CLAS": 2, "ORD_FLOW": 7, "HYBAS_L12": 4120049030.0, "Shape_Length": 0.044909060804332539 }, "geometry": { "type": "Polygon", "coordinates": [ ] } },
{ "type": "Feature", "properties": { "HYRIV_ID": 41406521, "NEXT_DOWN": 41406591, "MAIN_RIV": 41406571, "LENGTH_KM": 0.69, "DIST_DN_KM": 9.5, "DIST_UP_KM": 3.1, "CATCH_SKM": 3.4100001, "UPLAND_SKM": 3.4, "ENDORHEIC": 0, "DIS_AV_CMS": 0.14, "ORD_STRA": 1, "ORD_CLAS": 2, "ORD_FLOW": 7, "HYBAS_L12": 4120049030.0, "Shape_Length": 0.0062499999999943157 }, "geometry": { "type": "Polygon", "coordinates": [ ] } },
{ "type": "Feature", "properties": { "HYRIV_ID": 41406522, "NEXT_DOWN": 41406591, "MAIN_RIV": 41406571, "LENGTH_KM": 1.11, "DIST_DN_KM": 9.7, "DIST_UP_KM": 17.3, "CATCH_SKM": 1.28, "UPLAND_SKM": 127.7, "ENDORHEIC": 0, "DIS_AV_CMS": 5.4250002, "ORD_STRA": 3, "ORD_CLAS": 1, "ORD_FLOW": 6, "HYBAS_L12": 4120049030.0, "Shape_Length": 0.010059223176545413 }, "geometry": { "type": "Polygon", "coordinates": [ ] } },
{ "type": "Feature", "properties": { "HYRIV_ID": 41406523, "NEXT_DOWN": 41406547, "MAIN_RIV": 41406571, "LENGTH_KM": 0.98, "DIST_DN_KM": 17.5, "DIST_UP_KM": 2.9, "CATCH_SKM": 4.2600002, "UPLAND_SKM": 4.3, "ENDORHEIC": 0, "DIS_AV_CMS": 0.188, "ORD_STRA": 1, "ORD_CLAS": 3, "ORD_FLOW": 7, "HYBAS_L12": 4120049030.0, "Shape_Length": 0.0088388347648338528 }, "geometry": { "type": "Polygon", "coordinates": [ ] } },
{ "type": "Feature", "properties": { "HYRIV_ID": 41406544, "NEXT_DOWN": 41406571, "MAIN_RIV": 41406571, "LENGTH_KM": 2.6900001, "DIST_DN_KM": 2.4, "DIST_UP_KM": 24.6, "CATCH_SKM": 5.33, "UPLAND_SKM": 165.60001, "ENDORHEIC": 0, "DIS_AV_CMS": 7.0019999, "ORD_STRA": 3, "ORD_CLAS": 1, "ORD_FLOW": 6, "HYBAS_L12": 4120049030.0, "Shape_Length": 0.024285113019773801 }, "geometry": { "type": "Polygon", "coordinates": [ ] } },
{ "type": "Feature", "properties": { "HYRIV_ID": 41406545, "NEXT_DOWN": 41406544, "MAIN_RIV": 41406571, "LENGTH_KM": 0.69, "DIST_DN_KM": 5.0, "DIST_UP_KM": 2.7, "CATCH_SKM": 2.77, "UPLAND_SKM": 2.8, "ENDORHEIC": 0, "DIS_AV_CMS": 0.114, "ORD_STRA": 1, "ORD_CLAS": 2, "ORD_FLOW": 7, "HYBAS_L12": 4120049030.0, "Shape_Length": 0.0062499999999658939 }, "geometry": { "type": "Polygon", "coordinates": [ ] } },
{ "type": "Feature", "properties": { "HYRIV_ID": 41406546, "NEXT_DOWN": 41406522, "MAIN_RIV": 41406571, "LENGTH_KM": 3.99, "DIST_DN_KM": 10.8, "DIST_UP_KM": 12.6, "CATCH_SKM": 5.9699998, "UPLAND_SKM": 37.3, "ENDORHEIC": 0, "DIS_AV_CMS": 1.6289999, "ORD_STRA": 2, "ORD_CLAS": 2, "ORD_FLOW": 6, "HYBAS_L12": 4120049030.0, "Shape_Length": 0.036070226039619263 }, "geometry": { "type": "Polygon", "coordinates": [ ] } },
{ "type": "Feature", "properties": { "HYRIV_ID": 41406547, "NEXT_DOWN": 41406546, "MAIN_RIV": 41406571, "LENGTH_KM": 2.6900001, "DIST_DN_KM": 14.8, "DIST_UP_KM": 8.6, "CATCH_SKM": 5.75, "UPLAND_SKM": 24.700001, "ENDORHEIC": 0, "DIS_AV_CMS": 1.089, "ORD_STRA": 2, "ORD_CLAS": 2, "ORD_FLOW": 6, "HYBAS_L12": 4120049030.0, "Shape_Length": 0.024285113019813995 }, "geometry": { "type": "Polygon", "coordinates": [ ] } },
{ "type": "Feature", "properties": { "HYRIV_ID": 41406571, "NEXT_DOWN": 0, "MAIN_RIV": 41406571, "LENGTH_KM": 2.23, "DIST_DN_KM": 0.0, "DIST_UP_KM": 26.700001, "CATCH_SKM": 3.2, "UPLAND_SKM": 236.8, "ENDORHEIC": 0, "DIS_AV_CMS": 9.8280001, "ORD_STRA": 4, "ORD_CLAS": 1, "ORD_FLOW": 6, "HYBAS_L12": 4120049030.0, "Shape_Length": 0.020118446353176091 }, "geometry": { "type": "Polygon", "coordinates": [ ] } },
{ "type": "Feature", "properties": { "HYRIV_ID": 41406572, "NEXT_DOWN": 41406544, "MAIN_RIV": 41406571, "LENGTH_KM": 0.46, "DIST_DN_KM": 5.1, "DIST_UP_KM": 21.9, "CATCH_SKM": 0.85, "UPLAND_SKM": 157.5, "ENDORHEIC": 0, "DIS_AV_CMS": 6.6700001, "ORD_STRA": 3, "ORD_CLAS": 1, "ORD_FLOW": 6, "HYBAS_L12": 4120049030.0, "Shape_Length": 0.0041666666666628771 }, "geometry": { "type": "Polygon", "coordinates": [ ] } },
{ "type": "Feature", "properties": { "HYRIV_ID": 41406590, "NEXT_DOWN": 41406572, "MAIN_RIV": 41406571, "LENGTH_KM": 2.03, "DIST_DN_KM": 5.7, "DIST_UP_KM": 21.3, "CATCH_SKM": 3.84, "UPLAND_SKM": 147.7, "ENDORHEIC": 0, "DIS_AV_CMS": 6.2620001, "ORD_STRA": 3, "ORD_CLAS": 1, "ORD_FLOW": 6, "HYBAS_L12": 4120049030.0, "Shape_Length": 0.018392556509847623 }, "geometry": { "type": "Polygon", "coordinates": [ ] } },
{ "type": "Feature", "properties": { "HYRIV_ID": 41406591, "NEXT_DOWN": 41406590, "MAIN_RIV": 41406571, "LENGTH_KM": 1.96, "DIST_DN_KM": 7.7, "DIST_UP_KM": 19.3, "CATCH_SKM": 3.2, "UPLAND_SKM": 134.3, "ENDORHEIC": 0, "DIS_AV_CMS": 5.698, "ORD_STRA": 3, "ORD_CLAS": 1, "ORD_FLOW": 6, "HYBAS_L12": 4120049030.0, "Shape_Length": 0.017677669529667706 }, "geometry": { "type": "Polygon", "coordinates": [ ] } },
{ "type": "Feature", "properties": { "HYRIV_ID": 41406609, "NEXT_DOWN": 41406590, "MAIN_RIV": 41406571, "LENGTH_KM": 1.8, "DIST_DN_KM": 7.5, "DIST_UP_KM": 4.3, "CATCH_SKM": 9.5900002, "UPLAND_SKM": 9.6, "ENDORHEIC": 0, "DIS_AV_CMS": 0.40400001, "ORD_STRA": 1, "ORD_CLAS": 2, "ORD_FLOW": 7, "HYBAS_L12": 4120049030.0, "Shape_Length": 0.016309223176608344 }, "geometry": { "type": "Polygon", "coordinates": [ ] } },
{ "type": "Feature", "properties": { "HYRIV_ID": 41406610, "NEXT_DOWN": 41406546, "MAIN_RIV": 41406571, "LENGTH_KM": 2.1, "DIST_DN_KM": 14.6, "DIST_UP_KM": 4.2, "CATCH_SKM": 6.6100001, "UPLAND_SKM": 6.6, "ENDORHEIC": 0, "DIS_AV_CMS": 0.28600001, "ORD_STRA": 1, "ORD_CLAS": 3, "ORD_FLOW": 7, "HYBAS_L12": 4120049030.0, "Shape_Length": 0.018898057941339072 }, "geometry": { "type": "Polygon", "coordinates": [ ] } },
{ "type": "Feature", "properties": { "HYRIV_ID": 41406682, "NEXT_DOWN": 41406572, "MAIN_RIV": 41406571, "LENGTH_KM": 2.9300001, "DIST_DN_KM": 5.7, "DIST_UP_KM": 4.3, "CATCH_SKM": 8.9499998, "UPLAND_SKM": 9.0, "ENDORHEIC": 0, "DIS_AV_CMS": 0.373, "ORD_STRA": 1, "ORD_CLAS": 2, "ORD_FLOW": 7, "HYBAS_L12": 4120049030.0, "Shape_Length": 0.026368446353264297 }, "geometry": { "type": "Polygon", "coordinates": [ ] } }
]
}
