{
"type": "FeatureCollection",
"name": "main_river_41405272",
"crs": { "type": "name", "properties": { "name": "urn:ogc:def:crs:OGC:1.3:CRS84" } },
"features": [
{ "type": "Feature", "properties": { "HYRIV_ID": 41405147, "NEXT_DOWN": 41405259, "MAIN_RIV": 41405272, "LENGTH_KM": 7.54, "DIST_DN_KM": 7.4, "DIST_UP_KM": 9.6, "CATCH_SKM": 24.07, "UPLAND_SKM": 24.1, "ENDORHEIC": 0, "DIS_AV_CMS": 0.484, "ORD_STRA": 1, "ORD_CLAS": 2, "ORD_FLOW": 7, "HYBAS_L12": 4120049880.0, "Shape_Length": 0.068183170961150438 }, "geometry": { "type": "Polygon", "coordinates": [ ] } },
{ "type": "Feature", "properties": { "HYRIV_ID": 41405258, "NEXT_DOWN": 41405259, "MAIN_RIV": 41405272, "LENGTH_KM": 5.96, "DIST_DN_KM": 7.6, "DIST_UP_KM": 18.3, "CATCH_SKM": 13.42, "UPLAND_SKM": 69.699997, "ENDORHEIC": 0, "DIS_AV_CMS": 1.353, "ORD_STRA": 2, "ORD_CLAS": 1, "ORD_FLOW": 6, "HYBAS_L12": 4120049880.0, "Shape_Length": 0.053747895569249214 }, "geometry": { "type": "Polygon", "coordinates": [ ] } },
{ "type": "Feature", "properties": { "HYRIV_ID": 41405259, "NEXT_DOWN": 41405272, "MAIN_RIV": 41405272, "LENGTH_KM": 5.58, "DIST_DN_KM": 2.0, "DIST_UP_KM": 23.9, "CATCH_SKM": 15.76, "UPLAND_SKM": 109.5, "ENDORHEIC": 0, "DIS_AV_CMS": 2.138, "ORD_STRA": 2, "ORD_CLAS": 1, "ORD_FLOW": 6, "HYBAS_L12": 4120049880.0, "Shape_Length": 0.05029611588276138 }, "geometry": { "type": "Polygon", "coordinates": [ ] } },
{ "type": "Feature", "properties": { "HYRIV_ID": 41405272, "NEXT_DOWN": 0, "MAIN_RIV": 41405272, "LENGTH_KM": 1.5700001, "DIST_DN_KM": 0.0, "DIST_UP_KM": 25.700001, "CATCH_SKM": 3.62, "UPLAND_SKM": 140.60001, "ENDORHEIC": 0, "DIS_AV_CMS": 2.73, "ORD_STRA": 2, "ORD_CLAS": 1, "ORD_FLOW": 6, "HYBAS_L12": 4120049880.0, "Shape_Length": 0.014225889843265133 }, "geometry": { "type": "Polygon", "coordinates": [ ] } },
{ "type": "Feature", "properties": { "HYRIV_ID": 41405298, "NEXT_DOWN": 41405258, "MAIN_RIV": 41405272, "LENGTH_KM": 9.4, "DIST_DN_KM": 13.3, "DIST_UP_KM": 12.6, "CATCH_SKM": 47.509998, "UPLAND_SKM": 47.5, "ENDORHEIC": 0, "DIS_AV_CMS": 0.927, "ORD_STRA": 1, "ORD_CLAS": 1, "ORD_FLOW": 7, "HYBAS_L12": 4120049880.0, "Shape_Length": 0.084997895569183052 }, "geometry": { "type": "Polygon", "coordinates": [ ] } },
{ "type": "Feature", "properties": { "HYRIV_ID": 41405316, "NEXT_DOWN": 41405258, "MAIN_RIV": 41405272, "LENGTH_KM": 2.27, "DIST_DN_KM": 13.3, "DIST_UP_KM": 5.1, "CATCH_SKM": 8.7299995, "UPLAND_SKM": 8.7, "ENDORHEIC": 0, "DIS_AV_CMS": 0.168, "ORD_STRA": 1, "ORD_CLAS": 2, "ORD_FLOW": 7, "HYBAS_L12": 4120049880.0, "Shape_Length": 0.020475889843235191 }, "geometry": { "type": "Polygon", "coordinates": [ ] } },
{ "type": "Feature", "properties": { "HYRIV_ID": 41405339, "NEXT_DOWN": 41405272, "MAIN_RIV": 41405272, "LENGTH_KM": 6.54, "DIST_DN_KM": 1.8, "DIST_UP_KM": 9.2, "CATCH_SKM": 29.610001, "UPLAND_SKM": 29.6, "ENDORHEIC": 0, "DIS_AV_CMS": 0.56900001, "ORD_STRA": 1, "ORD_CLAS": 2, "ORD_FLOW": 7, "HYBAS_L12": 4120049880.0, "Shape_Length": 0.059134950647540825 }, "geometry": { "type": "Polygon", "coordinates": [ ] } }
]
}
