{
"type": "FeatureCollection",
"name": "main_river_41403865",
"crs": { "type": "name", "properties": { "name": "urn:ogc:def:crs:OGC:1.3:CRS84" } },
"features": [
{ "type": "Feature", "properties": { "HYRIV_ID": 41403864, "NEXT_DOWN": 41403865, "MAIN_RIV": 41403865, "LENGTH_KM": 1.15, "DIST_DN_KM": 2.3, "DIST_UP_KM": 5.4, "CATCH_SKM": 5.1100001, "UPLAND_SKM": 5.1, "ENDORHEIC": 0, "DIS_AV_CMS": 0.118, "ORD_STRA": 1, "ORD_CLAS": 2, "ORD_FLOW": 7, "HYBAS_L12": 4120049820.0, "Shape_Length": 0.010416666666628771 }, "geometry": { "type": "Polygon", "coordinates": [ ] } },
{ "type": "Feature", "properties": { "HYRIV_ID": 41403865, "NEXT_DOWN": 0, "MAIN_RIV": 41403865, "LENGTH_KM": 2.04, "DIST_DN_KM": 0.0, "DIST_UP_KM": 36.700001, "CATCH_SKM": 8.7299995, "UPLAND_SKM": 203.7, "ENDORHEIC": 0, "DIS_AV_CMS": 4.585, "ORD_STRA": 2, "ORD_CLAS": 1, "ORD_FLOW": 6, "HYBAS_L12": 4120049820.0, "Shape_Length": 0.018392556509842745 }, "geometry": { "type": "Polygon", "coordinates": [ ] } },
{ "type": "Feature", "properties": { "HYRIV_ID": 41403907, "NEXT_DOWN": 41403865, "MAIN_RIV": 41403865, "LENGTH_KM": 1.77, "DIST_DN_KM": 2.5, "DIST_UP_KM": 34.5, "CATCH_SKM": 5.54, "UPLAND_SKM": 190.3, "ENDORHEIC": 0, "DIS_AV_CMS": 4.289, "ORD_STRA": 2, "ORD_CLAS": 1, "ORD_FLOW": 6, "HYBAS_L12": 4120049820.0, "Shape_Length": 0.015951779686448047 }, "geometry": { "type": "Polygon", "coordinates": [ ] } },
{ "type": "Feature", "properties": { "HYRIV_ID": 41403978, "NEXT_DOWN": 41403979, "MAIN_RIV": 41403865, "LENGTH_KM": 0.69, "DIST_DN_KM": 14.5, "DIST_UP_KM": 4.0, "CATCH_SKM": 5.54, "UPLAND_SKM": 5.5, "ENDORHEIC": 0, "DIS_AV_CMS": 0.12800001, "ORD_STRA": 1, "ORD_CLAS": 3, "ORD_FLOW": 7, "HYBAS_L12": 4120049820.0, "Shape_Length": 0.0062499999999943157 }, "geometry": { "type": "Polygon", "coordinates": [ ] } },
{ "type": "Feature", "properties": { "HYRIV_ID": 41403979, "NEXT_DOWN": 41403980, "MAIN_RIV": 41403865, "LENGTH_KM": 6.6700001, "DIST_DN_KM": 7.8, "DIST_UP_KM": 18.200001, "CATCH_SKM": 18.73, "UPLAND_SKM": 61.900002, "ENDORHEIC": 0, "DIS_AV_CMS": 1.419, "ORD_STRA": 2, "ORD_CLAS": 2, "ORD_FLOW": 6, "HYBAS_L12": 4120049820.0, "Shape_Length": 0.06035533905928913 }, "geometry": { "type": "Polygon", "coordinates": [ ] } },
{ "type": "Feature", "properties": { "HYRIV_ID": 41403980, "NEXT_DOWN": 41403907, "MAIN_RIV": 41403865, "LENGTH_KM": 3.8, "DIST_DN_KM": 4.0, "DIST_UP_KM": 22.0, "CATCH_SKM": 9.1499996, "UPLAND_SKM": 90.5, "ENDORHEIC": 0, "DIS_AV_CMS": 2.062, "ORD_STRA": 2, "ORD_CLAS": 2, "ORD_FLOW": 6, "HYBAS_L12": 4120049820.0, "Shape_Length": 0.034344336196331704 }, "geometry": { "type": "Polygon", "coordinates": [ ] } },
{ "type": "Feature", "properties": { "HYRIV_ID": 41404031, "NEXT_DOWN": 41404032, "MAIN_RIV": 41403865, "LENGTH_KM": 0.98, "DIST_DN_KM": 18.200001, "DIST_UP_KM": 3.3, "CATCH_SKM": 5.3200002, "UPLAND_SKM": 5.3, "ENDORHEIC": 0, "DIS_AV_CMS": 0.123, "ORD_STRA": 1, "ORD_CLAS": 3, "ORD_FLOW": 7, "HYBAS_L12": 4120049820.0, "Shape_Length": 0.0088388347648338528 }, "geometry": { "type": "Polygon", "coordinates": [ ] } },
{ "type": "Feature", "properties": { "HYRIV_ID": 41404032, "NEXT_DOWN": 41403979, "MAIN_RIV": 41403865, "LENGTH_KM": 3.53, "DIST_DN_KM": 14.7, "DIST_UP_KM": 11.3, "CATCH_SKM": 12.99, "UPLAND_SKM": 37.700001, "ENDORHEIC": 0, "DIS_AV_CMS": 0.86799997, "ORD_STRA": 2, "ORD_CLAS": 2, "ORD_FLOW": 7, "HYBAS_L12": 4120049820.0, "Shape_Length": 0.031903559372922788 }, "geometry": { "type": "Polygon", "coordinates": [ ] } },
{ "type": "Feature", "properties": { "HYRIV_ID": 41404050, "NEXT_DOWN": 41403980, "MAIN_RIV": 41403865, "LENGTH_KM": 4.7800002, "DIST_DN_KM": 7.8, "DIST_UP_KM": 8.0, "CATCH_SKM": 19.370001, "UPLAND_SKM": 19.4, "ENDORHEIC": 0, "DIS_AV_CMS": 0.443, "ORD_STRA": 1, "ORD_CLAS": 3, "ORD_FLOW": 7, "HYBAS_L12": 4120049820.0, "Shape_Length": 0.043183170961208189 }, "geometry": { "type": "Polygon", "coordinates": [ ] } },
{ "type": "Feature", "properties": { "HYRIV_ID": 41404104, "NEXT_DOWN": 41404032, "MAIN_RIV": 41403865, "LENGTH_KM": 4.77, "DIST_DN_KM": 18.200001, "DIST_UP_KM": 7.8, "CATCH_SKM": 19.370001, "UPLAND_SKM": 19.4, "ENDORHEIC": 0, "DIS_AV_CMS": 0.447, "ORD_STRA": 1, "ORD_CLAS": 2, "ORD_FLOW": 7, "HYBAS_L12": 4120049820.0, "Shape_Length": 0.043183170961139578 }, "geometry": { "type": "Polygon", "coordinates": [ ] } },
{ "type": "Feature", "properties": { "HYRIV_ID": 41404275, "NEXT_DOWN": 41403907, "MAIN_RIV": 41403865, "LENGTH_KM": 29.23, "DIST_DN_KM": 4.0, "DIST_UP_KM": 32.900002, "CATCH_SKM": 94.309998, "UPLAND_SKM": 94.300003, "ENDORHEIC": 0, "DIS_AV_CMS": 2.108, "ORD_STRA": 1, "ORD_CLAS": 1, "ORD_FLOW": 6, "HYBAS_L12": 4120049820.0, "Shape_Length": 0.26418996496253205 }, "geometry": { "type": "Polygon", "coordinates": [ ] } }
]
}
