{
"type": "FeatureCollection",
"name": "main_river_41399342",
"crs": { "type": "name", "properties": { "name": "urn:ogc:def:crs:OGC:1.3:CRS84" } },
"features": [
{ "type": "Feature", "properties": { "HYRIV_ID": 41399342, "NEXT_DOWN": 0, "MAIN_RIV": 41399342, "LENGTH_KM": 14.43, "DIST_DN_KM": 0.0, "DIST_UP_KM": 78.699997, "CATCH_SKM": 63.049999, "UPLAND_SKM": 998.40002, "ENDORHEIC": 0, "DIS_AV_CMS": 10.805, "ORD_STRA": 4, "ORD_CLAS": 1, "ORD_FLOW": 5, "HYBAS_L12": 4120049260.0, "Shape_Length": 0.13076990129524424 }, "geometry": { "type": "Polygon", "coordinates": [ ] } },
{ "type": "Feature", "properties": { "HYRIV_ID": 41399343, "NEXT_DOWN": 41399342, "MAIN_RIV": 41399342, "LENGTH_KM": 3.0, "DIST_DN_KM": 14.8, "DIST_UP_KM": 7.9, "CATCH_SKM": 19.1, "UPLAND_SKM": 19.1, "ENDORHEIC": 0, "DIS_AV_CMS": 0.193, "ORD_STRA": 1, "ORD_CLAS": 2, "ORD_FLOW": 7, "HYBAS_L12": 4120049260.0, "Shape_Length": 0.027231391274624633 }, "geometry": { "type": "Polygon", "coordinates": [ ] } },
{ "type": "Feature", "properties": { "HYRIV_ID": 41399344, "NEXT_DOWN": 41399479, "MAIN_RIV": 41399342, "LENGTH_KM": 5.3400002, "DIST_DN_KM": 29.8, "DIST_UP_KM": 8.5, "CATCH_SKM": 23.99, "UPLAND_SKM": 24.0, "ENDORHEIC": 0, "DIS_AV_CMS": 0.243, "ORD_STRA": 1, "ORD_CLAS": 2, "ORD_FLOW": 7, "HYBAS_L12": 4121600900.0, "Shape_Length": 0.048212782549474295 }, "geometry": { "type": "Polygon", "coordinates": [ ] } },
{ "type": "Feature", "properties": { "HYRIV_ID": 41399345, "NEXT_DOWN": 41399479, "MAIN_RIV": 41399342, "LENGTH_KM": 2.09, "DIST_DN_KM": 29.6, "DIST_UP_KM": 8.4, "CATCH_SKM": 19.110001, "UPLAND_SKM": 19.1, "ENDORHEIC": 0, "DIS_AV_CMS": 0.197, "ORD_STRA": 1, "ORD_CLAS": 3, "ORD_FLOW": 7, "HYBAS_L12": 4121600900.0, "Shape_Length": 0.018898057941339072 }, "geometry": { "type": "Polygon", "coordinates": [ ] } },
{ "type": "Feature", "properties": { "HYRIV_ID": 41399405, "NEXT_DOWN": 41399342, "MAIN_RIV": 41399342, "LENGTH_KM": 3.79, "DIST_DN_KM": 14.8, "DIST_UP_KM": 64.099998, "CATCH_SKM": 16.35, "UPLAND_SKM": 916.70001, "ENDORHEIC": 0, "DIS_AV_CMS": 10.255, "ORD_STRA": 4, "ORD_CLAS": 1, "ORD_FLOW": 5, "HYBAS_L12": 4120049260.0, "Shape_Length": 0.03434433619622218 }, "geometry": { "type": "Polygon", "coordinates": [ ] } },
{ "type": "Feature", "properties": { "HYRIV_ID": 41399406, "NEXT_DOWN": 41399405, "MAIN_RIV": 41399342, "LENGTH_KM": 6.9200001, "DIST_DN_KM": 18.4, "DIST_UP_KM": 10.2, "CATCH_SKM": 33.330002, "UPLAND_SKM": 33.3, "ENDORHEIC": 0, "DIS_AV_CMS": 0.33500001, "ORD_STRA": 1, "ORD_CLAS": 2, "ORD_FLOW": 7, "HYBAS_L12": 4120049260.0, "Shape_Length": 0.062438672392685024 }, "geometry": { "type": "Polygon", "coordinates": [ ] } },
{ "type": "Feature", "properties": { "HYRIV_ID": 41399479, "NEXT_DOWN": 41399500, "MAIN_RIV": 41399342, "LENGTH_KM": 3.35, "DIST_DN_KM": 26.5, "DIST_UP_KM": 11.9, "CATCH_SKM": 7.0100002, "UPLAND_SKM": 50.099998, "ENDORHEIC": 0, "DIS_AV_CMS": 0.50800002, "ORD_STRA": 2, "ORD_CLAS": 2, "ORD_FLOW": 7, "HYBAS_L12": 4121600900.0, "Shape_Length": 0.03017766952969481 }, "geometry": { "type": "Polygon", "coordinates": [ ] } },
{ "type": "Feature", "properties": { "HYRIV_ID": 41399480, "NEXT_DOWN": 41399518, "MAIN_RIV": 41399342, "LENGTH_KM": 2.37, "DIST_DN_KM": 36.099998, "DIST_UP_KM": 7.1, "CATCH_SKM": 19.530001, "UPLAND_SKM": 19.5, "ENDORHEIC": 0, "DIS_AV_CMS": 0.206, "ORD_STRA": 1, "ORD_CLAS": 3, "ORD_FLOW": 7, "HYBAS_L12": 4121155910.0, "Shape_Length": 0.021338834764808273 }, "geometry": { "type": "Polygon", "coordinates": [ ] } },
{ "type": "Feature", "properties": { "HYRIV_ID": 41399481, "NEXT_DOWN": 41399518, "MAIN_RIV": 41399342, "LENGTH_KM": 4.02, "DIST_DN_KM": 36.099998, "DIST_UP_KM": 8.9, "CATCH_SKM": 28.66, "UPLAND_SKM": 28.700001, "ENDORHEIC": 0, "DIS_AV_CMS": 0.31200001, "ORD_STRA": 1, "ORD_CLAS": 2, "ORD_FLOW": 7, "HYBAS_L12": 4121155910.0, "Shape_Length": 0.036427669529705775 }, "geometry": { "type": "Polygon", "coordinates": [ ] } },
{ "type": "Feature", "properties": { "HYRIV_ID": 41399498, "NEXT_DOWN": 41399405, "MAIN_RIV": 41399342, "LENGTH_KM": 3.52, "DIST_DN_KM": 18.6, "DIST_UP_KM": 60.3, "CATCH_SKM": 12.95, "UPLAND_SKM": 867.0, "ENDORHEIC": 0, "DIS_AV_CMS": 9.9060001, "ORD_STRA": 4, "ORD_CLAS": 1, "ORD_FLOW": 6, "HYBAS_L12": 4120049260.0, "Shape_Length": 0.031903559372916189 }, "geometry": { "type": "Polygon", "coordinates": [ ] } },
{ "type": "Feature", "properties": { "HYRIV_ID": 41399499, "NEXT_DOWN": 41399498, "MAIN_RIV": 41399342, "LENGTH_KM": 2.29, "DIST_DN_KM": 22.0, "DIST_UP_KM": 57.0, "CATCH_SKM": 5.0900002, "UPLAND_SKM": 770.0, "ENDORHEIC": 0, "DIS_AV_CMS": 8.9639997, "ORD_STRA": 4, "ORD_CLAS": 1, "ORD_FLOW": 6, "HYBAS_L12": 4121600900.0, "Shape_Length": 0.020833333333314386 }, "geometry": { "type": "Polygon", "coordinates": [ ] } },
{ "type": "Feature", "properties": { "HYRIV_ID": 41399500, "NEXT_DOWN": 41399499, "MAIN_RIV": 41399342, "LENGTH_KM": 2.03, "DIST_DN_KM": 24.3, "DIST_UP_KM": 54.700001, "CATCH_SKM": 9.5500002, "UPLAND_SKM": 751.09998, "ENDORHEIC": 0, "DIS_AV_CMS": 8.7989998, "ORD_STRA": 4, "ORD_CLAS": 1, "ORD_FLOW": 6, "HYBAS_L12": 4121600900.0, "Shape_Length": 0.018392556509958156 }, "geometry": { "type": "Polygon", "coordinates": [ ] } },
{ "type": "Feature", "properties": { "HYRIV_ID": 41399501, "NEXT_DOWN": 41399500, "MAIN_RIV": 41399342, "LENGTH_KM": 1.11, "DIST_DN_KM": 26.5, "DIST_UP_KM": 52.5, "CATCH_SKM": 1.27, "UPLAND_SKM": 691.5, "ENDORHEIC": 0, "DIS_AV_CMS": 8.2530003, "ORD_STRA": 4, "ORD_CLAS": 1, "ORD_FLOW": 6, "HYBAS_L12": 4121600900.0, "Shape_Length": 0.010059223176575559 }, "geometry": { "type": "Polygon", "coordinates": [ ] } },
{ "type": "Feature", "properties": { "HYRIV_ID": 41399502, "NEXT_DOWN": 41399501, "MAIN_RIV": 41399342, "LENGTH_KM": 2.29, "DIST_DN_KM": 27.4, "DIST_UP_KM": 51.5, "CATCH_SKM": 5.0900002, "UPLAND_SKM": 487.0, "ENDORHEIC": 0, "DIS_AV_CMS": 5.8870001, "ORD_STRA": 3, "ORD_CLAS": 1, "ORD_FLOW": 6, "HYBAS_L12": 4121155910.0, "Shape_Length": 0.020833333333371229 }, "geometry": { "type": "Polygon", "coordinates": [ ] } },
{ "type": "Feature", "properties": { "HYRIV_ID": 41399503, "NEXT_DOWN": 41399502, "MAIN_RIV": 41399342, "LENGTH_KM": 1.63, "DIST_DN_KM": 29.9, "DIST_UP_KM": 8.3, "CATCH_SKM": 14.86, "UPLAND_SKM": 14.9, "ENDORHEIC": 0, "DIS_AV_CMS": 0.15700001, "ORD_STRA": 1, "ORD_CLAS": 2, "ORD_FLOW": 7, "HYBAS_L12": 4121155910.0, "Shape_Length": 0.014731391274706343 }, "geometry": { "type": "Polygon", "coordinates": [ ] } },
{ "type": "Feature", "properties": { "HYRIV_ID": 41399517, "NEXT_DOWN": 41399502, "MAIN_RIV": 41399342, "LENGTH_KM": 2.03, "DIST_DN_KM": 29.9, "DIST_UP_KM": 49.099998, "CATCH_SKM": 3.61, "UPLAND_SKM": 467.0, "ENDORHEIC": 0, "DIS_AV_CMS": 5.7010002, "ORD_STRA": 3, "ORD_CLAS": 1, "ORD_FLOW": 6, "HYBAS_L12": 4121155910.0, "Shape_Length": 0.018392556509814324 }, "geometry": { "type": "Polygon", "coordinates": [ ] } },
{ "type": "Feature", "properties": { "HYRIV_ID": 41399518, "NEXT_DOWN": 41399517, "MAIN_RIV": 41399342, "LENGTH_KM": 4.4400001, "DIST_DN_KM": 31.700001, "DIST_UP_KM": 13.3, "CATCH_SKM": 9.5500002, "UPLAND_SKM": 57.700001, "ENDORHEIC": 0, "DIS_AV_CMS": 0.616, "ORD_STRA": 2, "ORD_CLAS": 2, "ORD_FLOW": 7, "HYBAS_L12": 4121155910.0, "Shape_Length": 0.040236892706395529 }, "geometry": { "type": "Polygon", "coordinates": [ ] } },
{ "type": "Feature", "properties": { "HYRIV_ID": 41399588, "NEXT_DOWN": 41399498, "MAIN_RIV": 41399342, "LENGTH_KM": 3.11, "DIST_DN_KM": 22.200001, "DIST_UP_KM": 9.2, "CATCH_SKM": 23.99, "UPLAND_SKM": 24.0, "ENDORHEIC": 0, "DIS_AV_CMS": 0.258, "ORD_STRA": 1, "ORD_CLAS": 3, "ORD_FLOW": 7, "HYBAS_L12": 4121600900.0, "Shape_Length": 0.028094336196323177 }, "geometry": { "type": "Polygon", "coordinates": [ ] } },
{ "type": "Feature", "properties": { "HYRIV_ID": 41399589, "NEXT_DOWN": 41399499, "MAIN_RIV": 41399342, "LENGTH_KM": 3.21, "DIST_DN_KM": 24.3, "DIST_UP_KM": 7.7, "CATCH_SKM": 13.8, "UPLAND_SKM": 13.8, "ENDORHEIC": 0, "DIS_AV_CMS": 0.151, "ORD_STRA": 1, "ORD_CLAS": 2, "ORD_FLOW": 7, "HYBAS_L12": 4121600900.0, "Shape_Length": 0.028957281118025167 }, "geometry": { "type": "Polygon", "coordinates": [ ] } },
{ "type": "Feature", "properties": { "HYRIV_ID": 41399626, "NEXT_DOWN": 41399498, "MAIN_RIV": 41399342, "LENGTH_KM": 4.08, "DIST_DN_KM": 22.0, "DIST_UP_KM": 16.9, "CATCH_SKM": 6.79, "UPLAND_SKM": 60.099998, "ENDORHEIC": 0, "DIS_AV_CMS": 0.662, "ORD_STRA": 2, "ORD_CLAS": 2, "ORD_FLOW": 7, "HYBAS_L12": 4121600900.0, "Shape_Length": 0.036785113019756545 }, "geometry": { "type": "Polygon", "coordinates": [ ] } },
{ "type": "Feature", "properties": { "HYRIV_ID": 41399640, "NEXT_DOWN": 41399517, "MAIN_RIV": 41399342, "LENGTH_KM": 4.83, "DIST_DN_KM": 31.9, "DIST_UP_KM": 47.0, "CATCH_SKM": 17.83, "UPLAND_SKM": 405.60001, "ENDORHEIC": 0, "DIS_AV_CMS": 5.066, "ORD_STRA": 3, "ORD_CLAS": 1, "ORD_FLOW": 6, "HYBAS_L12": 4121155910.0, "Shape_Length": 0.043688672392673655 }, "geometry": { "type": "Polygon", "coordinates": [ ] } },
{ "type": "Feature", "properties": { "HYRIV_ID": 41399641, "NEXT_DOWN": 41399640, "MAIN_RIV": 41399342, "LENGTH_KM": 4.8400002, "DIST_DN_KM": 36.5, "DIST_UP_KM": 8.8, "CATCH_SKM": 21.440001, "UPLAND_SKM": 21.4, "ENDORHEIC": 0, "DIS_AV_CMS": 0.245, "ORD_STRA": 1, "ORD_CLAS": 2, "ORD_FLOW": 7, "HYBAS_L12": 4121155910.0, "Shape_Length": 0.043898057941396729 }, "geometry": { "type": "Polygon", "coordinates": [ ] } },
{ "type": "Feature", "properties": { "HYRIV_ID": 41399792, "NEXT_DOWN": 41399501, "MAIN_RIV": 41399342, "LENGTH_KM": 8.6400003, "DIST_DN_KM": 27.4, "DIST_UP_KM": 27.4, "CATCH_SKM": 30.57, "UPLAND_SKM": 203.2, "ENDORHEIC": 0, "DIS_AV_CMS": 2.3659999, "ORD_STRA": 3, "ORD_CLAS": 2, "ORD_FLOW": 6, "HYBAS_L12": 4121155930.0, "Shape_Length": 0.078033008589008801 }, "geometry": { "type": "Polygon", "coordinates": [ ] } },
{ "type": "Feature", "properties": { "HYRIV_ID": 41399793, "NEXT_DOWN": 41399640, "MAIN_RIV": 41399342, "LENGTH_KM": 4.37, "DIST_DN_KM": 36.700001, "DIST_UP_KM": 42.200001, "CATCH_SKM": 18.26, "UPLAND_SKM": 366.39999, "ENDORHEIC": 0, "DIS_AV_CMS": 4.6560001, "ORD_STRA": 3, "ORD_CLAS": 1, "ORD_FLOW": 6, "HYBAS_L12": 4121155910.0, "Shape_Length": 0.039522005725998288 }, "geometry": { "type": "Polygon", "coordinates": [ ] } },
{ "type": "Feature", "properties": { "HYRIV_ID": 41399794, "NEXT_DOWN": 41399793, "MAIN_RIV": 41399342, "LENGTH_KM": 0.46, "DIST_DN_KM": 40.900002, "DIST_UP_KM": 38.0, "CATCH_SKM": 1.06, "UPLAND_SKM": 337.89999, "ENDORHEIC": 0, "DIS_AV_CMS": 4.349, "ORD_STRA": 3, "ORD_CLAS": 1, "ORD_FLOW": 6, "HYBAS_L12": 4121155910.0, "Shape_Length": 0.0041666666666628771 }, "geometry": { "type": "Polygon", "coordinates": [ ] } },
{ "type": "Feature", "properties": { "HYRIV_ID": 41399795, "NEXT_DOWN": 41399794, "MAIN_RIV": 41399342, "LENGTH_KM": 4.48, "DIST_DN_KM": 41.599998, "DIST_UP_KM": 7.6, "CATCH_SKM": 16.99, "UPLAND_SKM": 17.0, "ENDORHEIC": 0, "DIS_AV_CMS": 0.20100001, "ORD_STRA": 1, "ORD_CLAS": 2, "ORD_FLOW": 7, "HYBAS_L12": 4121155910.0, "Shape_Length": 0.040594336196341951 }, "geometry": { "type": "Polygon", "coordinates": [ ] } },
{ "type": "Feature", "properties": { "HYRIV_ID": 41399817, "NEXT_DOWN": 41399626, "MAIN_RIV": 41399342, "LENGTH_KM": 6.27, "DIST_DN_KM": 26.200001, "DIST_UP_KM": 9.6, "CATCH_SKM": 19.540001, "UPLAND_SKM": 19.5, "ENDORHEIC": 0, "DIS_AV_CMS": 0.215, "ORD_STRA": 1, "ORD_CLAS": 3, "ORD_FLOW": 7, "HYBAS_L12": 4121600900.0, "Shape_Length": 0.056694173824126032 }, "geometry": { "type": "Polygon", "coordinates": [ ] } },
{ "type": "Feature", "properties": { "HYRIV_ID": 41399845, "NEXT_DOWN": 41399793, "MAIN_RIV": 41399342, "LENGTH_KM": 1.16, "DIST_DN_KM": 40.900002, "DIST_UP_KM": 6.4, "CATCH_SKM": 10.19, "UPLAND_SKM": 10.2, "ENDORHEIC": 0, "DIS_AV_CMS": 0.122, "ORD_STRA": 1, "ORD_CLAS": 2, "ORD_FLOW": 7, "HYBAS_L12": 4121155910.0, "Shape_Length": 0.010416666666642982 }, "geometry": { "type": "Polygon", "coordinates": [ ] } },
{ "type": "Feature", "properties": { "HYRIV_ID": 41399863, "NEXT_DOWN": 41399794, "MAIN_RIV": 41399342, "LENGTH_KM": 1.96, "DIST_DN_KM": 41.599998, "DIST_UP_KM": 37.400002, "CATCH_SKM": 4.6700001, "UPLAND_SKM": 319.89999, "ENDORHEIC": 0, "DIS_AV_CMS": 4.1389999, "ORD_STRA": 3, "ORD_CLAS": 1, "ORD_FLOW": 6, "HYBAS_L12": 4121155910.0, "Shape_Length": 0.017677669529637563 }, "geometry": { "type": "Polygon", "coordinates": [ ] } },
{ "type": "Feature", "properties": { "HYRIV_ID": 41399879, "NEXT_DOWN": 41399626, "MAIN_RIV": 41399342, "LENGTH_KM": 6.64, "DIST_DN_KM": 26.0, "DIST_UP_KM": 12.8, "CATCH_SKM": 33.759998, "UPLAND_SKM": 33.8, "ENDORHEIC": 0, "DIS_AV_CMS": 0.378, "ORD_STRA": 1, "ORD_CLAS": 2, "ORD_FLOW": 7, "HYBAS_L12": 4121600900.0, "Shape_Length": 0.059849837627782759 }, "geometry": { "type": "Polygon", "coordinates": [ ] } },
{ "type": "Feature", "properties": { "HYRIV_ID": 41399921, "NEXT_DOWN": 41399792, "MAIN_RIV": 41399342, "LENGTH_KM": 3.35, "DIST_DN_KM": 36.200001, "DIST_UP_KM": 18.6, "CATCH_SKM": 11.47, "UPLAND_SKM": 108.3, "ENDORHEIC": 0, "DIS_AV_CMS": 1.3049999, "ORD_STRA": 2, "ORD_CLAS": 2, "ORD_FLOW": 6, "HYBAS_L12": 4121155930.0, "Shape_Length": 0.03017766952969481 }, "geometry": { "type": "Polygon", "coordinates": [ ] } },
{ "type": "Feature", "properties": { "HYRIV_ID": 41399922, "NEXT_DOWN": 41399863, "MAIN_RIV": 41399342, "LENGTH_KM": 1.96, "DIST_DN_KM": 43.5, "DIST_UP_KM": 35.400002, "CATCH_SKM": 4.46, "UPLAND_SKM": 295.0, "ENDORHEIC": 0, "DIS_AV_CMS": 3.846, "ORD_STRA": 3, "ORD_CLAS": 1, "ORD_FLOW": 6, "HYBAS_L12": 4121155910.0, "Shape_Length": 0.017677669529707903 }, "geometry": { "type": "Polygon", "coordinates": [ ] } },
{ "type": "Feature", "properties": { "HYRIV_ID": 41399943, "NEXT_DOWN": 41399792, "MAIN_RIV": 41399342, "LENGTH_KM": 5.9099998, "DIST_DN_KM": 36.0, "DIST_UP_KM": 16.9, "CATCH_SKM": 14.02, "UPLAND_SKM": 64.300003, "ENDORHEIC": 0, "DIS_AV_CMS": 0.745, "ORD_STRA": 2, "ORD_CLAS": 3, "ORD_FLOW": 7, "HYBAS_L12": 4121155930.0, "Shape_Length": 0.05345177968646906 }, "geometry": { "type": "Polygon", "coordinates": [ ] } },
{ "type": "Feature", "properties": { "HYRIV_ID": 41399944, "NEXT_DOWN": 41399922, "MAIN_RIV": 41399342, "LENGTH_KM": 2.03, "DIST_DN_KM": 45.3, "DIST_UP_KM": 17.700001, "CATCH_SKM": 6.1599998, "UPLAND_SKM": 100.0, "ENDORHEIC": 0, "DIS_AV_CMS": 1.271, "ORD_STRA": 2, "ORD_CLAS": 2, "ORD_FLOW": 6, "HYBAS_L12": 4121156060.0, "Shape_Length": 0.01839255650992801 }, "geometry": { "type": "Polygon", "coordinates": [ ] } },
{ "type": "Feature", "properties": { "HYRIV_ID": 41399945, "NEXT_DOWN": 41399944, "MAIN_RIV": 41399342, "LENGTH_KM": 4.4899998, "DIST_DN_KM": 47.3, "DIST_UP_KM": 7.6, "CATCH_SKM": 15.71, "UPLAND_SKM": 15.7, "ENDORHEIC": 0, "DIS_AV_CMS": 0.192, "ORD_STRA": 1, "ORD_CLAS": 3, "ORD_FLOW": 7, "HYBAS_L12": 4121156060.0, "Shape_Length": 0.04059433619626257 }, "geometry": { "type": "Polygon", "coordinates": [ ] } },
{ "type": "Feature", "properties": { "HYRIV_ID": 41399965, "NEXT_DOWN": 41399943, "MAIN_RIV": 41399342, "LENGTH_KM": 1.8, "DIST_DN_KM": 41.900002, "DIST_UP_KM": 6.7, "CATCH_SKM": 10.62, "UPLAND_SKM": 10.6, "ENDORHEIC": 0, "DIS_AV_CMS": 0.122, "ORD_STRA": 1, "ORD_CLAS": 4, "ORD_FLOW": 7, "HYBAS_L12": 4121155930.0, "Shape_Length": 0.016309223176454463 }, "geometry": { "type": "Polygon", "coordinates": [ ] } },
{ "type": "Feature", "properties": { "HYRIV_ID": 41400051, "NEXT_DOWN": 41399863, "MAIN_RIV": 41399342, "LENGTH_KM": 4.9699998, "DIST_DN_KM": 43.5, "DIST_UP_KM": 9.7, "CATCH_SKM": 20.18, "UPLAND_SKM": 20.200001, "ENDORHEIC": 0, "DIS_AV_CMS": 0.248, "ORD_STRA": 1, "ORD_CLAS": 2, "ORD_FLOW": 7, "HYBAS_L12": 4121155910.0, "Shape_Length": 0.044761002863014161 }, "geometry": { "type": "Polygon", "coordinates": [ ] } },
{ "type": "Feature", "properties": { "HYRIV_ID": 41400052, "NEXT_DOWN": 41399944, "MAIN_RIV": 41399342, "LENGTH_KM": 3.99, "DIST_DN_KM": 47.5, "DIST_UP_KM": 15.5, "CATCH_SKM": 8.0699997, "UPLAND_SKM": 78.199997, "ENDORHEIC": 0, "DIS_AV_CMS": 1.007, "ORD_STRA": 2, "ORD_CLAS": 2, "ORD_FLOW": 6, "HYBAS_L12": 4121156060.0, "Shape_Length": 0.036070226039569019 }, "geometry": { "type": "Polygon", "coordinates": [ ] } },
{ "type": "Feature", "properties": { "HYRIV_ID": 41400053, "NEXT_DOWN": 41400052, "MAIN_RIV": 41399342, "LENGTH_KM": 2.74, "DIST_DN_KM": 51.5, "DIST_UP_KM": 5.8, "CATCH_SKM": 15.08, "UPLAND_SKM": 15.1, "ENDORHEIC": 0, "DIS_AV_CMS": 0.191, "ORD_STRA": 1, "ORD_CLAS": 3, "ORD_FLOW": 7, "HYBAS_L12": 4121156060.0, "Shape_Length": 0.024790614451168213 }, "geometry": { "type": "Polygon", "coordinates": [ ] } },
{ "type": "Feature", "properties": { "HYRIV_ID": 41400073, "NEXT_DOWN": 41399921, "MAIN_RIV": 41399342, "LENGTH_KM": 3.62, "DIST_DN_KM": 39.599998, "DIST_UP_KM": 15.2, "CATCH_SKM": 15.71, "UPLAND_SKM": 77.699997, "ENDORHEIC": 0, "DIS_AV_CMS": 0.95200002, "ORD_STRA": 2, "ORD_CLAS": 2, "ORD_FLOW": 7, "HYBAS_L12": 4121155930.0, "Shape_Length": 0.032618446353093668 }, "geometry": { "type": "Polygon", "coordinates": [ ] } },
{ "type": "Feature", "properties": { "HYRIV_ID": 41400094, "NEXT_DOWN": 41399921, "MAIN_RIV": 41399342, "LENGTH_KM": 4.3200002, "DIST_DN_KM": 39.400002, "DIST_UP_KM": 8.4, "CATCH_SKM": 19.110001, "UPLAND_SKM": 19.1, "ENDORHEIC": 0, "DIS_AV_CMS": 0.227, "ORD_STRA": 1, "ORD_CLAS": 3, "ORD_FLOW": 7, "HYBAS_L12": 4121155930.0, "Shape_Length": 0.03886844635312818 }, "geometry": { "type": "Polygon", "coordinates": [ ] } },
{ "type": "Feature", "properties": { "HYRIV_ID": 41400095, "NEXT_DOWN": 41400073, "MAIN_RIV": 41399342, "LENGTH_KM": 0.98, "DIST_DN_KM": 43.200001, "DIST_UP_KM": 5.7, "CATCH_SKM": 9.5600004, "UPLAND_SKM": 9.6, "ENDORHEIC": 0, "DIS_AV_CMS": 0.117, "ORD_STRA": 1, "ORD_CLAS": 3, "ORD_FLOW": 7, "HYBAS_L12": 4121155930.0, "Shape_Length": 0.0088388347648840973 }, "geometry": { "type": "Polygon", "coordinates": [ ] } },
{ "type": "Feature", "properties": { "HYRIV_ID": 41400117, "NEXT_DOWN": 41400052, "MAIN_RIV": 41399342, "LENGTH_KM": 1.96, "DIST_DN_KM": 51.5, "DIST_UP_KM": 11.5, "CATCH_SKM": 4.46, "UPLAND_SKM": 55.0, "ENDORHEIC": 0, "DIS_AV_CMS": 0.72, "ORD_STRA": 2, "ORD_CLAS": 2, "ORD_FLOW": 7, "HYBAS_L12": 4121156060.0, "Shape_Length": 0.017677669529557172 }, "geometry": { "type": "Polygon", "coordinates": [ ] } },
{ "type": "Feature", "properties": { "HYRIV_ID": 41400118, "NEXT_DOWN": 41400117, "MAIN_RIV": 41399342, "LENGTH_KM": 3.46, "DIST_DN_KM": 53.200001, "DIST_UP_KM": 6.9, "CATCH_SKM": 17.629999, "UPLAND_SKM": 17.6, "ENDORHEIC": 0, "DIS_AV_CMS": 0.229, "ORD_STRA": 1, "ORD_CLAS": 3, "ORD_FLOW": 7, "HYBAS_L12": 4121156060.0, "Shape_Length": 0.031398057941358151 }, "geometry": { "type": "Polygon", "coordinates": [ ] } },
{ "type": "Feature", "properties": { "HYRIV_ID": 41400137, "NEXT_DOWN": 41399943, "MAIN_RIV": 41399342, "LENGTH_KM": 4.3600001, "DIST_DN_KM": 41.900002, "DIST_UP_KM": 11.0, "CATCH_SKM": 12.95, "UPLAND_SKM": 39.700001, "ENDORHEIC": 0, "DIS_AV_CMS": 0.46900001, "ORD_STRA": 2, "ORD_CLAS": 3, "ORD_FLOW": 7, "HYBAS_L12": 4121155930.0, "Shape_Length": 0.039225889843232345 }, "geometry": { "type": "Polygon", "coordinates": [ ] } },
{ "type": "Feature", "properties": { "HYRIV_ID": 41400160, "NEXT_DOWN": 41400137, "MAIN_RIV": 41399342, "LENGTH_KM": 0.98, "DIST_DN_KM": 46.5, "DIST_UP_KM": 6.3, "CATCH_SKM": 13.38, "UPLAND_SKM": 13.4, "ENDORHEIC": 0, "DIS_AV_CMS": 0.159, "ORD_STRA": 1, "ORD_CLAS": 4, "ORD_FLOW": 7, "HYBAS_L12": 4121155930.0, "Shape_Length": 0.0088388347647635132 }, "geometry": { "type": "Polygon", "coordinates": [ ] } },
{ "type": "Feature", "properties": { "HYRIV_ID": 41400186, "NEXT_DOWN": 41400073, "MAIN_RIV": 41399342, "LENGTH_KM": 3.72, "DIST_DN_KM": 43.0, "DIST_UP_KM": 11.8, "CATCH_SKM": 15.5, "UPLAND_SKM": 52.5, "ENDORHEIC": 0, "DIS_AV_CMS": 0.653, "ORD_STRA": 2, "ORD_CLAS": 2, "ORD_FLOW": 7, "HYBAS_L12": 4121155930.0, "Shape_Length": 0.033629449216012117 }, "geometry": { "type": "Polygon", "coordinates": [ ] } },
{ "type": "Feature", "properties": { "HYRIV_ID": 41400187, "NEXT_DOWN": 41400186, "MAIN_RIV": 41399342, "LENGTH_KM": 0.69, "DIST_DN_KM": 46.700001, "DIST_UP_KM": 4.6, "CATCH_SKM": 10.19, "UPLAND_SKM": 10.2, "ENDORHEIC": 0, "DIS_AV_CMS": 0.127, "ORD_STRA": 1, "ORD_CLAS": 3, "ORD_FLOW": 7, "HYBAS_L12": 4121155930.0, "Shape_Length": 0.0062500000000227374 }, "geometry": { "type": "Polygon", "coordinates": [ ] } },
{ "type": "Feature", "properties": { "HYRIV_ID": 41400188, "NEXT_DOWN": 41400117, "MAIN_RIV": 41399342, "LENGTH_KM": 1.77, "DIST_DN_KM": 53.200001, "DIST_UP_KM": 9.8, "CATCH_SKM": 3.82, "UPLAND_SKM": 32.900002, "ENDORHEIC": 0, "DIS_AV_CMS": 0.436, "ORD_STRA": 2, "ORD_CLAS": 2, "ORD_FLOW": 7, "HYBAS_L12": 4121156060.0, "Shape_Length": 0.015951779686540921 }, "geometry": { "type": "Polygon", "coordinates": [ ] } },
{ "type": "Feature", "properties": { "HYRIV_ID": 41400189, "NEXT_DOWN": 41400188, "MAIN_RIV": 41399342, "LENGTH_KM": 1.15, "DIST_DN_KM": 55.0, "DIST_UP_KM": 5.6, "CATCH_SKM": 12.32, "UPLAND_SKM": 12.3, "ENDORHEIC": 0, "DIS_AV_CMS": 0.163, "ORD_STRA": 1, "ORD_CLAS": 3, "ORD_FLOW": 7, "HYBAS_L12": 4121156060.0, "Shape_Length": 0.010416666666628771 }, "geometry": { "type": "Polygon", "coordinates": [ ] } },
{ "type": "Feature", "properties": { "HYRIV_ID": 41400212, "NEXT_DOWN": 41399922, "MAIN_RIV": 41399342, "LENGTH_KM": 7.1500001, "DIST_DN_KM": 45.3, "DIST_UP_KM": 33.599998, "CATCH_SKM": 21.66, "UPLAND_SKM": 190.5, "ENDORHEIC": 0, "DIS_AV_CMS": 2.5320001, "ORD_STRA": 3, "ORD_CLAS": 1, "ORD_FLOW": 6, "HYBAS_L12": 4121156070.0, "Shape_Length": 0.064522005725991483 }, "geometry": { "type": "Polygon", "coordinates": [ ] } },
{ "type": "Feature", "properties": { "HYRIV_ID": 41400237, "NEXT_DOWN": 41400137, "MAIN_RIV": 41399342, "LENGTH_KM": 2.46, "DIST_DN_KM": 46.5, "DIST_UP_KM": 6.5, "CATCH_SKM": 13.38, "UPLAND_SKM": 13.4, "ENDORHEIC": 0, "DIS_AV_CMS": 0.162, "ORD_STRA": 1, "ORD_CLAS": 3, "ORD_FLOW": 7, "HYBAS_L12": 4121155930.0, "Shape_Length": 0.022201779686454849 }, "geometry": { "type": "Polygon", "coordinates": [ ] } },
{ "type": "Feature", "properties": { "HYRIV_ID": 41400238, "NEXT_DOWN": 41400212, "MAIN_RIV": 41399342, "LENGTH_KM": 1.8, "DIST_DN_KM": 52.400002, "DIST_UP_KM": 7.1, "CATCH_SKM": 9.9799995, "UPLAND_SKM": 10.0, "ENDORHEIC": 0, "DIS_AV_CMS": 0.13, "ORD_STRA": 1, "ORD_CLAS": 2, "ORD_FLOW": 7, "HYBAS_L12": 4121156070.0, "Shape_Length": 0.016309223176541453 }, "geometry": { "type": "Polygon", "coordinates": [ ] } },
{ "type": "Feature", "properties": { "HYRIV_ID": 41400301, "NEXT_DOWN": 41400188, "MAIN_RIV": 41399342, "LENGTH_KM": 3.6700001, "DIST_DN_KM": 55.0, "DIST_UP_KM": 8.0, "CATCH_SKM": 16.780001, "UPLAND_SKM": 16.8, "ENDORHEIC": 0, "DIS_AV_CMS": 0.22400001, "ORD_STRA": 1, "ORD_CLAS": 2, "ORD_FLOW": 7, "HYBAS_L12": 4121156060.0, "Shape_Length": 0.033123947784563304 }, "geometry": { "type": "Polygon", "coordinates": [ ] } },
{ "type": "Feature", "properties": { "HYRIV_ID": 41400318, "NEXT_DOWN": 41400186, "MAIN_RIV": 41399342, "LENGTH_KM": 3.95, "DIST_DN_KM": 46.700001, "DIST_UP_KM": 8.1, "CATCH_SKM": 26.76, "UPLAND_SKM": 26.8, "ENDORHEIC": 0, "DIS_AV_CMS": 0.339, "ORD_STRA": 1, "ORD_CLAS": 2, "ORD_FLOW": 7, "HYBAS_L12": 4121155930.0, "Shape_Length": 0.035564724608089342 }, "geometry": { "type": "Polygon", "coordinates": [ ] } },
{ "type": "Feature", "properties": { "HYRIV_ID": 41400346, "NEXT_DOWN": 41400212, "MAIN_RIV": 41399342, "LENGTH_KM": 3.81, "DIST_DN_KM": 52.400002, "DIST_UP_KM": 26.5, "CATCH_SKM": 15.29, "UPLAND_SKM": 158.89999, "ENDORHEIC": 0, "DIS_AV_CMS": 2.1559999, "ORD_STRA": 3, "ORD_CLAS": 1, "ORD_FLOW": 6, "HYBAS_L12": 4121156070.0, "Shape_Length": 0.034344336196347636 }, "geometry": { "type": "Polygon", "coordinates": [ ] } },
{ "type": "Feature", "properties": { "HYRIV_ID": 41400448, "NEXT_DOWN": 41400346, "MAIN_RIV": 41399342, "LENGTH_KM": 3.07, "DIST_DN_KM": 56.400002, "DIST_UP_KM": 9.6, "CATCH_SKM": 8.9200001, "UPLAND_SKM": 39.099998, "ENDORHEIC": 0, "DIS_AV_CMS": 0.51800001, "ORD_STRA": 2, "ORD_CLAS": 2, "ORD_FLOW": 7, "HYBAS_L12": 4121156070.0, "Shape_Length": 0.027736892706251595 }, "geometry": { "type": "Polygon", "coordinates": [ ] } },
{ "type": "Feature", "properties": { "HYRIV_ID": 41400465, "NEXT_DOWN": 41400346, "MAIN_RIV": 41399342, "LENGTH_KM": 3.53, "DIST_DN_KM": 56.400002, "DIST_UP_KM": 22.5, "CATCH_SKM": 8.9200001, "UPLAND_SKM": 104.5, "ENDORHEIC": 0, "DIS_AV_CMS": 1.452, "ORD_STRA": 2, "ORD_CLAS": 1, "ORD_FLOW": 6, "HYBAS_L12": 4121156070.0, "Shape_Length": 0.031903559372906148 }, "geometry": { "type": "Polygon", "coordinates": [ ] } },
{ "type": "Feature", "properties": { "HYRIV_ID": 41400503, "NEXT_DOWN": 41400448, "MAIN_RIV": 41399342, "LENGTH_KM": 2.09, "DIST_DN_KM": 59.5, "DIST_UP_KM": 5.6, "CATCH_SKM": 16.57, "UPLAND_SKM": 16.6, "ENDORHEIC": 0, "DIS_AV_CMS": 0.22, "ORD_STRA": 1, "ORD_CLAS": 3, "ORD_FLOW": 7, "HYBAS_L12": 4121156070.0, "Shape_Length": 0.018898057941379266 }, "geometry": { "type": "Polygon", "coordinates": [ ] } },
{ "type": "Feature", "properties": { "HYRIV_ID": 41400504, "NEXT_DOWN": 41400465, "MAIN_RIV": 41399342, "LENGTH_KM": 5.2, "DIST_DN_KM": 59.8, "DIST_UP_KM": 7.8, "CATCH_SKM": 21.030001, "UPLAND_SKM": 21.0, "ENDORHEIC": 0, "DIS_AV_CMS": 0.288, "ORD_STRA": 1, "ORD_CLAS": 2, "ORD_FLOW": 7, "HYBAS_L12": 4121156070.0, "Shape_Length": 0.047201779686411004 }, "geometry": { "type": "Polygon", "coordinates": [ ] } },
{ "type": "Feature", "properties": { "HYRIV_ID": 41400548, "NEXT_DOWN": 41400448, "MAIN_RIV": 41399342, "LENGTH_KM": 3.1900001, "DIST_DN_KM": 59.3, "DIST_UP_KM": 6.8, "CATCH_SKM": 13.6, "UPLAND_SKM": 13.6, "ENDORHEIC": 0, "DIS_AV_CMS": 0.183, "ORD_STRA": 1, "ORD_CLAS": 2, "ORD_FLOW": 7, "HYBAS_L12": 4121156070.0, "Shape_Length": 0.028809223176613625 }, "geometry": { "type": "Polygon", "coordinates": [ ] } },
{ "type": "Feature", "properties": { "HYRIV_ID": 41400562, "NEXT_DOWN": 41400465, "MAIN_RIV": 41399342, "LENGTH_KM": 2.8800001, "DIST_DN_KM": 59.8, "DIST_UP_KM": 19.1, "CATCH_SKM": 8.9200001, "UPLAND_SKM": 74.599998, "ENDORHEIC": 0, "DIS_AV_CMS": 1.052, "ORD_STRA": 2, "ORD_CLAS": 1, "ORD_FLOW": 6, "HYBAS_L12": 4121156070.0, "Shape_Length": 0.026011002862898862 }, "geometry": { "type": "Polygon", "coordinates": [ ] } },
{ "type": "Feature", "properties": { "HYRIV_ID": 41400574, "NEXT_DOWN": 41400562, "MAIN_RIV": 41399342, "LENGTH_KM": 1.15, "DIST_DN_KM": 62.700001, "DIST_UP_KM": 4.9, "CATCH_SKM": 8.29, "UPLAND_SKM": 8.3, "ENDORHEIC": 0, "DIS_AV_CMS": 0.114, "ORD_STRA": 1, "ORD_CLAS": 2, "ORD_FLOW": 7, "HYBAS_L12": 4121156070.0, "Shape_Length": 0.010416666666628771 }, "geometry": { "type": "Polygon", "coordinates": [ ] } },
{ "type": "Feature", "properties": { "HYRIV_ID": 41400606, "NEXT_DOWN": 41400562, "MAIN_RIV": 41399342, "LENGTH_KM": 1.96, "DIST_DN_KM": 62.900002, "DIST_UP_KM": 16.1, "CATCH_SKM": 5.7399998, "UPLAND_SKM": 57.400002, "ENDORHEIC": 0, "DIS_AV_CMS": 0.82, "ORD_STRA": 2, "ORD_CLAS": 1, "ORD_FLOW": 7, "HYBAS_L12": 4121156070.0, "Shape_Length": 0.017677669529758144 }, "geometry": { "type": "Polygon", "coordinates": [ ] } },
{ "type": "Feature", "properties": { "HYRIV_ID": 41400627, "NEXT_DOWN": 41400606, "MAIN_RIV": 41399342, "LENGTH_KM": 0.69, "DIST_DN_KM": 64.599998, "DIST_UP_KM": 5.0, "CATCH_SKM": 9.1300001, "UPLAND_SKM": 9.1, "ENDORHEIC": 0, "DIS_AV_CMS": 0.129, "ORD_STRA": 1, "ORD_CLAS": 2, "ORD_FLOW": 7, "HYBAS_L12": 4121156070.0, "Shape_Length": 0.0062500000000369482 }, "geometry": { "type": "Polygon", "coordinates": [ ] } },
{ "type": "Feature", "properties": { "HYRIV_ID": 41400835, "NEXT_DOWN": 41400606, "MAIN_RIV": 41399342, "LENGTH_KM": 9.7, "DIST_DN_KM": 64.800003, "DIST_UP_KM": 14.1, "CATCH_SKM": 42.490002, "UPLAND_SKM": 42.5, "ENDORHEIC": 0, "DIS_AV_CMS": 0.61299998, "ORD_STRA": 1, "ORD_CLAS": 1, "ORD_FLOW": 7, "HYBAS_L12": 4121156070.0, "Shape_Length": 0.087734788275362047 }, "geometry": { "type": "Polygon", "coordinates": [ ] } }
]
}
