{
"type": "FeatureCollection",
"name": "main_river_41396635",
"crs": { "type": "name", "properties": { "name": "urn:ogc:def:crs:OGC:1.3:CRS84" } },
"features": [
{ "type": "Feature", "properties": { "HYRIV_ID": 41396635, "NEXT_DOWN": 0, "MAIN_RIV": 41396635, "LENGTH_KM": 2.22, "DIST_DN_KM": 0.0, "DIST_UP_KM": 12.7, "CATCH_SKM": 2.76, "UPLAND_SKM": 45.400002, "ENDORHEIC": 0, "DIS_AV_CMS": 0.66399997, "ORD_STRA": 2, "ORD_CLAS": 1, "ORD_FLOW": 7, "HYBAS_L12": 4120049530.0, "Shape_Length": 0.020118446353120975 }, "geometry": { "type": "Polygon", "coordinates": [ ] } },
{ "type": "Feature", "properties": { "HYRIV_ID": 41396706, "NEXT_DOWN": 41396635, "MAIN_RIV": 41396635, "LENGTH_KM": 1.62, "DIST_DN_KM": 2.4, "DIST_UP_KM": 5.9, "CATCH_SKM": 10.39, "UPLAND_SKM": 10.4, "ENDORHEIC": 0, "DIS_AV_CMS": 0.154, "ORD_STRA": 1, "ORD_CLAS": 2, "ORD_FLOW": 7, "HYBAS_L12": 4120049530.0, "Shape_Length": 0.014583333333305859 }, "geometry": { "type": "Polygon", "coordinates": [ ] } },
{ "type": "Feature", "properties": { "HYRIV_ID": 41396740, "NEXT_DOWN": 41396741, "MAIN_RIV": 41396635, "LENGTH_KM": 0.69, "DIST_DN_KM": 6.1, "DIST_UP_KM": 4.8, "CATCH_SKM": 7.6300001, "UPLAND_SKM": 7.6, "ENDORHEIC": 0, "DIS_AV_CMS": 0.112, "ORD_STRA": 1, "ORD_CLAS": 2, "ORD_FLOW": 7, "HYBAS_L12": 4120049530.0, "Shape_Length": 0.0062499999999801048 }, "geometry": { "type": "Polygon", "coordinates": [ ] } },
{ "type": "Feature", "properties": { "HYRIV_ID": 41396741, "NEXT_DOWN": 41396635, "MAIN_RIV": 41396635, "LENGTH_KM": 3.79, "DIST_DN_KM": 2.4, "DIST_UP_KM": 10.7, "CATCH_SKM": 7.8400002, "UPLAND_SKM": 32.400002, "ENDORHEIC": 0, "DIS_AV_CMS": 0.475, "ORD_STRA": 2, "ORD_CLAS": 1, "ORD_FLOW": 7, "HYBAS_L12": 4120049530.0, "Shape_Length": 0.03434433619619863 }, "geometry": { "type": "Polygon", "coordinates": [ ] } },
{ "type": "Feature", "properties": { "HYRIV_ID": 41396819, "NEXT_DOWN": 41396741, "MAIN_RIV": 41396635, "LENGTH_KM": 2.45, "DIST_DN_KM": 6.1, "DIST_UP_KM": 6.9, "CATCH_SKM": 16.959999, "UPLAND_SKM": 17.0, "ENDORHEIC": 0, "DIS_AV_CMS": 0.25, "ORD_STRA": 1, "ORD_CLAS": 1, "ORD_FLOW": 7, "HYBAS_L12": 4120049530.0, "Shape_Length": 0.022201779686580311 }, "geometry": { "type": "Polygon", "coordinates": [ ] } }
]
}
