{
"type": "FeatureCollection",
"name": "main_river_41409252",
"crs": { "type": "name", "properties": { "name": "urn:ogc:def:crs:OGC:1.3:CRS84" } },
"features": [
{ "type": "Feature", "properties": { "HYRIV_ID": 41409252, "NEXT_DOWN": 0, "MAIN_RIV": 41409252, "LENGTH_KM": 0.69, "DIST_DN_KM": 0.0, "DIST_UP_KM": 3.0, "CATCH_SKM": 3.6300001, "UPLAND_SKM": 3.4, "ENDORHEIC": 0, "DIS_AV_CMS": 0.15800001, "ORD_STRA": 1, "ORD_CLAS": 1, "ORD_FLOW": 7, "HYBAS_L12": 4120048960.0, "Shape_Length": 0.0062500000000227374 }, "geometry": { "type": "Polygon", "coordinates": [ ] } }
]
}
