{
"type": "FeatureCollection",
"name": "main_river_41397270",
"crs": { "type": "name", "properties": { "name": "urn:ogc:def:crs:OGC:1.3:CRS84" } },
"features": [
{ "type": "Feature", "properties": { "HYRIV_ID": 41397236, "NEXT_DOWN": 41397270, "MAIN_RIV": 41397270, "LENGTH_KM": 1.99, "DIST_DN_KM": 3.7, "DIST_UP_KM": 6.7, "CATCH_SKM": 16.959999, "UPLAND_SKM": 17.0, "ENDORHEIC": 0, "DIS_AV_CMS": 0.16500001, "ORD_STRA": 1, "ORD_CLAS": 1, "ORD_FLOW": 7, "HYBAS_L12": 4120049310.0, "Shape_Length": 0.018035113019730965 }, "geometry": { "type": "MultiLineString", "coordinates": [ [ [ 79.966666666666271, 8.918749999999868 ], [ 79.960416666666305, 8.918749999999868 ], [ 79.952083333332979, 8.910416666666542 ] ] ] } },
{ "type": "Feature", "properties": { "HYRIV_ID": 41397270, "NEXT_DOWN": 0, "MAIN_RIV": 41397270, "LENGTH_KM": 3.4, "DIST_DN_KM": 0.0, "DIST_UP_KM": 10.1, "CATCH_SKM": 7.6300001, "UPLAND_SKM": 37.5, "ENDORHEIC": 0, "DIS_AV_CMS": 0.36500001, "ORD_STRA": 2, "ORD_CLAS": 1, "ORD_FLOW": 7, "HYBAS_L12": 4120049310.0, "Shape_Length": 0.030892556509826204 }, "geometry": { "type": "MultiLineString", "coordinates": [ [ [ 79.952083333332979, 8.910416666666542 ], [ 79.927083333332945, 8.910416666666542 ], [ 79.922916666666396, 8.906249999999893 ] ] ] } },
{ "type": "Feature", "properties": { "HYRIV_ID": 41397271, "NEXT_DOWN": 41397270, "MAIN_RIV": 41397270, "LENGTH_KM": 1.4400001, "DIST_DN_KM": 3.5, "DIST_UP_KM": 6.0, "CATCH_SKM": 13.15, "UPLAND_SKM": 13.1, "ENDORHEIC": 0, "DIS_AV_CMS": 0.12800001, "ORD_STRA": 1, "ORD_CLAS": 2, "ORD_FLOW": 7, "HYBAS_L12": 4120049310.0, "Shape_Length": 0.013005501431567071 }, "geometry": { "type": "MultiLineString", "coordinates": [ [ [ 79.962499999999721, 8.904166666666519 ], [ 79.956249999999642, 8.910416666666542 ], [ 79.952083333332979, 8.910416666666542 ] ] ] } }
]
}
