{
"type": "FeatureCollection",
"name": "main_river_41402045",
"crs": { "type": "name", "properties": { "name": "urn:ogc:def:crs:OGC:1.3:CRS84" } },
"features": [
{ "type": "Feature", "properties": { "HYRIV_ID": 41401864, "NEXT_DOWN": 41401911, "MAIN_RIV": 41402045, "LENGTH_KM": 3.3, "DIST_DN_KM": 30.4, "DIST_UP_KM": 5.8, "CATCH_SKM": 8.9300003, "UPLAND_SKM": 8.9, "ENDORHEIC": 0, "DIS_AV_CMS": 0.191, "ORD_STRA": 1, "ORD_CLAS": 2, "ORD_FLOW": 7, "HYBAS_L12": 4121157080.0, "Shape_Length": 0.029820226039449959 }, "geometry": { "type": "Polygon", "coordinates": [ ] } },
{ "type": "Feature", "properties": { "HYRIV_ID": 41401906, "NEXT_DOWN": 41401957, "MAIN_RIV": 41402045, "LENGTH_KM": 1.81, "DIST_DN_KM": 41.8, "DIST_UP_KM": 5.6, "CATCH_SKM": 12.33, "UPLAND_SKM": 12.3, "ENDORHEIC": 0, "DIS_AV_CMS": 0.26, "ORD_STRA": 1, "ORD_CLAS": 2, "ORD_FLOW": 7, "HYBAS_L12": 4121601300.0, "Shape_Length": 0.016309223176525518 }, "geometry": { "type": "Polygon", "coordinates": [ ] } },
{ "type": "Feature", "properties": { "HYRIV_ID": 41401907, "NEXT_DOWN": 41401927, "MAIN_RIV": 41402045, "LENGTH_KM": 0.98, "DIST_DN_KM": 37.099998, "DIST_UP_KM": 4.5, "CATCH_SKM": 5.7399998, "UPLAND_SKM": 5.7, "ENDORHEIC": 0, "DIS_AV_CMS": 0.122, "ORD_STRA": 1, "ORD_CLAS": 3, "ORD_FLOW": 7, "HYBAS_L12": 4121601300.0, "Shape_Length": 0.008838834764843902 }, "geometry": { "type": "Polygon", "coordinates": [ ] } },
{ "type": "Feature", "properties": { "HYRIV_ID": 41401908, "NEXT_DOWN": 41401927, "MAIN_RIV": 41402045, "LENGTH_KM": 4.1300001, "DIST_DN_KM": 36.900002, "DIST_UP_KM": 7.6, "CATCH_SKM": 13.82, "UPLAND_SKM": 13.8, "ENDORHEIC": 0, "DIS_AV_CMS": 0.29300001, "ORD_STRA": 1, "ORD_CLAS": 2, "ORD_FLOW": 7, "HYBAS_L12": 4121601300.0, "Shape_Length": 0.037290614451230338 }, "geometry": { "type": "Polygon", "coordinates": [ ] } },
{ "type": "Feature", "properties": { "HYRIV_ID": 41401909, "NEXT_DOWN": 41401910, "MAIN_RIV": 41402045, "LENGTH_KM": 3.3900001, "DIST_DN_KM": 32.900002, "DIST_UP_KM": 7.0, "CATCH_SKM": 13.18, "UPLAND_SKM": 13.2, "ENDORHEIC": 0, "DIS_AV_CMS": 0.28, "ORD_STRA": 1, "ORD_CLAS": 2, "ORD_FLOW": 7, "HYBAS_L12": 4121157080.0, "Shape_Length": 0.030535113019766393 }, "geometry": { "type": "Polygon", "coordinates": [ ] } },
{ "type": "Feature", "properties": { "HYRIV_ID": 41401910, "NEXT_DOWN": 41401911, "MAIN_RIV": 41402045, "LENGTH_KM": 2.6800001, "DIST_DN_KM": 30.4, "DIST_UP_KM": 111.6, "CATCH_SKM": 4.6799998, "UPLAND_SKM": 1160.1, "ENDORHEIC": 0, "DIS_AV_CMS": 25.377001, "ORD_STRA": 4, "ORD_CLAS": 1, "ORD_FLOW": 5, "HYBAS_L12": 4121157080.0, "Shape_Length": 0.024285113019696859 }, "geometry": { "type": "Polygon", "coordinates": [ ] } },
{ "type": "Feature", "properties": { "HYRIV_ID": 41401911, "NEXT_DOWN": 41402010, "MAIN_RIV": 41402045, "LENGTH_KM": 1.76, "DIST_DN_KM": 28.4, "DIST_UP_KM": 113.5, "CATCH_SKM": 5.7399998, "UPLAND_SKM": 1174.8, "ENDORHEIC": 0, "DIS_AV_CMS": 25.667, "ORD_STRA": 4, "ORD_CLAS": 1, "ORD_FLOW": 5, "HYBAS_L12": 4121157080.0, "Shape_Length": 0.015951779686427948 }, "geometry": { "type": "Polygon", "coordinates": [ ] } },
{ "type": "Feature", "properties": { "HYRIV_ID": 41401912, "NEXT_DOWN": 41402010, "MAIN_RIV": 41402045, "LENGTH_KM": 1.62, "DIST_DN_KM": 28.4, "DIST_UP_KM": 4.9, "CATCH_SKM": 13.82, "UPLAND_SKM": 13.8, "ENDORHEIC": 0, "DIS_AV_CMS": 0.297, "ORD_STRA": 1, "ORD_CLAS": 2, "ORD_FLOW": 7, "HYBAS_L12": 4121157080.0, "Shape_Length": 0.014583333333305859 }, "geometry": { "type": "Polygon", "coordinates": [ ] } },
{ "type": "Feature", "properties": { "HYRIV_ID": 41401925, "NEXT_DOWN": 41401955, "MAIN_RIV": 41402045, "LENGTH_KM": 2.55, "DIST_DN_KM": 47.200001, "DIST_UP_KM": 5.6, "CATCH_SKM": 10.2, "UPLAND_SKM": 10.2, "ENDORHEIC": 0, "DIS_AV_CMS": 0.214, "ORD_STRA": 1, "ORD_CLAS": 3, "ORD_FLOW": 7, "HYBAS_L12": 4121601300.0, "Shape_Length": 0.023064724608001949 }, "geometry": { "type": "Polygon", "coordinates": [ ] } },
{ "type": "Feature", "properties": { "HYRIV_ID": 41401926, "NEXT_DOWN": 41401955, "MAIN_RIV": 41402045, "LENGTH_KM": 2.83, "DIST_DN_KM": 47.200001, "DIST_UP_KM": 5.8, "CATCH_SKM": 13.61, "UPLAND_SKM": 13.6, "ENDORHEIC": 0, "DIS_AV_CMS": 0.28600001, "ORD_STRA": 1, "ORD_CLAS": 2, "ORD_FLOW": 7, "HYBAS_L12": 4121601300.0, "Shape_Length": 0.025505501431511347 }, "geometry": { "type": "Polygon", "coordinates": [ ] } },
{ "type": "Feature", "properties": { "HYRIV_ID": 41401927, "NEXT_DOWN": 41401928, "MAIN_RIV": 41402045, "LENGTH_KM": 1.5700001, "DIST_DN_KM": 35.3, "DIST_UP_KM": 9.2, "CATCH_SKM": 2.34, "UPLAND_SKM": 21.9, "ENDORHEIC": 0, "DIS_AV_CMS": 0.464, "ORD_STRA": 2, "ORD_CLAS": 2, "ORD_FLOW": 7, "HYBAS_L12": 4121601300.0, "Shape_Length": 0.014225889843255086 }, "geometry": { "type": "Polygon", "coordinates": [ ] } },
{ "type": "Feature", "properties": { "HYRIV_ID": 41401928, "NEXT_DOWN": 41401910, "MAIN_RIV": 41402045, "LENGTH_KM": 2.49, "DIST_DN_KM": 32.900002, "DIST_UP_KM": 109.1, "CATCH_SKM": 4.89, "UPLAND_SKM": 1134.0, "ENDORHEIC": 0, "DIS_AV_CMS": 24.858, "ORD_STRA": 4, "ORD_CLAS": 1, "ORD_FLOW": 5, "HYBAS_L12": 4121157080.0, "Shape_Length": 0.022559223176523997 }, "geometry": { "type": "Polygon", "coordinates": [ ] } },
{ "type": "Feature", "properties": { "HYRIV_ID": 41401955, "NEXT_DOWN": 41401956, "MAIN_RIV": 41402045, "LENGTH_KM": 2.03, "DIST_DN_KM": 45.200001, "DIST_UP_KM": 7.9, "CATCH_SKM": 2.1300001, "UPLAND_SKM": 25.9, "ENDORHEIC": 0, "DIS_AV_CMS": 0.54500002, "ORD_STRA": 2, "ORD_CLAS": 2, "ORD_FLOW": 7, "HYBAS_L12": 4121601300.0, "Shape_Length": 0.018392556509958156 }, "geometry": { "type": "Polygon", "coordinates": [ ] } },
{ "type": "Feature", "properties": { "HYRIV_ID": 41401956, "NEXT_DOWN": 41401957, "MAIN_RIV": 41402045, "LENGTH_KM": 3.33, "DIST_DN_KM": 42.0, "DIST_UP_KM": 99.900002, "CATCH_SKM": 7.4400001, "UPLAND_SKM": 1040.4, "ENDORHEIC": 0, "DIS_AV_CMS": 22.997, "ORD_STRA": 4, "ORD_CLAS": 1, "ORD_FLOW": 5, "HYBAS_L12": 4121601300.0, "Shape_Length": 0.03017766952965634 }, "geometry": { "type": "Polygon", "coordinates": [ ] } },
{ "type": "Feature", "properties": { "HYRIV_ID": 41401957, "NEXT_DOWN": 41401974, "MAIN_RIV": 41402045, "LENGTH_KM": 1.96, "DIST_DN_KM": 40.099998, "DIST_UP_KM": 101.9, "CATCH_SKM": 5.1, "UPLAND_SKM": 1057.8, "ENDORHEIC": 0, "DIS_AV_CMS": 23.343, "ORD_STRA": 4, "ORD_CLAS": 1, "ORD_FLOW": 5, "HYBAS_L12": 4121601300.0, "Shape_Length": 0.017677669529667706 }, "geometry": { "type": "Polygon", "coordinates": [ ] } },
{ "type": "Feature", "properties": { "HYRIV_ID": 41401958, "NEXT_DOWN": 41401910, "MAIN_RIV": 41402045, "LENGTH_KM": 1.91, "DIST_DN_KM": 32.900002, "DIST_UP_KM": 5.2, "CATCH_SKM": 8.29, "UPLAND_SKM": 8.3, "ENDORHEIC": 0, "DIS_AV_CMS": 0.178, "ORD_STRA": 1, "ORD_CLAS": 3, "ORD_FLOW": 7, "HYBAS_L12": 4121157080.0, "Shape_Length": 0.017172168098228226 }, "geometry": { "type": "Polygon", "coordinates": [ ] } },
{ "type": "Feature", "properties": { "HYRIV_ID": 41401974, "NEXT_DOWN": 41401975, "MAIN_RIV": 41402045, "LENGTH_KM": 2.49, "DIST_DN_KM": 37.599998, "DIST_UP_KM": 104.4, "CATCH_SKM": 5.7399998, "UPLAND_SKM": 1094.2, "ENDORHEIC": 0, "DIS_AV_CMS": 24.080999, "ORD_STRA": 4, "ORD_CLAS": 1, "ORD_FLOW": 5, "HYBAS_L12": 4121601300.0, "Shape_Length": 0.02255922317658084 }, "geometry": { "type": "Polygon", "coordinates": [ ] } },
{ "type": "Feature", "properties": { "HYRIV_ID": 41401975, "NEXT_DOWN": 41401928, "MAIN_RIV": 41402045, "LENGTH_KM": 2.04, "DIST_DN_KM": 35.3, "DIST_UP_KM": 106.6, "CATCH_SKM": 4.04, "UPLAND_SKM": 1107.2, "ENDORHEIC": 0, "DIS_AV_CMS": 24.327999, "ORD_STRA": 4, "ORD_CLAS": 1, "ORD_FLOW": 5, "HYBAS_L12": 4121601300.0, "Shape_Length": 0.018392556509943946 }, "geometry": { "type": "Polygon", "coordinates": [ ] } },
{ "type": "Feature", "properties": { "HYRIV_ID": 41401988, "NEXT_DOWN": 41401989, "MAIN_RIV": 41402045, "LENGTH_KM": 4.0500002, "DIST_DN_KM": 48.3, "DIST_UP_KM": 7.1, "CATCH_SKM": 12.33, "UPLAND_SKM": 12.3, "ENDORHEIC": 0, "DIS_AV_CMS": 0.259, "ORD_STRA": 1, "ORD_CLAS": 2, "ORD_FLOW": 7, "HYBAS_L12": 4121601300.0, "Shape_Length": 0.036575727471079553 }, "geometry": { "type": "Polygon", "coordinates": [ ] } },
{ "type": "Feature", "properties": { "HYRIV_ID": 41401989, "NEXT_DOWN": 41401956, "MAIN_RIV": 41402045, "LENGTH_KM": 3.1400001, "DIST_DN_KM": 45.3, "DIST_UP_KM": 96.599998, "CATCH_SKM": 5.9499998, "UPLAND_SKM": 1007.0, "ENDORHEIC": 0, "DIS_AV_CMS": 22.337999, "ORD_STRA": 4, "ORD_CLAS": 1, "ORD_FLOW": 5, "HYBAS_L12": 4121601300.0, "Shape_Length": 0.028451779686476872 }, "geometry": { "type": "Polygon", "coordinates": [ ] } },
{ "type": "Feature", "properties": { "HYRIV_ID": 41401990, "NEXT_DOWN": 41401975, "MAIN_RIV": 41402045, "LENGTH_KM": 0.98, "DIST_DN_KM": 37.599998, "DIST_UP_KM": 4.0, "CATCH_SKM": 8.9300003, "UPLAND_SKM": 8.9, "ENDORHEIC": 0, "DIS_AV_CMS": 0.192, "ORD_STRA": 1, "ORD_CLAS": 2, "ORD_FLOW": 7, "HYBAS_L12": 4121601300.0, "Shape_Length": 0.0088388347648740481 }, "geometry": { "type": "Polygon", "coordinates": [ ] } },
{ "type": "Feature", "properties": { "HYRIV_ID": 41402010, "NEXT_DOWN": 41402030, "MAIN_RIV": 41402045, "LENGTH_KM": 4.1799998, "DIST_DN_KM": 24.200001, "DIST_UP_KM": 117.7, "CATCH_SKM": 7.4400001, "UPLAND_SKM": 1196.0, "ENDORHEIC": 0, "DIS_AV_CMS": 26.066999, "ORD_STRA": 4, "ORD_CLAS": 1, "ORD_FLOW": 5, "HYBAS_L12": 4121157080.0, "Shape_Length": 0.037796115882802177 }, "geometry": { "type": "Polygon", "coordinates": [ ] } },
{ "type": "Feature", "properties": { "HYRIV_ID": 41402027, "NEXT_DOWN": 41401989, "MAIN_RIV": 41402045, "LENGTH_KM": 0.93, "DIST_DN_KM": 48.3, "DIST_UP_KM": 93.599998, "CATCH_SKM": 1.06, "UPLAND_SKM": 988.70001, "ENDORHEIC": 0, "DIS_AV_CMS": 21.995001, "ORD_STRA": 4, "ORD_CLAS": 1, "ORD_FLOW": 5, "HYBAS_L12": 4121601300.0, "Shape_Length": 0.0083333333333115434 }, "geometry": { "type": "Polygon", "coordinates": [ ] } },
{ "type": "Feature", "properties": { "HYRIV_ID": 41402028, "NEXT_DOWN": 41402027, "MAIN_RIV": 41402045, "LENGTH_KM": 0.69, "DIST_DN_KM": 49.200001, "DIST_UP_KM": 4.5, "CATCH_SKM": 5.3200002, "UPLAND_SKM": 5.3, "ENDORHEIC": 0, "DIS_AV_CMS": 0.113, "ORD_STRA": 1, "ORD_CLAS": 2, "ORD_FLOW": 7, "HYBAS_L12": 4121601300.0, "Shape_Length": 0.0062500000000227374 }, "geometry": { "type": "Polygon", "coordinates": [ ] } },
{ "type": "Feature", "properties": { "HYRIV_ID": 41402029, "NEXT_DOWN": 41402030, "MAIN_RIV": 41402045, "LENGTH_KM": 4.48, "DIST_DN_KM": 24.200001, "DIST_UP_KM": 8.2, "CATCH_SKM": 20.41, "UPLAND_SKM": 20.4, "ENDORHEIC": 0, "DIS_AV_CMS": 0.443, "ORD_STRA": 1, "ORD_CLAS": 2, "ORD_FLOW": 7, "HYBAS_L12": 4121157080.0, "Shape_Length": 0.040594336196311809 }, "geometry": { "type": "Polygon", "coordinates": [ ] } },
{ "type": "Feature", "properties": { "HYRIV_ID": 41402030, "NEXT_DOWN": 41402043, "MAIN_RIV": 41402045, "LENGTH_KM": 0.65, "DIST_DN_KM": 23.8, "DIST_UP_KM": 118.2, "CATCH_SKM": 0.85, "UPLAND_SKM": 1217.3, "ENDORHEIC": 0, "DIS_AV_CMS": 26.52, "ORD_STRA": 4, "ORD_CLAS": 1, "ORD_FLOW": 5, "HYBAS_L12": 4121157080.0, "Shape_Length": 0.0058925565098724882 }, "geometry": { "type": "Polygon", "coordinates": [ ] } },
{ "type": "Feature", "properties": { "HYRIV_ID": 41402031, "NEXT_DOWN": 41402043, "MAIN_RIV": 41402045, "LENGTH_KM": 2.74, "DIST_DN_KM": 23.8, "DIST_UP_KM": 5.9, "CATCH_SKM": 18.07, "UPLAND_SKM": 18.1, "ENDORHEIC": 0, "DIS_AV_CMS": 0.39300001, "ORD_STRA": 1, "ORD_CLAS": 2, "ORD_FLOW": 7, "HYBAS_L12": 4121157080.0, "Shape_Length": 0.024642556509883857 }, "geometry": { "type": "Polygon", "coordinates": [ ] } },
{ "type": "Feature", "properties": { "HYRIV_ID": 41402043, "NEXT_DOWN": 41402079, "MAIN_RIV": 41402045, "LENGTH_KM": 2.22, "DIST_DN_KM": 21.4, "DIST_UP_KM": 120.6, "CATCH_SKM": 5.5300002, "UPLAND_SKM": 1240.9, "ENDORHEIC": 0, "DIS_AV_CMS": 27.0, "ORD_STRA": 4, "ORD_CLAS": 1, "ORD_FLOW": 5, "HYBAS_L12": 4121157080.0, "Shape_Length": 0.020118446353090826 }, "geometry": { "type": "Polygon", "coordinates": [ ] } },
{ "type": "Feature", "properties": { "HYRIV_ID": 41402044, "NEXT_DOWN": 41402045, "MAIN_RIV": 41402045, "LENGTH_KM": 3.9300001, "DIST_DN_KM": 3.4, "DIST_UP_KM": 7.2, "CATCH_SKM": 14.88, "UPLAND_SKM": 14.9, "ENDORHEIC": 0, "DIS_AV_CMS": 0.32800001, "ORD_STRA": 1, "ORD_CLAS": 2, "ORD_FLOW": 7, "HYBAS_L12": 4120049740.0, "Shape_Length": 0.03556472460818709 }, "geometry": { "type": "Polygon", "coordinates": [ ] } },
{ "type": "Feature", "properties": { "HYRIV_ID": 41402045, "NEXT_DOWN": 0, "MAIN_RIV": 41402045, "LENGTH_KM": 3.1500001, "DIST_DN_KM": 0.0, "DIST_UP_KM": 141.7, "CATCH_SKM": 12.54, "UPLAND_SKM": 1752.5, "ENDORHEIC": 0, "DIS_AV_CMS": 37.146999, "ORD_STRA": 4, "ORD_CLAS": 1, "ORD_FLOW": 5, "HYBAS_L12": 4120049740.0, "Shape_Length": 0.028451779686295284 }, "geometry": { "type": "Polygon", "coordinates": [ ] } },
{ "type": "Feature", "properties": { "HYRIV_ID": 41402065, "NEXT_DOWN": 41402066, "MAIN_RIV": 41402045, "LENGTH_KM": 1.99, "DIST_DN_KM": 51.599998, "DIST_UP_KM": 5.6, "CATCH_SKM": 12.33, "UPLAND_SKM": 12.3, "ENDORHEIC": 0, "DIS_AV_CMS": 0.26, "ORD_STRA": 1, "ORD_CLAS": 3, "ORD_FLOW": 7, "HYBAS_L12": 4121601320.0, "Shape_Length": 0.018035113019874802 }, "geometry": { "type": "Polygon", "coordinates": [ ] } },
{ "type": "Feature", "properties": { "HYRIV_ID": 41402066, "NEXT_DOWN": 41402067, "MAIN_RIV": 41402045, "LENGTH_KM": 0.46, "DIST_DN_KM": 51.0, "DIST_UP_KM": 10.5, "CATCH_SKM": 0.42, "UPLAND_SKM": 38.3, "ENDORHEIC": 0, "DIS_AV_CMS": 0.80800003, "ORD_STRA": 2, "ORD_CLAS": 2, "ORD_FLOW": 7, "HYBAS_L12": 4121601320.0, "Shape_Length": 0.0041666666666628771 }, "geometry": { "type": "Polygon", "coordinates": [ ] } },
{ "type": "Feature", "properties": { "HYRIV_ID": 41402067, "NEXT_DOWN": 41402027, "MAIN_RIV": 41402045, "LENGTH_KM": 1.77, "DIST_DN_KM": 49.400002, "DIST_UP_KM": 92.5, "CATCH_SKM": 2.76, "UPLAND_SKM": 982.40002, "ENDORHEIC": 0, "DIS_AV_CMS": 21.872999, "ORD_STRA": 4, "ORD_CLAS": 1, "ORD_FLOW": 5, "HYBAS_L12": 4121601300.0, "Shape_Length": 0.015951779686337514 }, "geometry": { "type": "Polygon", "coordinates": [ ] } },
{ "type": "Feature", "properties": { "HYRIV_ID": 41402078, "NEXT_DOWN": 41402079, "MAIN_RIV": 41402045, "LENGTH_KM": 2.26, "DIST_DN_KM": 21.4, "DIST_UP_KM": 5.2, "CATCH_SKM": 6.5900002, "UPLAND_SKM": 6.6, "ENDORHEIC": 0, "DIS_AV_CMS": 0.144, "ORD_STRA": 1, "ORD_CLAS": 2, "ORD_FLOW": 7, "HYBAS_L12": 4121157080.0, "Shape_Length": 0.020475889843246962 }, "geometry": { "type": "Polygon", "coordinates": [ ] } },
{ "type": "Feature", "properties": { "HYRIV_ID": 41402079, "NEXT_DOWN": 41402127, "MAIN_RIV": 41402045, "LENGTH_KM": 2.6800001, "DIST_DN_KM": 18.700001, "DIST_UP_KM": 123.2, "CATCH_SKM": 5.5300002, "UPLAND_SKM": 1253.0, "ENDORHEIC": 0, "DIS_AV_CMS": 27.222, "ORD_STRA": 4, "ORD_CLAS": 1, "ORD_FLOW": 5, "HYBAS_L12": 4121157080.0, "Shape_Length": 0.024285113019830645 }, "geometry": { "type": "Polygon", "coordinates": [ ] } },
{ "type": "Feature", "properties": { "HYRIV_ID": 41402080, "NEXT_DOWN": 41402127, "MAIN_RIV": 41402045, "LENGTH_KM": 3.2, "DIST_DN_KM": 18.700001, "DIST_UP_KM": 7.5, "CATCH_SKM": 15.95, "UPLAND_SKM": 15.9, "ENDORHEIC": 0, "DIS_AV_CMS": 0.35, "ORD_STRA": 1, "ORD_CLAS": 2, "ORD_FLOW": 7, "HYBAS_L12": 4121157080.0, "Shape_Length": 0.028809223176542571 }, "geometry": { "type": "Polygon", "coordinates": [ ] } },
{ "type": "Feature", "properties": { "HYRIV_ID": 41402091, "NEXT_DOWN": 41402067, "MAIN_RIV": 41402045, "LENGTH_KM": 1.11, "DIST_DN_KM": 51.200001, "DIST_UP_KM": 90.699997, "CATCH_SKM": 1.28, "UPLAND_SKM": 941.29999, "ENDORHEIC": 0, "DIS_AV_CMS": 21.027, "ORD_STRA": 4, "ORD_CLAS": 1, "ORD_FLOW": 5, "HYBAS_L12": 4121601320.0, "Shape_Length": 0.010059223176575559 }, "geometry": { "type": "Polygon", "coordinates": [ ] } },
{ "type": "Feature", "properties": { "HYRIV_ID": 41402092, "NEXT_DOWN": 41401974, "MAIN_RIV": 41402045, "LENGTH_KM": 6.8200002, "DIST_DN_KM": 40.099998, "DIST_UP_KM": 11.0, "CATCH_SKM": 30.620001, "UPLAND_SKM": 30.6, "ENDORHEIC": 0, "DIS_AV_CMS": 0.65399998, "ORD_STRA": 1, "ORD_CLAS": 2, "ORD_FLOW": 7, "HYBAS_L12": 4121601300.0, "Shape_Length": 0.061575727471012462 }, "geometry": { "type": "Polygon", "coordinates": [ ] } },
{ "type": "Feature", "properties": { "HYRIV_ID": 41402127, "NEXT_DOWN": 41402201, "MAIN_RIV": 41402045, "LENGTH_KM": 2.23, "DIST_DN_KM": 16.4, "DIST_UP_KM": 125.5, "CATCH_SKM": 3.4, "UPLAND_SKM": 1272.4, "ENDORHEIC": 0, "DIS_AV_CMS": 27.613001, "ORD_STRA": 4, "ORD_CLAS": 1, "ORD_FLOW": 5, "HYBAS_L12": 4121157080.0, "Shape_Length": 0.020118446353133458 }, "geometry": { "type": "Polygon", "coordinates": [ ] } },
{ "type": "Feature", "properties": { "HYRIV_ID": 41402128, "NEXT_DOWN": 41402201, "MAIN_RIV": 41402045, "LENGTH_KM": 0.69, "DIST_DN_KM": 16.4, "DIST_UP_KM": 4.1, "CATCH_SKM": 5.9499998, "UPLAND_SKM": 6.0, "ENDORHEIC": 0, "DIS_AV_CMS": 0.132, "ORD_STRA": 1, "ORD_CLAS": 2, "ORD_FLOW": 7, "HYBAS_L12": 4121157080.0, "Shape_Length": 0.0062499999999090505 }, "geometry": { "type": "Polygon", "coordinates": [ ] } },
{ "type": "Feature", "properties": { "HYRIV_ID": 41402145, "NEXT_DOWN": 41402066, "MAIN_RIV": 41402045, "LENGTH_KM": 6.1500001, "DIST_DN_KM": 51.400002, "DIST_UP_KM": 10.0, "CATCH_SKM": 25.52, "UPLAND_SKM": 25.5, "ENDORHEIC": 0, "DIS_AV_CMS": 0.53899997, "ORD_STRA": 1, "ORD_CLAS": 2, "ORD_FLOW": 7, "HYBAS_L12": 4121601320.0, "Shape_Length": 0.055683170961274772 }, "geometry": { "type": "Polygon", "coordinates": [ ] } },
{ "type": "Feature", "properties": { "HYRIV_ID": 41402146, "NEXT_DOWN": 41402175, "MAIN_RIV": 41402045, "LENGTH_KM": 2.52, "DIST_DN_KM": 34.0, "DIST_UP_KM": 5.9, "CATCH_SKM": 11.06, "UPLAND_SKM": 11.1, "ENDORHEIC": 0, "DIS_AV_CMS": 0.23800001, "ORD_STRA": 1, "ORD_CLAS": 3, "ORD_FLOW": 7, "HYBAS_L12": 4121157120.0, "Shape_Length": 0.022916666666731089 }, "geometry": { "type": "Polygon", "coordinates": [ ] } },
{ "type": "Feature", "properties": { "HYRIV_ID": 41402175, "NEXT_DOWN": 41402221, "MAIN_RIV": 41402045, "LENGTH_KM": 4.9, "DIST_DN_KM": 29.200001, "DIST_UP_KM": 13.6, "CATCH_SKM": 14.46, "UPLAND_SKM": 53.8, "ENDORHEIC": 0, "DIS_AV_CMS": 1.161, "ORD_STRA": 2, "ORD_CLAS": 2, "ORD_FLOW": 6, "HYBAS_L12": 4121157120.0, "Shape_Length": 0.04440355937284108 }, "geometry": { "type": "Polygon", "coordinates": [ ] } },
{ "type": "Feature", "properties": { "HYRIV_ID": 41402200, "NEXT_DOWN": 41402175, "MAIN_RIV": 41402045, "LENGTH_KM": 2.23, "DIST_DN_KM": 34.0, "DIST_UP_KM": 8.9, "CATCH_SKM": 4.46, "UPLAND_SKM": 28.3, "ENDORHEIC": 0, "DIS_AV_CMS": 0.61299998, "ORD_STRA": 2, "ORD_CLAS": 2, "ORD_FLOW": 7, "HYBAS_L12": 4121157120.0, "Shape_Length": 0.020118446353132743 }, "geometry": { "type": "Polygon", "coordinates": [ ] } },
{ "type": "Feature", "properties": { "HYRIV_ID": 41402201, "NEXT_DOWN": 41402225, "MAIN_RIV": 41402045, "LENGTH_KM": 2.6900001, "DIST_DN_KM": 13.9, "DIST_UP_KM": 128.0, "CATCH_SKM": 4.46, "UPLAND_SKM": 1282.8, "ENDORHEIC": 0, "DIS_AV_CMS": 27.8, "ORD_STRA": 4, "ORD_CLAS": 1, "ORD_FLOW": 5, "HYBAS_L12": 4121157080.0, "Shape_Length": 0.024285113019772077 }, "geometry": { "type": "Polygon", "coordinates": [ ] } },
{ "type": "Feature", "properties": { "HYRIV_ID": 41402202, "NEXT_DOWN": 41402045, "MAIN_RIV": 41402045, "LENGTH_KM": 5.0100002, "DIST_DN_KM": 3.4, "DIST_UP_KM": 138.5, "CATCH_SKM": 14.67, "UPLAND_SKM": 1726.2, "ENDORHEIC": 0, "DIS_AV_CMS": 36.828999, "ORD_STRA": 4, "ORD_CLAS": 1, "ORD_FLOW": 5, "HYBAS_L12": 4120049740.0, "Shape_Length": 0.045118446352863668 }, "geometry": { "type": "Polygon", "coordinates": [ ] } },
{ "type": "Feature", "properties": { "HYRIV_ID": 41402203, "NEXT_DOWN": 41402202, "MAIN_RIV": 41402045, "LENGTH_KM": 0.92, "DIST_DN_KM": 8.4, "DIST_UP_KM": 50.3, "CATCH_SKM": 2.76, "UPLAND_SKM": 250.3, "ENDORHEIC": 0, "DIS_AV_CMS": 5.4439998, "ORD_STRA": 3, "ORD_CLAS": 2, "ORD_FLOW": 6, "HYBAS_L12": 4121157110.0, "Shape_Length": 0.0083333333332120674 }, "geometry": { "type": "Polygon", "coordinates": [ ] } },
{ "type": "Feature", "properties": { "HYRIV_ID": 41402204, "NEXT_DOWN": 41402203, "MAIN_RIV": 41402045, "LENGTH_KM": 4.0300002, "DIST_DN_KM": 9.3, "DIST_UP_KM": 7.3, "CATCH_SKM": 12.33, "UPLAND_SKM": 12.3, "ENDORHEIC": 0, "DIS_AV_CMS": 0.27900001, "ORD_STRA": 1, "ORD_CLAS": 3, "ORD_FLOW": 7, "HYBAS_L12": 4121157110.0, "Shape_Length": 0.036427669529635727 }, "geometry": { "type": "Polygon", "coordinates": [ ] } },
{ "type": "Feature", "properties": { "HYRIV_ID": 41402221, "NEXT_DOWN": 41402222, "MAIN_RIV": 41402045, "LENGTH_KM": 1.96, "DIST_DN_KM": 27.3, "DIST_UP_KM": 15.6, "CATCH_SKM": 3.62, "UPLAND_SKM": 76.099998, "ENDORHEIC": 0, "DIS_AV_CMS": 1.647, "ORD_STRA": 2, "ORD_CLAS": 2, "ORD_FLOW": 6, "HYBAS_L12": 4121157120.0, "Shape_Length": 0.017677669529637563 }, "geometry": { "type": "Polygon", "coordinates": [ ] } },
{ "type": "Feature", "properties": { "HYRIV_ID": 41402222, "NEXT_DOWN": 41402223, "MAIN_RIV": 41402045, "LENGTH_KM": 1.76, "DIST_DN_KM": 25.3, "DIST_UP_KM": 17.5, "CATCH_SKM": 7.6599998, "UPLAND_SKM": 96.099998, "ENDORHEIC": 0, "DIS_AV_CMS": 2.0840001, "ORD_STRA": 2, "ORD_CLAS": 2, "ORD_FLOW": 6, "HYBAS_L12": 4121157120.0, "Shape_Length": 0.015951779686484792 }, "geometry": { "type": "Polygon", "coordinates": [ ] } },
{ "type": "Feature", "properties": { "HYRIV_ID": 41402223, "NEXT_DOWN": 41402239, "MAIN_RIV": 41402045, "LENGTH_KM": 7.7800002, "DIST_DN_KM": 17.700001, "DIST_UP_KM": 25.1, "CATCH_SKM": 21.26, "UPLAND_SKM": 129.89999, "ENDORHEIC": 0, "DIS_AV_CMS": 2.82, "ORD_STRA": 2, "ORD_CLAS": 2, "ORD_FLOW": 6, "HYBAS_L12": 4121157120.0, "Shape_Length": 0.070414562235884076 }, "geometry": { "type": "Polygon", "coordinates": [ ] } },
{ "type": "Feature", "properties": { "HYRIV_ID": 41402224, "NEXT_DOWN": 41402239, "MAIN_RIV": 41402045, "LENGTH_KM": 1.8, "DIST_DN_KM": 17.6, "DIST_UP_KM": 5.8, "CATCH_SKM": 10.42, "UPLAND_SKM": 10.4, "ENDORHEIC": 0, "DIS_AV_CMS": 0.232, "ORD_STRA": 1, "ORD_CLAS": 3, "ORD_FLOW": 7, "HYBAS_L12": 4121157120.0, "Shape_Length": 0.016309223176553939 }, "geometry": { "type": "Polygon", "coordinates": [ ] } },
{ "type": "Feature", "properties": { "HYRIV_ID": 41402225, "NEXT_DOWN": 41402226, "MAIN_RIV": 41402045, "LENGTH_KM": 0.65, "DIST_DN_KM": 13.3, "DIST_UP_KM": 128.60001, "CATCH_SKM": 0.21, "UPLAND_SKM": 1439.3, "ENDORHEIC": 0, "DIS_AV_CMS": 31.197001, "ORD_STRA": 4, "ORD_CLAS": 1, "ORD_FLOW": 5, "HYBAS_L12": 4121157100.0, "Shape_Length": 0.0058925565098825365 }, "geometry": { "type": "Polygon", "coordinates": [ ] } },
{ "type": "Feature", "properties": { "HYRIV_ID": 41402226, "NEXT_DOWN": 41402202, "MAIN_RIV": 41402045, "LENGTH_KM": 4.71, "DIST_DN_KM": 8.4, "DIST_UP_KM": 133.5, "CATCH_SKM": 16.8, "UPLAND_SKM": 1461.2, "ENDORHEIC": 0, "DIS_AV_CMS": 31.492001, "ORD_STRA": 4, "ORD_CLAS": 1, "ORD_FLOW": 5, "HYBAS_L12": 4121157100.0, "Shape_Length": 0.042677669529718465 }, "geometry": { "type": "Polygon", "coordinates": [ ] } },
{ "type": "Feature", "properties": { "HYRIV_ID": 41402237, "NEXT_DOWN": 41402091, "MAIN_RIV": 41402045, "LENGTH_KM": 4.3600001, "DIST_DN_KM": 52.3, "DIST_UP_KM": 89.599998, "CATCH_SKM": 14.67, "UPLAND_SKM": 908.59998, "ENDORHEIC": 0, "DIS_AV_CMS": 20.339001, "ORD_STRA": 4, "ORD_CLAS": 1, "ORD_FLOW": 5, "HYBAS_L12": 4121601320.0, "Shape_Length": 0.039225889843229909 }, "geometry": { "type": "Polygon", "coordinates": [ ] } },
{ "type": "Feature", "properties": { "HYRIV_ID": 41402238, "NEXT_DOWN": 41402200, "MAIN_RIV": 41402045, "LENGTH_KM": 2.55, "DIST_DN_KM": 36.400002, "DIST_UP_KM": 5.4, "CATCH_SKM": 8.7200003, "UPLAND_SKM": 8.7, "ENDORHEIC": 0, "DIS_AV_CMS": 0.189, "ORD_STRA": 1, "ORD_CLAS": 3, "ORD_FLOW": 7, "HYBAS_L12": 4121157120.0, "Shape_Length": 0.023064724608122533 }, "geometry": { "type": "Polygon", "coordinates": [ ] } },
{ "type": "Feature", "properties": { "HYRIV_ID": 41402239, "NEXT_DOWN": 41402240, "MAIN_RIV": 41402045, "LENGTH_KM": 2.6900001, "DIST_DN_KM": 14.9, "DIST_UP_KM": 28.0, "CATCH_SKM": 5.1, "UPLAND_SKM": 145.39999, "ENDORHEIC": 0, "DIS_AV_CMS": 3.161, "ORD_STRA": 2, "ORD_CLAS": 2, "ORD_FLOW": 6, "HYBAS_L12": 4121157120.0, "Shape_Length": 0.024285113019800499 }, "geometry": { "type": "Polygon", "coordinates": [ ] } },
{ "type": "Feature", "properties": { "HYRIV_ID": 41402240, "NEXT_DOWN": 41402225, "MAIN_RIV": 41402045, "LENGTH_KM": 1.11, "DIST_DN_KM": 13.8, "DIST_UP_KM": 29.1, "CATCH_SKM": 0.64, "UPLAND_SKM": 156.3, "ENDORHEIC": 0, "DIS_AV_CMS": 3.402, "ORD_STRA": 2, "ORD_CLAS": 2, "ORD_FLOW": 6, "HYBAS_L12": 4121157120.0, "Shape_Length": 0.010059223176545413 }, "geometry": { "type": "Polygon", "coordinates": [ ] } },
{ "type": "Feature", "properties": { "HYRIV_ID": 41402241, "NEXT_DOWN": 41402226, "MAIN_RIV": 41402045, "LENGTH_KM": 0.98, "DIST_DN_KM": 13.3, "DIST_UP_KM": 3.2, "CATCH_SKM": 5.1, "UPLAND_SKM": 5.1, "ENDORHEIC": 0, "DIS_AV_CMS": 0.115, "ORD_STRA": 1, "ORD_CLAS": 2, "ORD_FLOW": 7, "HYBAS_L12": 4121157100.0, "Shape_Length": 0.0088388347648338528 }, "geometry": { "type": "Polygon", "coordinates": [ ] } },
{ "type": "Feature", "properties": { "HYRIV_ID": 41402270, "NEXT_DOWN": 41402200, "MAIN_RIV": 41402045, "LENGTH_KM": 2.04, "DIST_DN_KM": 36.200001, "DIST_UP_KM": 6.7, "CATCH_SKM": 3.1900001, "UPLAND_SKM": 15.1, "ENDORHEIC": 0, "DIS_AV_CMS": 0.32800001, "ORD_STRA": 2, "ORD_CLAS": 2, "ORD_FLOW": 7, "HYBAS_L12": 4121157120.0, "Shape_Length": 0.018392556509891266 }, "geometry": { "type": "Polygon", "coordinates": [ ] } },
{ "type": "Feature", "properties": { "HYRIV_ID": 41402271, "NEXT_DOWN": 41402240, "MAIN_RIV": 41402045, "LENGTH_KM": 1.16, "DIST_DN_KM": 14.9, "DIST_UP_KM": 4.6, "CATCH_SKM": 10.21, "UPLAND_SKM": 10.2, "ENDORHEIC": 0, "DIS_AV_CMS": 0.229, "ORD_STRA": 1, "ORD_CLAS": 3, "ORD_FLOW": 7, "HYBAS_L12": 4121157120.0, "Shape_Length": 0.010416666666685614 }, "geometry": { "type": "Polygon", "coordinates": [ ] } },
{ "type": "Feature", "properties": { "HYRIV_ID": 41402287, "NEXT_DOWN": 41402237, "MAIN_RIV": 41402045, "LENGTH_KM": 4.58, "DIST_DN_KM": 56.5, "DIST_UP_KM": 7.3, "CATCH_SKM": 18.07, "UPLAND_SKM": 18.1, "ENDORHEIC": 0, "DIS_AV_CMS": 0.38600001, "ORD_STRA": 1, "ORD_CLAS": 2, "ORD_FLOW": 7, "HYBAS_L12": 4121601320.0, "Shape_Length": 0.041457281118000303 }, "geometry": { "type": "Polygon", "coordinates": [ ] } },
{ "type": "Feature", "properties": { "HYRIV_ID": 41402288, "NEXT_DOWN": 41402091, "MAIN_RIV": 41402045, "LENGTH_KM": 7.1, "DIST_DN_KM": 52.099998, "DIST_UP_KM": 11.4, "CATCH_SKM": 31.469999, "UPLAND_SKM": 31.5, "ENDORHEIC": 0, "DIS_AV_CMS": 0.67500001, "ORD_STRA": 1, "ORD_CLAS": 2, "ORD_FLOW": 7, "HYBAS_L12": 4121601320.0, "Shape_Length": 0.064016504294405432 }, "geometry": { "type": "Polygon", "coordinates": [ ] } },
{ "type": "Feature", "properties": { "HYRIV_ID": 41402289, "NEXT_DOWN": 41402270, "MAIN_RIV": 41402045, "LENGTH_KM": 1.4400001, "DIST_DN_KM": 38.200001, "DIST_UP_KM": 4.6, "CATCH_SKM": 5.7399998, "UPLAND_SKM": 5.7, "ENDORHEIC": 0, "DIS_AV_CMS": 0.125, "ORD_STRA": 1, "ORD_CLAS": 2, "ORD_FLOW": 7, "HYBAS_L12": 4121157120.0, "Shape_Length": 0.013005501431506779 }, "geometry": { "type": "Polygon", "coordinates": [ ] } },
{ "type": "Feature", "properties": { "HYRIV_ID": 41402301, "NEXT_DOWN": 41402270, "MAIN_RIV": 41402045, "LENGTH_KM": 1.16, "DIST_DN_KM": 38.200001, "DIST_UP_KM": 4.1, "CATCH_SKM": 6.1700001, "UPLAND_SKM": 6.2, "ENDORHEIC": 0, "DIS_AV_CMS": 0.134, "ORD_STRA": 1, "ORD_CLAS": 3, "ORD_FLOW": 7, "HYBAS_L12": 4121157120.0, "Shape_Length": 0.010416666666642982 }, "geometry": { "type": "Polygon", "coordinates": [ ] } },
{ "type": "Feature", "properties": { "HYRIV_ID": 41402302, "NEXT_DOWN": 41402221, "MAIN_RIV": 41402045, "LENGTH_KM": 7.0, "DIST_DN_KM": 29.1, "DIST_UP_KM": 8.9, "CATCH_SKM": 18.709999, "UPLAND_SKM": 18.700001, "ENDORHEIC": 0, "DIS_AV_CMS": 0.408, "ORD_STRA": 1, "ORD_CLAS": 3, "ORD_FLOW": 7, "HYBAS_L12": 4121157120.0, "Shape_Length": 0.063301617314163214 }, "geometry": { "type": "Polygon", "coordinates": [ ] } },
{ "type": "Feature", "properties": { "HYRIV_ID": 41402303, "NEXT_DOWN": 41402223, "MAIN_RIV": 41402045, "LENGTH_KM": 3.02, "DIST_DN_KM": 25.3, "DIST_UP_KM": 5.6, "CATCH_SKM": 12.55, "UPLAND_SKM": 12.5, "ENDORHEIC": 0, "DIS_AV_CMS": 0.278, "ORD_STRA": 1, "ORD_CLAS": 3, "ORD_FLOW": 7, "HYBAS_L12": 4121157120.0, "Shape_Length": 0.027231391274733445 }, "geometry": { "type": "Polygon", "coordinates": [ ] } },
{ "type": "Feature", "properties": { "HYRIV_ID": 41402315, "NEXT_DOWN": 41402222, "MAIN_RIV": 41402045, "LENGTH_KM": 3.3900001, "DIST_DN_KM": 27.1, "DIST_UP_KM": 5.8, "CATCH_SKM": 12.33, "UPLAND_SKM": 12.3, "ENDORHEIC": 0, "DIS_AV_CMS": 0.271, "ORD_STRA": 1, "ORD_CLAS": 3, "ORD_FLOW": 7, "HYBAS_L12": 4121157120.0, "Shape_Length": 0.030535113019753906 }, "geometry": { "type": "Polygon", "coordinates": [ ] } },
{ "type": "Feature", "properties": { "HYRIV_ID": 41402356, "NEXT_DOWN": 41402203, "MAIN_RIV": 41402045, "LENGTH_KM": 5.77, "DIST_DN_KM": 9.5, "DIST_UP_KM": 49.200001, "CATCH_SKM": 12.76, "UPLAND_SKM": 235.2, "ENDORHEIC": 0, "DIS_AV_CMS": 5.1149998, "ORD_STRA": 3, "ORD_CLAS": 2, "ORD_FLOW": 6, "HYBAS_L12": 4121157110.0, "Shape_Length": 0.052022005725989362 }, "geometry": { "type": "Polygon", "coordinates": [ ] } },
{ "type": "Feature", "properties": { "HYRIV_ID": 41402376, "NEXT_DOWN": 41402377, "MAIN_RIV": 41402045, "LENGTH_KM": 0.69, "DIST_DN_KM": 18.4, "DIST_UP_KM": 3.2, "CATCH_SKM": 5.9499998, "UPLAND_SKM": 6.0, "ENDORHEIC": 0, "DIS_AV_CMS": 0.13500001, "ORD_STRA": 1, "ORD_CLAS": 3, "ORD_FLOW": 7, "HYBAS_L12": 4121157110.0, "Shape_Length": 0.0062499999999943157 }, "geometry": { "type": "Polygon", "coordinates": [ ] } },
{ "type": "Feature", "properties": { "HYRIV_ID": 41402377, "NEXT_DOWN": 41402356, "MAIN_RIV": 41402045, "LENGTH_KM": 3.33, "DIST_DN_KM": 15.3, "DIST_UP_KM": 43.5, "CATCH_SKM": 7.6599998, "UPLAND_SKM": 205.39999, "ENDORHEIC": 0, "DIS_AV_CMS": 4.4910002, "ORD_STRA": 3, "ORD_CLAS": 2, "ORD_FLOW": 6, "HYBAS_L12": 4121157110.0, "Shape_Length": 0.030177669529552406 }, "geometry": { "type": "Polygon", "coordinates": [ ] } },
{ "type": "Feature", "properties": { "HYRIV_ID": 41402403, "NEXT_DOWN": 41402237, "MAIN_RIV": 41402045, "LENGTH_KM": 5.6599998, "DIST_DN_KM": 56.5, "DIST_UP_KM": 85.5, "CATCH_SKM": 20.200001, "UPLAND_SKM": 875.79999, "ENDORHEIC": 0, "DIS_AV_CMS": 19.697001, "ORD_STRA": 4, "ORD_CLAS": 1, "ORD_FLOW": 5, "HYBAS_L12": 4121601320.0, "Shape_Length": 0.051011002863093742 }, "geometry": { "type": "Polygon", "coordinates": [ ] } },
{ "type": "Feature", "properties": { "HYRIV_ID": 41402404, "NEXT_DOWN": 41402377, "MAIN_RIV": 41402045, "LENGTH_KM": 1.5700001, "DIST_DN_KM": 18.4, "DIST_UP_KM": 40.3, "CATCH_SKM": 3.83, "UPLAND_SKM": 191.8, "ENDORHEIC": 0, "DIS_AV_CMS": 4.211, "ORD_STRA": 3, "ORD_CLAS": 2, "ORD_FLOW": 6, "HYBAS_L12": 4121157110.0, "Shape_Length": 0.014225889843407242 }, "geometry": { "type": "Polygon", "coordinates": [ ] } },
{ "type": "Feature", "properties": { "HYRIV_ID": 41402405, "NEXT_DOWN": 41402356, "MAIN_RIV": 41402045, "LENGTH_KM": 1.39, "DIST_DN_KM": 15.1, "DIST_UP_KM": 6.5, "CATCH_SKM": 2.34, "UPLAND_SKM": 17.0, "ENDORHEIC": 0, "DIS_AV_CMS": 0.39, "ORD_STRA": 2, "ORD_CLAS": 3, "ORD_FLOW": 7, "HYBAS_L12": 4121157110.0, "Shape_Length": 0.012500000000017053 }, "geometry": { "type": "Polygon", "coordinates": [ ] } },
{ "type": "Feature", "properties": { "HYRIV_ID": 41402426, "NEXT_DOWN": 41402405, "MAIN_RIV": 41402045, "LENGTH_KM": 0.92, "DIST_DN_KM": 16.5, "DIST_UP_KM": 5.1, "CATCH_SKM": 7.4400001, "UPLAND_SKM": 7.4, "ENDORHEIC": 0, "DIS_AV_CMS": 0.171, "ORD_STRA": 1, "ORD_CLAS": 3, "ORD_FLOW": 7, "HYBAS_L12": 4121157110.0, "Shape_Length": 0.0083333333333257542 }, "geometry": { "type": "Polygon", "coordinates": [ ] } },
{ "type": "Feature", "properties": { "HYRIV_ID": 41402427, "NEXT_DOWN": 41402405, "MAIN_RIV": 41402045, "LENGTH_KM": 1.4400001, "DIST_DN_KM": 16.5, "DIST_UP_KM": 4.0, "CATCH_SKM": 7.23, "UPLAND_SKM": 7.2, "ENDORHEIC": 0, "DIS_AV_CMS": 0.167, "ORD_STRA": 1, "ORD_CLAS": 4, "ORD_FLOW": 7, "HYBAS_L12": 4121157110.0, "Shape_Length": 0.013005501431466584 }, "geometry": { "type": "Polygon", "coordinates": [ ] } },
{ "type": "Feature", "properties": { "HYRIV_ID": 41402438, "NEXT_DOWN": 41402403, "MAIN_RIV": 41402045, "LENGTH_KM": 1.12, "DIST_DN_KM": 62.099998, "DIST_UP_KM": 79.800003, "CATCH_SKM": 1.06, "UPLAND_SKM": 836.70001, "ENDORHEIC": 0, "DIS_AV_CMS": 18.921, "ORD_STRA": 4, "ORD_CLAS": 1, "ORD_FLOW": 5, "HYBAS_L12": 4121601320.0, "Shape_Length": 0.010059223176545413 }, "geometry": { "type": "Polygon", "coordinates": [ ] } },
{ "type": "Feature", "properties": { "HYRIV_ID": 41402439, "NEXT_DOWN": 41402438, "MAIN_RIV": 41402045, "LENGTH_KM": 2.72, "DIST_DN_KM": 63.400002, "DIST_UP_KM": 6.1, "CATCH_SKM": 12.34, "UPLAND_SKM": 12.3, "ENDORHEIC": 0, "DIS_AV_CMS": 0.267, "ORD_STRA": 1, "ORD_CLAS": 2, "ORD_FLOW": 7, "HYBAS_L12": 4121601320.0, "Shape_Length": 0.024642556509834622 }, "geometry": { "type": "Polygon", "coordinates": [ ] } },
{ "type": "Feature", "properties": { "HYRIV_ID": 41402440, "NEXT_DOWN": 41402404, "MAIN_RIV": 41402045, "LENGTH_KM": 1.35, "DIST_DN_KM": 20.200001, "DIST_UP_KM": 4.3, "CATCH_SKM": 6.81, "UPLAND_SKM": 6.8, "ENDORHEIC": 0, "DIS_AV_CMS": 0.155, "ORD_STRA": 1, "ORD_CLAS": 3, "ORD_FLOW": 7, "HYBAS_L12": 4121157110.0, "Shape_Length": 0.012142556509876851 }, "geometry": { "type": "Polygon", "coordinates": [ ] } },
{ "type": "Feature", "properties": { "HYRIV_ID": 41402452, "NEXT_DOWN": 41402403, "MAIN_RIV": 41402045, "LENGTH_KM": 4.48, "DIST_DN_KM": 62.099998, "DIST_UP_KM": 7.1, "CATCH_SKM": 18.93, "UPLAND_SKM": 18.9, "ENDORHEIC": 0, "DIS_AV_CMS": 0.408, "ORD_STRA": 1, "ORD_CLAS": 2, "ORD_FLOW": 7, "HYBAS_L12": 4121601320.0, "Shape_Length": 0.040594336196368652 }, "geometry": { "type": "Polygon", "coordinates": [ ] } },
{ "type": "Feature", "properties": { "HYRIV_ID": 41402453, "NEXT_DOWN": 41402474, "MAIN_RIV": 41402045, "LENGTH_KM": 0.69, "DIST_DN_KM": 50.3, "DIST_UP_KM": 3.1, "CATCH_SKM": 5.3200002, "UPLAND_SKM": 5.3, "ENDORHEIC": 0, "DIS_AV_CMS": 0.116, "ORD_STRA": 1, "ORD_CLAS": 4, "ORD_FLOW": 7, "HYBAS_L12": 4121601380.0, "Shape_Length": 0.0062499999999801048 }, "geometry": { "type": "Polygon", "coordinates": [ ] } },
{ "type": "Feature", "properties": { "HYRIV_ID": 41402454, "NEXT_DOWN": 41402455, "MAIN_RIV": 41402045, "LENGTH_KM": 3.6600001, "DIST_DN_KM": 29.3, "DIST_UP_KM": 6.1, "CATCH_SKM": 15.31, "UPLAND_SKM": 15.3, "ENDORHEIC": 0, "DIS_AV_CMS": 0.34200001, "ORD_STRA": 1, "ORD_CLAS": 3, "ORD_FLOW": 7, "HYBAS_L12": 4121157110.0, "Shape_Length": 0.033123947784674548 }, "geometry": { "type": "Polygon", "coordinates": [ ] } },
{ "type": "Feature", "properties": { "HYRIV_ID": 41402455, "NEXT_DOWN": 41402404, "MAIN_RIV": 41402045, "LENGTH_KM": 9.29, "DIST_DN_KM": 20.200001, "DIST_UP_KM": 38.599998, "CATCH_SKM": 25.52, "UPLAND_SKM": 181.2, "ENDORHEIC": 0, "DIS_AV_CMS": 3.983, "ORD_STRA": 3, "ORD_CLAS": 2, "ORD_FLOW": 6, "HYBAS_L12": 4121157110.0, "Shape_Length": 0.083925565098845273 }, "geometry": { "type": "Polygon", "coordinates": [ ] } },
{ "type": "Feature", "properties": { "HYRIV_ID": 41402471, "NEXT_DOWN": 41402438, "MAIN_RIV": 41402045, "LENGTH_KM": 0.93, "DIST_DN_KM": 63.200001, "DIST_UP_KM": 78.699997, "CATCH_SKM": 1.49, "UPLAND_SKM": 823.29999, "ENDORHEIC": 0, "DIS_AV_CMS": 18.643, "ORD_STRA": 4, "ORD_CLAS": 1, "ORD_FLOW": 5, "HYBAS_L12": 4121601320.0, "Shape_Length": 0.0083333333333541759 }, "geometry": { "type": "Polygon", "coordinates": [ ] } },
{ "type": "Feature", "properties": { "HYRIV_ID": 41402472, "NEXT_DOWN": 41402471, "MAIN_RIV": 41402045, "LENGTH_KM": 2.98, "DIST_DN_KM": 64.199997, "DIST_UP_KM": 6.3, "CATCH_SKM": 9.7799997, "UPLAND_SKM": 9.8, "ENDORHEIC": 0, "DIS_AV_CMS": 0.213, "ORD_STRA": 1, "ORD_CLAS": 2, "ORD_FLOW": 7, "HYBAS_L12": 4121601320.0, "Shape_Length": 0.027083333333280279 }, "geometry": { "type": "Polygon", "coordinates": [ ] } },
{ "type": "Feature", "properties": { "HYRIV_ID": 41402473, "NEXT_DOWN": 41402474, "MAIN_RIV": 41402045, "LENGTH_KM": 1.9, "DIST_DN_KM": 50.3, "DIST_UP_KM": 5.3, "CATCH_SKM": 11.27, "UPLAND_SKM": 11.3, "ENDORHEIC": 0, "DIS_AV_CMS": 0.247, "ORD_STRA": 1, "ORD_CLAS": 3, "ORD_FLOW": 7, "HYBAS_L12": 4121601380.0, "Shape_Length": 0.017172168098256647 }, "geometry": { "type": "Polygon", "coordinates": [ ] } },
{ "type": "Feature", "properties": { "HYRIV_ID": 41402474, "NEXT_DOWN": 41402475, "MAIN_RIV": 41402045, "LENGTH_KM": 1.5700001, "DIST_DN_KM": 48.700001, "DIST_UP_KM": 6.9, "CATCH_SKM": 4.04, "UPLAND_SKM": 20.6, "ENDORHEIC": 0, "DIS_AV_CMS": 0.45100001, "ORD_STRA": 2, "ORD_CLAS": 3, "ORD_FLOW": 7, "HYBAS_L12": 4121601380.0, "Shape_Length": 0.014225889843238436 }, "geometry": { "type": "Polygon", "coordinates": [ ] } },
{ "type": "Feature", "properties": { "HYRIV_ID": 41402475, "NEXT_DOWN": 41402542, "MAIN_RIV": 41402045, "LENGTH_KM": 10.54, "DIST_DN_KM": 38.200001, "DIST_UP_KM": 20.6, "CATCH_SKM": 34.029999, "UPLAND_SKM": 93.400002, "ENDORHEIC": 0, "DIS_AV_CMS": 2.0469999, "ORD_STRA": 3, "ORD_CLAS": 2, "ORD_FLOW": 6, "HYBAS_L12": 4121601380.0, "Shape_Length": 0.095414562235908842 }, "geometry": { "type": "Polygon", "coordinates": [ ] } },
{ "type": "Feature", "properties": { "HYRIV_ID": 41402486, "NEXT_DOWN": 41402471, "MAIN_RIV": 41402045, "LENGTH_KM": 0.46, "DIST_DN_KM": 64.199997, "DIST_UP_KM": 77.800003, "CATCH_SKM": 0.42, "UPLAND_SKM": 812.0, "ENDORHEIC": 0, "DIS_AV_CMS": 18.409, "ORD_STRA": 4, "ORD_CLAS": 1, "ORD_FLOW": 5, "HYBAS_L12": 4121601320.0, "Shape_Length": 0.0041666666666628771 }, "geometry": { "type": "Polygon", "coordinates": [ ] } },
{ "type": "Feature", "properties": { "HYRIV_ID": 41402487, "NEXT_DOWN": 41402475, "MAIN_RIV": 41402045, "LENGTH_KM": 0.46, "DIST_DN_KM": 48.700001, "DIST_UP_KM": 10.0, "CATCH_SKM": 2.55, "UPLAND_SKM": 38.700001, "ENDORHEIC": 0, "DIS_AV_CMS": 0.85500002, "ORD_STRA": 2, "ORD_CLAS": 2, "ORD_FLOW": 7, "HYBAS_L12": 4121601380.0, "Shape_Length": 0.0041666666666628771 }, "geometry": { "type": "Polygon", "coordinates": [ ] } },
{ "type": "Feature", "properties": { "HYRIV_ID": 41402506, "NEXT_DOWN": 41402487, "MAIN_RIV": 41402045, "LENGTH_KM": 1.8, "DIST_DN_KM": 49.200001, "DIST_UP_KM": 5.3, "CATCH_SKM": 7.23, "UPLAND_SKM": 7.2, "ENDORHEIC": 0, "DIS_AV_CMS": 0.159, "ORD_STRA": 1, "ORD_CLAS": 3, "ORD_FLOW": 7, "HYBAS_L12": 4121601380.0, "Shape_Length": 0.016309223176444416 }, "geometry": { "type": "Polygon", "coordinates": [ ] } },
{ "type": "Feature", "properties": { "HYRIV_ID": 41402539, "NEXT_DOWN": 41402540, "MAIN_RIV": 41402045, "LENGTH_KM": 1.38, "DIST_DN_KM": 68.199997, "DIST_UP_KM": 11.5, "CATCH_SKM": 2.1300001, "UPLAND_SKM": 40.0, "ENDORHEIC": 0, "DIS_AV_CMS": 0.871, "ORD_STRA": 2, "ORD_CLAS": 3, "ORD_FLOW": 7, "HYBAS_L12": 4121157210.0, "Shape_Length": 0.012499999999988631 }, "geometry": { "type": "Polygon", "coordinates": [ ] } },
{ "type": "Feature", "properties": { "HYRIV_ID": 41402540, "NEXT_DOWN": 41402486, "MAIN_RIV": 41402045, "LENGTH_KM": 3.6, "DIST_DN_KM": 64.599998, "DIST_UP_KM": 28.3, "CATCH_SKM": 5.96, "UPLAND_SKM": 160.8, "ENDORHEIC": 0, "DIS_AV_CMS": 3.5369999, "ORD_STRA": 3, "ORD_CLAS": 2, "ORD_FLOW": 6, "HYBAS_L12": 4121157210.0, "Shape_Length": 0.032618446353109606 }, "geometry": { "type": "Polygon", "coordinates": [ ] } },
{ "type": "Feature", "properties": { "HYRIV_ID": 41402541, "NEXT_DOWN": 41402542, "MAIN_RIV": 41402045, "LENGTH_KM": 4.4899998, "DIST_DN_KM": 38.200001, "DIST_UP_KM": 6.9, "CATCH_SKM": 17.02, "UPLAND_SKM": 17.0, "ENDORHEIC": 0, "DIS_AV_CMS": 0.37900001, "ORD_STRA": 1, "ORD_CLAS": 3, "ORD_FLOW": 7, "HYBAS_L12": 4121601380.0, "Shape_Length": 0.040594336196311809 }, "geometry": { "type": "Polygon", "coordinates": [ ] } },
{ "type": "Feature", "properties": { "HYRIV_ID": 41402542, "NEXT_DOWN": 41402455, "MAIN_RIV": 41402045, "LENGTH_KM": 8.8900003, "DIST_DN_KM": 29.3, "DIST_UP_KM": 29.5, "CATCH_SKM": 29.99, "UPLAND_SKM": 140.39999, "ENDORHEIC": 0, "DIS_AV_CMS": 3.0869999, "ORD_STRA": 3, "ORD_CLAS": 2, "ORD_FLOW": 6, "HYBAS_L12": 4121157110.0, "Shape_Length": 0.080473785412442683 }, "geometry": { "type": "Polygon", "coordinates": [ ] } },
{ "type": "Feature", "properties": { "HYRIV_ID": 41402573, "NEXT_DOWN": 41402539, "MAIN_RIV": 41402045, "LENGTH_KM": 4.8400002, "DIST_DN_KM": 69.599998, "DIST_UP_KM": 10.1, "CATCH_SKM": 18.290001, "UPLAND_SKM": 18.3, "ENDORHEIC": 0, "DIS_AV_CMS": 0.39700001, "ORD_STRA": 1, "ORD_CLAS": 3, "ORD_FLOW": 7, "HYBAS_L12": 4121157210.0, "Shape_Length": 0.043898057941403328 }, "geometry": { "type": "Polygon", "coordinates": [ ] } },
{ "type": "Feature", "properties": { "HYRIV_ID": 41402587, "NEXT_DOWN": 41402487, "MAIN_RIV": 41402045, "LENGTH_KM": 3.54, "DIST_DN_KM": 49.400002, "DIST_UP_KM": 9.4, "CATCH_SKM": 6.1700001, "UPLAND_SKM": 28.9, "ENDORHEIC": 0, "DIS_AV_CMS": 0.64, "ORD_STRA": 2, "ORD_CLAS": 2, "ORD_FLOW": 7, "HYBAS_L12": 4121601380.0, "Shape_Length": 0.031903559372906148 }, "geometry": { "type": "Polygon", "coordinates": [ ] } },
{ "type": "Feature", "properties": { "HYRIV_ID": 41402614, "NEXT_DOWN": 41402486, "MAIN_RIV": 41402045, "LENGTH_KM": 4.08, "DIST_DN_KM": 64.599998, "DIST_UP_KM": 77.300003, "CATCH_SKM": 13.19, "UPLAND_SKM": 650.79999, "ENDORHEIC": 0, "DIS_AV_CMS": 14.868, "ORD_STRA": 4, "ORD_CLAS": 1, "ORD_FLOW": 5, "HYBAS_L12": 4121157220.0, "Shape_Length": 0.036785113019786694 }, "geometry": { "type": "Polygon", "coordinates": [ ] } },
{ "type": "Feature", "properties": { "HYRIV_ID": 41402615, "NEXT_DOWN": 41402614, "MAIN_RIV": 41402045, "LENGTH_KM": 3.1800001, "DIST_DN_KM": 68.900002, "DIST_UP_KM": 6.1, "CATCH_SKM": 14.25, "UPLAND_SKM": 14.3, "ENDORHEIC": 0, "DIS_AV_CMS": 0.31200001, "ORD_STRA": 1, "ORD_CLAS": 2, "ORD_FLOW": 7, "HYBAS_L12": 4121157220.0, "Shape_Length": 0.028809223176533238 }, "geometry": { "type": "Polygon", "coordinates": [ ] } },
{ "type": "Feature", "properties": { "HYRIV_ID": 41402616, "NEXT_DOWN": 41402587, "MAIN_RIV": 41402045, "LENGTH_KM": 2.27, "DIST_DN_KM": 52.700001, "DIST_UP_KM": 5.6, "CATCH_SKM": 8.9300003, "UPLAND_SKM": 8.9, "ENDORHEIC": 0, "DIS_AV_CMS": 0.199, "ORD_STRA": 1, "ORD_CLAS": 3, "ORD_FLOW": 7, "HYBAS_L12": 4121601380.0, "Shape_Length": 0.020475889843159262 }, "geometry": { "type": "Polygon", "coordinates": [ ] } },
{ "type": "Feature", "properties": { "HYRIV_ID": 41402628, "NEXT_DOWN": 41402587, "MAIN_RIV": 41402045, "LENGTH_KM": 3.2, "DIST_DN_KM": 52.900002, "DIST_UP_KM": 5.8, "CATCH_SKM": 13.82, "UPLAND_SKM": 13.8, "ENDORHEIC": 0, "DIS_AV_CMS": 0.306, "ORD_STRA": 1, "ORD_CLAS": 2, "ORD_FLOW": 7, "HYBAS_L12": 4121601380.0, "Shape_Length": 0.028957281117964875 }, "geometry": { "type": "Polygon", "coordinates": [ ] } },
{ "type": "Feature", "properties": { "HYRIV_ID": 41402673, "NEXT_DOWN": 41402539, "MAIN_RIV": 41402045, "LENGTH_KM": 5.8, "DIST_DN_KM": 69.599998, "DIST_UP_KM": 9.1, "CATCH_SKM": 19.57, "UPLAND_SKM": 19.6, "ENDORHEIC": 0, "DIS_AV_CMS": 0.428, "ORD_STRA": 1, "ORD_CLAS": 4, "ORD_FLOW": 7, "HYBAS_L12": 4121157210.0, "Shape_Length": 0.052379449216141336 }, "geometry": { "type": "Polygon", "coordinates": [ ] } },
{ "type": "Feature", "properties": { "HYRIV_ID": 41402686, "NEXT_DOWN": 41402705, "MAIN_RIV": 41402045, "LENGTH_KM": 1.15, "DIST_DN_KM": 75.0, "DIST_UP_KM": 4.4, "CATCH_SKM": 8.08, "UPLAND_SKM": 8.1, "ENDORHEIC": 0, "DIS_AV_CMS": 0.17900001, "ORD_STRA": 1, "ORD_CLAS": 3, "ORD_FLOW": 7, "HYBAS_L12": 4121157220.0, "Shape_Length": 0.010416666666742458 }, "geometry": { "type": "Polygon", "coordinates": [ ] } },
{ "type": "Feature", "properties": { "HYRIV_ID": 41402704, "NEXT_DOWN": 41402614, "MAIN_RIV": 41402045, "LENGTH_KM": 2.97, "DIST_DN_KM": 68.699997, "DIST_UP_KM": 73.199997, "CATCH_SKM": 8.7200003, "UPLAND_SKM": 623.40002, "ENDORHEIC": 0, "DIS_AV_CMS": 14.305, "ORD_STRA": 4, "ORD_CLAS": 1, "ORD_FLOW": 5, "HYBAS_L12": 4121157220.0, "Shape_Length": 0.026725889843134905 }, "geometry": { "type": "Polygon", "coordinates": [ ] } },
{ "type": "Feature", "properties": { "HYRIV_ID": 41402705, "NEXT_DOWN": 41402704, "MAIN_RIV": 41402045, "LENGTH_KM": 3.33, "DIST_DN_KM": 71.900002, "DIST_UP_KM": 11.5, "CATCH_SKM": 6.1700001, "UPLAND_SKM": 39.099998, "ENDORHEIC": 0, "DIS_AV_CMS": 0.866, "ORD_STRA": 2, "ORD_CLAS": 2, "ORD_FLOW": 7, "HYBAS_L12": 4121157220.0, "Shape_Length": 0.030177669529606096 }, "geometry": { "type": "Polygon", "coordinates": [ ] } },
{ "type": "Feature", "properties": { "HYRIV_ID": 41402778, "NEXT_DOWN": 41402704, "MAIN_RIV": 41402045, "LENGTH_KM": 3.07, "DIST_DN_KM": 71.699997, "DIST_UP_KM": 70.199997, "CATCH_SKM": 12.76, "UPLAND_SKM": 575.5, "ENDORHEIC": 0, "DIS_AV_CMS": 13.273, "ORD_STRA": 4, "ORD_CLAS": 1, "ORD_FLOW": 5, "HYBAS_L12": 4121157220.0, "Shape_Length": 0.027736892706064831 }, "geometry": { "type": "Polygon", "coordinates": [ ] } },
{ "type": "Feature", "properties": { "HYRIV_ID": 41402794, "NEXT_DOWN": 41402705, "MAIN_RIV": 41402045, "LENGTH_KM": 5.1599998, "DIST_DN_KM": 75.199997, "DIST_UP_KM": 8.2, "CATCH_SKM": 24.889999, "UPLAND_SKM": 24.9, "ENDORHEIC": 0, "DIS_AV_CMS": 0.55299997, "ORD_STRA": 1, "ORD_CLAS": 2, "ORD_FLOW": 7, "HYBAS_L12": 4121157220.0, "Shape_Length": 0.04663495064756569 }, "geometry": { "type": "Polygon", "coordinates": [ ] } },
{ "type": "Feature", "properties": { "HYRIV_ID": 41402808, "NEXT_DOWN": 41402778, "MAIN_RIV": 41402045, "LENGTH_KM": 2.36, "DIST_DN_KM": 74.800003, "DIST_UP_KM": 5.6, "CATCH_SKM": 8.7200003, "UPLAND_SKM": 8.7, "ENDORHEIC": 0, "DIS_AV_CMS": 0.19400001, "ORD_STRA": 1, "ORD_CLAS": 2, "ORD_FLOW": 7, "HYBAS_L12": 4121157220.0, "Shape_Length": 0.02133883476484847 }, "geometry": { "type": "Polygon", "coordinates": [ ] } },
{ "type": "Feature", "properties": { "HYRIV_ID": 41402823, "NEXT_DOWN": 41402824, "MAIN_RIV": 41402045, "LENGTH_KM": 1.61, "DIST_DN_KM": 78.599998, "DIST_UP_KM": 4.4, "CATCH_SKM": 8.9300003, "UPLAND_SKM": 8.9, "ENDORHEIC": 0, "DIS_AV_CMS": 0.198, "ORD_STRA": 1, "ORD_CLAS": 3, "ORD_FLOW": 7, "HYBAS_L12": 4121157210.0, "Shape_Length": 0.014583333333348492 }, "geometry": { "type": "Polygon", "coordinates": [ ] } },
{ "type": "Feature", "properties": { "HYRIV_ID": 41402824, "NEXT_DOWN": 41402540, "MAIN_RIV": 41402045, "LENGTH_KM": 10.31, "DIST_DN_KM": 68.199997, "DIST_UP_KM": 24.700001, "CATCH_SKM": 34.669998, "UPLAND_SKM": 114.9, "ENDORHEIC": 0, "DIS_AV_CMS": 2.5450001, "ORD_STRA": 2, "ORD_CLAS": 2, "ORD_FLOW": 6, "HYBAS_L12": 4121157210.0, "Shape_Length": 0.092973785412477389 }, "geometry": { "type": "Polygon", "coordinates": [ ] } },
{ "type": "Feature", "properties": { "HYRIV_ID": 41402870, "NEXT_DOWN": 41402778, "MAIN_RIV": 41402045, "LENGTH_KM": 3.24, "DIST_DN_KM": 74.800003, "DIST_UP_KM": 67.199997, "CATCH_SKM": 10.21, "UPLAND_SKM": 554.0, "ENDORHEIC": 0, "DIS_AV_CMS": 12.818, "ORD_STRA": 4, "ORD_CLAS": 1, "ORD_FLOW": 5, "HYBAS_L12": 4121157220.0, "Shape_Length": 0.02916666666664014 }, "geometry": { "type": "Polygon", "coordinates": [ ] } },
{ "type": "Feature", "properties": { "HYRIV_ID": 41402888, "NEXT_DOWN": 41402870, "MAIN_RIV": 41402045, "LENGTH_KM": 3.27, "DIST_DN_KM": 78.0, "DIST_UP_KM": 5.7, "CATCH_SKM": 9.3599997, "UPLAND_SKM": 9.4, "ENDORHEIC": 0, "DIS_AV_CMS": 0.20900001, "ORD_STRA": 1, "ORD_CLAS": 3, "ORD_FLOW": 7, "HYBAS_L12": 4121601440.0, "Shape_Length": 0.029672168098228629 }, "geometry": { "type": "Polygon", "coordinates": [ ] } },
{ "type": "Feature", "properties": { "HYRIV_ID": 41402909, "NEXT_DOWN": 41402870, "MAIN_RIV": 41402045, "LENGTH_KM": 1.12, "DIST_DN_KM": 78.0, "DIST_UP_KM": 10.6, "CATCH_SKM": 1.49, "UPLAND_SKM": 44.700001, "ENDORHEIC": 0, "DIS_AV_CMS": 1.0039999, "ORD_STRA": 2, "ORD_CLAS": 2, "ORD_FLOW": 6, "HYBAS_L12": 4121601440.0, "Shape_Length": 0.010059223176588045 }, "geometry": { "type": "Polygon", "coordinates": [ ] } },
{ "type": "Feature", "properties": { "HYRIV_ID": 41402932, "NEXT_DOWN": 41402933, "MAIN_RIV": 41402045, "LENGTH_KM": 4.02, "DIST_DN_KM": 82.400002, "DIST_UP_KM": 6.7, "CATCH_SKM": 18.93, "UPLAND_SKM": 18.9, "ENDORHEIC": 0, "DIS_AV_CMS": 0.422, "ORD_STRA": 1, "ORD_CLAS": 3, "ORD_FLOW": 7, "HYBAS_L12": 4121157210.0, "Shape_Length": 0.036427669529605584 }, "geometry": { "type": "Polygon", "coordinates": [ ] } },
{ "type": "Feature", "properties": { "HYRIV_ID": 41402933, "NEXT_DOWN": 41402824, "MAIN_RIV": 41402045, "LENGTH_KM": 3.62, "DIST_DN_KM": 78.599998, "DIST_UP_KM": 14.4, "CATCH_SKM": 13.83, "UPLAND_SKM": 71.300003, "ENDORHEIC": 0, "DIS_AV_CMS": 1.596, "ORD_STRA": 2, "ORD_CLAS": 2, "ORD_FLOW": 6, "HYBAS_L12": 4121157210.0, "Shape_Length": 0.032618446353071137 }, "geometry": { "type": "Polygon", "coordinates": [ ] } },
{ "type": "Feature", "properties": { "HYRIV_ID": 41402961, "NEXT_DOWN": 41402909, "MAIN_RIV": 41402045, "LENGTH_KM": 4.9400001, "DIST_DN_KM": 79.300003, "DIST_UP_KM": 7.4, "CATCH_SKM": 18.93, "UPLAND_SKM": 18.9, "ENDORHEIC": 0, "DIS_AV_CMS": 0.42500001, "ORD_STRA": 1, "ORD_CLAS": 3, "ORD_FLOW": 7, "HYBAS_L12": 4121601440.0, "Shape_Length": 0.044761002863085216 }, "geometry": { "type": "Polygon", "coordinates": [ ] } },
{ "type": "Feature", "properties": { "HYRIV_ID": 41402983, "NEXT_DOWN": 41402933, "MAIN_RIV": 41402045, "LENGTH_KM": 1.77, "DIST_DN_KM": 82.400002, "DIST_UP_KM": 10.6, "CATCH_SKM": 5.96, "UPLAND_SKM": 38.5, "ENDORHEIC": 0, "DIS_AV_CMS": 0.86799997, "ORD_STRA": 2, "ORD_CLAS": 2, "ORD_FLOW": 7, "HYBAS_L12": 4121157210.0, "Shape_Length": 0.015951779686443884 }, "geometry": { "type": "Polygon", "coordinates": [ ] } },
{ "type": "Feature", "properties": { "HYRIV_ID": 41403014, "NEXT_DOWN": 41402983, "MAIN_RIV": 41402045, "LENGTH_KM": 2.22, "DIST_DN_KM": 84.099998, "DIST_UP_KM": 8.8, "CATCH_SKM": 2.98, "UPLAND_SKM": 23.8, "ENDORHEIC": 0, "DIS_AV_CMS": 0.538, "ORD_STRA": 2, "ORD_CLAS": 2, "ORD_FLOW": 7, "HYBAS_L12": 4121157210.0, "Shape_Length": 0.020118446353090826 }, "geometry": { "type": "Polygon", "coordinates": [ ] } },
{ "type": "Feature", "properties": { "HYRIV_ID": 41403015, "NEXT_DOWN": 41402870, "MAIN_RIV": 41402045, "LENGTH_KM": 5.7600002, "DIST_DN_KM": 78.199997, "DIST_UP_KM": 63.700001, "CATCH_SKM": 19.15, "UPLAND_SKM": 489.79999, "ENDORHEIC": 0, "DIS_AV_CMS": 11.405, "ORD_STRA": 4, "ORD_CLAS": 1, "ORD_FLOW": 5, "HYBAS_L12": 4121601440.0, "Shape_Length": 0.052022005725971703 }, "geometry": { "type": "Polygon", "coordinates": [ ] } },
{ "type": "Feature", "properties": { "HYRIV_ID": 41403023, "NEXT_DOWN": 41403014, "MAIN_RIV": 41402045, "LENGTH_KM": 2.26, "DIST_DN_KM": 86.199997, "DIST_UP_KM": 5.0, "CATCH_SKM": 10.64, "UPLAND_SKM": 10.6, "ENDORHEIC": 0, "DIS_AV_CMS": 0.24, "ORD_STRA": 1, "ORD_CLAS": 3, "ORD_FLOW": 7, "HYBAS_L12": 4121157210.0, "Shape_Length": 0.020475889843157534 }, "geometry": { "type": "Polygon", "coordinates": [ ] } },
{ "type": "Feature", "properties": { "HYRIV_ID": 41403033, "NEXT_DOWN": 41402983, "MAIN_RIV": 41402045, "LENGTH_KM": 2.37, "DIST_DN_KM": 83.900002, "DIST_UP_KM": 4.9, "CATCH_SKM": 8.7200003, "UPLAND_SKM": 8.7, "ENDORHEIC": 0, "DIS_AV_CMS": 0.197, "ORD_STRA": 1, "ORD_CLAS": 3, "ORD_FLOW": 7, "HYBAS_L12": 4121157210.0, "Shape_Length": 0.02133883476485263 }, "geometry": { "type": "Polygon", "coordinates": [ ] } },
{ "type": "Feature", "properties": { "HYRIV_ID": 41403055, "NEXT_DOWN": 41403014, "MAIN_RIV": 41402045, "LENGTH_KM": 2.37, "DIST_DN_KM": 86.199997, "DIST_UP_KM": 6.8, "CATCH_SKM": 10.21, "UPLAND_SKM": 10.2, "ENDORHEIC": 0, "DIS_AV_CMS": 0.232, "ORD_STRA": 1, "ORD_CLAS": 2, "ORD_FLOW": 7, "HYBAS_L12": 4121157210.0, "Shape_Length": 0.021338834764810712 }, "geometry": { "type": "Polygon", "coordinates": [ ] } },
{ "type": "Feature", "properties": { "HYRIV_ID": 41403086, "NEXT_DOWN": 41402909, "MAIN_RIV": 41402045, "LENGTH_KM": 6.83, "DIST_DN_KM": 79.099998, "DIST_UP_KM": 9.5, "CATCH_SKM": 24.25, "UPLAND_SKM": 24.3, "ENDORHEIC": 0, "DIS_AV_CMS": 0.546, "ORD_STRA": 1, "ORD_CLAS": 2, "ORD_FLOW": 7, "HYBAS_L12": 4121601440.0, "Shape_Length": 0.061575727470885994 }, "geometry": { "type": "Polygon", "coordinates": [ ] } },
{ "type": "Feature", "properties": { "HYRIV_ID": 41403167, "NEXT_DOWN": 41403217, "MAIN_RIV": 41402045, "LENGTH_KM": 2.72, "DIST_DN_KM": 96.400002, "DIST_UP_KM": 6.5, "CATCH_SKM": 9.3599997, "UPLAND_SKM": 9.4, "ENDORHEIC": 0, "DIS_AV_CMS": 0.214, "ORD_STRA": 1, "ORD_CLAS": 4, "ORD_FLOW": 7, "HYBAS_L12": 4121601470.0, "Shape_Length": 0.024642556509843663 }, "geometry": { "type": "Polygon", "coordinates": [ ] } },
{ "type": "Feature", "properties": { "HYRIV_ID": 41403168, "NEXT_DOWN": 41403015, "MAIN_RIV": 41402045, "LENGTH_KM": 5.6599998, "DIST_DN_KM": 84.0, "DIST_UP_KM": 58.0, "CATCH_SKM": 18.93, "UPLAND_SKM": 453.60001, "ENDORHEIC": 0, "DIS_AV_CMS": 10.626, "ORD_STRA": 4, "ORD_CLAS": 1, "ORD_FLOW": 5, "HYBAS_L12": 4121601440.0, "Shape_Length": 0.051011002863010919 }, "geometry": { "type": "Polygon", "coordinates": [ ] } },
{ "type": "Feature", "properties": { "HYRIV_ID": 41403201, "NEXT_DOWN": 41403015, "MAIN_RIV": 41402045, "LENGTH_KM": 6.8200002, "DIST_DN_KM": 83.800003, "DIST_UP_KM": 9.9, "CATCH_SKM": 17.02, "UPLAND_SKM": 17.0, "ENDORHEIC": 0, "DIS_AV_CMS": 0.38600001, "ORD_STRA": 1, "ORD_CLAS": 2, "ORD_FLOW": 7, "HYBAS_L12": 4121601440.0, "Shape_Length": 0.061427669529683038 }, "geometry": { "type": "Polygon", "coordinates": [ ] } },
{ "type": "Feature", "properties": { "HYRIV_ID": 41403217, "NEXT_DOWN": 41403218, "MAIN_RIV": 41402045, "LENGTH_KM": 4.71, "DIST_DN_KM": 91.699997, "DIST_UP_KM": 11.3, "CATCH_SKM": 11.7, "UPLAND_SKM": 31.5, "ENDORHEIC": 0, "DIS_AV_CMS": 0.72, "ORD_STRA": 2, "ORD_CLAS": 3, "ORD_FLOW": 7, "HYBAS_L12": 4121601470.0, "Shape_Length": 0.042677669529701812 }, "geometry": { "type": "Polygon", "coordinates": [ ] } },
{ "type": "Feature", "properties": { "HYRIV_ID": 41403218, "NEXT_DOWN": 41403168, "MAIN_RIV": 41402045, "LENGTH_KM": 2.23, "DIST_DN_KM": 89.400002, "DIST_UP_KM": 19.0, "CATCH_SKM": 5.1100001, "UPLAND_SKM": 93.599998, "ENDORHEIC": 0, "DIS_AV_CMS": 2.155, "ORD_STRA": 3, "ORD_CLAS": 2, "ORD_FLOW": 6, "HYBAS_L12": 4121601470.0, "Shape_Length": 0.020118446353110924 }, "geometry": { "type": "Polygon", "coordinates": [ ] } },
{ "type": "Feature", "properties": { "HYRIV_ID": 41403234, "NEXT_DOWN": 41403217, "MAIN_RIV": 41402045, "LENGTH_KM": 2.75, "DIST_DN_KM": 96.599998, "DIST_UP_KM": 6.4, "CATCH_SKM": 10.43, "UPLAND_SKM": 10.4, "ENDORHEIC": 0, "DIS_AV_CMS": 0.24, "ORD_STRA": 1, "ORD_CLAS": 3, "ORD_FLOW": 7, "HYBAS_L12": 4121601470.0, "Shape_Length": 0.02479061445124759 }, "geometry": { "type": "Polygon", "coordinates": [ ] } },
{ "type": "Feature", "properties": { "HYRIV_ID": 41403326, "NEXT_DOWN": 41403168, "MAIN_RIV": 41402045, "LENGTH_KM": 4.8200002, "DIST_DN_KM": 89.400002, "DIST_UP_KM": 52.5, "CATCH_SKM": 11.28, "UPLAND_SKM": 341.0, "ENDORHEIC": 0, "DIS_AV_CMS": 8.0780001, "ORD_STRA": 3, "ORD_CLAS": 1, "ORD_FLOW": 6, "HYBAS_L12": 4121601470.0, "Shape_Length": 0.043392556509978052 }, "geometry": { "type": "Polygon", "coordinates": [ ] } },
{ "type": "Feature", "properties": { "HYRIV_ID": 41403327, "NEXT_DOWN": 41403326, "MAIN_RIV": 41402045, "LENGTH_KM": 0.69, "DIST_DN_KM": 94.300003, "DIST_UP_KM": 3.5, "CATCH_SKM": 5.1100001, "UPLAND_SKM": 5.1, "ENDORHEIC": 0, "DIS_AV_CMS": 0.117, "ORD_STRA": 1, "ORD_CLAS": 2, "ORD_FLOW": 7, "HYBAS_L12": 4121601470.0, "Shape_Length": 0.0062499999999090505 }, "geometry": { "type": "Polygon", "coordinates": [ ] } },
{ "type": "Feature", "properties": { "HYRIV_ID": 41403347, "NEXT_DOWN": 41403348, "MAIN_RIV": 41402045, "LENGTH_KM": 1.15, "DIST_DN_KM": 98.300003, "DIST_UP_KM": 5.2, "CATCH_SKM": 5.96, "UPLAND_SKM": 6.0, "ENDORHEIC": 0, "DIS_AV_CMS": 0.138, "ORD_STRA": 1, "ORD_CLAS": 3, "ORD_FLOW": 7, "HYBAS_L12": 4121601470.0, "Shape_Length": 0.010416666666586138 }, "geometry": { "type": "Polygon", "coordinates": [ ] } },
{ "type": "Feature", "properties": { "HYRIV_ID": 41403348, "NEXT_DOWN": 41403218, "MAIN_RIV": 41402045, "LENGTH_KM": 6.6900001, "DIST_DN_KM": 91.699997, "DIST_UP_KM": 16.700001, "CATCH_SKM": 16.6, "UPLAND_SKM": 57.0, "ENDORHEIC": 0, "DIS_AV_CMS": 1.322, "ORD_STRA": 2, "ORD_CLAS": 2, "ORD_FLOW": 6, "HYBAS_L12": 4121601470.0, "Shape_Length": 0.060355339059310953 }, "geometry": { "type": "Polygon", "coordinates": [ ] } },
{ "type": "Feature", "properties": { "HYRIV_ID": 41403349, "NEXT_DOWN": 41403326, "MAIN_RIV": 41402045, "LENGTH_KM": 0.46, "DIST_DN_KM": 94.300003, "DIST_UP_KM": 47.700001, "CATCH_SKM": 0.43, "UPLAND_SKM": 324.60001, "ENDORHEIC": 0, "DIS_AV_CMS": 7.7270002, "ORD_STRA": 3, "ORD_CLAS": 1, "ORD_FLOW": 6, "HYBAS_L12": 4121601470.0, "Shape_Length": 0.0041666666666202445 }, "geometry": { "type": "Polygon", "coordinates": [ ] } },
{ "type": "Feature", "properties": { "HYRIV_ID": 41403406, "NEXT_DOWN": 41403349, "MAIN_RIV": 41402045, "LENGTH_KM": 3.47, "DIST_DN_KM": 94.699997, "DIST_UP_KM": 6.7, "CATCH_SKM": 14.04, "UPLAND_SKM": 14.0, "ENDORHEIC": 0, "DIS_AV_CMS": 0.325, "ORD_STRA": 1, "ORD_CLAS": 2, "ORD_FLOW": 7, "HYBAS_L12": 4121601470.0, "Shape_Length": 0.031398057941382826 }, "geometry": { "type": "Polygon", "coordinates": [ ] } },
{ "type": "Feature", "properties": { "HYRIV_ID": 41403521, "NEXT_DOWN": 41403348, "MAIN_RIV": 41402045, "LENGTH_KM": 5.85, "DIST_DN_KM": 98.300003, "DIST_UP_KM": 10.0, "CATCH_SKM": 22.129999, "UPLAND_SKM": 34.5, "ENDORHEIC": 0, "DIS_AV_CMS": 0.806, "ORD_STRA": 2, "ORD_CLAS": 2, "ORD_FLOW": 7, "HYBAS_L12": 4121601470.0, "Shape_Length": 0.052736892706234738 }, "geometry": { "type": "Polygon", "coordinates": [ ] } },
{ "type": "Feature", "properties": { "HYRIV_ID": 41403542, "NEXT_DOWN": 41403521, "MAIN_RIV": 41402045, "LENGTH_KM": 0.98, "DIST_DN_KM": 104.4, "DIST_UP_KM": 4.0, "CATCH_SKM": 6.81, "UPLAND_SKM": 6.8, "ENDORHEIC": 0, "DIS_AV_CMS": 0.161, "ORD_STRA": 1, "ORD_CLAS": 2, "ORD_FLOW": 7, "HYBAS_L12": 4121601470.0, "Shape_Length": 0.0088388347647936592 }, "geometry": { "type": "Polygon", "coordinates": [ ] } },
{ "type": "Feature", "properties": { "HYRIV_ID": 41403543, "NEXT_DOWN": 41403521, "MAIN_RIV": 41402045, "LENGTH_KM": 0.98, "DIST_DN_KM": 104.4, "DIST_UP_KM": 3.5, "CATCH_SKM": 5.5300002, "UPLAND_SKM": 5.5, "ENDORHEIC": 0, "DIS_AV_CMS": 0.131, "ORD_STRA": 1, "ORD_CLAS": 3, "ORD_FLOW": 7, "HYBAS_L12": 4121601470.0, "Shape_Length": 0.0088388347649544369 }, "geometry": { "type": "Polygon", "coordinates": [ ] } },
{ "type": "Feature", "properties": { "HYRIV_ID": 41403578, "NEXT_DOWN": 41403349, "MAIN_RIV": 41402045, "LENGTH_KM": 6.87, "DIST_DN_KM": 94.699997, "DIST_UP_KM": 47.200001, "CATCH_SKM": 27.450001, "UPLAND_SKM": 310.20001, "ENDORHEIC": 0, "DIS_AV_CMS": 7.395, "ORD_STRA": 3, "ORD_CLAS": 1, "ORD_FLOW": 6, "HYBAS_L12": 4121601470.0, "Shape_Length": 0.0617851130198208 }, "geometry": { "type": "Polygon", "coordinates": [ ] } },
{ "type": "Feature", "properties": { "HYRIV_ID": 41403597, "NEXT_DOWN": 41403578, "MAIN_RIV": 41402045, "LENGTH_KM": 1.76, "DIST_DN_KM": 101.8, "DIST_UP_KM": 10.2, "CATCH_SKM": 6.3800001, "UPLAND_SKM": 31.9, "ENDORHEIC": 0, "DIS_AV_CMS": 0.755, "ORD_STRA": 2, "ORD_CLAS": 2, "ORD_FLOW": 7, "HYBAS_L12": 4121601570.0, "Shape_Length": 0.015951779686458098 }, "geometry": { "type": "Polygon", "coordinates": [ ] } },
{ "type": "Feature", "properties": { "HYRIV_ID": 41403613, "NEXT_DOWN": 41403597, "MAIN_RIV": 41402045, "LENGTH_KM": 0.98, "DIST_DN_KM": 103.5, "DIST_UP_KM": 4.1, "CATCH_SKM": 4.6799998, "UPLAND_SKM": 4.7, "ENDORHEIC": 0, "DIS_AV_CMS": 0.11, "ORD_STRA": 1, "ORD_CLAS": 3, "ORD_FLOW": 7, "HYBAS_L12": 4121601570.0, "Shape_Length": 0.0088388347648740481 }, "geometry": { "type": "Polygon", "coordinates": [ ] } },
{ "type": "Feature", "properties": { "HYRIV_ID": 41403691, "NEXT_DOWN": 41403692, "MAIN_RIV": 41402045, "LENGTH_KM": 1.4400001, "DIST_DN_KM": 107.5, "DIST_UP_KM": 3.5, "CATCH_SKM": 5.96, "UPLAND_SKM": 6.0, "ENDORHEIC": 0, "DIS_AV_CMS": 0.142, "ORD_STRA": 1, "ORD_CLAS": 3, "ORD_FLOW": 7, "HYBAS_L12": 4121601570.0, "Shape_Length": 0.01300550143149673 }, "geometry": { "type": "Polygon", "coordinates": [ ] } },
{ "type": "Feature", "properties": { "HYRIV_ID": 41403692, "NEXT_DOWN": 41403597, "MAIN_RIV": 41402045, "LENGTH_KM": 4.1799998, "DIST_DN_KM": 103.3, "DIST_UP_KM": 8.6, "CATCH_SKM": 7.4499998, "UPLAND_SKM": 20.9, "ENDORHEIC": 0, "DIS_AV_CMS": 0.495, "ORD_STRA": 2, "ORD_CLAS": 2, "ORD_FLOW": 7, "HYBAS_L12": 4121601570.0, "Shape_Length": 0.037796115882784517 }, "geometry": { "type": "Polygon", "coordinates": [ ] } },
{ "type": "Feature", "properties": { "HYRIV_ID": 41403717, "NEXT_DOWN": 41403692, "MAIN_RIV": 41402045, "LENGTH_KM": 1.8, "DIST_DN_KM": 107.7, "DIST_UP_KM": 4.3, "CATCH_SKM": 7.4499998, "UPLAND_SKM": 7.5, "ENDORHEIC": 0, "DIS_AV_CMS": 0.178, "ORD_STRA": 1, "ORD_CLAS": 2, "ORD_FLOW": 7, "HYBAS_L12": 4121601570.0, "Shape_Length": 0.016309223176501259 }, "geometry": { "type": "Polygon", "coordinates": [ ] } },
{ "type": "Feature", "properties": { "HYRIV_ID": 41403773, "NEXT_DOWN": 41403578, "MAIN_RIV": 41402045, "LENGTH_KM": 6.9699998, "DIST_DN_KM": 101.8, "DIST_UP_KM": 40.200001, "CATCH_SKM": 18.73, "UPLAND_SKM": 250.8, "ENDORHEIC": 0, "DIS_AV_CMS": 6.0310001, "ORD_STRA": 3, "ORD_CLAS": 1, "ORD_FLOW": 6, "HYBAS_L12": 4121601570.0, "Shape_Length": 0.062796115882748291 }, "geometry": { "type": "Polygon", "coordinates": [ ] } },
{ "type": "Feature", "properties": { "HYRIV_ID": 41403838, "NEXT_DOWN": 41403773, "MAIN_RIV": 41402045, "LENGTH_KM": 3.07, "DIST_DN_KM": 108.7, "DIST_UP_KM": 8.6, "CATCH_SKM": 7.2399998, "UPLAND_SKM": 33.0, "ENDORHEIC": 0, "DIS_AV_CMS": 0.79299998, "ORD_STRA": 2, "ORD_CLAS": 2, "ORD_FLOW": 7, "HYBAS_L12": 4121601570.0, "Shape_Length": 0.027736892706253315 }, "geometry": { "type": "Polygon", "coordinates": [ ] } },
{ "type": "Feature", "properties": { "HYRIV_ID": 41403847, "NEXT_DOWN": 41403838, "MAIN_RIV": 41402045, "LENGTH_KM": 1.4400001, "DIST_DN_KM": 111.6, "DIST_UP_KM": 4.0, "CATCH_SKM": 11.28, "UPLAND_SKM": 11.3, "ENDORHEIC": 0, "DIS_AV_CMS": 0.271, "ORD_STRA": 1, "ORD_CLAS": 3, "ORD_FLOW": 7, "HYBAS_L12": 4121601570.0, "Shape_Length": 0.013005501431446487 }, "geometry": { "type": "Polygon", "coordinates": [ ] } },
{ "type": "Feature", "properties": { "HYRIV_ID": 41403903, "NEXT_DOWN": 41403838, "MAIN_RIV": 41402045, "LENGTH_KM": 3.02, "DIST_DN_KM": 111.8, "DIST_UP_KM": 5.6, "CATCH_SKM": 14.47, "UPLAND_SKM": 14.5, "ENDORHEIC": 0, "DIS_AV_CMS": 0.34900001, "ORD_STRA": 1, "ORD_CLAS": 2, "ORD_FLOW": 7, "HYBAS_L12": 4121601570.0, "Shape_Length": 0.027231391274720955 }, "geometry": { "type": "Polygon", "coordinates": [ ] } },
{ "type": "Feature", "properties": { "HYRIV_ID": 41403989, "NEXT_DOWN": 41403773, "MAIN_RIV": 41402045, "LENGTH_KM": 8.0900002, "DIST_DN_KM": 108.7, "DIST_UP_KM": 33.200001, "CATCH_SKM": 23.84, "UPLAND_SKM": 199.10001, "ENDORHEIC": 0, "DIS_AV_CMS": 4.8039999, "ORD_STRA": 3, "ORD_CLAS": 1, "ORD_FLOW": 6, "HYBAS_L12": 4121601570.0, "Shape_Length": 0.072855339059343938 }, "geometry": { "type": "Polygon", "coordinates": [ ] } },
{ "type": "Feature", "properties": { "HYRIV_ID": 41404001, "NEXT_DOWN": 41403989, "MAIN_RIV": 41402045, "LENGTH_KM": 1.4400001, "DIST_DN_KM": 116.6, "DIST_UP_KM": 4.5, "CATCH_SKM": 8.7299995, "UPLAND_SKM": 8.7, "ENDORHEIC": 0, "DIS_AV_CMS": 0.211, "ORD_STRA": 1, "ORD_CLAS": 2, "ORD_FLOW": 7, "HYBAS_L12": 4121601570.0, "Shape_Length": 0.01300550143142639 }, "geometry": { "type": "Polygon", "coordinates": [ ] } },
{ "type": "Feature", "properties": { "HYRIV_ID": 41404047, "NEXT_DOWN": 41403989, "MAIN_RIV": 41402045, "LENGTH_KM": 2.6900001, "DIST_DN_KM": 116.6, "DIST_UP_KM": 25.3, "CATCH_SKM": 11.92, "UPLAND_SKM": 166.5, "ENDORHEIC": 0, "DIS_AV_CMS": 4.0300002, "ORD_STRA": 3, "ORD_CLAS": 1, "ORD_FLOW": 6, "HYBAS_L12": 4121601570.0, "Shape_Length": 0.024285113019826481 }, "geometry": { "type": "Polygon", "coordinates": [ ] } },
{ "type": "Feature", "properties": { "HYRIV_ID": 41404208, "NEXT_DOWN": 41404047, "MAIN_RIV": 41402045, "LENGTH_KM": 5.58, "DIST_DN_KM": 119.5, "DIST_UP_KM": 22.4, "CATCH_SKM": 17.459999, "UPLAND_SKM": 134.10001, "ENDORHEIC": 0, "DIS_AV_CMS": 3.2460001, "ORD_STRA": 3, "ORD_CLAS": 1, "ORD_FLOW": 6, "HYBAS_L12": 4121601570.0, "Shape_Length": 0.05029611588276138 }, "geometry": { "type": "Polygon", "coordinates": [ ] } },
{ "type": "Feature", "properties": { "HYRIV_ID": 41404229, "NEXT_DOWN": 41404047, "MAIN_RIV": 41402045, "LENGTH_KM": 6.6500001, "DIST_DN_KM": 119.3, "DIST_UP_KM": 9.3, "CATCH_SKM": 20.440001, "UPLAND_SKM": 20.4, "ENDORHEIC": 0, "DIS_AV_CMS": 0.498, "ORD_STRA": 1, "ORD_CLAS": 2, "ORD_FLOW": 7, "HYBAS_L12": 4121601570.0, "Shape_Length": 0.059997895569226883 }, "geometry": { "type": "Polygon", "coordinates": [ ] } },
{ "type": "Feature", "properties": { "HYRIV_ID": 41404287, "NEXT_DOWN": 41404208, "MAIN_RIV": 41402045, "LENGTH_KM": 4.1300001, "DIST_DN_KM": 124.9, "DIST_UP_KM": 6.4, "CATCH_SKM": 15.33, "UPLAND_SKM": 15.3, "ENDORHEIC": 0, "DIS_AV_CMS": 0.368, "ORD_STRA": 1, "ORD_CLAS": 2, "ORD_FLOW": 7, "HYBAS_L12": 4121601640.0, "Shape_Length": 0.037290614451225168 }, "geometry": { "type": "Polygon", "coordinates": [ ] } },
{ "type": "Feature", "properties": { "HYRIV_ID": 41404297, "NEXT_DOWN": 41404208, "MAIN_RIV": 41402045, "LENGTH_KM": 2.97, "DIST_DN_KM": 124.9, "DIST_UP_KM": 17.0, "CATCH_SKM": 10.22, "UPLAND_SKM": 101.4, "ENDORHEIC": 0, "DIS_AV_CMS": 2.4590001, "ORD_STRA": 3, "ORD_CLAS": 1, "ORD_FLOW": 6, "HYBAS_L12": 4121601640.0, "Shape_Length": 0.026725889843211132 }, "geometry": { "type": "Polygon", "coordinates": [ ] } },
{ "type": "Feature", "properties": { "HYRIV_ID": 41404374, "NEXT_DOWN": 41404297, "MAIN_RIV": 41402045, "LENGTH_KM": 3.34, "DIST_DN_KM": 128.10001, "DIST_UP_KM": 10.0, "CATCH_SKM": 8.5200005, "UPLAND_SKM": 25.8, "ENDORHEIC": 0, "DIS_AV_CMS": 0.63099998, "ORD_STRA": 2, "ORD_CLAS": 2, "ORD_FLOW": 7, "HYBAS_L12": 4121601640.0, "Shape_Length": 0.030177669529666384 }, "geometry": { "type": "Polygon", "coordinates": [ ] } },
{ "type": "Feature", "properties": { "HYRIV_ID": 41404400, "NEXT_DOWN": 41404374, "MAIN_RIV": 41402045, "LENGTH_KM": 0.98, "DIST_DN_KM": 131.39999, "DIST_UP_KM": 4.0, "CATCH_SKM": 5.75, "UPLAND_SKM": 5.7, "ENDORHEIC": 0, "DIS_AV_CMS": 0.141, "ORD_STRA": 1, "ORD_CLAS": 3, "ORD_FLOW": 7, "HYBAS_L12": 4121601640.0, "Shape_Length": 0.0088388347647936592 }, "geometry": { "type": "Polygon", "coordinates": [ ] } },
{ "type": "Feature", "properties": { "HYRIV_ID": 41404504, "NEXT_DOWN": 41404374, "MAIN_RIV": 41402045, "LENGTH_KM": 4.5, "DIST_DN_KM": 131.39999, "DIST_UP_KM": 6.7, "CATCH_SKM": 11.5, "UPLAND_SKM": 11.5, "ENDORHEIC": 0, "DIS_AV_CMS": 0.283, "ORD_STRA": 1, "ORD_CLAS": 2, "ORD_FLOW": 7, "HYBAS_L12": 4121601640.0, "Shape_Length": 0.04059433619632774 }, "geometry": { "type": "Polygon", "coordinates": [ ] } },
{ "type": "Feature", "properties": { "HYRIV_ID": 41404505, "NEXT_DOWN": 41404297, "MAIN_RIV": 41402045, "LENGTH_KM": 6.04, "DIST_DN_KM": 127.9, "DIST_UP_KM": 14.0, "CATCH_SKM": 18.950001, "UPLAND_SKM": 65.400002, "ENDORHEIC": 0, "DIS_AV_CMS": 1.582, "ORD_STRA": 2, "ORD_CLAS": 1, "ORD_FLOW": 6, "HYBAS_L12": 4121601640.0, "Shape_Length": 0.054462782549437753 }, "geometry": { "type": "Polygon", "coordinates": [ ] } },
{ "type": "Feature", "properties": { "HYRIV_ID": 41404506, "NEXT_DOWN": 41404505, "MAIN_RIV": 41402045, "LENGTH_KM": 0.46, "DIST_DN_KM": 133.89999, "DIST_UP_KM": 7.9, "CATCH_SKM": 0.21, "UPLAND_SKM": 26.8, "ENDORHEIC": 0, "DIS_AV_CMS": 0.64600003, "ORD_STRA": 2, "ORD_CLAS": 2, "ORD_FLOW": 7, "HYBAS_L12": 4121601640.0, "Shape_Length": 0.0041666666665491903 }, "geometry": { "type": "Polygon", "coordinates": [ ] } },
{ "type": "Feature", "properties": { "HYRIV_ID": 41404507, "NEXT_DOWN": 41404506, "MAIN_RIV": 41402045, "LENGTH_KM": 2.07, "DIST_DN_KM": 134.39999, "DIST_UP_KM": 5.4, "CATCH_SKM": 11.29, "UPLAND_SKM": 11.3, "ENDORHEIC": 0, "DIS_AV_CMS": 0.271, "ORD_STRA": 1, "ORD_CLAS": 3, "ORD_FLOW": 7, "HYBAS_L12": 4121601640.0, "Shape_Length": 0.018750000000082423 }, "geometry": { "type": "Polygon", "coordinates": [ ] } },
{ "type": "Feature", "properties": { "HYRIV_ID": 41404588, "NEXT_DOWN": 41404506, "MAIN_RIV": 41402045, "LENGTH_KM": 3.85, "DIST_DN_KM": 134.60001, "DIST_UP_KM": 7.2, "CATCH_SKM": 15.33, "UPLAND_SKM": 15.3, "ENDORHEIC": 0, "DIS_AV_CMS": 0.369, "ORD_STRA": 1, "ORD_CLAS": 2, "ORD_FLOW": 7, "HYBAS_L12": 4121601640.0, "Shape_Length": 0.034701779686425106 }, "geometry": { "type": "Polygon", "coordinates": [ ] } },
{ "type": "Feature", "properties": { "HYRIV_ID": 41404599, "NEXT_DOWN": 41404505, "MAIN_RIV": 41402045, "LENGTH_KM": 4.79, "DIST_DN_KM": 133.89999, "DIST_UP_KM": 8.0, "CATCH_SKM": 19.59, "UPLAND_SKM": 19.6, "ENDORHEIC": 0, "DIS_AV_CMS": 0.478, "ORD_STRA": 1, "ORD_CLAS": 1, "ORD_FLOW": 7, "HYBAS_L12": 4121601640.0, "Shape_Length": 0.043183170961229297 }, "geometry": { "type": "Polygon", "coordinates": [ ] } }
]
}
