{
"type": "FeatureCollection",
"name": "main_river_41408129",
"crs": { "type": "name", "properties": { "name": "urn:ogc:def:crs:OGC:1.3:CRS84" } },
"features": [
{ "type": "Feature", "properties": { "HYRIV_ID": 41407928, "NEXT_DOWN": 41407972, "MAIN_RIV": 41408129, "LENGTH_KM": 7.8600001, "DIST_DN_KM": 11.2, "DIST_UP_KM": 11.1, "CATCH_SKM": 26.870001, "UPLAND_SKM": 26.9, "ENDORHEIC": 0, "DIS_AV_CMS": 0.387, "ORD_STRA": 1, "ORD_CLAS": 1, "ORD_FLOW": 7, "HYBAS_L12": 4120050010.0, "Shape_Length": 0.0709200636675828 }, "geometry": { "type": "MultiLineString", "coordinates": [ [ [ 81.512499999999619, 6.504166666666585 ], [ 81.506249999999596, 6.497916666666548 ], [ 81.506249999999596, 6.485416666666573 ], [ 81.514583333332922, 6.477083333333219 ], [ 81.518749999999756, 6.477083333333219 ], [ 81.522916666666248, 6.48125 ], [ 81.527083333332968, 6.477083333333219 ], [ 81.531249999999574, 6.48125 ], [ 81.535416666666293, 6.477083333333219 ], [ 81.539583333332956, 6.477083333333219 ], [ 81.543749999999619, 6.472916666666556 ] ] ] } },
{ "type": "Feature", "properties": { "HYRIV_ID": 41407929, "NEXT_DOWN": 41407972, "MAIN_RIV": 41408129, "LENGTH_KM": 1.81, "DIST_DN_KM": 11.2, "DIST_UP_KM": 6.5, "CATCH_SKM": 10.24, "UPLAND_SKM": 10.2, "ENDORHEIC": 0, "DIS_AV_CMS": 0.148, "ORD_STRA": 1, "ORD_CLAS": 2, "ORD_FLOW": 7, "HYBAS_L12": 4120050010.0, "Shape_Length": 0.01630922317656815 }, "geometry": { "type": "MultiLineString", "coordinates": [ [ [ 81.547916666666282, 6.4875 ], [ 81.547916666666282, 6.477083333333219 ], [ 81.543749999999619, 6.472916666666556 ] ] ] } },
{ "type": "Feature", "properties": { "HYRIV_ID": 41407972, "NEXT_DOWN": 41408033, "MAIN_RIV": 41408129, "LENGTH_KM": 1.12, "DIST_DN_KM": 10.1, "DIST_UP_KM": 12.2, "CATCH_SKM": 1.92, "UPLAND_SKM": 39.0, "ENDORHEIC": 0, "DIS_AV_CMS": 0.552, "ORD_STRA": 2, "ORD_CLAS": 1, "ORD_FLOW": 7, "HYBAS_L12": 4120050010.0, "Shape_Length": 0.010059223176531202 }, "geometry": { "type": "MultiLineString", "coordinates": [ [ [ 81.543749999999619, 6.472916666666556 ], [ 81.543749999999619, 6.46875 ], [ 81.547916666666282, 6.464583333333245 ] ] ] } },
{ "type": "Feature", "properties": { "HYRIV_ID": 41408001, "NEXT_DOWN": 41408033, "MAIN_RIV": 41408129, "LENGTH_KM": 3.11, "DIST_DN_KM": 10.1, "DIST_UP_KM": 8.3, "CATCH_SKM": 14.29, "UPLAND_SKM": 14.3, "ENDORHEIC": 0, "DIS_AV_CMS": 0.204, "ORD_STRA": 1, "ORD_CLAS": 2, "ORD_FLOW": 7, "HYBAS_L12": 4120050010.0, "Shape_Length": 0.028094336196239633 }, "geometry": { "type": "MultiLineString", "coordinates": [ [ [ 81.524999999999665, 6.460416666666582 ], [ 81.531249999999574, 6.460416666666582 ], [ 81.535416666666293, 6.45625 ], [ 81.539583333332956, 6.45625 ], [ 81.547916666666282, 6.464583333333245 ] ] ] } },
{ "type": "Feature", "properties": { "HYRIV_ID": 41408033, "NEXT_DOWN": 41408129, "MAIN_RIV": 41408129, "LENGTH_KM": 4.9099998, "DIST_DN_KM": 5.0, "DIST_UP_KM": 17.3, "CATCH_SKM": 16.0, "UPLAND_SKM": 69.300003, "ENDORHEIC": 0, "DIS_AV_CMS": 0.90700001, "ORD_STRA": 2, "ORD_CLAS": 1, "ORD_FLOW": 7, "HYBAS_L12": 4120050010.0, "Shape_Length": 0.04440355937290482 }, "geometry": { "type": "MultiLineString", "coordinates": [ [ [ 81.547916666666282, 6.464583333333245 ], [ 81.552083333332945, 6.464583333333245 ], [ 81.564583333332934, 6.452083333333228 ], [ 81.568749999999596, 6.452083333333228 ], [ 81.572916666666316, 6.447916666666565 ], [ 81.585416666666305, 6.447916666666565 ] ] ] } },
{ "type": "Feature", "properties": { "HYRIV_ID": 41408034, "NEXT_DOWN": 41408129, "MAIN_RIV": 41408129, "LENGTH_KM": 1.62, "DIST_DN_KM": 5.0, "DIST_UP_KM": 6.5, "CATCH_SKM": 11.09, "UPLAND_SKM": 11.1, "ENDORHEIC": 0, "DIS_AV_CMS": 0.151, "ORD_STRA": 1, "ORD_CLAS": 2, "ORD_FLOW": 7, "HYBAS_L12": 4120050010.0, "Shape_Length": 0.014583333333305859 }, "geometry": { "type": "MultiLineString", "coordinates": [ [ [ 81.585416666666305, 6.462499999999871 ], [ 81.585416666666305, 6.447916666666565 ] ] ] } },
{ "type": "Feature", "properties": { "HYRIV_ID": 41408129, "NEXT_DOWN": 0, "MAIN_RIV": 41408129, "LENGTH_KM": 4.73, "DIST_DN_KM": 0.0, "DIST_UP_KM": 22.0, "CATCH_SKM": 17.49, "UPLAND_SKM": 97.5, "ENDORHEIC": 0, "DIS_AV_CMS": 1.1849999, "ORD_STRA": 2, "ORD_CLAS": 1, "ORD_FLOW": 6, "HYBAS_L12": 4120050010.0, "Shape_Length": 0.042677669529670947 }, "geometry": { "type": "MultiLineString", "coordinates": [ [ [ 81.585416666666305, 6.447916666666565 ], [ 81.589583333332968, 6.447916666666565 ], [ 81.593749999999631, 6.44375 ], [ 81.593749999999631, 6.439583333333253 ], [ 81.59791666666635, 6.435416666666548 ], [ 81.59791666666635, 6.431249999999885 ], [ 81.602083333333013, 6.427083333333236 ], [ 81.614583333333002, 6.427083333333236 ] ] ] } }
]
}
