{
"type": "FeatureCollection",
"name": "main_river_41410279",
"crs": { "type": "name", "properties": { "name": "urn:ogc:def:crs:OGC:1.3:CRS84" } },
"features": [
{ "type": "Feature", "properties": { "HYRIV_ID": 41410279, "NEXT_DOWN": 0, "MAIN_RIV": 41410279, "LENGTH_KM": 0.98, "DIST_DN_KM": 0.0, "DIST_UP_KM": 2.7, "CATCH_SKM": 5.7600002, "UPLAND_SKM": 3.4, "ENDORHEIC": 0, "DIS_AV_CMS": 0.15, "ORD_STRA": 1, "ORD_CLAS": 1, "ORD_FLOW": 7, "HYBAS_L12": 4120048940.0, "Shape_Length": 0.0088388347647534657 }, "geometry": { "type": "MultiLineString", "coordinates": [ [ [ 80.287499999999596, 6.004166666666556 ], [ 80.281249999999687, 5.997916666666576 ] ] ] } }
]
}
