{
"type": "FeatureCollection",
"name": "main_river_41407859",
"crs": { "type": "name", "properties": { "name": "urn:ogc:def:crs:OGC:1.3:CRS84" } },
"features": [
{ "type": "Feature", "properties": { "HYRIV_ID": 41407858, "NEXT_DOWN": 41407859, "MAIN_RIV": 41407859, "LENGTH_KM": 2.0, "DIST_DN_KM": 2.1, "DIST_UP_KM": 6.6, "CATCH_SKM": 9.3800001, "UPLAND_SKM": 9.4, "ENDORHEIC": 0, "DIS_AV_CMS": 0.126, "ORD_STRA": 1, "ORD_CLAS": 2, "ORD_FLOW": 7, "HYBAS_L12": 4120049990.0, "Shape_Length": 0.018035113019791972 }, "geometry": { "type": "Polygon", "coordinates": [ ] } },
{ "type": "Feature", "properties": { "HYRIV_ID": 41407859, "NEXT_DOWN": 0, "MAIN_RIV": 41407859, "LENGTH_KM": 1.77, "DIST_DN_KM": 0.0, "DIST_UP_KM": 16.1, "CATCH_SKM": 1.49, "UPLAND_SKM": 51.200001, "ENDORHEIC": 0, "DIS_AV_CMS": 0.64300001, "ORD_STRA": 2, "ORD_CLAS": 1, "ORD_FLOW": 7, "HYBAS_L12": 4120049990.0, "Shape_Length": 0.015951779686427948 }, "geometry": { "type": "Polygon", "coordinates": [ ] } },
{ "type": "Feature", "properties": { "HYRIV_ID": 41407892, "NEXT_DOWN": 41407859, "MAIN_RIV": 41407859, "LENGTH_KM": 10.65, "DIST_DN_KM": 2.1, "DIST_UP_KM": 14.3, "CATCH_SKM": 40.52, "UPLAND_SKM": 40.5, "ENDORHEIC": 0, "DIS_AV_CMS": 0.519, "ORD_STRA": 1, "ORD_CLAS": 1, "ORD_FLOW": 7, "HYBAS_L12": 4120049990.0, "Shape_Length": 0.096068121608597665 }, "geometry": { "type": "Polygon", "coordinates": [ ] } }
]
}
