{
"type": "FeatureCollection",
"name": "main_river_41393657",
"crs": { "type": "name", "properties": { "name": "urn:ogc:def:crs:OGC:1.3:CRS84" } },
"features": [
{ "type": "Feature", "properties": { "HYRIV_ID": 41393657, "NEXT_DOWN": 0, "MAIN_RIV": 41393657, "LENGTH_KM": 2.22, "DIST_DN_KM": 0.0, "DIST_UP_KM": 49.3, "CATCH_SKM": 16.3, "UPLAND_SKM": 347.60001, "ENDORHEIC": 0, "DIS_AV_CMS": 3.319, "ORD_STRA": 3, "ORD_CLAS": 1, "ORD_FLOW": 6, "HYBAS_L12": 4120049420.0, "Shape_Length": 0.020118446353161165 }, "geometry": { "type": "MultiLineString", "coordinates": [ [ [ 80.239583333332945, 9.456249999999848 ], [ 80.239583333332945, 9.460416666666511 ], [ 80.247916666666328, 9.468749999999879 ], [ 80.25208333333299, 9.468749999999879 ] ] ] } },
{ "type": "Feature", "properties": { "HYRIV_ID": 41393716, "NEXT_DOWN": 41393657, "MAIN_RIV": 41393657, "LENGTH_KM": 1.8, "DIST_DN_KM": 2.5, "DIST_UP_KM": 5.5, "CATCH_SKM": 13.34, "UPLAND_SKM": 13.3, "ENDORHEIC": 0, "DIS_AV_CMS": 0.156, "ORD_STRA": 1, "ORD_CLAS": 2, "ORD_FLOW": 7, "HYBAS_L12": 4120049420.0, "Shape_Length": 0.016309223176440252 }, "geometry": { "type": "MultiLineString", "coordinates": [ [ [ 80.229166666666373, 9.447916666666536 ], [ 80.235416666666282, 9.447916666666536 ], [ 80.239583333332945, 9.452083333333199 ], [ 80.239583333332945, 9.456249999999848 ] ] ] } },
{ "type": "Feature", "properties": { "HYRIV_ID": 41393789, "NEXT_DOWN": 41393657, "MAIN_RIV": 41393657, "LENGTH_KM": 3.52, "DIST_DN_KM": 2.6, "DIST_UP_KM": 46.900002, "CATCH_SKM": 9.1099997, "UPLAND_SKM": 319.0, "ENDORHEIC": 0, "DIS_AV_CMS": 3.0369999, "ORD_STRA": 3, "ORD_CLAS": 1, "ORD_FLOW": 6, "HYBAS_L12": 4120049420.0, "Shape_Length": 0.031903559372918631 }, "geometry": { "type": "MultiLineString", "coordinates": [ [ [ 80.260416666666316, 9.435416666666519 ], [ 80.25208333333299, 9.443749999999831 ], [ 80.247916666666328, 9.443749999999831 ], [ 80.247916666666328, 9.447916666666536 ], [ 80.239583333332945, 9.456249999999848 ] ] ] } },
{ "type": "Feature", "properties": { "HYRIV_ID": 41393790, "NEXT_DOWN": 41393789, "MAIN_RIV": 41393657, "LENGTH_KM": 0.46, "DIST_DN_KM": 6.0, "DIST_UP_KM": 43.599998, "CATCH_SKM": 0.64, "UPLAND_SKM": 270.70001, "ENDORHEIC": 0, "DIS_AV_CMS": 2.5780001, "ORD_STRA": 3, "ORD_CLAS": 1, "ORD_FLOW": 6, "HYBAS_L12": 4120049420.0, "Shape_Length": 0.0041666666666628771 }, "geometry": { "type": "MultiLineString", "coordinates": [ [ [ 80.264583333332979, 9.435416666666519 ], [ 80.260416666666316, 9.435416666666519 ] ] ] } },
{ "type": "Feature", "properties": { "HYRIV_ID": 41393834, "NEXT_DOWN": 41393789, "MAIN_RIV": 41393657, "LENGTH_KM": 0.93, "DIST_DN_KM": 6.0, "DIST_UP_KM": 10.5, "CATCH_SKM": 0.85, "UPLAND_SKM": 39.200001, "ENDORHEIC": 0, "DIS_AV_CMS": 0.433, "ORD_STRA": 2, "ORD_CLAS": 2, "ORD_FLOW": 7, "HYBAS_L12": 4120049420.0, "Shape_Length": 0.0083333333333115434 }, "geometry": { "type": "MultiLineString", "coordinates": [ [ [ 80.260416666666316, 9.427083333333208 ], [ 80.260416666666316, 9.435416666666519 ] ] ] } },
{ "type": "Feature", "properties": { "HYRIV_ID": 41393835, "NEXT_DOWN": 41393790, "MAIN_RIV": 41393657, "LENGTH_KM": 1.4400001, "DIST_DN_KM": 6.4, "DIST_UP_KM": 6.3, "CATCH_SKM": 12.28, "UPLAND_SKM": 12.3, "ENDORHEIC": 0, "DIS_AV_CMS": 0.139, "ORD_STRA": 1, "ORD_CLAS": 2, "ORD_FLOW": 7, "HYBAS_L12": 4120049420.0, "Shape_Length": 0.013005501431486682 }, "geometry": { "type": "MultiLineString", "coordinates": [ [ [ 80.270833333332945, 9.424999999999834 ], [ 80.264583333332979, 9.431249999999856 ], [ 80.264583333332979, 9.435416666666519 ] ] ] } },
{ "type": "Feature", "properties": { "HYRIV_ID": 41393919, "NEXT_DOWN": 41393834, "MAIN_RIV": 41393657, "LENGTH_KM": 3.6500001, "DIST_DN_KM": 7.1, "DIST_UP_KM": 7.6, "CATCH_SKM": 22.02, "UPLAND_SKM": 22.0, "ENDORHEIC": 0, "DIS_AV_CMS": 0.24600001, "ORD_STRA": 1, "ORD_CLAS": 3, "ORD_FLOW": 7, "HYBAS_L12": 4120049420.0, "Shape_Length": 0.033123947784594161 }, "geometry": { "type": "MultiLineString", "coordinates": [ [ [ 80.233333333333036, 9.412499999999859 ], [ 80.239583333332945, 9.418749999999839 ], [ 80.243749999999665, 9.418749999999839 ], [ 80.247916666666328, 9.422916666666502 ], [ 80.256249999999653, 9.422916666666502 ], [ 80.260416666666316, 9.427083333333208 ] ] ] } },
{ "type": "Feature", "properties": { "HYRIV_ID": 41393956, "NEXT_DOWN": 41393790, "MAIN_RIV": 41393657, "LENGTH_KM": 7.39, "DIST_DN_KM": 6.4, "DIST_UP_KM": 43.099998, "CATCH_SKM": 18.639999, "UPLAND_SKM": 257.79999, "ENDORHEIC": 0, "DIS_AV_CMS": 2.4430001, "ORD_STRA": 3, "ORD_CLAS": 1, "ORD_FLOW": 6, "HYBAS_L12": 4120049420.0, "Shape_Length": 0.066962782549440589 }, "geometry": { "type": "MultiLineString", "coordinates": [ [ [ 80.310416666666271, 9.410416666666528 ], [ 80.306249999999608, 9.414583333333191 ], [ 80.306249999999608, 9.427083333333208 ], [ 80.302083333332945, 9.431249999999856 ], [ 80.297916666666396, 9.431249999999856 ], [ 80.289583333333013, 9.439583333333225 ], [ 80.28541666666635, 9.439583333333225 ], [ 80.281249999999687, 9.435416666666519 ], [ 80.264583333332979, 9.435416666666519 ] ] ] } },
{ "type": "Feature", "properties": { "HYRIV_ID": 41394028, "NEXT_DOWN": 41393834, "MAIN_RIV": 41393657, "LENGTH_KM": 3.3900001, "DIST_DN_KM": 6.9, "DIST_UP_KM": 9.5, "CATCH_SKM": 16.309999, "UPLAND_SKM": 16.3, "ENDORHEIC": 0, "DIS_AV_CMS": 0.18, "ORD_STRA": 1, "ORD_CLAS": 2, "ORD_FLOW": 7, "HYBAS_L12": 4120049420.0, "Shape_Length": 0.030535113019766393 }, "geometry": { "type": "MultiLineString", "coordinates": [ [ [ 80.260416666666316, 9.399999999999885 ], [ 80.260416666666316, 9.410416666666528 ], [ 80.256249999999653, 9.414583333333191 ], [ 80.260416666666316, 9.418749999999839 ], [ 80.260416666666316, 9.427083333333208 ] ] ] } },
{ "type": "Feature", "properties": { "HYRIV_ID": 41394229, "NEXT_DOWN": 41393956, "MAIN_RIV": 41393657, "LENGTH_KM": 4.9200001, "DIST_DN_KM": 13.8, "DIST_UP_KM": 35.700001, "CATCH_SKM": 9.1099997, "UPLAND_SKM": 179.89999, "ENDORHEIC": 0, "DIS_AV_CMS": 1.734, "ORD_STRA": 2, "ORD_CLAS": 1, "ORD_FLOW": 6, "HYBAS_L12": 4120049420.0, "Shape_Length": 0.044403559372802617 }, "geometry": { "type": "MultiLineString", "coordinates": [ [ [ 80.293749999999733, 9.372916666666519 ], [ 80.293749999999733, 9.377083333333182 ], [ 80.310416666666271, 9.393749999999848 ], [ 80.310416666666271, 9.410416666666528 ] ] ] } },
{ "type": "Feature", "properties": { "HYRIV_ID": 41394320, "NEXT_DOWN": 41393956, "MAIN_RIV": 41393657, "LENGTH_KM": 9.6300001, "DIST_DN_KM": 14.0, "DIST_UP_KM": 17.4, "CATCH_SKM": 28.8, "UPLAND_SKM": 59.3, "ENDORHEIC": 0, "DIS_AV_CMS": 0.63700002, "ORD_STRA": 2, "ORD_CLAS": 2, "ORD_FLOW": 7, "HYBAS_L12": 4120049420.0, "Shape_Length": 0.087081228902483918 }, "geometry": { "type": "MultiLineString", "coordinates": [ [ [ 80.356249999999619, 9.360416666666545 ], [ 80.352083333332956, 9.364583333333208 ], [ 80.347916666666293, 9.364583333333208 ], [ 80.343749999999631, 9.368749999999856 ], [ 80.343749999999631, 9.381249999999831 ], [ 80.339583333332968, 9.385416666666536 ], [ 80.331249999999642, 9.385416666666536 ], [ 80.331249999999642, 9.389583333333199 ], [ 80.327083333332922, 9.393749999999848 ], [ 80.32291666666643, 9.393749999999848 ], [ 80.318749999999596, 9.397916666666511 ], [ 80.318749999999596, 9.410416666666528 ], [ 80.314583333333047, 9.414583333333191 ], [ 80.310416666666271, 9.410416666666528 ] ] ] } },
{ "type": "Feature", "properties": { "HYRIV_ID": 41394380, "NEXT_DOWN": 41394320, "MAIN_RIV": 41393657, "LENGTH_KM": 2.54, "DIST_DN_KM": 23.4, "DIST_UP_KM": 8.0, "CATCH_SKM": 14.62, "UPLAND_SKM": 14.6, "ENDORHEIC": 0, "DIS_AV_CMS": 0.16500001, "ORD_STRA": 1, "ORD_CLAS": 3, "ORD_FLOW": 7, "HYBAS_L12": 4120049420.0, "Shape_Length": 0.023064724608169329 }, "geometry": { "type": "MultiLineString", "coordinates": [ [ [ 80.374999999999744, 9.349999999999859 ], [ 80.368749999999665, 9.356249999999839 ], [ 80.364583333332945, 9.356249999999839 ], [ 80.360416666666282, 9.360416666666545 ], [ 80.356249999999619, 9.360416666666545 ] ] ] } },
{ "type": "Feature", "properties": { "HYRIV_ID": 41394491, "NEXT_DOWN": 41394229, "MAIN_RIV": 41393657, "LENGTH_KM": 5.23, "DIST_DN_KM": 18.700001, "DIST_UP_KM": 10.9, "CATCH_SKM": 25.209999, "UPLAND_SKM": 25.200001, "ENDORHEIC": 0, "DIS_AV_CMS": 0.26800001, "ORD_STRA": 1, "ORD_CLAS": 2, "ORD_FLOW": 7, "HYBAS_L12": 4121599930.0, "Shape_Length": 0.047201779686499003 }, "geometry": { "type": "MultiLineString", "coordinates": [ [ [ 80.289583333333013, 9.333333333333179 ], [ 80.289583333333013, 9.339583333333202 ], [ 80.28541666666635, 9.343749999999865 ], [ 80.28541666666635, 9.368749999999856 ], [ 80.289583333333013, 9.372916666666519 ], [ 80.293749999999733, 9.372916666666519 ] ] ] } },
{ "type": "Feature", "properties": { "HYRIV_ID": 41394492, "NEXT_DOWN": 41394320, "MAIN_RIV": 41393657, "LENGTH_KM": 3.29, "DIST_DN_KM": 23.4, "DIST_UP_KM": 8.0, "CATCH_SKM": 15.89, "UPLAND_SKM": 15.9, "ENDORHEIC": 0, "DIS_AV_CMS": 0.176, "ORD_STRA": 1, "ORD_CLAS": 2, "ORD_FLOW": 7, "HYBAS_L12": 4120049420.0, "Shape_Length": 0.029672168098247 }, "geometry": { "type": "MultiLineString", "coordinates": [ [ [ 80.362499999999699, 9.333333333333179 ], [ 80.356249999999619, 9.339583333333202 ], [ 80.356249999999619, 9.360416666666545 ] ] ] } },
{ "type": "Feature", "properties": { "HYRIV_ID": 41394712, "NEXT_DOWN": 41394229, "MAIN_RIV": 41393657, "LENGTH_KM": 9.6400003, "DIST_DN_KM": 18.700001, "DIST_UP_KM": 30.8, "CATCH_SKM": 27.959999, "UPLAND_SKM": 145.5, "ENDORHEIC": 0, "DIS_AV_CMS": 1.428, "ORD_STRA": 2, "ORD_CLAS": 1, "ORD_FLOW": 6, "HYBAS_L12": 4121599930.0, "Shape_Length": 0.087081228902401511 }, "geometry": { "type": "MultiLineString", "coordinates": [ [ [ 80.32291666666643, 9.306249999999856 ], [ 80.32291666666643, 9.310416666666519 ], [ 80.314583333333047, 9.318749999999831 ], [ 80.314583333333047, 9.322916666666536 ], [ 80.318749999999596, 9.327083333333185 ], [ 80.318749999999596, 9.339583333333202 ], [ 80.314583333333047, 9.343749999999865 ], [ 80.310416666666271, 9.343749999999865 ], [ 80.306249999999608, 9.347916666666528 ], [ 80.306249999999608, 9.356249999999839 ], [ 80.302083333332945, 9.360416666666545 ], [ 80.297916666666396, 9.360416666666545 ], [ 80.293749999999733, 9.364583333333208 ], [ 80.293749999999733, 9.372916666666519 ] ] ] } },
{ "type": "Feature", "properties": { "HYRIV_ID": 41394802, "NEXT_DOWN": 41394712, "MAIN_RIV": 41393657, "LENGTH_KM": 5.58, "DIST_DN_KM": 28.4, "DIST_UP_KM": 11.1, "CATCH_SKM": 30.5, "UPLAND_SKM": 30.5, "ENDORHEIC": 0, "DIS_AV_CMS": 0.32800001, "ORD_STRA": 1, "ORD_CLAS": 2, "ORD_FLOW": 7, "HYBAS_L12": 4121599930.0, "Shape_Length": 0.050653559372721001 }, "geometry": { "type": "MultiLineString", "coordinates": [ [ [ 80.360416666666282, 9.291666666666508 ], [ 80.360416666666282, 9.297916666666545 ], [ 80.356249999999619, 9.302083333333194 ], [ 80.352083333332956, 9.297916666666545 ], [ 80.347916666666293, 9.302083333333194 ], [ 80.331249999999642, 9.302083333333194 ], [ 80.327083333332922, 9.306249999999856 ], [ 80.32291666666643, 9.306249999999856 ] ] ] } },
{ "type": "Feature", "properties": { "HYRIV_ID": 41395439, "NEXT_DOWN": 41394712, "MAIN_RIV": 41393657, "LENGTH_KM": 16.01, "DIST_DN_KM": 28.4, "DIST_UP_KM": 21.200001, "CATCH_SKM": 87.080002, "UPLAND_SKM": 87.099998, "ENDORHEIC": 0, "DIS_AV_CMS": 0.89, "ORD_STRA": 1, "ORD_CLAS": 1, "ORD_FLOW": 7, "HYBAS_L12": 4121599930.0, "Shape_Length": 0.14463834764825034 }, "geometry": { "type": "MultiLineString", "coordinates": [ [ [ 80.393749999999642, 9.195833333333191 ], [ 80.393749999999642, 9.206249999999891 ], [ 80.389583333332979, 9.210416666666497 ], [ 80.389583333332979, 9.214583333333202 ], [ 80.385416666666316, 9.218749999999865 ], [ 80.385416666666316, 9.222916666666514 ], [ 80.372916666666328, 9.235416666666531 ], [ 80.364583333332945, 9.235416666666531 ], [ 80.339583333332968, 9.260416666666536 ], [ 80.339583333332968, 9.264583333333185 ], [ 80.331249999999642, 9.272916666666553 ], [ 80.331249999999642, 9.281249999999865 ], [ 80.327083333332922, 9.285416666666528 ], [ 80.327083333332922, 9.289583333333177 ], [ 80.32291666666643, 9.293749999999839 ], [ 80.32291666666643, 9.306249999999856 ] ] ] } }
]
}
