{
"type": "FeatureCollection",
"name": "main_river_41393957",
"crs": { "type": "name", "properties": { "name": "urn:ogc:def:crs:OGC:1.3:CRS84" } },
"features": [
{ "type": "Feature", "properties": { "HYRIV_ID": 41393957, "NEXT_DOWN": 0, "MAIN_RIV": 41393957, "LENGTH_KM": 8.2399998, "DIST_DN_KM": 0.0, "DIST_UP_KM": 16.200001, "CATCH_SKM": 31.549999, "UPLAND_SKM": 55.099998, "ENDORHEIC": 0, "DIS_AV_CMS": 0.62300003, "ORD_STRA": 2, "ORD_CLAS": 1, "ORD_FLOW": 7, "HYBAS_L12": 4120049430.0, "Shape_Length": 0.074581228902589586 }, "geometry": { "type": "MultiLineString", "coordinates": [ [ [ 80.372916666666328, 9.410416666666528 ], [ 80.368749999999665, 9.410416666666528 ], [ 80.360416666666282, 9.418749999999839 ], [ 80.360416666666282, 9.422916666666502 ], [ 80.347916666666293, 9.435416666666519 ], [ 80.347916666666293, 9.439583333333225 ], [ 80.343749999999631, 9.443749999999831 ], [ 80.331249999999642, 9.443749999999831 ], [ 80.327083333332922, 9.447916666666536 ], [ 80.327083333332922, 9.456249999999848 ] ] ] } },
{ "type": "Feature", "properties": { "HYRIV_ID": 41393987, "NEXT_DOWN": 41393957, "MAIN_RIV": 41393957, "LENGTH_KM": 1.89, "DIST_DN_KM": 8.5, "DIST_UP_KM": 5.9, "CATCH_SKM": 11.22, "UPLAND_SKM": 11.2, "ENDORHEIC": 0, "DIS_AV_CMS": 0.132, "ORD_STRA": 1, "ORD_CLAS": 2, "ORD_FLOW": 7, "HYBAS_L12": 4120049430.0, "Shape_Length": 0.017172168098149559 }, "geometry": { "type": "MultiLineString", "coordinates": [ [ [ 80.387499999999619, 9.404166666666505 ], [ 80.381249999999653, 9.410416666666528 ], [ 80.372916666666328, 9.410416666666528 ] ] ] } },
{ "type": "Feature", "properties": { "HYRIV_ID": 41394066, "NEXT_DOWN": 41393957, "MAIN_RIV": 41393957, "LENGTH_KM": 2.09, "DIST_DN_KM": 8.7, "DIST_UP_KM": 7.8, "CATCH_SKM": 12.5, "UPLAND_SKM": 12.5, "ENDORHEIC": 0, "DIS_AV_CMS": 0.144, "ORD_STRA": 1, "ORD_CLAS": 1, "ORD_FLOW": 7, "HYBAS_L12": 4120049430.0, "Shape_Length": 0.018898057941337348 }, "geometry": { "type": "MultiLineString", "coordinates": [ [ [ 80.370833333333081, 9.395833333333179 ], [ 80.37708333333299, 9.402083333333174 ], [ 80.37708333333299, 9.406249999999865 ], [ 80.372916666666328, 9.410416666666528 ] ] ] } }
]
}
