{
"type": "FeatureCollection",
"name": "main_river_41406993",
"crs": { "type": "name", "properties": { "name": "urn:ogc:def:crs:OGC:1.3:CRS84" } },
"features": [
{ "type": "Feature", "properties": { "HYRIV_ID": 41406859, "NEXT_DOWN": 41406993, "MAIN_RIV": 41406993, "LENGTH_KM": 0.98, "DIST_DN_KM": 6.7, "DIST_UP_KM": 5.0, "CATCH_SKM": 9.3800001, "UPLAND_SKM": 9.4, "ENDORHEIC": 0, "DIS_AV_CMS": 0.139, "ORD_STRA": 1, "ORD_CLAS": 1, "ORD_FLOW": 7, "HYBAS_L12": 4120049970.0, "Shape_Length": 0.0088388347648840973 }, "geometry": { "type": "Polygon", "coordinates": [ ] } },
{ "type": "Feature", "properties": { "HYRIV_ID": 41406908, "NEXT_DOWN": 41406993, "MAIN_RIV": 41406993, "LENGTH_KM": 1.4400001, "DIST_DN_KM": 6.5, "DIST_UP_KM": 4.6, "CATCH_SKM": 9.3800001, "UPLAND_SKM": 9.4, "ENDORHEIC": 0, "DIS_AV_CMS": 0.137, "ORD_STRA": 1, "ORD_CLAS": 2, "ORD_FLOW": 7, "HYBAS_L12": 4120049970.0, "Shape_Length": 0.013005501431579558 }, "geometry": { "type": "Polygon", "coordinates": [ ] } },
{ "type": "Feature", "properties": { "HYRIV_ID": 41406993, "NEXT_DOWN": 0, "MAIN_RIV": 41406993, "LENGTH_KM": 6.4200001, "DIST_DN_KM": 0.0, "DIST_UP_KM": 11.4, "CATCH_SKM": 26.01, "UPLAND_SKM": 43.700001, "ENDORHEIC": 0, "DIS_AV_CMS": 0.621, "ORD_STRA": 2, "ORD_CLAS": 1, "ORD_FLOW": 7, "HYBAS_L12": 4120049970.0, "Shape_Length": 0.057914562235825098 }, "geometry": { "type": "Polygon", "coordinates": [ ] } }
]
}
