{
"type": "FeatureCollection",
"name": "main_river_41391259",
"crs": { "type": "name", "properties": { "name": "urn:ogc:def:crs:OGC:1.3:CRS84" } },
"features": [
{ "type": "Feature", "properties": { "HYRIV_ID": 41391259, "NEXT_DOWN": 0, "MAIN_RIV": 41391259, "LENGTH_KM": 0.69, "DIST_DN_KM": 0.0, "DIST_UP_KM": 4.7, "CATCH_SKM": 10.79, "UPLAND_SKM": 10.6, "ENDORHEIC": 0, "DIS_AV_CMS": 0.15700001, "ORD_STRA": 1, "ORD_CLAS": 1, "ORD_FLOW": 7, "HYBAS_L12": 4120050170.0, "Shape_Length": 0.0062499999999801048 }, "geometry": { "type": "MultiLineString", "coordinates": [ [ [ 80.085416666666305, 9.804166666666511 ], [ 80.085416666666305, 9.810416666666491 ] ] ] } }
]
}
