{
"type": "FeatureCollection",
"name": "main_river_41394801",
"crs": { "type": "name", "properties": { "name": "urn:ogc:def:crs:OGC:1.3:CRS84" } },
"features": [
{ "type": "Feature", "properties": { "HYRIV_ID": 41394773, "NEXT_DOWN": 41394801, "MAIN_RIV": 41394801, "LENGTH_KM": 5.52, "DIST_DN_KM": 1.3, "DIST_UP_KM": 11.9, "CATCH_SKM": 30.709999, "UPLAND_SKM": 30.700001, "ENDORHEIC": 0, "DIS_AV_CMS": 0.322, "ORD_STRA": 1, "ORD_CLAS": 2, "ORD_FLOW": 7, "HYBAS_L12": 4120049390.0, "Shape_Length": 0.049790614451260887 }, "geometry": { "type": "MultiLineString", "coordinates": [ [ [ 80.116666666666305, 9.341666666666534 ], [ 80.122916666666328, 9.335416666666511 ], [ 80.122916666666328, 9.322916666666536 ], [ 80.12708333333299, 9.318749999999831 ], [ 80.12708333333299, 9.314583333333168 ], [ 80.131249999999653, 9.310416666666519 ], [ 80.131249999999653, 9.297916666666545 ] ] ] } },
{ "type": "Feature", "properties": { "HYRIV_ID": 41394774, "NEXT_DOWN": 41394801, "MAIN_RIV": 41394801, "LENGTH_KM": 1.63, "DIST_DN_KM": 1.5, "DIST_UP_KM": 4.9, "CATCH_SKM": 11.02, "UPLAND_SKM": 11.0, "ENDORHEIC": 0, "DIS_AV_CMS": 0.116, "ORD_STRA": 1, "ORD_CLAS": 3, "ORD_FLOW": 7, "HYBAS_L12": 4120049390.0, "Shape_Length": 0.01473139127471639 }, "geometry": { "type": "MultiLineString", "coordinates": [ [ [ 80.141666666666339, 9.308333333333188 ], [ 80.131249999999653, 9.297916666666545 ] ] ] } },
{ "type": "Feature", "properties": { "HYRIV_ID": 41394801, "NEXT_DOWN": 0, "MAIN_RIV": 41394801, "LENGTH_KM": 1.11, "DIST_DN_KM": 0.0, "DIST_UP_KM": 13.6, "CATCH_SKM": 4.0300002, "UPLAND_SKM": 78.0, "ENDORHEIC": 0, "DIS_AV_CMS": 0.79500002, "ORD_STRA": 2, "ORD_CLAS": 1, "ORD_FLOW": 7, "HYBAS_L12": 4120049390.0, "Shape_Length": 0.010059223176575559 }, "geometry": { "type": "MultiLineString", "coordinates": [ [ [ 80.131249999999653, 9.297916666666545 ], [ 80.12708333333299, 9.293749999999839 ], [ 80.122916666666328, 9.293749999999839 ] ] ] } },
{ "type": "Feature", "properties": { "HYRIV_ID": 41394896, "NEXT_DOWN": 41394801, "MAIN_RIV": 41394801, "LENGTH_KM": 6.04, "DIST_DN_KM": 1.3, "DIST_UP_KM": 12.5, "CATCH_SKM": 34.959999, "UPLAND_SKM": 35.0, "ENDORHEIC": 0, "DIS_AV_CMS": 0.35100001, "ORD_STRA": 1, "ORD_CLAS": 1, "ORD_FLOW": 7, "HYBAS_L12": 4120049390.0, "Shape_Length": 0.054820226039618856 }, "geometry": { "type": "MultiLineString", "coordinates": [ [ [ 80.172916666666396, 9.274999999999871 ], [ 80.172916666666396, 9.281249999999865 ], [ 80.16041666666635, 9.293749999999839 ], [ 80.152083333333024, 9.293749999999839 ], [ 80.147916666666362, 9.297916666666545 ], [ 80.131249999999653, 9.297916666666545 ] ] ] } }
]
}
