{
"type": "FeatureCollection",
"name": "main_river_41395867",
"crs": { "type": "name", "properties": { "name": "urn:ogc:def:crs:OGC:1.3:CRS84" } },
"features": [
{ "type": "Feature", "properties": { "HYRIV_ID": 41395867, "NEXT_DOWN": 0, "MAIN_RIV": 41395867, "LENGTH_KM": 5.35, "DIST_DN_KM": 0.0, "DIST_UP_KM": 35.8, "CATCH_SKM": 25.639999, "UPLAND_SKM": 296.10001, "ENDORHEIC": 0, "DIS_AV_CMS": 4.052, "ORD_STRA": 3, "ORD_CLAS": 1, "ORD_FLOW": 6, "HYBAS_L12": 4120049520.0, "Shape_Length": 0.048570226039594398 }, "geometry": { "type": "MultiLineString", "coordinates": [ [ [ 80.835416666666248, 9.143749999999834 ], [ 80.860416666666282, 9.143749999999834 ], [ 80.872916666666271, 9.131249999999859 ], [ 80.87708333333299, 9.135416666666522 ] ] ] } },
{ "type": "Feature", "properties": { "HYRIV_ID": 41396115, "NEXT_DOWN": 41395867, "MAIN_RIV": 41395867, "LENGTH_KM": 7.3400002, "DIST_DN_KM": 5.7, "DIST_UP_KM": 16.6, "CATCH_SKM": 22.68, "UPLAND_SKM": 69.300003, "ENDORHEIC": 0, "DIS_AV_CMS": 0.991, "ORD_STRA": 2, "ORD_CLAS": 2, "ORD_FLOW": 7, "HYBAS_L12": 4120049520.0, "Shape_Length": 0.066247895569097159 }, "geometry": { "type": "MultiLineString", "coordinates": [ [ [ 80.814583333333047, 9.089583333333202 ], [ 80.814583333333047, 9.093749999999851 ], [ 80.81874999999971, 9.097916666666514 ], [ 80.81874999999971, 9.106249999999868 ], [ 80.814583333333047, 9.110416666666531 ], [ 80.814583333333047, 9.122916666666548 ], [ 80.835416666666248, 9.143749999999834 ] ] ] } },
{ "type": "Feature", "properties": { "HYRIV_ID": 41396149, "NEXT_DOWN": 41395867, "MAIN_RIV": 41395867, "LENGTH_KM": 13.69, "DIST_DN_KM": 5.5, "DIST_UP_KM": 30.700001, "CATCH_SKM": 78.209999, "UPLAND_SKM": 201.39999, "ENDORHEIC": 0, "DIS_AV_CMS": 2.7449999, "ORD_STRA": 2, "ORD_CLAS": 1, "ORD_FLOW": 6, "HYBAS_L12": 4120049520.0, "Shape_Length": 0.12416245780506469 }, "geometry": { "type": "MultiLineString", "coordinates": [ [ [ 80.735416666666282, 9.085416666666497 ], [ 80.75208333333299, 9.102083333333219 ], [ 80.764583333332979, 9.102083333333219 ], [ 80.777083333332968, 9.114583333333194 ], [ 80.785416666666293, 9.114583333333194 ], [ 80.793749999999676, 9.122916666666548 ], [ 80.797916666666339, 9.122916666666548 ], [ 80.806249999999665, 9.131249999999859 ], [ 80.810416666666328, 9.131249999999859 ], [ 80.81874999999971, 9.139583333333185 ], [ 80.822916666666373, 9.139583333333185 ], [ 80.827083333332922, 9.143749999999834 ], [ 80.835416666666248, 9.143749999999834 ] ] ] } },
{ "type": "Feature", "properties": { "HYRIV_ID": 41396150, "NEXT_DOWN": 41396149, "MAIN_RIV": 41395867, "LENGTH_KM": 0.69, "DIST_DN_KM": 19.200001, "DIST_UP_KM": 5.4, "CATCH_SKM": 8.0500002, "UPLAND_SKM": 8.1, "ENDORHEIC": 0, "DIS_AV_CMS": 0.115, "ORD_STRA": 1, "ORD_CLAS": 2, "ORD_FLOW": 7, "HYBAS_L12": 4121600230.0, "Shape_Length": 0.0062500000000795808 }, "geometry": { "type": "MultiLineString", "coordinates": [ [ [ 80.741666666666362, 9.085416666666497 ], [ 80.735416666666282, 9.085416666666497 ] ] ] } },
{ "type": "Feature", "properties": { "HYRIV_ID": 41396187, "NEXT_DOWN": 41396149, "MAIN_RIV": 41395867, "LENGTH_KM": 1.11, "DIST_DN_KM": 19.200001, "DIST_UP_KM": 17.0, "CATCH_SKM": 2.76, "UPLAND_SKM": 115.1, "ENDORHEIC": 0, "DIS_AV_CMS": 1.582, "ORD_STRA": 2, "ORD_CLAS": 1, "ORD_FLOW": 6, "HYBAS_L12": 4121600230.0, "Shape_Length": 0.010059223176515268 }, "geometry": { "type": "MultiLineString", "coordinates": [ [ [ 80.727083333332956, 9.081249999999876 ], [ 80.731249999999619, 9.085416666666497 ], [ 80.735416666666282, 9.085416666666497 ] ] ] } },
{ "type": "Feature", "properties": { "HYRIV_ID": 41396226, "NEXT_DOWN": 41396187, "MAIN_RIV": 41395867, "LENGTH_KM": 0.65, "DIST_DN_KM": 20.5, "DIST_UP_KM": 15.7, "CATCH_SKM": 0.21, "UPLAND_SKM": 104.3, "ENDORHEIC": 0, "DIS_AV_CMS": 1.433, "ORD_STRA": 2, "ORD_CLAS": 1, "ORD_FLOW": 6, "HYBAS_L12": 4121600230.0, "Shape_Length": 0.0058925565099026333 }, "geometry": { "type": "MultiLineString", "coordinates": [ [ [ 80.722916666666293, 9.077083333333185 ], [ 80.727083333332956, 9.081249999999876 ] ] ] } },
{ "type": "Feature", "properties": { "HYRIV_ID": 41396287, "NEXT_DOWN": 41396226, "MAIN_RIV": 41395867, "LENGTH_KM": 3.52, "DIST_DN_KM": 21.1, "DIST_UP_KM": 15.0, "CATCH_SKM": 12.72, "UPLAND_SKM": 67.199997, "ENDORHEIC": 0, "DIS_AV_CMS": 0.91799998, "ORD_STRA": 2, "ORD_CLAS": 1, "ORD_FLOW": 7, "HYBAS_L12": 4121600230.0, "Shape_Length": 0.031903559372832353 }, "geometry": { "type": "MultiLineString", "coordinates": [ [ [ 80.697916666666373, 9.068749999999859 ], [ 80.706249999999699, 9.077083333333185 ], [ 80.714583333333081, 9.077083333333185 ], [ 80.718749999999631, 9.072916666666522 ], [ 80.722916666666293, 9.077083333333185 ] ] ] } },
{ "type": "Feature", "properties": { "HYRIV_ID": 41396288, "NEXT_DOWN": 41396187, "MAIN_RIV": 41395867, "LENGTH_KM": 1.81, "DIST_DN_KM": 20.3, "DIST_UP_KM": 7.2, "CATCH_SKM": 8.0600004, "UPLAND_SKM": 8.1, "ENDORHEIC": 0, "DIS_AV_CMS": 0.115, "ORD_STRA": 1, "ORD_CLAS": 2, "ORD_FLOW": 7, "HYBAS_L12": 4121600230.0, "Shape_Length": 0.01630922317656815 }, "geometry": { "type": "MultiLineString", "coordinates": [ [ [ 80.731249999999619, 9.066666666666528 ], [ 80.731249999999619, 9.072916666666522 ], [ 80.727083333332956, 9.077083333333185 ], [ 80.727083333332956, 9.081249999999876 ] ] ] } },
{ "type": "Feature", "properties": { "HYRIV_ID": 41396310, "NEXT_DOWN": 41396115, "MAIN_RIV": 41395867, "LENGTH_KM": 3.3900001, "DIST_DN_KM": 13.0, "DIST_UP_KM": 6.8, "CATCH_SKM": 16.32, "UPLAND_SKM": 16.3, "ENDORHEIC": 0, "DIS_AV_CMS": 0.23800001, "ORD_STRA": 1, "ORD_CLAS": 3, "ORD_FLOW": 7, "HYBAS_L12": 4120049520.0, "Shape_Length": 0.030535113019749743 }, "geometry": { "type": "MultiLineString", "coordinates": [ [ [ 80.822916666666373, 9.062499999999879 ], [ 80.822916666666373, 9.068749999999859 ], [ 80.81874999999971, 9.072916666666522 ], [ 80.81874999999971, 9.085416666666497 ], [ 80.814583333333047, 9.089583333333202 ] ] ] } },
{ "type": "Feature", "properties": { "HYRIV_ID": 41396347, "NEXT_DOWN": 41396115, "MAIN_RIV": 41395867, "LENGTH_KM": 5.06, "DIST_DN_KM": 13.0, "DIST_UP_KM": 9.3, "CATCH_SKM": 30.309999, "UPLAND_SKM": 30.3, "ENDORHEIC": 0, "DIS_AV_CMS": 0.43700001, "ORD_STRA": 1, "ORD_CLAS": 2, "ORD_FLOW": 7, "HYBAS_L12": 4120049520.0, "Shape_Length": 0.045772005726085488 }, "geometry": { "type": "MultiLineString", "coordinates": [ [ [ 80.785416666666293, 9.058333333333174 ], [ 80.785416666666293, 9.064583333333211 ], [ 80.806249999999665, 9.085416666666497 ], [ 80.810416666666328, 9.085416666666497 ], [ 80.814583333333047, 9.089583333333202 ] ] ] } },
{ "type": "Feature", "properties": { "HYRIV_ID": 41396424, "NEXT_DOWN": 41396287, "MAIN_RIV": 41395867, "LENGTH_KM": 7.3600001, "DIST_DN_KM": 24.4, "DIST_UP_KM": 11.7, "CATCH_SKM": 29.889999, "UPLAND_SKM": 29.9, "ENDORHEIC": 0, "DIS_AV_CMS": 0.40700001, "ORD_STRA": 1, "ORD_CLAS": 1, "ORD_FLOW": 7, "HYBAS_L12": 4121600230.0, "Shape_Length": 0.066605339059448099 }, "geometry": { "type": "MultiLineString", "coordinates": [ [ [ 80.654166666666271, 9.047916666666531 ], [ 80.66041666666635, 9.047916666666531 ], [ 80.66041666666635, 9.056249999999842 ], [ 80.672916666666339, 9.068749999999859 ], [ 80.672916666666339, 9.072916666666522 ], [ 80.677083333333002, 9.077083333333185 ], [ 80.685416666666384, 9.077083333333185 ], [ 80.693749999999596, 9.068749999999859 ], [ 80.697916666666373, 9.068749999999859 ] ] ] } },
{ "type": "Feature", "properties": { "HYRIV_ID": 41396547, "NEXT_DOWN": 41396287, "MAIN_RIV": 41395867, "LENGTH_KM": 5.4299998, "DIST_DN_KM": 24.4, "DIST_UP_KM": 10.0, "CATCH_SKM": 24.59, "UPLAND_SKM": 24.6, "ENDORHEIC": 0, "DIS_AV_CMS": 0.339, "ORD_STRA": 1, "ORD_CLAS": 2, "ORD_FLOW": 7, "HYBAS_L12": 4121600230.0, "Shape_Length": 0.049075727471091735 }, "geometry": { "type": "MultiLineString", "coordinates": [ [ [ 80.674999999999642, 9.029166666666519 ], [ 80.685416666666384, 9.039583333333205 ], [ 80.685416666666384, 9.047916666666531 ], [ 80.697916666666373, 9.060416666666548 ], [ 80.697916666666373, 9.068749999999859 ] ] ] } },
{ "type": "Feature", "properties": { "HYRIV_ID": 41396634, "NEXT_DOWN": 41396226, "MAIN_RIV": 41395867, "LENGTH_KM": 8.3900003, "DIST_DN_KM": 20.9, "DIST_UP_KM": 12.1, "CATCH_SKM": 36.889999, "UPLAND_SKM": 36.900002, "ENDORHEIC": 0, "DIS_AV_CMS": 0.514, "ORD_STRA": 1, "ORD_CLAS": 2, "ORD_FLOW": 7, "HYBAS_L12": 4121600230.0, "Shape_Length": 0.075653559372876406 }, "geometry": { "type": "MultiLineString", "coordinates": [ [ [ 80.702083333332922, 9.012499999999882 ], [ 80.702083333332922, 9.018749999999876 ], [ 80.706249999999699, 9.022916666666539 ], [ 80.706249999999699, 9.027083333333188 ], [ 80.710416666666418, 9.031249999999851 ], [ 80.714583333333081, 9.031249999999851 ], [ 80.718749999999631, 9.035416666666556 ], [ 80.718749999999631, 9.064583333333211 ], [ 80.722916666666293, 9.068749999999859 ], [ 80.722916666666293, 9.077083333333185 ] ] ] } }
]
}
