{
"type": "FeatureCollection",
"name": "main_river_41404278",
"crs": { "type": "name", "properties": { "name": "urn:ogc:def:crs:OGC:1.3:CRS84" } },
"features": [
{ "type": "Feature", "properties": { "HYRIV_ID": 41403898, "NEXT_DOWN": 41403927, "MAIN_RIV": 41404278, "LENGTH_KM": 0.69, "DIST_DN_KM": 22.200001, "DIST_UP_KM": 2.9, "CATCH_SKM": 4.4699998, "UPLAND_SKM": 4.5, "ENDORHEIC": 0, "DIS_AV_CMS": 0.115, "ORD_STRA": 1, "ORD_CLAS": 3, "ORD_FLOW": 7, "HYBAS_L12": 4120049110.0, "Shape_Length": 0.0062499999999801048 }, "geometry": { "type": "MultiLineString", "coordinates": [ [ [ 79.922916666666396, 7.412499999999888 ], [ 79.922916666666396, 7.40625 ] ] ] } },
{ "type": "Feature", "properties": { "HYRIV_ID": 41403899, "NEXT_DOWN": 41403927, "MAIN_RIV": 41404278, "LENGTH_KM": 1.15, "DIST_DN_KM": 22.200001, "DIST_UP_KM": 4.2, "CATCH_SKM": 5.75, "UPLAND_SKM": 5.7, "ENDORHEIC": 0, "DIS_AV_CMS": 0.149, "ORD_STRA": 1, "ORD_CLAS": 2, "ORD_FLOW": 7, "HYBAS_L12": 4120049110.0, "Shape_Length": 0.010416666666628771 }, "geometry": { "type": "MultiLineString", "coordinates": [ [ [ 79.933333333333024, 7.40625 ], [ 79.922916666666396, 7.40625 ] ] ] } },
{ "type": "Feature", "properties": { "HYRIV_ID": 41403914, "NEXT_DOWN": 41403953, "MAIN_RIV": 41404278, "LENGTH_KM": 1.4400001, "DIST_DN_KM": 19.5, "DIST_UP_KM": 3.7, "CATCH_SKM": 5.5300002, "UPLAND_SKM": 5.5, "ENDORHEIC": 0, "DIS_AV_CMS": 0.142, "ORD_STRA": 1, "ORD_CLAS": 3, "ORD_FLOW": 7, "HYBAS_L12": 4120049110.0, "Shape_Length": 0.013005501431458975 }, "geometry": { "type": "MultiLineString", "coordinates": [ [ [ 79.912499999999653, 7.412499999999888 ], [ 79.906249999999744, 7.40625 ], [ 79.906249999999744, 7.402083333333202 ] ] ] } },
{ "type": "Feature", "properties": { "HYRIV_ID": 41403927, "NEXT_DOWN": 41403953, "MAIN_RIV": 41404278, "LENGTH_KM": 2.6900001, "DIST_DN_KM": 19.700001, "DIST_UP_KM": 6.7, "CATCH_SKM": 4.9, "UPLAND_SKM": 15.1, "ENDORHEIC": 0, "DIS_AV_CMS": 0.391, "ORD_STRA": 2, "ORD_CLAS": 2, "ORD_FLOW": 7, "HYBAS_L12": 4120049110.0, "Shape_Length": 0.024285113019829635 }, "geometry": { "type": "MultiLineString", "coordinates": [ [ [ 79.922916666666396, 7.40625 ], [ 79.922916666666396, 7.402083333333202 ], [ 79.918749999999619, 7.402083333333202 ], [ 79.914583333332956, 7.397916666666539 ], [ 79.910416666666293, 7.397916666666539 ], [ 79.906249999999744, 7.402083333333202 ] ] ] } },
{ "type": "Feature", "properties": { "HYRIV_ID": 41403944, "NEXT_DOWN": 41404110, "MAIN_RIV": 41404278, "LENGTH_KM": 6.54, "DIST_DN_KM": 14.2, "DIST_UP_KM": 8.9, "CATCH_SKM": 26.82, "UPLAND_SKM": 26.8, "ENDORHEIC": 0, "DIS_AV_CMS": 0.67900002, "ORD_STRA": 1, "ORD_CLAS": 2, "ORD_FLOW": 7, "HYBAS_L12": 4120049110.0, "Shape_Length": 0.058986892706177088 }, "geometry": { "type": "MultiLineString", "coordinates": [ [ [ 79.874999999999631, 7.435416666666548 ], [ 79.864583333333002, 7.435416666666548 ], [ 79.860416666666339, 7.431249999999899 ], [ 79.860416666666339, 7.422916666666531 ], [ 79.868749999999665, 7.414583333333219 ], [ 79.868749999999665, 7.410416666666556 ], [ 79.864583333333002, 7.40625 ], [ 79.864583333333002, 7.393749999999891 ] ] ] } },
{ "type": "Feature", "properties": { "HYRIV_ID": 41403952, "NEXT_DOWN": 41404110, "MAIN_RIV": 41404278, "LENGTH_KM": 1.5700001, "DIST_DN_KM": 14.3, "DIST_UP_KM": 35.700001, "CATCH_SKM": 3.1900001, "UPLAND_SKM": 208.2, "ENDORHEIC": 0, "DIS_AV_CMS": 5.5640001, "ORD_STRA": 3, "ORD_CLAS": 1, "ORD_FLOW": 6, "HYBAS_L12": 4120049110.0, "Shape_Length": 0.014225889843265133 }, "geometry": { "type": "MultiLineString", "coordinates": [ [ [ 79.877083333333047, 7.389583333333228 ], [ 79.868749999999665, 7.389583333333228 ], [ 79.864583333333002, 7.393749999999891 ] ] ] } },
{ "type": "Feature", "properties": { "HYRIV_ID": 41403953, "NEXT_DOWN": 41403952, "MAIN_RIV": 41404278, "LENGTH_KM": 3.79, "DIST_DN_KM": 15.9, "DIST_UP_KM": 10.5, "CATCH_SKM": 9.58, "UPLAND_SKM": 30.200001, "ENDORHEIC": 0, "DIS_AV_CMS": 0.783, "ORD_STRA": 2, "ORD_CLAS": 2, "ORD_FLOW": 7, "HYBAS_L12": 4120049110.0, "Shape_Length": 0.034344336196379208 }, "geometry": { "type": "MultiLineString", "coordinates": [ [ [ 79.906249999999744, 7.402083333333202 ], [ 79.897916666666362, 7.402083333333202 ], [ 79.893749999999699, 7.397916666666539 ], [ 79.889583333333036, 7.397916666666539 ], [ 79.885416666666373, 7.393749999999891 ], [ 79.881249999999596, 7.393749999999891 ], [ 79.877083333333047, 7.389583333333228 ] ] ] } },
{ "type": "Feature", "properties": { "HYRIV_ID": 41403954, "NEXT_DOWN": 41404011, "MAIN_RIV": 41404278, "LENGTH_KM": 6.9, "DIST_DN_KM": 24.0, "DIST_UP_KM": 9.2, "CATCH_SKM": 18.73, "UPLAND_SKM": 18.700001, "ENDORHEIC": 0, "DIS_AV_CMS": 0.491, "ORD_STRA": 1, "ORD_CLAS": 2, "ORD_FLOW": 7, "HYBAS_L12": 4121601630.0, "Shape_Length": 0.062438672392698936 }, "geometry": { "type": "MultiLineString", "coordinates": [ [ [ 79.983333333333093, 7.40625 ], [ 79.972916666666293, 7.40625 ], [ 79.960416666666305, 7.393749999999891 ], [ 79.956249999999642, 7.393749999999891 ], [ 79.952083333332979, 7.397916666666539 ], [ 79.943749999999596, 7.397916666666539 ], [ 79.93958333333299, 7.393749999999891 ], [ 79.935416666666271, 7.393749999999891 ], [ 79.931249999999778, 7.389583333333228 ] ] ] } },
{ "type": "Feature", "properties": { "HYRIV_ID": 41403966, "NEXT_DOWN": 41404044, "MAIN_RIV": 41404278, "LENGTH_KM": 0.98, "DIST_DN_KM": 40.200001, "DIST_UP_KM": 3.4, "CATCH_SKM": 7.2399998, "UPLAND_SKM": 7.2, "ENDORHEIC": 0, "DIS_AV_CMS": 0.192, "ORD_STRA": 1, "ORD_CLAS": 2, "ORD_FLOW": 7, "HYBAS_L12": 4121601630.0, "Shape_Length": 0.008838834764843902 }, "geometry": { "type": "MultiLineString", "coordinates": [ [ [ 80.049999999999642, 7.391666666666559 ], [ 80.043749999999619, 7.385416666666565 ] ] ] } },
{ "type": "Feature", "properties": { "HYRIV_ID": 41403967, "NEXT_DOWN": 41403986, "MAIN_RIV": 41404278, "LENGTH_KM": 0.69, "DIST_DN_KM": 42.200001, "DIST_UP_KM": 3.1, "CATCH_SKM": 4.04, "UPLAND_SKM": 4.0, "ENDORHEIC": 0, "DIS_AV_CMS": 0.11, "ORD_STRA": 1, "ORD_CLAS": 2, "ORD_FLOW": 7, "HYBAS_L12": 4121601630.0, "Shape_Length": 0.0062500000000795808 }, "geometry": { "type": "MultiLineString", "coordinates": [ [ [ 80.06666666666635, 7.385416666666565 ], [ 80.060416666666271, 7.385416666666565 ] ] ] } },
{ "type": "Feature", "properties": { "HYRIV_ID": 41403968, "NEXT_DOWN": 41403986, "MAIN_RIV": 41404278, "LENGTH_KM": 4.4899998, "DIST_DN_KM": 42.400002, "DIST_UP_KM": 7.6, "CATCH_SKM": 9.1499996, "UPLAND_SKM": 9.2, "ENDORHEIC": 0, "DIS_AV_CMS": 0.248, "ORD_STRA": 1, "ORD_CLAS": 1, "ORD_FLOW": 7, "HYBAS_L12": 4121601630.0, "Shape_Length": 0.040594336196359611 }, "geometry": { "type": "MultiLineString", "coordinates": [ [ [ 80.089583333332968, 7.383333333333191 ], [ 80.089583333332968, 7.389583333333228 ], [ 80.085416666666305, 7.393749999999891 ], [ 80.072916666666316, 7.393749999999891 ], [ 80.068749999999596, 7.389583333333228 ], [ 80.06458333333299, 7.389583333333228 ], [ 80.060416666666271, 7.385416666666565 ] ] ] } },
{ "type": "Feature", "properties": { "HYRIV_ID": 41403986, "NEXT_DOWN": 41404044, "MAIN_RIV": 41404278, "LENGTH_KM": 2.22, "DIST_DN_KM": 40.200001, "DIST_UP_KM": 9.8, "CATCH_SKM": 4.04, "UPLAND_SKM": 17.200001, "ENDORHEIC": 0, "DIS_AV_CMS": 0.466, "ORD_STRA": 2, "ORD_CLAS": 1, "ORD_FLOW": 7, "HYBAS_L12": 4121601630.0, "Shape_Length": 0.020118446353047777 }, "geometry": { "type": "MultiLineString", "coordinates": [ [ [ 80.060416666666271, 7.385416666666565 ], [ 80.056249999999778, 7.385416666666565 ], [ 80.052083333332945, 7.381249999999874 ], [ 80.047916666666396, 7.381249999999874 ], [ 80.043749999999619, 7.385416666666565 ] ] ] } },
{ "type": "Feature", "properties": { "HYRIV_ID": 41403996, "NEXT_DOWN": 41404011, "MAIN_RIV": 41404278, "LENGTH_KM": 3.34, "DIST_DN_KM": 24.0, "DIST_UP_KM": 26.0, "CATCH_SKM": 6.6, "UPLAND_SKM": 118.8, "ENDORHEIC": 0, "DIS_AV_CMS": 3.1949999, "ORD_STRA": 2, "ORD_CLAS": 1, "ORD_FLOW": 6, "HYBAS_L12": 4121601630.0, "Shape_Length": 0.03017766952957595 }, "geometry": { "type": "MultiLineString", "coordinates": [ [ [ 79.956249999999642, 7.377083333333211 ], [ 79.952083333332979, 7.381249999999874 ], [ 79.947916666666316, 7.381249999999874 ], [ 79.943749999999596, 7.385416666666565 ], [ 79.935416666666271, 7.385416666666565 ], [ 79.931249999999778, 7.389583333333228 ] ] ] } },
{ "type": "Feature", "properties": { "HYRIV_ID": 41404009, "NEXT_DOWN": 41403952, "MAIN_RIV": 41404278, "LENGTH_KM": 4.4499998, "DIST_DN_KM": 15.9, "DIST_UP_KM": 34.099998, "CATCH_SKM": 8.0900002, "UPLAND_SKM": 174.8, "ENDORHEIC": 0, "DIS_AV_CMS": 4.697, "ORD_STRA": 2, "ORD_CLAS": 1, "ORD_FLOW": 6, "HYBAS_L12": 4120049110.0, "Shape_Length": 0.040236892706161556 }, "geometry": { "type": "MultiLineString", "coordinates": [ [ [ 79.910416666666293, 7.372916666666548 ], [ 79.906249999999744, 7.377083333333211 ], [ 79.902083333333081, 7.377083333333211 ], [ 79.897916666666362, 7.381249999999874 ], [ 79.885416666666373, 7.381249999999874 ], [ 79.877083333333047, 7.389583333333228 ] ] ] } },
{ "type": "Feature", "properties": { "HYRIV_ID": 41404010, "NEXT_DOWN": 41404009, "MAIN_RIV": 41404278, "LENGTH_KM": 0.46, "DIST_DN_KM": 20.200001, "DIST_UP_KM": 29.8, "CATCH_SKM": 0.64, "UPLAND_SKM": 148.8, "ENDORHEIC": 0, "DIS_AV_CMS": 3.9890001, "ORD_STRA": 2, "ORD_CLAS": 1, "ORD_FLOW": 6, "HYBAS_L12": 4121601630.0, "Shape_Length": 0.0041666666666628771 }, "geometry": { "type": "MultiLineString", "coordinates": [ [ [ 79.914583333332956, 7.372916666666548 ], [ 79.910416666666293, 7.372916666666548 ] ] ] } },
{ "type": "Feature", "properties": { "HYRIV_ID": 41404011, "NEXT_DOWN": 41404010, "MAIN_RIV": 41404278, "LENGTH_KM": 3.1500001, "DIST_DN_KM": 20.8, "DIST_UP_KM": 29.200001, "CATCH_SKM": 6.1700001, "UPLAND_SKM": 143.7, "ENDORHEIC": 0, "DIS_AV_CMS": 3.8510001, "ORD_STRA": 2, "ORD_CLAS": 1, "ORD_FLOW": 6, "HYBAS_L12": 4121601630.0, "Shape_Length": 0.028451779686582235 }, "geometry": { "type": "MultiLineString", "coordinates": [ [ [ 79.931249999999778, 7.389583333333228 ], [ 79.922916666666396, 7.389583333333228 ], [ 79.918749999999619, 7.385416666666565 ], [ 79.918749999999619, 7.377083333333211 ], [ 79.914583333332956, 7.372916666666548 ] ] ] } },
{ "type": "Feature", "properties": { "HYRIV_ID": 41404025, "NEXT_DOWN": 41404010, "MAIN_RIV": 41404278, "LENGTH_KM": 0.46, "DIST_DN_KM": 20.6, "DIST_UP_KM": 4.5, "CATCH_SKM": 4.4699998, "UPLAND_SKM": 4.5, "ENDORHEIC": 0, "DIS_AV_CMS": 0.121, "ORD_STRA": 1, "ORD_CLAS": 2, "ORD_FLOW": 7, "HYBAS_L12": 4121601630.0, "Shape_Length": 0.0041666666666486663 }, "geometry": { "type": "MultiLineString", "coordinates": [ [ [ 79.914583333332956, 7.368749999999899 ], [ 79.914583333332956, 7.372916666666548 ] ] ] } },
{ "type": "Feature", "properties": { "HYRIV_ID": 41404026, "NEXT_DOWN": 41404042, "MAIN_RIV": 41404278, "LENGTH_KM": 6.27, "DIST_DN_KM": 32.5, "DIST_UP_KM": 8.5, "CATCH_SKM": 22.780001, "UPLAND_SKM": 22.8, "ENDORHEIC": 0, "DIS_AV_CMS": 0.602, "ORD_STRA": 1, "ORD_CLAS": 2, "ORD_FLOW": 7, "HYBAS_L12": 4121601630.0, "Shape_Length": 0.056546115882794165 }, "geometry": { "type": "MultiLineString", "coordinates": [ [ [ 80.018749999999699, 7.412499999999888 ], [ 80.018749999999699, 7.393749999999891 ], [ 80.014583333333036, 7.393749999999891 ], [ 80.00624999999971, 7.385416666666565 ], [ 80.00624999999971, 7.381249999999874 ], [ 79.993749999999665, 7.368749999999899 ] ] ] } },
{ "type": "Feature", "properties": { "HYRIV_ID": 41404041, "NEXT_DOWN": 41403996, "MAIN_RIV": 41404278, "LENGTH_KM": 1.91, "DIST_DN_KM": 27.1, "DIST_UP_KM": 4.3, "CATCH_SKM": 8.7299995, "UPLAND_SKM": 8.7, "ENDORHEIC": 0, "DIS_AV_CMS": 0.239, "ORD_STRA": 1, "ORD_CLAS": 2, "ORD_FLOW": 7, "HYBAS_L12": 4121601630.0, "Shape_Length": 0.017172168098225787 }, "geometry": { "type": "MultiLineString", "coordinates": [ [ [ 79.962499999999721, 7.362499999999862 ], [ 79.956249999999642, 7.368749999999899 ], [ 79.956249999999642, 7.377083333333211 ] ] ] } },
{ "type": "Feature", "properties": { "HYRIV_ID": 41404042, "NEXT_DOWN": 41403996, "MAIN_RIV": 41404278, "LENGTH_KM": 5.1799998, "DIST_DN_KM": 27.1, "DIST_UP_KM": 22.9, "CATCH_SKM": 15.97, "UPLAND_SKM": 103.5, "ENDORHEIC": 0, "DIS_AV_CMS": 2.78, "ORD_STRA": 2, "ORD_CLAS": 1, "ORD_FLOW": 6, "HYBAS_L12": 4121601630.0, "Shape_Length": 0.046844336196390675 }, "geometry": { "type": "MultiLineString", "coordinates": [ [ [ 79.993749999999665, 7.368749999999899 ], [ 79.989583333333002, 7.368749999999899 ], [ 79.985416666666339, 7.364583333333194 ], [ 79.977083333332956, 7.364583333333194 ], [ 79.972916666666293, 7.368749999999899 ], [ 79.972916666666293, 7.372916666666548 ], [ 79.968749999999631, 7.377083333333211 ], [ 79.956249999999642, 7.377083333333211 ] ] ] } },
{ "type": "Feature", "properties": { "HYRIV_ID": 41404043, "NEXT_DOWN": 41404042, "MAIN_RIV": 41404278, "LENGTH_KM": 4.64, "DIST_DN_KM": 32.5, "DIST_UP_KM": 17.5, "CATCH_SKM": 11.28, "UPLAND_SKM": 64.699997, "ENDORHEIC": 0, "DIS_AV_CMS": 1.748, "ORD_STRA": 2, "ORD_CLAS": 1, "ORD_FLOW": 6, "HYBAS_L12": 4121601630.0, "Shape_Length": 0.041962782549592237 }, "geometry": { "type": "MultiLineString", "coordinates": [ [ [ 80.027083333333024, 7.364583333333194 ], [ 80.022916666666362, 7.364583333333194 ], [ 80.018749999999699, 7.368749999999899 ], [ 80.014583333333036, 7.364583333333194 ], [ 80.010416666666373, 7.364583333333194 ], [ 80.00624999999971, 7.368749999999899 ], [ 80.00208333333299, 7.364583333333194 ], [ 79.997916666666328, 7.364583333333194 ], [ 79.993749999999665, 7.368749999999899 ] ] ] } },
{ "type": "Feature", "properties": { "HYRIV_ID": 41404044, "NEXT_DOWN": 41404043, "MAIN_RIV": 41404278, "LENGTH_KM": 3.07, "DIST_DN_KM": 37.099998, "DIST_UP_KM": 12.9, "CATCH_SKM": 9.1499996, "UPLAND_SKM": 33.599998, "ENDORHEIC": 0, "DIS_AV_CMS": 0.90200001, "ORD_STRA": 2, "ORD_CLAS": 1, "ORD_FLOW": 7, "HYBAS_L12": 4121601630.0, "Shape_Length": 0.027736892706193023 }, "geometry": { "type": "MultiLineString", "coordinates": [ [ [ 80.043749999999619, 7.385416666666565 ], [ 80.039583333332956, 7.381249999999874 ], [ 80.039583333332956, 7.377083333333211 ], [ 80.027083333333024, 7.364583333333194 ] ] ] } },
{ "type": "Feature", "properties": { "HYRIV_ID": 41404080, "NEXT_DOWN": 41404043, "MAIN_RIV": 41404278, "LENGTH_KM": 6.1300001, "DIST_DN_KM": 36.900002, "DIST_UP_KM": 10.1, "CATCH_SKM": 19.8, "UPLAND_SKM": 19.8, "ENDORHEIC": 0, "DIS_AV_CMS": 0.54400003, "ORD_STRA": 1, "ORD_CLAS": 2, "ORD_FLOW": 7, "HYBAS_L12": 4121601630.0, "Shape_Length": 0.055535113019683661 }, "geometry": { "type": "MultiLineString", "coordinates": [ [ [ 80.074999999999676, 7.360416666666531 ], [ 80.047916666666396, 7.360416666666531 ], [ 80.043749999999619, 7.356249999999882 ], [ 80.031249999999744, 7.356249999999882 ], [ 80.027083333333024, 7.360416666666531 ], [ 80.027083333333024, 7.364583333333194 ] ] ] } },
{ "type": "Feature", "properties": { "HYRIV_ID": 41404110, "NEXT_DOWN": 41404148, "MAIN_RIV": 41404278, "LENGTH_KM": 6.8800001, "DIST_DN_KM": 7.5, "DIST_UP_KM": 42.599998, "CATCH_SKM": 18.950001, "UPLAND_SKM": 254.0, "ENDORHEIC": 0, "DIS_AV_CMS": 6.743, "ORD_STRA": 3, "ORD_CLAS": 1, "ORD_FLOW": 6, "HYBAS_L12": 4120049110.0, "Shape_Length": 0.062081228902606839 }, "geometry": { "type": "MultiLineString", "coordinates": [ [ [ 79.864583333333002, 7.393749999999891 ], [ 79.860416666666339, 7.393749999999891 ], [ 79.852083333333013, 7.385416666666565 ], [ 79.852083333333013, 7.368749999999899 ], [ 79.843749999999631, 7.360416666666531 ], [ 79.856249999999676, 7.347916666666556 ] ] ] } },
{ "type": "Feature", "properties": { "HYRIV_ID": 41404111, "NEXT_DOWN": 41404148, "MAIN_RIV": 41404278, "LENGTH_KM": 4.9699998, "DIST_DN_KM": 7.3, "DIST_UP_KM": 7.7, "CATCH_SKM": 17.879999, "UPLAND_SKM": 17.9, "ENDORHEIC": 0, "DIS_AV_CMS": 0.48500001, "ORD_STRA": 1, "ORD_CLAS": 2, "ORD_FLOW": 7, "HYBAS_L12": 4120049110.0, "Shape_Length": 0.044909060804302389 }, "geometry": { "type": "MultiLineString", "coordinates": [ [ [ 79.887499999999619, 7.354166666666551 ], [ 79.881249999999596, 7.360416666666531 ], [ 79.872916666666328, 7.352083333333219 ], [ 79.868749999999665, 7.356249999999882 ], [ 79.864583333333002, 7.356249999999882 ], [ 79.860416666666339, 7.352083333333219 ], [ 79.856249999999676, 7.352083333333219 ], [ 79.856249999999676, 7.347916666666556 ] ] ] } },
{ "type": "Feature", "properties": { "HYRIV_ID": 41404148, "NEXT_DOWN": 41404278, "MAIN_RIV": 41404278, "LENGTH_KM": 1.39, "DIST_DN_KM": 5.9, "DIST_UP_KM": 44.099998, "CATCH_SKM": 2.1300001, "UPLAND_SKM": 274.0, "ENDORHEIC": 0, "DIS_AV_CMS": 7.2859998, "ORD_STRA": 3, "ORD_CLAS": 1, "ORD_FLOW": 6, "HYBAS_L12": 4120049110.0, "Shape_Length": 0.012500000000017053 }, "geometry": { "type": "MultiLineString", "coordinates": [ [ [ 79.856249999999676, 7.347916666666556 ], [ 79.856249999999676, 7.335416666666539 ] ] ] } },
{ "type": "Feature", "properties": { "HYRIV_ID": 41404149, "NEXT_DOWN": 41404278, "MAIN_RIV": 41404278, "LENGTH_KM": 0.69, "DIST_DN_KM": 5.9, "DIST_UP_KM": 2.9, "CATCH_SKM": 4.4699998, "UPLAND_SKM": 4.5, "ENDORHEIC": 0, "DIS_AV_CMS": 0.124, "ORD_STRA": 1, "ORD_CLAS": 2, "ORD_FLOW": 7, "HYBAS_L12": 4120049110.0, "Shape_Length": 0.0062499999999658939 }, "geometry": { "type": "MultiLineString", "coordinates": [ [ [ 79.862499999999642, 7.335416666666539 ], [ 79.856249999999676, 7.335416666666539 ] ] ] } },
{ "type": "Feature", "properties": { "HYRIV_ID": 41404167, "NEXT_DOWN": 41404009, "MAIN_RIV": 41404278, "LENGTH_KM": 6.46, "DIST_DN_KM": 20.200001, "DIST_UP_KM": 8.8, "CATCH_SKM": 17.879999, "UPLAND_SKM": 17.9, "ENDORHEIC": 0, "DIS_AV_CMS": 0.494, "ORD_STRA": 1, "ORD_CLAS": 2, "ORD_FLOW": 7, "HYBAS_L12": 4120049110.0, "Shape_Length": 0.058272005726048133 }, "geometry": { "type": "MultiLineString", "coordinates": [ [ [ 79.94166666666635, 7.331249999999876 ], [ 79.935416666666271, 7.331249999999876 ], [ 79.914583333332956, 7.352083333333219 ], [ 79.914583333332956, 7.364583333333194 ], [ 79.910416666666293, 7.368749999999899 ], [ 79.910416666666293, 7.372916666666548 ] ] ] } },
{ "type": "Feature", "properties": { "HYRIV_ID": 41404278, "NEXT_DOWN": 0, "MAIN_RIV": 41404278, "LENGTH_KM": 5.6500001, "DIST_DN_KM": 0.0, "DIST_UP_KM": 49.8, "CATCH_SKM": 12.56, "UPLAND_SKM": 290.39999, "ENDORHEIC": 0, "DIS_AV_CMS": 7.7410002, "ORD_STRA": 3, "ORD_CLAS": 1, "ORD_FLOW": 6, "HYBAS_L12": 4120049110.0, "Shape_Length": 0.051011002862999144 }, "geometry": { "type": "MultiLineString", "coordinates": [ [ [ 79.856249999999676, 7.335416666666539 ], [ 79.856249999999676, 7.327083333333228 ], [ 79.852083333333013, 7.322916666666522 ], [ 79.852083333333013, 7.314583333333211 ], [ 79.856249999999676, 7.310416666666548 ], [ 79.856249999999676, 7.306249999999885 ], [ 79.852083333333013, 7.302083333333236 ], [ 79.839583333332968, 7.302083333333236 ] ] ] } }
]
}
