{
"type": "FeatureCollection",
"name": "main_river_41409109",
"crs": { "type": "name", "properties": { "name": "urn:ogc:def:crs:OGC:1.3:CRS84" } },
"features": [
{ "type": "Feature", "properties": { "HYRIV_ID": 41408651, "NEXT_DOWN": 41408675, "MAIN_RIV": 41409109, "LENGTH_KM": 1.16, "DIST_DN_KM": 13.1, "DIST_UP_KM": 2.7, "CATCH_SKM": 3.4100001, "UPLAND_SKM": 3.4, "ENDORHEIC": 0, "DIS_AV_CMS": 0.16, "ORD_STRA": 1, "ORD_CLAS": 3, "ORD_FLOW": 7, "HYBAS_L12": 4120048970.0, "Shape_Length": 0.010416666666642982 }, "geometry": { "type": "MultiLineString", "coordinates": [ [ [ 80.081249999999642, 6.329166666666545 ], [ 80.081249999999642, 6.31875 ] ] ] } },
{ "type": "Feature", "properties": { "HYRIV_ID": 41408652, "NEXT_DOWN": 41408675, "MAIN_RIV": 41409109, "LENGTH_KM": 0.46, "DIST_DN_KM": 13.1, "DIST_UP_KM": 5.8, "CATCH_SKM": 1.28, "UPLAND_SKM": 20.1, "ENDORHEIC": 0, "DIS_AV_CMS": 0.95200002, "ORD_STRA": 2, "ORD_CLAS": 2, "ORD_FLOW": 7, "HYBAS_L12": 4120048970.0, "Shape_Length": 0.0041666666666628771 }, "geometry": { "type": "MultiLineString", "coordinates": [ [ [ 80.085416666666305, 6.31875 ], [ 80.081249999999642, 6.31875 ] ] ] } },
{ "type": "Feature", "properties": { "HYRIV_ID": 41408653, "NEXT_DOWN": 41408652, "MAIN_RIV": 41409109, "LENGTH_KM": 0.69, "DIST_DN_KM": 13.5, "DIST_UP_KM": 2.2, "CATCH_SKM": 2.99, "UPLAND_SKM": 3.0, "ENDORHEIC": 0, "DIS_AV_CMS": 0.14, "ORD_STRA": 1, "ORD_CLAS": 3, "ORD_FLOW": 7, "HYBAS_L12": 4120048970.0, "Shape_Length": 0.0062499999999943157 }, "geometry": { "type": "MultiLineString", "coordinates": [ [ [ 80.085416666666305, 6.324999999999896 ], [ 80.085416666666305, 6.31875 ] ] ] } },
{ "type": "Feature", "properties": { "HYRIV_ID": 41408674, "NEXT_DOWN": 41408739, "MAIN_RIV": 41409109, "LENGTH_KM": 1.81, "DIST_DN_KM": 12.4, "DIST_UP_KM": 3.8, "CATCH_SKM": 9.1700001, "UPLAND_SKM": 9.2, "ENDORHEIC": 0, "DIS_AV_CMS": 0.428, "ORD_STRA": 1, "ORD_CLAS": 3, "ORD_FLOW": 7, "HYBAS_L12": 4120048970.0, "Shape_Length": 0.016309223176579922 }, "geometry": { "type": "MultiLineString", "coordinates": [ [ [ 80.068749999999596, 6.324999999999896 ], [ 80.068749999999596, 6.31875 ], [ 80.072916666666316, 6.314583333333239 ], [ 80.077083333332979, 6.314583333333239 ] ] ] } },
{ "type": "Feature", "properties": { "HYRIV_ID": 41408675, "NEXT_DOWN": 41408739, "MAIN_RIV": 41409109, "LENGTH_KM": 0.65, "DIST_DN_KM": 12.6, "DIST_UP_KM": 6.2, "CATCH_SKM": 0.21, "UPLAND_SKM": 23.700001, "ENDORHEIC": 0, "DIS_AV_CMS": 1.124, "ORD_STRA": 2, "ORD_CLAS": 2, "ORD_FLOW": 6, "HYBAS_L12": 4120048970.0, "Shape_Length": 0.0058925565098825365 }, "geometry": { "type": "MultiLineString", "coordinates": [ [ [ 80.081249999999642, 6.31875 ], [ 80.077083333332979, 6.314583333333239 ] ] ] } },
{ "type": "Feature", "properties": { "HYRIV_ID": 41408676, "NEXT_DOWN": 41408652, "MAIN_RIV": 41409109, "LENGTH_KM": 1.5700001, "DIST_DN_KM": 13.7, "DIST_UP_KM": 5.1, "CATCH_SKM": 2.77, "UPLAND_SKM": 15.8, "ENDORHEIC": 0, "DIS_AV_CMS": 0.75, "ORD_STRA": 2, "ORD_CLAS": 2, "ORD_FLOW": 7, "HYBAS_L12": 4120048970.0, "Shape_Length": 0.01422588984320829 }, "geometry": { "type": "MultiLineString", "coordinates": [ [ [ 80.097916666666293, 6.314583333333239 ], [ 80.089583333332968, 6.314583333333239 ], [ 80.085416666666305, 6.31875 ] ] ] } },
{ "type": "Feature", "properties": { "HYRIV_ID": 41408677, "NEXT_DOWN": 41408676, "MAIN_RIV": 41409109, "LENGTH_KM": 1.35, "DIST_DN_KM": 15.3, "DIST_UP_KM": 3.2, "CATCH_SKM": 4.6900001, "UPLAND_SKM": 4.7, "ENDORHEIC": 0, "DIS_AV_CMS": 0.222, "ORD_STRA": 1, "ORD_CLAS": 3, "ORD_FLOW": 7, "HYBAS_L12": 4120048970.0, "Shape_Length": 0.012142556509876851 }, "geometry": { "type": "MultiLineString", "coordinates": [ [ [ 80.102083333332956, 6.324999999999896 ], [ 80.102083333332956, 6.31875 ], [ 80.097916666666293, 6.314583333333239 ] ] ] } },
{ "type": "Feature", "properties": { "HYRIV_ID": 41408678, "NEXT_DOWN": 41408676, "MAIN_RIV": 41409109, "LENGTH_KM": 0.46, "DIST_DN_KM": 15.1, "DIST_UP_KM": 3.7, "CATCH_SKM": 0.43, "UPLAND_SKM": 8.3, "ENDORHEIC": 0, "DIS_AV_CMS": 0.39300001, "ORD_STRA": 2, "ORD_CLAS": 2, "ORD_FLOW": 7, "HYBAS_L12": 4120048970.0, "Shape_Length": 0.0041666666666628771 }, "geometry": { "type": "MultiLineString", "coordinates": [ [ [ 80.102083333332956, 6.314583333333239 ], [ 80.097916666666293, 6.314583333333239 ] ] ] } },
{ "type": "Feature", "properties": { "HYRIV_ID": 41408702, "NEXT_DOWN": 41408678, "MAIN_RIV": 41409109, "LENGTH_KM": 0.69, "DIST_DN_KM": 15.6, "DIST_UP_KM": 2.2, "CATCH_SKM": 2.56, "UPLAND_SKM": 2.6, "ENDORHEIC": 0, "DIS_AV_CMS": 0.12, "ORD_STRA": 1, "ORD_CLAS": 3, "ORD_FLOW": 7, "HYBAS_L12": 4120048970.0, "Shape_Length": 0.0062500000000227374 }, "geometry": { "type": "MultiLineString", "coordinates": [ [ [ 80.102083333332956, 6.308333333333216 ], [ 80.102083333332956, 6.314583333333239 ] ] ] } },
{ "type": "Feature", "properties": { "HYRIV_ID": 41408718, "NEXT_DOWN": 41408678, "MAIN_RIV": 41409109, "LENGTH_KM": 2.29, "DIST_DN_KM": 15.7, "DIST_UP_KM": 3.1, "CATCH_SKM": 5.33, "UPLAND_SKM": 5.3, "ENDORHEIC": 0, "DIS_AV_CMS": 0.252, "ORD_STRA": 1, "ORD_CLAS": 2, "ORD_FLOW": 7, "HYBAS_L12": 4120048970.0, "Shape_Length": 0.020623947784659216 }, "geometry": { "type": "MultiLineString", "coordinates": [ [ [ 80.116666666666305, 6.3125 ], [ 80.110416666666339, 6.306249999999885 ], [ 80.102083333332956, 6.314583333333239 ] ] ] } },
{ "type": "Feature", "properties": { "HYRIV_ID": 41408738, "NEXT_DOWN": 41408871, "MAIN_RIV": 41409109, "LENGTH_KM": 7.1900001, "DIST_DN_KM": 11.0, "DIST_UP_KM": 8.7, "CATCH_SKM": 8.5299997, "UPLAND_SKM": 8.5, "ENDORHEIC": 0, "DIS_AV_CMS": 0.40200001, "ORD_STRA": 1, "ORD_CLAS": 1, "ORD_FLOW": 7, "HYBAS_L12": 4120048970.0, "Shape_Length": 0.064879449216199592 }, "geometry": { "type": "MultiLineString", "coordinates": [ [ [ 80.047916666666396, 6.33333333333325 ], [ 80.047916666666396, 6.327083333333213 ], [ 80.039583333332956, 6.31875 ], [ 80.047916666666396, 6.31041666666659 ], [ 80.047916666666396, 6.306249999999885 ], [ 80.068749999999596, 6.306249999999885 ], [ 80.072916666666316, 6.302083333333222 ], [ 80.077083333332979, 6.302083333333222 ] ] ] } },
{ "type": "Feature", "properties": { "HYRIV_ID": 41408739, "NEXT_DOWN": 41408871, "MAIN_RIV": 41409109, "LENGTH_KM": 1.39, "DIST_DN_KM": 11.0, "DIST_UP_KM": 7.8, "CATCH_SKM": 2.77, "UPLAND_SKM": 35.599998, "ENDORHEIC": 0, "DIS_AV_CMS": 1.694, "ORD_STRA": 2, "ORD_CLAS": 2, "ORD_FLOW": 6, "HYBAS_L12": 4120048970.0, "Shape_Length": 0.012500000000017053 }, "geometry": { "type": "MultiLineString", "coordinates": [ [ [ 80.077083333332979, 6.314583333333239 ], [ 80.077083333332979, 6.302083333333222 ] ] ] } },
{ "type": "Feature", "properties": { "HYRIV_ID": 41408870, "NEXT_DOWN": 41408943, "MAIN_RIV": 41409109, "LENGTH_KM": 0.69, "DIST_DN_KM": 7.2, "DIST_UP_KM": 4.1, "CATCH_SKM": 5.12, "UPLAND_SKM": 5.1, "ENDORHEIC": 0, "DIS_AV_CMS": 0.237, "ORD_STRA": 1, "ORD_CLAS": 2, "ORD_FLOW": 7, "HYBAS_L12": 4120048970.0, "Shape_Length": 0.0062499999999658939 }, "geometry": { "type": "MultiLineString", "coordinates": [ [ [ 80.058333333333024, 6.272916666666582 ], [ 80.06458333333299, 6.272916666666582 ] ] ] } },
{ "type": "Feature", "properties": { "HYRIV_ID": 41408871, "NEXT_DOWN": 41408943, "MAIN_RIV": 41409109, "LENGTH_KM": 3.81, "DIST_DN_KM": 7.2, "DIST_UP_KM": 12.5, "CATCH_SKM": 12.59, "UPLAND_SKM": 56.8, "ENDORHEIC": 0, "DIS_AV_CMS": 2.7249999, "ORD_STRA": 2, "ORD_CLAS": 1, "ORD_FLOW": 6, "HYBAS_L12": 4120048970.0, "Shape_Length": 0.034344336196290792 }, "geometry": { "type": "MultiLineString", "coordinates": [ [ [ 80.077083333332979, 6.302083333333222 ], [ 80.077083333332979, 6.289583333333248 ], [ 80.06458333333299, 6.277083333333231 ], [ 80.06458333333299, 6.272916666666582 ] ] ] } },
{ "type": "Feature", "properties": { "HYRIV_ID": 41408896, "NEXT_DOWN": 41408944, "MAIN_RIV": 41409109, "LENGTH_KM": 2.96, "DIST_DN_KM": 7.4, "DIST_UP_KM": 7.6, "CATCH_SKM": 5.12, "UPLAND_SKM": 19.4, "ENDORHEIC": 0, "DIS_AV_CMS": 0.927, "ORD_STRA": 2, "ORD_CLAS": 3, "ORD_FLOW": 7, "HYBAS_L12": 4120048970.0, "Shape_Length": 0.026725889843253765 }, "geometry": { "type": "MultiLineString", "coordinates": [ [ [ 80.114583333333002, 6.264583333333213 ], [ 80.106249999999619, 6.264583333333213 ], [ 80.102083333332956, 6.268749999999876 ], [ 80.089583333332968, 6.268749999999876 ] ] ] } },
{ "type": "Feature", "properties": { "HYRIV_ID": 41408897, "NEXT_DOWN": 41408896, "MAIN_RIV": 41409109, "LENGTH_KM": 1.15, "DIST_DN_KM": 10.3, "DIST_UP_KM": 3.1, "CATCH_SKM": 5.7600002, "UPLAND_SKM": 5.8, "ENDORHEIC": 0, "DIS_AV_CMS": 0.273, "ORD_STRA": 1, "ORD_CLAS": 4, "ORD_FLOW": 7, "HYBAS_L12": 4120048970.0, "Shape_Length": 0.010416666666628771 }, "geometry": { "type": "MultiLineString", "coordinates": [ [ [ 80.124999999999631, 6.264583333333213 ], [ 80.114583333333002, 6.264583333333213 ] ] ] } },
{ "type": "Feature", "properties": { "HYRIV_ID": 41408898, "NEXT_DOWN": 41408944, "MAIN_RIV": 41409109, "LENGTH_KM": 9.0500002, "DIST_DN_KM": 7.6, "DIST_UP_KM": 10.8, "CATCH_SKM": 17.280001, "UPLAND_SKM": 17.3, "ENDORHEIC": 0, "DIS_AV_CMS": 0.83099997, "ORD_STRA": 1, "ORD_CLAS": 2, "ORD_FLOW": 7, "HYBAS_L12": 4120048970.0, "Shape_Length": 0.081694173824214553 }, "geometry": { "type": "MultiLineString", "coordinates": [ [ [ 80.149999999999665, 6.262499999999882 ], [ 80.143749999999699, 6.268749999999876 ], [ 80.143749999999699, 6.272916666666582 ], [ 80.131249999999653, 6.285416666666556 ], [ 80.106249999999619, 6.285416666666556 ], [ 80.102083333332956, 6.281249999999893 ], [ 80.097916666666293, 6.281249999999893 ], [ 80.097916666666293, 6.277083333333231 ], [ 80.089583333332968, 6.268749999999876 ] ] ] } },
{ "type": "Feature", "properties": { "HYRIV_ID": 41408943, "NEXT_DOWN": 41408969, "MAIN_RIV": 41409109, "LENGTH_KM": 2.23, "DIST_DN_KM": 5.2, "DIST_UP_KM": 14.6, "CATCH_SKM": 4.0500002, "UPLAND_SKM": 65.900002, "ENDORHEIC": 0, "DIS_AV_CMS": 3.181, "ORD_STRA": 2, "ORD_CLAS": 1, "ORD_FLOW": 6, "HYBAS_L12": 4120048970.0, "Shape_Length": 0.020118446353123411 }, "geometry": { "type": "MultiLineString", "coordinates": [ [ [ 80.06458333333299, 6.272916666666582 ], [ 80.06458333333299, 6.264583333333213 ], [ 80.072916666666316, 6.25625 ] ] ] } },
{ "type": "Feature", "properties": { "HYRIV_ID": 41408944, "NEXT_DOWN": 41408969, "MAIN_RIV": 41409109, "LENGTH_KM": 2.4200001, "DIST_DN_KM": 5.2, "DIST_UP_KM": 13.2, "CATCH_SKM": 5.5500002, "UPLAND_SKM": 42.200001, "ENDORHEIC": 0, "DIS_AV_CMS": 2.036, "ORD_STRA": 2, "ORD_CLAS": 2, "ORD_FLOW": 6, "HYBAS_L12": 4120048970.0, "Shape_Length": 0.02184433619630044 }, "geometry": { "type": "MultiLineString", "coordinates": [ [ [ 80.089583333332968, 6.268749999999876 ], [ 80.085416666666305, 6.268749999999876 ], [ 80.072916666666316, 6.25625 ] ] ] } },
{ "type": "Feature", "properties": { "HYRIV_ID": 41408969, "NEXT_DOWN": 41409060, "MAIN_RIV": 41409109, "LENGTH_KM": 0.46, "DIST_DN_KM": 4.5, "DIST_UP_KM": 15.2, "CATCH_SKM": 1.0700001, "UPLAND_SKM": 109.2, "ENDORHEIC": 0, "DIS_AV_CMS": 5.2810001, "ORD_STRA": 3, "ORD_CLAS": 1, "ORD_FLOW": 6, "HYBAS_L12": 4120048970.0, "Shape_Length": 0.0041666666666628771 }, "geometry": { "type": "MultiLineString", "coordinates": [ [ [ 80.072916666666316, 6.25625 ], [ 80.072916666666316, 6.252083333333239 ] ] ] } },
{ "type": "Feature", "properties": { "HYRIV_ID": 41409005, "NEXT_DOWN": 41409060, "MAIN_RIV": 41409109, "LENGTH_KM": 2.09, "DIST_DN_KM": 4.5, "DIST_UP_KM": 4.2, "CATCH_SKM": 4.0500002, "UPLAND_SKM": 4.1, "ENDORHEIC": 0, "DIS_AV_CMS": 0.19, "ORD_STRA": 1, "ORD_CLAS": 2, "ORD_FLOW": 7, "HYBAS_L12": 4120048970.0, "Shape_Length": 0.018898057941449609 }, "geometry": { "type": "MultiLineString", "coordinates": [ [ [ 80.087499999999721, 6.241666666666553 ], [ 80.077083333332979, 6.252083333333239 ], [ 80.072916666666316, 6.252083333333239 ] ] ] } },
{ "type": "Feature", "properties": { "HYRIV_ID": 41409006, "NEXT_DOWN": 41408896, "MAIN_RIV": 41409109, "LENGTH_KM": 2.9300001, "DIST_DN_KM": 10.3, "DIST_UP_KM": 4.7, "CATCH_SKM": 8.54, "UPLAND_SKM": 8.5, "ENDORHEIC": 0, "DIS_AV_CMS": 0.40200001, "ORD_STRA": 1, "ORD_CLAS": 3, "ORD_FLOW": 7, "HYBAS_L12": 4120048970.0, "Shape_Length": 0.026368446353099352 }, "geometry": { "type": "MultiLineString", "coordinates": [ [ [ 80.122916666666328, 6.241666666666553 ], [ 80.122916666666328, 6.247916666666576 ], [ 80.118749999999665, 6.252083333333239 ], [ 80.118749999999665, 6.25625 ], [ 80.114583333333002, 6.260416666666565 ], [ 80.114583333333002, 6.264583333333213 ] ] ] } },
{ "type": "Feature", "properties": { "HYRIV_ID": 41409060, "NEXT_DOWN": 41409109, "MAIN_RIV": 41409109, "LENGTH_KM": 2.51, "DIST_DN_KM": 2.0, "DIST_UP_KM": 17.700001, "CATCH_SKM": 4.9099998, "UPLAND_SKM": 118.2, "ENDORHEIC": 0, "DIS_AV_CMS": 5.7719998, "ORD_STRA": 3, "ORD_CLAS": 1, "ORD_FLOW": 6, "HYBAS_L12": 4120048970.0, "Shape_Length": 0.022559223176588449 }, "geometry": { "type": "MultiLineString", "coordinates": [ [ [ 80.072916666666316, 6.252083333333239 ], [ 80.068749999999596, 6.247916666666576 ], [ 80.068749999999596, 6.23125 ] ] ] } },
{ "type": "Feature", "properties": { "HYRIV_ID": 41409082, "NEXT_DOWN": 41409109, "MAIN_RIV": 41409109, "LENGTH_KM": 1.5700001, "DIST_DN_KM": 2.2, "DIST_UP_KM": 8.3, "CATCH_SKM": 3.4100001, "UPLAND_SKM": 28.200001, "ENDORHEIC": 0, "DIS_AV_CMS": 1.33, "ORD_STRA": 2, "ORD_CLAS": 2, "ORD_FLOW": 6, "HYBAS_L12": 4120048970.0, "Shape_Length": 0.014225889843248485 }, "geometry": { "type": "MultiLineString", "coordinates": [ [ [ 80.081249999999642, 6.227083333333248 ], [ 80.072916666666316, 6.227083333333248 ], [ 80.068749999999596, 6.23125 ] ] ] } },
{ "type": "Feature", "properties": { "HYRIV_ID": 41409083, "NEXT_DOWN": 41409082, "MAIN_RIV": 41409109, "LENGTH_KM": 2.27, "DIST_DN_KM": 3.6, "DIST_UP_KM": 3.8, "CATCH_SKM": 5.7600002, "UPLAND_SKM": 5.8, "ENDORHEIC": 0, "DIS_AV_CMS": 0.269, "ORD_STRA": 1, "ORD_CLAS": 3, "ORD_FLOW": 7, "HYBAS_L12": 4120048970.0, "Shape_Length": 0.020475889843174184 }, "geometry": { "type": "MultiLineString", "coordinates": [ [ [ 80.099999999999596, 6.23125 ], [ 80.089583333332968, 6.23125 ], [ 80.085416666666305, 6.227083333333248 ], [ 80.081249999999642, 6.227083333333248 ] ] ] } },
{ "type": "Feature", "properties": { "HYRIV_ID": 41409109, "NEXT_DOWN": 0, "MAIN_RIV": 41409109, "LENGTH_KM": 1.77, "DIST_DN_KM": 0.0, "DIST_UP_KM": 19.5, "CATCH_SKM": 3.2, "UPLAND_SKM": 148.89999, "ENDORHEIC": 0, "DIS_AV_CMS": 7.277, "ORD_STRA": 3, "ORD_CLAS": 1, "ORD_FLOW": 6, "HYBAS_L12": 4120048970.0, "Shape_Length": 0.015951779686257418 }, "geometry": { "type": "MultiLineString", "coordinates": [ [ [ 80.068749999999596, 6.23125 ], [ 80.060416666666271, 6.222916666666585 ], [ 80.056249999999778, 6.222916666666585 ] ] ] } },
{ "type": "Feature", "properties": { "HYRIV_ID": 41409176, "NEXT_DOWN": 41409082, "MAIN_RIV": 41409109, "LENGTH_KM": 2.4200001, "DIST_DN_KM": 3.8, "DIST_UP_KM": 6.7, "CATCH_SKM": 4.9099998, "UPLAND_SKM": 19.0, "ENDORHEIC": 0, "DIS_AV_CMS": 0.89300001, "ORD_STRA": 2, "ORD_CLAS": 2, "ORD_FLOW": 7, "HYBAS_L12": 4120048970.0, "Shape_Length": 0.021844336196330583 }, "geometry": { "type": "MultiLineString", "coordinates": [ [ [ 80.093749999999631, 6.210416666666568 ], [ 80.093749999999631, 6.214583333333231 ], [ 80.081249999999642, 6.227083333333248 ] ] ] } },
{ "type": "Feature", "properties": { "HYRIV_ID": 41409177, "NEXT_DOWN": 41409176, "MAIN_RIV": 41409109, "LENGTH_KM": 0.46, "DIST_DN_KM": 6.0, "DIST_UP_KM": 4.5, "CATCH_SKM": 2.35, "UPLAND_SKM": 11.5, "ENDORHEIC": 0, "DIS_AV_CMS": 0.53899997, "ORD_STRA": 2, "ORD_CLAS": 2, "ORD_FLOW": 7, "HYBAS_L12": 4120048970.0, "Shape_Length": 0.0041666666666628771 }, "geometry": { "type": "MultiLineString", "coordinates": [ [ [ 80.097916666666293, 6.210416666666568 ], [ 80.093749999999631, 6.210416666666568 ] ] ] } },
{ "type": "Feature", "properties": { "HYRIV_ID": 41409178, "NEXT_DOWN": 41409177, "MAIN_RIV": 41409109, "LENGTH_KM": 2.75, "DIST_DN_KM": 6.6, "DIST_UP_KM": 3.8, "CATCH_SKM": 4.9099998, "UPLAND_SKM": 4.9, "ENDORHEIC": 0, "DIS_AV_CMS": 0.23, "ORD_STRA": 1, "ORD_CLAS": 2, "ORD_FLOW": 7, "HYBAS_L12": 4120048970.0, "Shape_Length": 0.024790614451308597 }, "geometry": { "type": "MultiLineString", "coordinates": [ [ [ 80.116666666666305, 6.225 ], [ 80.110416666666339, 6.21875 ], [ 80.106249999999619, 6.21875 ], [ 80.097916666666293, 6.210416666666568 ] ] ] } },
{ "type": "Feature", "properties": { "HYRIV_ID": 41409179, "NEXT_DOWN": 41409177, "MAIN_RIV": 41409109, "LENGTH_KM": 1.61, "DIST_DN_KM": 6.5, "DIST_UP_KM": 3.3, "CATCH_SKM": 4.27, "UPLAND_SKM": 4.3, "ENDORHEIC": 0, "DIS_AV_CMS": 0.199, "ORD_STRA": 1, "ORD_CLAS": 3, "ORD_FLOW": 7, "HYBAS_L12": 4120048970.0, "Shape_Length": 0.014583333333462178 }, "geometry": { "type": "MultiLineString", "coordinates": [ [ [ 80.112499999999756, 6.210416666666568 ], [ 80.097916666666293, 6.210416666666568 ] ] ] } },
{ "type": "Feature", "properties": { "HYRIV_ID": 41409211, "NEXT_DOWN": 41409176, "MAIN_RIV": 41409109, "LENGTH_KM": 0.69, "DIST_DN_KM": 6.0, "DIST_UP_KM": 2.0, "CATCH_SKM": 2.56, "UPLAND_SKM": 2.6, "ENDORHEIC": 0, "DIS_AV_CMS": 0.118, "ORD_STRA": 1, "ORD_CLAS": 3, "ORD_FLOW": 7, "HYBAS_L12": 4120048970.0, "Shape_Length": 0.0062500000000227374 }, "geometry": { "type": "MultiLineString", "coordinates": [ [ [ 80.093749999999631, 6.204166666666545 ], [ 80.093749999999631, 6.210416666666568 ] ] ] } }
]
}
