{
"type": "FeatureCollection",
"name": "main_river_41403039",
"crs": { "type": "name", "properties": { "name": "urn:ogc:def:crs:OGC:1.3:CRS84" } },
"features": [
{ "type": "Feature", "properties": { "HYRIV_ID": 41403039, "NEXT_DOWN": 0, "MAIN_RIV": 41403039, "LENGTH_KM": 1.76, "DIST_DN_KM": 0.0, "DIST_UP_KM": 19.3, "CATCH_SKM": 4.25, "UPLAND_SKM": 93.599998, "ENDORHEIC": 0, "DIS_AV_CMS": 2.174, "ORD_STRA": 2, "ORD_CLAS": 1, "ORD_FLOW": 6, "HYBAS_L12": 4120049790.0, "Shape_Length": 0.015951779686448047 }, "geometry": { "type": "Polygon", "coordinates": [ ] } },
{ "type": "Feature", "properties": { "HYRIV_ID": 41403056, "NEXT_DOWN": 41403039, "MAIN_RIV": 41403039, "LENGTH_KM": 7.0700002, "DIST_DN_KM": 1.9, "DIST_UP_KM": 9.6, "CATCH_SKM": 17.02, "UPLAND_SKM": 17.0, "ENDORHEIC": 0, "DIS_AV_CMS": 0.4, "ORD_STRA": 1, "ORD_CLAS": 2, "ORD_FLOW": 7, "HYBAS_L12": 4120049790.0, "Shape_Length": 0.064016504294599944 }, "geometry": { "type": "Polygon", "coordinates": [ ] } },
{ "type": "Feature", "properties": { "HYRIV_ID": 41403078, "NEXT_DOWN": 41403039, "MAIN_RIV": 41403039, "LENGTH_KM": 1.76, "DIST_DN_KM": 2.1, "DIST_UP_KM": 17.6, "CATCH_SKM": 3.1900001, "UPLAND_SKM": 73.199997, "ENDORHEIC": 0, "DIS_AV_CMS": 1.701, "ORD_STRA": 2, "ORD_CLAS": 1, "ORD_FLOW": 6, "HYBAS_L12": 4120049790.0, "Shape_Length": 0.015951779686417901 }, "geometry": { "type": "Polygon", "coordinates": [ ] } },
{ "type": "Feature", "properties": { "HYRIV_ID": 41403128, "NEXT_DOWN": 41403078, "MAIN_RIV": 41403039, "LENGTH_KM": 4.1799998, "DIST_DN_KM": 3.9, "DIST_UP_KM": 15.8, "CATCH_SKM": 7.6599998, "UPLAND_SKM": 61.3, "ENDORHEIC": 0, "DIS_AV_CMS": 1.424, "ORD_STRA": 2, "ORD_CLAS": 1, "ORD_FLOW": 6, "HYBAS_L12": 4120049790.0, "Shape_Length": 0.037796115882745326 }, "geometry": { "type": "Polygon", "coordinates": [ ] } },
{ "type": "Feature", "properties": { "HYRIV_ID": 41403136, "NEXT_DOWN": 41403128, "MAIN_RIV": 41403039, "LENGTH_KM": 1.96, "DIST_DN_KM": 8.0, "DIST_UP_KM": 11.6, "CATCH_SKM": 3.1900001, "UPLAND_SKM": 40.0, "ENDORHEIC": 0, "DIS_AV_CMS": 0.93300003, "ORD_STRA": 2, "ORD_CLAS": 1, "ORD_FLOW": 7, "HYBAS_L12": 4120049790.0, "Shape_Length": 0.017677669529607417 }, "geometry": { "type": "Polygon", "coordinates": [ ] } },
{ "type": "Feature", "properties": { "HYRIV_ID": 41403137, "NEXT_DOWN": 41403078, "MAIN_RIV": 41403039, "LENGTH_KM": 2.27, "DIST_DN_KM": 3.9, "DIST_UP_KM": 5.5, "CATCH_SKM": 8.7200003, "UPLAND_SKM": 8.7, "ENDORHEIC": 0, "DIS_AV_CMS": 0.206, "ORD_STRA": 1, "ORD_CLAS": 2, "ORD_FLOW": 7, "HYBAS_L12": 4120049790.0, "Shape_Length": 0.020475889843231027 }, "geometry": { "type": "Polygon", "coordinates": [ ] } },
{ "type": "Feature", "properties": { "HYRIV_ID": 41403238, "NEXT_DOWN": 41403136, "MAIN_RIV": 41403039, "LENGTH_KM": 6.98, "DIST_DN_KM": 9.8, "DIST_UP_KM": 9.0, "CATCH_SKM": 18.09, "UPLAND_SKM": 18.1, "ENDORHEIC": 0, "DIS_AV_CMS": 0.422, "ORD_STRA": 1, "ORD_CLAS": 2, "ORD_FLOW": 7, "HYBAS_L12": 4120049790.0, "Shape_Length": 0.063153559372930407 }, "geometry": { "type": "Polygon", "coordinates": [ ] } },
{ "type": "Feature", "properties": { "HYRIV_ID": 41403250, "NEXT_DOWN": 41403128, "MAIN_RIV": 41403039, "LENGTH_KM": 4.6, "DIST_DN_KM": 7.8, "DIST_UP_KM": 7.6, "CATCH_SKM": 13.62, "UPLAND_SKM": 13.6, "ENDORHEIC": 0, "DIS_AV_CMS": 0.32, "ORD_STRA": 1, "ORD_CLAS": 2, "ORD_FLOW": 7, "HYBAS_L12": 4120049790.0, "Shape_Length": 0.041457281117884895 }, "geometry": { "type": "Polygon", "coordinates": [ ] } },
{ "type": "Feature", "properties": { "HYRIV_ID": 41403309, "NEXT_DOWN": 41403136, "MAIN_RIV": 41403039, "LENGTH_KM": 7.75, "DIST_DN_KM": 9.8, "DIST_UP_KM": 9.8, "CATCH_SKM": 18.73, "UPLAND_SKM": 18.700001, "ENDORHEIC": 0, "DIS_AV_CMS": 0.438, "ORD_STRA": 1, "ORD_CLAS": 1, "ORD_FLOW": 7, "HYBAS_L12": 4120049790.0, "Shape_Length": 0.069909060804444589 }, "geometry": { "type": "Polygon", "coordinates": [ ] } }
]
}
