{
"type": "FeatureCollection",
"name": "main_river_41408473",
"crs": { "type": "name", "properties": { "name": "urn:ogc:def:crs:OGC:1.3:CRS84" } },
"features": [
{ "type": "Feature", "properties": { "HYRIV_ID": 41405814, "NEXT_DOWN": 41405942, "MAIN_RIV": 41408473, "LENGTH_KM": 2.09, "DIST_DN_KM": 99.599998, "DIST_UP_KM": 4.4, "CATCH_SKM": 8.9499998, "UPLAND_SKM": 8.9, "ENDORHEIC": 0, "DIS_AV_CMS": 0.222, "ORD_STRA": 1, "ORD_CLAS": 2, "ORD_FLOW": 7, "HYBAS_L12": 4121159190.0, "Shape_Length": 0.018898057941339072 }, "geometry": { "type": "MultiLineString", "coordinates": [ [ [ 81.174999999999699, 6.929166666666539 ], [ 81.185416666666328, 6.918749999999896 ], [ 81.18958333333299, 6.918749999999896 ] ] ] } },
{ "type": "Feature", "properties": { "HYRIV_ID": 41405815, "NEXT_DOWN": 41405942, "MAIN_RIV": 41408473, "LENGTH_KM": 1.35, "DIST_DN_KM": 99.800003, "DIST_UP_KM": 4.0, "CATCH_SKM": 6.39, "UPLAND_SKM": 6.4, "ENDORHEIC": 0, "DIS_AV_CMS": 0.15700001, "ORD_STRA": 1, "ORD_CLAS": 3, "ORD_FLOW": 7, "HYBAS_L12": 4121159190.0, "Shape_Length": 0.01214255650986264 }, "geometry": { "type": "MultiLineString", "coordinates": [ [ [ 81.193749999999653, 6.929166666666539 ], [ 81.193749999999653, 6.922916666666559 ], [ 81.18958333333299, 6.918749999999896 ] ] ] } },
{ "type": "Feature", "properties": { "HYRIV_ID": 41405896, "NEXT_DOWN": 41406039, "MAIN_RIV": 41408473, "LENGTH_KM": 1.61, "DIST_DN_KM": 102.1, "DIST_UP_KM": 4.1, "CATCH_SKM": 8.5200005, "UPLAND_SKM": 8.5, "ENDORHEIC": 0, "DIS_AV_CMS": 0.221, "ORD_STRA": 1, "ORD_CLAS": 2, "ORD_FLOW": 7, "HYBAS_L12": 4121159190.0, "Shape_Length": 0.014583333333234805 }, "geometry": { "type": "MultiLineString", "coordinates": [ [ [ 81.133333333333013, 6.897916666666568 ], [ 81.147916666666248, 6.897916666666568 ] ] ] } },
{ "type": "Feature", "properties": { "HYRIV_ID": 41405897, "NEXT_DOWN": 41406039, "MAIN_RIV": 41408473, "LENGTH_KM": 1.34, "DIST_DN_KM": 102.3, "DIST_UP_KM": 4.1, "CATCH_SKM": 8.3100004, "UPLAND_SKM": 8.3, "ENDORHEIC": 0, "DIS_AV_CMS": 0.214, "ORD_STRA": 1, "ORD_CLAS": 1, "ORD_FLOW": 7, "HYBAS_L12": 4121159190.0, "Shape_Length": 0.012142556509798189 }, "geometry": { "type": "MultiLineString", "coordinates": [ [ [ 81.137499999999676, 6.902083333333216 ], [ 81.143749999999642, 6.902083333333216 ], [ 81.147916666666248, 6.897916666666568 ] ] ] } },
{ "type": "Feature", "properties": { "HYRIV_ID": 41405941, "NEXT_DOWN": 41405998, "MAIN_RIV": 41408473, "LENGTH_KM": 3.3800001, "DIST_DN_KM": 96.0, "DIST_UP_KM": 6.7, "CATCH_SKM": 11.08, "UPLAND_SKM": 11.1, "ENDORHEIC": 0, "DIS_AV_CMS": 0.274, "ORD_STRA": 1, "ORD_CLAS": 3, "ORD_FLOW": 7, "HYBAS_L12": 4121159190.0, "Shape_Length": 0.030535113019774004 }, "geometry": { "type": "MultiLineString", "coordinates": [ [ [ 81.177083333332945, 6.904166666666548 ], [ 81.177083333332945, 6.897916666666568 ], [ 81.185416666666328, 6.889583333333242 ], [ 81.197916666666316, 6.889583333333242 ] ] ] } },
{ "type": "Feature", "properties": { "HYRIV_ID": 41405942, "NEXT_DOWN": 41405998, "MAIN_RIV": 41408473, "LENGTH_KM": 3.62, "DIST_DN_KM": 96.0, "DIST_UP_KM": 8.0, "CATCH_SKM": 10.44, "UPLAND_SKM": 25.8, "ENDORHEIC": 0, "DIS_AV_CMS": 0.63, "ORD_STRA": 2, "ORD_CLAS": 2, "ORD_FLOW": 7, "HYBAS_L12": 4121159190.0, "Shape_Length": 0.032618446353097831 }, "geometry": { "type": "MultiLineString", "coordinates": [ [ [ 81.18958333333299, 6.918749999999896 ], [ 81.18958333333299, 6.914583333333233 ], [ 81.193749999999653, 6.910416666666585 ], [ 81.193749999999653, 6.906249999999879 ], [ 81.197916666666316, 6.902083333333216 ], [ 81.197916666666316, 6.889583333333242 ] ] ] } },
{ "type": "Feature", "properties": { "HYRIV_ID": 41405998, "NEXT_DOWN": 41406195, "MAIN_RIV": 41408473, "LENGTH_KM": 2.04, "DIST_DN_KM": 93.900002, "DIST_UP_KM": 10.0, "CATCH_SKM": 3.4100001, "UPLAND_SKM": 40.3, "ENDORHEIC": 0, "DIS_AV_CMS": 0.982, "ORD_STRA": 2, "ORD_CLAS": 2, "ORD_FLOW": 7, "HYBAS_L12": 4121159190.0, "Shape_Length": 0.018392556509885378 }, "geometry": { "type": "MultiLineString", "coordinates": [ [ [ 81.197916666666316, 6.889583333333242 ], [ 81.197916666666316, 6.881249999999888 ], [ 81.202083333332979, 6.877083333333225 ], [ 81.202083333332979, 6.872916666666576 ] ] ] } },
{ "type": "Feature", "properties": { "HYRIV_ID": 41406039, "NEXT_DOWN": 41406195, "MAIN_RIV": 41408473, "LENGTH_KM": 8.1800003, "DIST_DN_KM": 94.099998, "DIST_UP_KM": 12.2, "CATCH_SKM": 20.67, "UPLAND_SKM": 37.5, "ENDORHEIC": 0, "DIS_AV_CMS": 0.93800002, "ORD_STRA": 2, "ORD_CLAS": 1, "ORD_FLOW": 7, "HYBAS_L12": 4121159190.0, "Shape_Length": 0.073866341922424611 }, "geometry": { "type": "MultiLineString", "coordinates": [ [ [ 81.147916666666248, 6.897916666666568 ], [ 81.160416666666293, 6.885416666666551 ], [ 81.164583333332956, 6.885416666666551 ], [ 81.168749999999619, 6.881249999999888 ], [ 81.168749999999619, 6.877083333333225 ], [ 81.177083333332945, 6.868749999999871 ], [ 81.181249999999665, 6.868749999999871 ], [ 81.185416666666328, 6.864583333333208 ], [ 81.18958333333299, 6.864583333333208 ], [ 81.193749999999653, 6.868749999999871 ], [ 81.197916666666316, 6.868749999999871 ], [ 81.202083333332979, 6.872916666666576 ] ] ] } },
{ "type": "Feature", "properties": { "HYRIV_ID": 41406132, "NEXT_DOWN": 41406234, "MAIN_RIV": 41408473, "LENGTH_KM": 1.15, "DIST_DN_KM": 89.5, "DIST_UP_KM": 4.1, "CATCH_SKM": 4.48, "UPLAND_SKM": 4.5, "ENDORHEIC": 0, "DIS_AV_CMS": 0.116, "ORD_STRA": 1, "ORD_CLAS": 4, "ORD_FLOW": 7, "HYBAS_L12": 4121159180.0, "Shape_Length": 0.010416666666571928 }, "geometry": { "type": "MultiLineString", "coordinates": [ [ [ 81.137499999999676, 6.84375 ], [ 81.147916666666248, 6.84375 ] ] ] } },
{ "type": "Feature", "properties": { "HYRIV_ID": 41406133, "NEXT_DOWN": 41406234, "MAIN_RIV": 41408473, "LENGTH_KM": 3.48, "DIST_DN_KM": 89.5, "DIST_UP_KM": 6.2, "CATCH_SKM": 11.51, "UPLAND_SKM": 11.5, "ENDORHEIC": 0, "DIS_AV_CMS": 0.296, "ORD_STRA": 1, "ORD_CLAS": 3, "ORD_FLOW": 7, "HYBAS_L12": 4121159180.0, "Shape_Length": 0.031398057941273302 }, "geometry": { "type": "MultiLineString", "coordinates": [ [ [ 81.12916666666635, 6.862499999999876 ], [ 81.135416666666316, 6.856249999999896 ], [ 81.143749999999642, 6.856249999999896 ], [ 81.147916666666248, 6.852083333333233 ], [ 81.147916666666248, 6.84375 ] ] ] } },
{ "type": "Feature", "properties": { "HYRIV_ID": 41406195, "NEXT_DOWN": 41406394, "MAIN_RIV": 41408473, "LENGTH_KM": 9.46, "DIST_DN_KM": 84.699997, "DIST_UP_KM": 21.700001, "CATCH_SKM": 30.48, "UPLAND_SKM": 108.3, "ENDORHEIC": 0, "DIS_AV_CMS": 2.5880001, "ORD_STRA": 3, "ORD_CLAS": 1, "ORD_FLOW": 6, "HYBAS_L12": 4121159190.0, "Shape_Length": 0.085355339059183563 }, "geometry": { "type": "MultiLineString", "coordinates": [ [ [ 81.202083333332979, 6.872916666666576 ], [ 81.206249999999699, 6.868749999999871 ], [ 81.210416666666362, 6.868749999999871 ], [ 81.214583333333024, 6.872916666666576 ], [ 81.231249999999733, 6.872916666666576 ], [ 81.231249999999733, 6.868749999999871 ], [ 81.235416666666396, 6.864583333333208 ], [ 81.235416666666396, 6.860416666666559 ], [ 81.239583333332945, 6.856249999999896 ], [ 81.239583333332945, 6.847916666666571 ], [ 81.235416666666396, 6.84375 ], [ 81.235416666666396, 6.835416666666553 ], [ 81.239583333332945, 6.835416666666553 ], [ 81.243749999999608, 6.83125 ] ] ] } },
{ "type": "Feature", "properties": { "HYRIV_ID": 41406196, "NEXT_DOWN": 41406394, "MAIN_RIV": 41408473, "LENGTH_KM": 1.62, "DIST_DN_KM": 84.5, "DIST_UP_KM": 4.3, "CATCH_SKM": 9.8, "UPLAND_SKM": 9.8, "ENDORHEIC": 0, "DIS_AV_CMS": 0.22400001, "ORD_STRA": 1, "ORD_CLAS": 2, "ORD_FLOW": 7, "HYBAS_L12": 4121159190.0, "Shape_Length": 0.014583333333305859 }, "geometry": { "type": "MultiLineString", "coordinates": [ [ [ 81.247916666666271, 6.841666666666548 ], [ 81.247916666666271, 6.835416666666553 ], [ 81.243749999999608, 6.835416666666553 ], [ 81.243749999999608, 6.83125 ] ] ] } },
{ "type": "Feature", "properties": { "HYRIV_ID": 41406234, "NEXT_DOWN": 41406359, "MAIN_RIV": 41408473, "LENGTH_KM": 2.8800001, "DIST_DN_KM": 86.800003, "DIST_UP_KM": 8.9, "CATCH_SKM": 8.5299997, "UPLAND_SKM": 24.5, "ENDORHEIC": 0, "DIS_AV_CMS": 0.625, "ORD_STRA": 2, "ORD_CLAS": 3, "ORD_FLOW": 7, "HYBAS_L12": 4121159180.0, "Shape_Length": 0.02601100286304614 }, "geometry": { "type": "MultiLineString", "coordinates": [ [ [ 81.147916666666248, 6.84375 ], [ 81.152083333332968, 6.839583333333216 ], [ 81.152083333332968, 6.835416666666553 ], [ 81.156249999999631, 6.83125 ], [ 81.156249999999631, 6.827083333333199 ], [ 81.160416666666293, 6.822916666666579 ] ] ] } },
{ "type": "Feature", "properties": { "HYRIV_ID": 41406235, "NEXT_DOWN": 41406359, "MAIN_RIV": 41408473, "LENGTH_KM": 4.52, "DIST_DN_KM": 86.800003, "DIST_UP_KM": 10.2, "CATCH_SKM": 13.64, "UPLAND_SKM": 13.6, "ENDORHEIC": 0, "DIS_AV_CMS": 0.338, "ORD_STRA": 1, "ORD_CLAS": 2, "ORD_FLOW": 7, "HYBAS_L12": 4121159180.0, "Shape_Length": 0.040742394137762539 }, "geometry": { "type": "MultiLineString", "coordinates": [ [ [ 81.174999999999699, 6.854166666666565 ], [ 81.168749999999619, 6.847916666666571 ], [ 81.172916666666282, 6.84375 ], [ 81.172916666666282, 6.835416666666553 ], [ 81.160416666666293, 6.822916666666579 ] ] ] } },
{ "type": "Feature", "properties": { "HYRIV_ID": 41406359, "NEXT_DOWN": 41406528, "MAIN_RIV": 41408473, "LENGTH_KM": 3.35, "DIST_DN_KM": 83.300003, "DIST_UP_KM": 13.8, "CATCH_SKM": 11.08, "UPLAND_SKM": 49.200001, "ENDORHEIC": 0, "DIS_AV_CMS": 1.228, "ORD_STRA": 2, "ORD_CLAS": 2, "ORD_FLOW": 6, "HYBAS_L12": 4121159180.0, "Shape_Length": 0.030177669529688922 }, "geometry": { "type": "MultiLineString", "coordinates": [ [ [ 81.160416666666293, 6.822916666666579 ], [ 81.164583333332956, 6.818749999999888 ], [ 81.164583333332956, 6.814583333333225 ], [ 81.172916666666282, 6.80625 ], [ 81.172916666666282, 6.797916666666545 ] ] ] } },
{ "type": "Feature", "properties": { "HYRIV_ID": 41406371, "NEXT_DOWN": 41406528, "MAIN_RIV": 41408473, "LENGTH_KM": 3.57, "DIST_DN_KM": 83.300003, "DIST_UP_KM": 7.9, "CATCH_SKM": 15.77, "UPLAND_SKM": 15.8, "ENDORHEIC": 0, "DIS_AV_CMS": 0.398, "ORD_STRA": 1, "ORD_CLAS": 3, "ORD_FLOW": 7, "HYBAS_L12": 4121159180.0, "Shape_Length": 0.032261002862919164 }, "geometry": { "type": "MultiLineString", "coordinates": [ [ [ 81.145833333333002, 6.802083333333208 ], [ 81.152083333332968, 6.802083333333208 ], [ 81.156249999999631, 6.797916666666545 ], [ 81.160416666666293, 6.797916666666545 ], [ 81.164583333332956, 6.793749999999896 ], [ 81.168749999999619, 6.797916666666545 ], [ 81.172916666666282, 6.797916666666545 ] ] ] } },
{ "type": "Feature", "properties": { "HYRIV_ID": 41406394, "NEXT_DOWN": 41406665, "MAIN_RIV": 41408473, "LENGTH_KM": 5.39, "DIST_DN_KM": 79.099998, "DIST_UP_KM": 27.3, "CATCH_SKM": 16.200001, "UPLAND_SKM": 134.3, "ENDORHEIC": 0, "DIS_AV_CMS": 3.148, "ORD_STRA": 3, "ORD_CLAS": 1, "ORD_FLOW": 6, "HYBAS_L12": 4121159190.0, "Shape_Length": 0.048570226039461331 }, "geometry": { "type": "MultiLineString", "coordinates": [ [ [ 81.243749999999608, 6.83125 ], [ 81.243749999999608, 6.827083333333199 ], [ 81.235416666666396, 6.818749999999888 ], [ 81.235416666666396, 6.814583333333225 ], [ 81.231249999999733, 6.810416666666562 ], [ 81.231249999999733, 6.80625 ], [ 81.235416666666396, 6.802083333333208 ], [ 81.235416666666396, 6.789583333333233 ] ] ] } },
{ "type": "Feature", "properties": { "HYRIV_ID": 41406395, "NEXT_DOWN": 41406665, "MAIN_RIV": 41408473, "LENGTH_KM": 1.81, "DIST_DN_KM": 79.099998, "DIST_UP_KM": 5.4, "CATCH_SKM": 9.1599998, "UPLAND_SKM": 9.2, "ENDORHEIC": 0, "DIS_AV_CMS": 0.208, "ORD_STRA": 1, "ORD_CLAS": 2, "ORD_FLOW": 7, "HYBAS_L12": 4121159190.0, "Shape_Length": 0.016309223176411831 }, "geometry": { "type": "MultiLineString", "coordinates": [ [ [ 81.243749999999608, 6.799999999999876 ], [ 81.243749999999608, 6.793749999999896 ], [ 81.239583333332945, 6.789583333333233 ], [ 81.235416666666396, 6.789583333333233 ] ] ] } },
{ "type": "Feature", "properties": { "HYRIV_ID": 41406528, "NEXT_DOWN": 41406663, "MAIN_RIV": 41408473, "LENGTH_KM": 6.6100001, "DIST_DN_KM": 76.900002, "DIST_UP_KM": 20.200001, "CATCH_SKM": 14.71, "UPLAND_SKM": 79.699997, "ENDORHEIC": 0, "DIS_AV_CMS": 1.957, "ORD_STRA": 2, "ORD_CLAS": 2, "ORD_FLOW": 6, "HYBAS_L12": 4121159180.0, "Shape_Length": 0.059640452079145964 }, "geometry": { "type": "MultiLineString", "coordinates": [ [ [ 81.172916666666282, 6.797916666666545 ], [ 81.177083333332945, 6.793749999999896 ], [ 81.181249999999665, 6.793749999999896 ], [ 81.185416666666328, 6.789583333333233 ], [ 81.18958333333299, 6.789583333333233 ], [ 81.193749999999653, 6.785416666666571 ], [ 81.18958333333299, 6.781249999999879 ], [ 81.18958333333299, 6.777083333333216 ], [ 81.206249999999699, 6.760416666666579 ] ] ] } },
{ "type": "Feature", "properties": { "HYRIV_ID": 41406529, "NEXT_DOWN": 41406663, "MAIN_RIV": 41408473, "LENGTH_KM": 7.0100002, "DIST_DN_KM": 76.699997, "DIST_UP_KM": 10.5, "CATCH_SKM": 19.4, "UPLAND_SKM": 19.4, "ENDORHEIC": 0, "DIS_AV_CMS": 0.459, "ORD_STRA": 1, "ORD_CLAS": 3, "ORD_FLOW": 7, "HYBAS_L12": 4121159180.0, "Shape_Length": 0.063153559372919638 }, "geometry": { "type": "MultiLineString", "coordinates": [ [ [ 81.206249999999699, 6.816666666666556 ], [ 81.206249999999699, 6.80625 ], [ 81.210416666666362, 6.802083333333208 ], [ 81.210416666666362, 6.797916666666545 ], [ 81.206249999999699, 6.793749999999896 ], [ 81.206249999999699, 6.785416666666571 ], [ 81.202083333332979, 6.781249999999879 ], [ 81.202083333332979, 6.777083333333216 ], [ 81.206249999999699, 6.772916666666553 ], [ 81.206249999999699, 6.760416666666579 ] ] ] } },
{ "type": "Feature", "properties": { "HYRIV_ID": 41406662, "NEXT_DOWN": 41406755, "MAIN_RIV": 41408473, "LENGTH_KM": 2.29, "DIST_DN_KM": 73.5, "DIST_UP_KM": 6.8, "CATCH_SKM": 8.3100004, "UPLAND_SKM": 8.3, "ENDORHEIC": 0, "DIS_AV_CMS": 0.20200001, "ORD_STRA": 1, "ORD_CLAS": 3, "ORD_FLOW": 7, "HYBAS_L12": 4121159180.0, "Shape_Length": 0.020623947784629074 }, "geometry": { "type": "MultiLineString", "coordinates": [ [ [ 81.187499999999631, 6.749999999999893 ], [ 81.202083333332979, 6.735416666666545 ] ] ] } },
{ "type": "Feature", "properties": { "HYRIV_ID": 41406663, "NEXT_DOWN": 41406755, "MAIN_RIV": 41408473, "LENGTH_KM": 3.35, "DIST_DN_KM": 73.5, "DIST_UP_KM": 23.5, "CATCH_SKM": 5.54, "UPLAND_SKM": 104.7, "ENDORHEIC": 0, "DIS_AV_CMS": 2.526, "ORD_STRA": 2, "ORD_CLAS": 2, "ORD_FLOW": 6, "HYBAS_L12": 4121159180.0, "Shape_Length": 0.030177669529712466 }, "geometry": { "type": "MultiLineString", "coordinates": [ [ [ 81.206249999999699, 6.760416666666579 ], [ 81.210416666666362, 6.756249999999888 ], [ 81.210416666666362, 6.747916666666562 ], [ 81.206249999999699, 6.743749999999899 ], [ 81.206249999999699, 6.73958333333325 ], [ 81.202083333332979, 6.735416666666545 ] ] ] } },
{ "type": "Feature", "properties": { "HYRIV_ID": 41406664, "NEXT_DOWN": 41406777, "MAIN_RIV": 41408473, "LENGTH_KM": 3.49, "DIST_DN_KM": 72.300003, "DIST_UP_KM": 7.1, "CATCH_SKM": 10.23, "UPLAND_SKM": 10.2, "ENDORHEIC": 0, "DIS_AV_CMS": 0.23800001, "ORD_STRA": 1, "ORD_CLAS": 2, "ORD_FLOW": 7, "HYBAS_L12": 4121159190.0, "Shape_Length": 0.031398057941511015 }, "geometry": { "type": "MultiLineString", "coordinates": [ [ [ 81.224999999999596, 6.7625 ], [ 81.231249999999733, 6.756249999999888 ], [ 81.231249999999733, 6.743749999999899 ], [ 81.235416666666396, 6.73958333333325 ], [ 81.235416666666396, 6.735416666666545 ] ] ] } },
{ "type": "Feature", "properties": { "HYRIV_ID": 41406665, "NEXT_DOWN": 41406777, "MAIN_RIV": 41408473, "LENGTH_KM": 6.7800002, "DIST_DN_KM": 72.5, "DIST_UP_KM": 33.900002, "CATCH_SKM": 17.48, "UPLAND_SKM": 160.89999, "ENDORHEIC": 0, "DIS_AV_CMS": 3.691, "ORD_STRA": 3, "ORD_CLAS": 1, "ORD_FLOW": 6, "HYBAS_L12": 4121159190.0, "Shape_Length": 0.061070226039393834 }, "geometry": { "type": "MultiLineString", "coordinates": [ [ [ 81.235416666666396, 6.789583333333233 ], [ 81.239583333332945, 6.785416666666571 ], [ 81.239583333332945, 6.764583333333242 ], [ 81.243749999999608, 6.760416666666579 ], [ 81.243749999999608, 6.752083333333225 ], [ 81.239583333332945, 6.747916666666562 ], [ 81.239583333332945, 6.73958333333325 ], [ 81.235416666666396, 6.735416666666545 ] ] ] } },
{ "type": "Feature", "properties": { "HYRIV_ID": 41406754, "NEXT_DOWN": 41406776, "MAIN_RIV": 41408473, "LENGTH_KM": 7.3200002, "DIST_DN_KM": 71.300003, "DIST_UP_KM": 10.5, "CATCH_SKM": 23.02, "UPLAND_SKM": 23.0, "ENDORHEIC": 0, "DIS_AV_CMS": 0.565, "ORD_STRA": 1, "ORD_CLAS": 3, "ORD_FLOW": 7, "HYBAS_L12": 4121159180.0, "Shape_Length": 0.066038510020439561 }, "geometry": { "type": "MultiLineString", "coordinates": [ [ [ 81.154166666666384, 6.766666666666573 ], [ 81.197916666666316, 6.722916666666571 ], [ 81.197916666666316, 6.71875 ] ] ] } },
{ "type": "Feature", "properties": { "HYRIV_ID": 41406755, "NEXT_DOWN": 41406776, "MAIN_RIV": 41408473, "LENGTH_KM": 2.04, "DIST_DN_KM": 71.5, "DIST_UP_KM": 25.6, "CATCH_SKM": 3.4100001, "UPLAND_SKM": 116.4, "ENDORHEIC": 0, "DIS_AV_CMS": 2.7939999, "ORD_STRA": 2, "ORD_CLAS": 2, "ORD_FLOW": 6, "HYBAS_L12": 4121159180.0, "Shape_Length": 0.018392556509856956 }, "geometry": { "type": "MultiLineString", "coordinates": [ [ [ 81.202083333332979, 6.735416666666545 ], [ 81.202083333332979, 6.722916666666571 ], [ 81.197916666666316, 6.71875 ] ] ] } },
{ "type": "Feature", "properties": { "HYRIV_ID": 41406775, "NEXT_DOWN": 41407034, "MAIN_RIV": 41408473, "LENGTH_KM": 0.69, "DIST_DN_KM": 70.599998, "DIST_UP_KM": 3.5, "CATCH_SKM": 4.9, "UPLAND_SKM": 4.9, "ENDORHEIC": 0, "DIS_AV_CMS": 0.119, "ORD_STRA": 1, "ORD_CLAS": 3, "ORD_FLOW": 7, "HYBAS_L12": 4121159180.0, "Shape_Length": 0.0062500000000227374 }, "geometry": { "type": "MultiLineString", "coordinates": [ [ [ 81.187499999999631, 6.714583333333216 ], [ 81.193749999999653, 6.714583333333216 ] ] ] } },
{ "type": "Feature", "properties": { "HYRIV_ID": 41406776, "NEXT_DOWN": 41407034, "MAIN_RIV": 41408473, "LENGTH_KM": 0.65, "DIST_DN_KM": 70.800003, "DIST_UP_KM": 26.200001, "CATCH_SKM": 0.64, "UPLAND_SKM": 140.0, "ENDORHEIC": 0, "DIS_AV_CMS": 3.369, "ORD_STRA": 2, "ORD_CLAS": 2, "ORD_FLOW": 6, "HYBAS_L12": 4121159180.0, "Shape_Length": 0.0058925565099026333 }, "geometry": { "type": "MultiLineString", "coordinates": [ [ [ 81.197916666666316, 6.71875 ], [ 81.193749999999653, 6.714583333333216 ] ] ] } },
{ "type": "Feature", "properties": { "HYRIV_ID": 41406777, "NEXT_DOWN": 41407241, "MAIN_RIV": 41408473, "LENGTH_KM": 2.7, "DIST_DN_KM": 69.800003, "DIST_UP_KM": 36.599998, "CATCH_SKM": 7.25, "UPLAND_SKM": 178.39999, "ENDORHEIC": 0, "DIS_AV_CMS": 4.0669999, "ORD_STRA": 3, "ORD_CLAS": 1, "ORD_FLOW": 6, "HYBAS_L12": 4121159190.0, "Shape_Length": 0.024285113019679203 }, "geometry": { "type": "MultiLineString", "coordinates": [ [ [ 81.235416666666396, 6.735416666666545 ], [ 81.235416666666396, 6.722916666666571 ], [ 81.243749999999608, 6.714583333333216 ] ] ] } },
{ "type": "Feature", "properties": { "HYRIV_ID": 41406778, "NEXT_DOWN": 41407241, "MAIN_RIV": 41408473, "LENGTH_KM": 0.98, "DIST_DN_KM": 69.800003, "DIST_UP_KM": 5.4, "CATCH_SKM": 8.1, "UPLAND_SKM": 8.1, "ENDORHEIC": 0, "DIS_AV_CMS": 0.181, "ORD_STRA": 1, "ORD_CLAS": 2, "ORD_FLOW": 7, "HYBAS_L12": 4121159190.0, "Shape_Length": 0.0088388347648639988 }, "geometry": { "type": "MultiLineString", "coordinates": [ [ [ 81.249999999999631, 6.720833333333239 ], [ 81.243749999999608, 6.714583333333216 ] ] ] } },
{ "type": "Feature", "properties": { "HYRIV_ID": 41407033, "NEXT_DOWN": 41407086, "MAIN_RIV": 41408473, "LENGTH_KM": 1.15, "DIST_DN_KM": 63.8, "DIST_UP_KM": 4.3, "CATCH_SKM": 10.23, "UPLAND_SKM": 10.2, "ENDORHEIC": 0, "DIS_AV_CMS": 0.241, "ORD_STRA": 1, "ORD_CLAS": 3, "ORD_FLOW": 7, "HYBAS_L12": 4121159180.0, "Shape_Length": 0.010416666666742458 }, "geometry": { "type": "MultiLineString", "coordinates": [ [ [ 81.204166666666282, 6.664583333333233 ], [ 81.214583333333024, 6.664583333333233 ] ] ] } },
{ "type": "Feature", "properties": { "HYRIV_ID": 41407034, "NEXT_DOWN": 41407086, "MAIN_RIV": 41408473, "LENGTH_KM": 6.7800002, "DIST_DN_KM": 63.8, "DIST_UP_KM": 33.200001, "CATCH_SKM": 24.940001, "UPLAND_SKM": 169.89999, "ENDORHEIC": 0, "DIS_AV_CMS": 4.0079999, "ORD_STRA": 2, "ORD_CLAS": 2, "ORD_FLOW": 6, "HYBAS_L12": 4121159180.0, "Shape_Length": 0.061070226039572989 }, "geometry": { "type": "MultiLineString", "coordinates": [ [ [ 81.193749999999653, 6.714583333333216 ], [ 81.193749999999653, 6.710416666666553 ], [ 81.197916666666316, 6.706249999999891 ], [ 81.202083333332979, 6.706249999999891 ], [ 81.206249999999699, 6.702083333333242 ], [ 81.206249999999699, 6.689583333333225 ], [ 81.210416666666362, 6.685416666666562 ], [ 81.210416666666362, 6.681249999999899 ], [ 81.214583333333024, 6.67708333333325 ], [ 81.214583333333024, 6.664583333333233 ] ] ] } },
{ "type": "Feature", "properties": { "HYRIV_ID": 41407086, "NEXT_DOWN": 41407257, "MAIN_RIV": 41408473, "LENGTH_KM": 1.96, "DIST_DN_KM": 62.099998, "DIST_UP_KM": 35.0, "CATCH_SKM": 3.84, "UPLAND_SKM": 184.0, "ENDORHEIC": 0, "DIS_AV_CMS": 4.3189998, "ORD_STRA": 2, "ORD_CLAS": 2, "ORD_FLOW": 6, "HYBAS_L12": 4121159180.0, "Shape_Length": 0.017677669529647611 }, "geometry": { "type": "MultiLineString", "coordinates": [ [ [ 81.214583333333024, 6.664583333333233 ], [ 81.227083333333013, 6.652083333333245 ] ] ] } },
{ "type": "Feature", "properties": { "HYRIV_ID": 41407087, "NEXT_DOWN": 41407257, "MAIN_RIV": 41408473, "LENGTH_KM": 1.35, "DIST_DN_KM": 62.099998, "DIST_UP_KM": 5.4, "CATCH_SKM": 6.8200002, "UPLAND_SKM": 6.8, "ENDORHEIC": 0, "DIS_AV_CMS": 0.155, "ORD_STRA": 1, "ORD_CLAS": 3, "ORD_FLOW": 7, "HYBAS_L12": 4121159180.0, "Shape_Length": 0.012142556509917047 }, "geometry": { "type": "MultiLineString", "coordinates": [ [ [ 81.231249999999733, 6.6625 ], [ 81.231249999999733, 6.65625 ], [ 81.227083333333013, 6.652083333333245 ] ] ] } },
{ "type": "Feature", "properties": { "HYRIV_ID": 41407241, "NEXT_DOWN": 41407429, "MAIN_RIV": 41408473, "LENGTH_KM": 12.17, "DIST_DN_KM": 57.599998, "DIST_UP_KM": 48.700001, "CATCH_SKM": 43.919998, "UPLAND_SKM": 230.39999, "ENDORHEIC": 0, "DIS_AV_CMS": 5.0619998, "ORD_STRA": 3, "ORD_CLAS": 1, "ORD_FLOW": 6, "HYBAS_L12": 4121159190.0, "Shape_Length": 0.10964045207875295 }, "geometry": { "type": "MultiLineString", "coordinates": [ [ [ 81.243749999999608, 6.714583333333216 ], [ 81.243749999999608, 6.710416666666553 ], [ 81.247916666666271, 6.706249999999891 ], [ 81.247916666666271, 6.697916666666579 ], [ 81.256249999999596, 6.689583333333225 ], [ 81.256249999999596, 6.685416666666562 ], [ 81.252083333333047, 6.681249999999899 ], [ 81.256249999999596, 6.67708333333325 ], [ 81.260416666666259, 6.67708333333325 ], [ 81.260416666666259, 6.664583333333233 ], [ 81.256249999999596, 6.660416666666571 ], [ 81.256249999999596, 6.647916666666553 ], [ 81.252083333333047, 6.643749999999891 ], [ 81.252083333333047, 6.627083333333211 ], [ 81.256249999999596, 6.622916666666562 ] ] ] } },
{ "type": "Feature", "properties": { "HYRIV_ID": 41407242, "NEXT_DOWN": 41407429, "MAIN_RIV": 41408473, "LENGTH_KM": 0.98, "DIST_DN_KM": 57.599998, "DIST_UP_KM": 4.2, "CATCH_SKM": 7.25, "UPLAND_SKM": 7.2, "ENDORHEIC": 0, "DIS_AV_CMS": 0.155, "ORD_STRA": 1, "ORD_CLAS": 2, "ORD_FLOW": 7, "HYBAS_L12": 4121159190.0, "Shape_Length": 0.0088388347649041941 }, "geometry": { "type": "MultiLineString", "coordinates": [ [ [ 81.262499999999676, 6.629166666666585 ], [ 81.256249999999596, 6.622916666666562 ] ] ] } },
{ "type": "Feature", "properties": { "HYRIV_ID": 41407257, "NEXT_DOWN": 41407428, "MAIN_RIV": 41408473, "LENGTH_KM": 4.7399998, "DIST_DN_KM": 57.3, "DIST_UP_KM": 39.700001, "CATCH_SKM": 11.94, "UPLAND_SKM": 202.7, "ENDORHEIC": 0, "DIS_AV_CMS": 4.684, "ORD_STRA": 2, "ORD_CLAS": 2, "ORD_FLOW": 6, "HYBAS_L12": 4121159180.0, "Shape_Length": 0.042677669529699376 }, "geometry": { "type": "MultiLineString", "coordinates": [ [ [ 81.227083333333013, 6.652083333333245 ], [ 81.231249999999733, 6.647916666666553 ], [ 81.235416666666396, 6.647916666666553 ], [ 81.235416666666396, 6.643749999999891 ], [ 81.231249999999733, 6.639583333333228 ], [ 81.231249999999733, 6.622916666666562 ], [ 81.235416666666396, 6.618749999999899 ] ] ] } },
{ "type": "Feature", "properties": { "HYRIV_ID": 41407258, "NEXT_DOWN": 41407460, "MAIN_RIV": 41408473, "LENGTH_KM": 0.69, "DIST_DN_KM": 45.700001, "DIST_UP_KM": 3.8, "CATCH_SKM": 7.04, "UPLAND_SKM": 7.0, "ENDORHEIC": 0, "DIS_AV_CMS": 0.14300001, "ORD_STRA": 1, "ORD_CLAS": 3, "ORD_FLOW": 7, "HYBAS_L12": 4121159390.0, "Shape_Length": 0.0062499999999943157 }, "geometry": { "type": "MultiLineString", "coordinates": [ [ [ 81.335416666666362, 6.624999999999893 ], [ 81.335416666666362, 6.618749999999899 ] ] ] } },
{ "type": "Feature", "properties": { "HYRIV_ID": 41407259, "NEXT_DOWN": 41407460, "MAIN_RIV": 41408473, "LENGTH_KM": 1.81, "DIST_DN_KM": 45.900002, "DIST_UP_KM": 4.7, "CATCH_SKM": 9.1700001, "UPLAND_SKM": 9.2, "ENDORHEIC": 0, "DIS_AV_CMS": 0.183, "ORD_STRA": 1, "ORD_CLAS": 2, "ORD_FLOW": 7, "HYBAS_L12": 4121159390.0, "Shape_Length": 0.016309223176525518 }, "geometry": { "type": "MultiLineString", "coordinates": [ [ [ 81.339583333333024, 6.633333333333205 ], [ 81.339583333333024, 6.622916666666562 ], [ 81.335416666666362, 6.618749999999899 ] ] ] } },
{ "type": "Feature", "properties": { "HYRIV_ID": 41407279, "NEXT_DOWN": 41407428, "MAIN_RIV": 41408473, "LENGTH_KM": 4.0300002, "DIST_DN_KM": 57.099998, "DIST_UP_KM": 7.8, "CATCH_SKM": 17.059999, "UPLAND_SKM": 17.1, "ENDORHEIC": 0, "DIS_AV_CMS": 0.39, "ORD_STRA": 1, "ORD_CLAS": 3, "ORD_FLOW": 7, "HYBAS_L12": 4121159180.0, "Shape_Length": 0.036427669529756013 }, "geometry": { "type": "MultiLineString", "coordinates": [ [ [ 81.204166666666282, 6.622916666666562 ], [ 81.214583333333024, 6.622916666666562 ], [ 81.218749999999687, 6.618749999999899 ], [ 81.22291666666635, 6.618749999999899 ], [ 81.227083333333013, 6.614583333333236 ], [ 81.231249999999733, 6.618749999999899 ], [ 81.235416666666396, 6.618749999999899 ] ] ] } },
{ "type": "Feature", "properties": { "HYRIV_ID": 41407428, "NEXT_DOWN": 41407503, "MAIN_RIV": 41408473, "LENGTH_KM": 4.2800002, "DIST_DN_KM": 53.099998, "DIST_UP_KM": 44.0, "CATCH_SKM": 11.73, "UPLAND_SKM": 231.5, "ENDORHEIC": 0, "DIS_AV_CMS": 5.2740002, "ORD_STRA": 2, "ORD_CLAS": 2, "ORD_FLOW": 6, "HYBAS_L12": 4121159180.0, "Shape_Length": 0.038511002862898255 }, "geometry": { "type": "MultiLineString", "coordinates": [ [ [ 81.235416666666396, 6.618749999999899 ], [ 81.239583333332945, 6.614583333333236 ], [ 81.239583333332945, 6.606249999999882 ], [ 81.243749999999608, 6.602083333333219 ], [ 81.243749999999608, 6.589583333333202 ], [ 81.247916666666271, 6.585416666666596 ] ] ] } },
{ "type": "Feature", "properties": { "HYRIV_ID": 41407429, "NEXT_DOWN": 41407503, "MAIN_RIV": 41408473, "LENGTH_KM": 4.5500002, "DIST_DN_KM": 52.900002, "DIST_UP_KM": 53.5, "CATCH_SKM": 10.45, "UPLAND_SKM": 248.10001, "ENDORHEIC": 0, "DIS_AV_CMS": 5.37, "ORD_STRA": 3, "ORD_CLAS": 1, "ORD_FLOW": 6, "HYBAS_L12": 4121159190.0, "Shape_Length": 0.040951779686396891 }, "geometry": { "type": "MultiLineString", "coordinates": [ [ [ 81.256249999999596, 6.622916666666562 ], [ 81.256249999999596, 6.614583333333236 ], [ 81.247916666666271, 6.606249999999882 ], [ 81.247916666666271, 6.585416666666596 ] ] ] } },
{ "type": "Feature", "properties": { "HYRIV_ID": 41407459, "NEXT_DOWN": 41407553, "MAIN_RIV": 41408473, "LENGTH_KM": 1.61, "DIST_DN_KM": 41.599998, "DIST_UP_KM": 4.7, "CATCH_SKM": 9.1700001, "UPLAND_SKM": 9.2, "ENDORHEIC": 0, "DIS_AV_CMS": 0.184, "ORD_STRA": 1, "ORD_CLAS": 3, "ORD_FLOW": 7, "HYBAS_L12": 4121159390.0, "Shape_Length": 0.014583333333405335 }, "geometry": { "type": "MultiLineString", "coordinates": [ [ [ 81.320833333332956, 6.581249999999891 ], [ 81.335416666666362, 6.581249999999891 ] ] ] } },
{ "type": "Feature", "properties": { "HYRIV_ID": 41407460, "NEXT_DOWN": 41407553, "MAIN_RIV": 41408473, "LENGTH_KM": 4.1700001, "DIST_DN_KM": 41.599998, "DIST_UP_KM": 9.1, "CATCH_SKM": 13.01, "UPLAND_SKM": 29.200001, "ENDORHEIC": 0, "DIS_AV_CMS": 0.579, "ORD_STRA": 2, "ORD_CLAS": 2, "ORD_FLOW": 7, "HYBAS_L12": 4121159390.0, "Shape_Length": 0.037500000000008527 }, "geometry": { "type": "MultiLineString", "coordinates": [ [ [ 81.335416666666362, 6.618749999999899 ], [ 81.335416666666362, 6.581249999999891 ] ] ] } },
{ "type": "Feature", "properties": { "HYRIV_ID": 41407502, "NEXT_DOWN": 41407574, "MAIN_RIV": 41408473, "LENGTH_KM": 0.69, "DIST_DN_KM": 51.099998, "DIST_UP_KM": 4.8, "CATCH_SKM": 7.89, "UPLAND_SKM": 7.9, "ENDORHEIC": 0, "DIS_AV_CMS": 0.174, "ORD_STRA": 1, "ORD_CLAS": 2, "ORD_FLOW": 7, "HYBAS_L12": 4121159450.0, "Shape_Length": 0.0062499999999658939 }, "geometry": { "type": "MultiLineString", "coordinates": [ [ [ 81.241666666666305, 6.572916666666579 ], [ 81.247916666666271, 6.572916666666579 ] ] ] } },
{ "type": "Feature", "properties": { "HYRIV_ID": 41407503, "NEXT_DOWN": 41407574, "MAIN_RIV": 41408473, "LENGTH_KM": 1.77, "DIST_DN_KM": 51.3, "DIST_UP_KM": 55.099998, "CATCH_SKM": 1.92, "UPLAND_SKM": 481.5, "ENDORHEIC": 0, "DIS_AV_CMS": 10.639, "ORD_STRA": 3, "ORD_CLAS": 1, "ORD_FLOW": 5, "HYBAS_L12": 4121159450.0, "Shape_Length": 0.015951779686621315 }, "geometry": { "type": "MultiLineString", "coordinates": [ [ [ 81.247916666666271, 6.585416666666596 ], [ 81.247916666666271, 6.581249999999891 ], [ 81.252083333333047, 6.577083333333228 ], [ 81.247916666666271, 6.572916666666579 ] ] ] } },
{ "type": "Feature", "properties": { "HYRIV_ID": 41407504, "NEXT_DOWN": 41407575, "MAIN_RIV": 41408473, "LENGTH_KM": 13.35, "DIST_DN_KM": 51.8, "DIST_UP_KM": 16.1, "CATCH_SKM": 37.950001, "UPLAND_SKM": 38.0, "ENDORHEIC": 0, "DIS_AV_CMS": 0.783, "ORD_STRA": 1, "ORD_CLAS": 2, "ORD_FLOW": 7, "HYBAS_L12": 4121159450.0, "Shape_Length": 0.12035323462863 }, "geometry": { "type": "MultiLineString", "coordinates": [ [ [ 81.293749999999619, 6.666666666666551 ], [ 81.293749999999619, 6.65625 ], [ 81.297916666666282, 6.652083333333245 ], [ 81.297916666666282, 6.643749999999891 ], [ 81.302083333332945, 6.639583333333228 ], [ 81.302083333332945, 6.635416666666579 ], [ 81.297916666666282, 6.631249999999874 ], [ 81.297916666666282, 6.627083333333211 ], [ 81.293749999999619, 6.622916666666562 ], [ 81.293749999999619, 6.618749999999899 ], [ 81.281249999999574, 6.606249999999882 ], [ 81.277083333332968, 6.606249999999882 ], [ 81.264583333332922, 6.59375 ], [ 81.264583333332922, 6.589583333333202 ], [ 81.268749999999642, 6.585416666666596 ], [ 81.264583333332922, 6.581249999999891 ], [ 81.264583333332922, 6.577083333333228 ], [ 81.268749999999642, 6.572916666666579 ] ] ] } },
{ "type": "Feature", "properties": { "HYRIV_ID": 41407505, "NEXT_DOWN": 41407575, "MAIN_RIV": 41408473, "LENGTH_KM": 0.69, "DIST_DN_KM": 51.599998, "DIST_UP_KM": 4.5, "CATCH_SKM": 9.8100004, "UPLAND_SKM": 9.8, "ENDORHEIC": 0, "DIS_AV_CMS": 0.20200001, "ORD_STRA": 1, "ORD_CLAS": 3, "ORD_FLOW": 7, "HYBAS_L12": 4121159450.0, "Shape_Length": 0.0062500000000227374 }, "geometry": { "type": "MultiLineString", "coordinates": [ [ [ 81.274999999999665, 6.572916666666579 ], [ 81.268749999999642, 6.572916666666579 ] ] ] } },
{ "type": "Feature", "properties": { "HYRIV_ID": 41407553, "NEXT_DOWN": 41407877, "MAIN_RIV": 41408473, "LENGTH_KM": 4.46, "DIST_DN_KM": 37.099998, "DIST_UP_KM": 13.6, "CATCH_SKM": 12.58, "UPLAND_SKM": 51.0, "ENDORHEIC": 0, "DIS_AV_CMS": 0.99800003, "ORD_STRA": 2, "ORD_CLAS": 2, "ORD_FLOW": 7, "HYBAS_L12": 4121159390.0, "Shape_Length": 0.040236892706265195 }, "geometry": { "type": "MultiLineString", "coordinates": [ [ [ 81.335416666666362, 6.581249999999891 ], [ 81.335416666666362, 6.577083333333228 ], [ 81.343749999999574, 6.56875 ], [ 81.34791666666635, 6.56875 ], [ 81.352083333333013, 6.564583333333211 ], [ 81.356249999999676, 6.564583333333211 ], [ 81.360416666666396, 6.560416666666562 ], [ 81.364583333333059, 6.560416666666562 ] ] ] } },
{ "type": "Feature", "properties": { "HYRIV_ID": 41407554, "NEXT_DOWN": 41407877, "MAIN_RIV": 41408473, "LENGTH_KM": 4.3200002, "DIST_DN_KM": 37.099998, "DIST_UP_KM": 7.4, "CATCH_SKM": 17.059999, "UPLAND_SKM": 17.1, "ENDORHEIC": 0, "DIS_AV_CMS": 0.324, "ORD_STRA": 1, "ORD_CLAS": 3, "ORD_FLOW": 7, "HYBAS_L12": 4121159390.0, "Shape_Length": 0.038868446352943141 }, "geometry": { "type": "MultiLineString", "coordinates": [ [ [ 81.364583333333059, 6.595833333333239 ], [ 81.364583333333059, 6.581249999999891 ], [ 81.368749999999608, 6.577083333333228 ], [ 81.368749999999608, 6.56875 ], [ 81.364583333333059, 6.564583333333211 ], [ 81.364583333333059, 6.560416666666562 ] ] ] } },
{ "type": "Feature", "properties": { "HYRIV_ID": 41407574, "NEXT_DOWN": 41407807, "MAIN_RIV": 41408473, "LENGTH_KM": 2.7, "DIST_DN_KM": 48.400002, "DIST_UP_KM": 58.0, "CATCH_SKM": 6.1799998, "UPLAND_SKM": 495.60001, "ENDORHEIC": 0, "DIS_AV_CMS": 10.866, "ORD_STRA": 3, "ORD_CLAS": 1, "ORD_FLOW": 5, "HYBAS_L12": 4121159450.0, "Shape_Length": 0.024285113019773801 }, "geometry": { "type": "MultiLineString", "coordinates": [ [ [ 81.247916666666271, 6.572916666666579 ], [ 81.247916666666271, 6.56875 ], [ 81.256249999999596, 6.560416666666562 ], [ 81.256249999999596, 6.552083333333236 ] ] ] } },
{ "type": "Feature", "properties": { "HYRIV_ID": 41407575, "NEXT_DOWN": 41407807, "MAIN_RIV": 41408473, "LENGTH_KM": 3.1600001, "DIST_DN_KM": 48.400002, "DIST_UP_KM": 19.4, "CATCH_SKM": 4.6900001, "UPLAND_SKM": 52.5, "ENDORHEIC": 0, "DIS_AV_CMS": 1.074, "ORD_STRA": 2, "ORD_CLAS": 2, "ORD_FLOW": 6, "HYBAS_L12": 4121159450.0, "Shape_Length": 0.028451779686485199 }, "geometry": { "type": "MultiLineString", "coordinates": [ [ [ 81.268749999999642, 6.572916666666579 ], [ 81.268749999999642, 6.560416666666562 ], [ 81.260416666666259, 6.552083333333236 ], [ 81.256249999999596, 6.552083333333236 ] ] ] } },
{ "type": "Feature", "properties": { "HYRIV_ID": 41407606, "NEXT_DOWN": 41407829, "MAIN_RIV": 41408473, "LENGTH_KM": 9.8900003, "DIST_DN_KM": 49.400002, "DIST_UP_KM": 12.9, "CATCH_SKM": 36.889999, "UPLAND_SKM": 36.900002, "ENDORHEIC": 0, "DIS_AV_CMS": 0.84100002, "ORD_STRA": 1, "ORD_CLAS": 2, "ORD_FLOW": 7, "HYBAS_L12": 4121159460.0, "Shape_Length": 0.089164562235906214 }, "geometry": { "type": "MultiLineString", "coordinates": [ [ [ 81.181249999999665, 6.6125 ], [ 81.181249999999665, 6.606249999999882 ], [ 81.18958333333299, 6.597916666666571 ], [ 81.193749999999653, 6.597916666666571 ], [ 81.193749999999653, 6.581249999999891 ], [ 81.197916666666316, 6.577083333333228 ], [ 81.197916666666316, 6.572916666666579 ], [ 81.193749999999653, 6.56875 ], [ 81.193749999999653, 6.560416666666562 ], [ 81.197916666666316, 6.556249999999899 ], [ 81.202083333332979, 6.556249999999899 ], [ 81.206249999999699, 6.552083333333236 ], [ 81.206249999999699, 6.547916666666573 ], [ 81.210416666666362, 6.54375 ] ] ] } },
{ "type": "Feature", "properties": { "HYRIV_ID": 41407627, "NEXT_DOWN": 41407829, "MAIN_RIV": 41408473, "LENGTH_KM": 1.8, "DIST_DN_KM": 49.200001, "DIST_UP_KM": 4.9, "CATCH_SKM": 9.3800001, "UPLAND_SKM": 9.4, "ENDORHEIC": 0, "DIS_AV_CMS": 0.213, "ORD_STRA": 1, "ORD_CLAS": 3, "ORD_FLOW": 7, "HYBAS_L12": 4121159460.0, "Shape_Length": 0.016309223176638493 }, "geometry": { "type": "MultiLineString", "coordinates": [ [ [ 81.195833333332956, 6.539583333333219 ], [ 81.202083333332979, 6.539583333333219 ], [ 81.206249999999699, 6.54375 ], [ 81.210416666666362, 6.54375 ] ] ] } },
{ "type": "Feature", "properties": { "HYRIV_ID": 41407681, "NEXT_DOWN": 41407847, "MAIN_RIV": 41408473, "LENGTH_KM": 10.09, "DIST_DN_KM": 30.4, "DIST_UP_KM": 14.1, "CATCH_SKM": 37.32, "UPLAND_SKM": 37.3, "ENDORHEIC": 0, "DIS_AV_CMS": 0.67900002, "ORD_STRA": 1, "ORD_CLAS": 3, "ORD_FLOW": 7, "HYBAS_L12": 4121159370.0, "Shape_Length": 0.090890452079067291 }, "geometry": { "type": "MultiLineString", "coordinates": [ [ [ 81.402083333332968, 6.604166666666551 ], [ 81.402083333332968, 6.597916666666571 ], [ 81.393749999999642, 6.589583333333202 ], [ 81.397916666666248, 6.585416666666596 ], [ 81.397916666666248, 6.560416666666562 ], [ 81.410416666666293, 6.547916666666573 ], [ 81.410416666666293, 6.539583333333219 ], [ 81.414583333332956, 6.535416666666556 ], [ 81.414583333332956, 6.53125 ], [ 81.418749999999619, 6.527083333333245 ] ] ] } },
{ "type": "Feature", "properties": { "HYRIV_ID": 41407682, "NEXT_DOWN": 41407847, "MAIN_RIV": 41408473, "LENGTH_KM": 7.8600001, "DIST_DN_KM": 30.4, "DIST_UP_KM": 10.3, "CATCH_SKM": 31.35, "UPLAND_SKM": 31.3, "ENDORHEIC": 0, "DIS_AV_CMS": 0.552, "ORD_STRA": 1, "ORD_CLAS": 4, "ORD_FLOW": 7, "HYBAS_L12": 4121159370.0, "Shape_Length": 0.070772005725948037 }, "geometry": { "type": "MultiLineString", "coordinates": [ [ [ 81.427083333332945, 6.587499999999871 ], [ 81.427083333332945, 6.581249999999891 ], [ 81.431249999999608, 6.577083333333228 ], [ 81.431249999999608, 6.572916666666579 ], [ 81.427083333332945, 6.56875 ], [ 81.427083333332945, 6.556249999999899 ], [ 81.431249999999608, 6.552083333333236 ], [ 81.422916666666282, 6.54375 ], [ 81.422916666666282, 6.53125 ], [ 81.418749999999619, 6.527083333333245 ] ] ] } },
{ "type": "Feature", "properties": { "HYRIV_ID": 41407807, "NEXT_DOWN": 41407890, "MAIN_RIV": 41408473, "LENGTH_KM": 6.89, "DIST_DN_KM": 41.700001, "DIST_UP_KM": 64.599998, "CATCH_SKM": 18.98, "UPLAND_SKM": 567.0, "ENDORHEIC": 0, "DIS_AV_CMS": 12.12, "ORD_STRA": 3, "ORD_CLAS": 1, "ORD_FLOW": 5, "HYBAS_L12": 4121159450.0, "Shape_Length": 0.062081228902586744 }, "geometry": { "type": "MultiLineString", "coordinates": [ [ [ 81.256249999999596, 6.552083333333236 ], [ 81.260416666666259, 6.547916666666573 ], [ 81.260416666666259, 6.539583333333219 ], [ 81.256249999999596, 6.535416666666556 ], [ 81.256249999999596, 6.527083333333245 ], [ 81.268749999999642, 6.514583333333228 ], [ 81.268749999999642, 6.510416666666565 ], [ 81.277083333332968, 6.502083333333211 ] ] ] } },
{ "type": "Feature", "properties": { "HYRIV_ID": 41407808, "NEXT_DOWN": 41407890, "MAIN_RIV": 41408473, "LENGTH_KM": 7.2, "DIST_DN_KM": 41.5, "DIST_UP_KM": 10.1, "CATCH_SKM": 24.950001, "UPLAND_SKM": 25.0, "ENDORHEIC": 0, "DIS_AV_CMS": 0.496, "ORD_STRA": 1, "ORD_CLAS": 2, "ORD_FLOW": 7, "HYBAS_L12": 4121159450.0, "Shape_Length": 0.064879449216101545 }, "geometry": { "type": "MultiLineString", "coordinates": [ [ [ 81.293749999999619, 6.554166666666568 ], [ 81.293749999999619, 6.535416666666556 ], [ 81.289583333332956, 6.53125 ], [ 81.289583333332956, 6.527083333333245 ], [ 81.285416666666293, 6.522916666666539 ], [ 81.289583333332956, 6.518749999999891 ], [ 81.289583333332956, 6.514583333333228 ], [ 81.281249999999574, 6.50625 ], [ 81.277083333332968, 6.50625 ], [ 81.277083333332968, 6.502083333333211 ] ] ] } },
{ "type": "Feature", "properties": { "HYRIV_ID": 41407828, "NEXT_DOWN": 41407905, "MAIN_RIV": 41408473, "LENGTH_KM": 4.7600002, "DIST_DN_KM": 41.900002, "DIST_UP_KM": 7.4, "CATCH_SKM": 21.110001, "UPLAND_SKM": 21.1, "ENDORHEIC": 0, "DIS_AV_CMS": 0.456, "ORD_STRA": 1, "ORD_CLAS": 3, "ORD_FLOW": 7, "HYBAS_L12": 4121159460.0, "Shape_Length": 0.043035113019679092 }, "geometry": { "type": "MultiLineString", "coordinates": [ [ [ 81.206249999999699, 6.512499999999896 ], [ 81.206249999999699, 6.50625 ], [ 81.210416666666362, 6.50625 ], [ 81.214583333333024, 6.502083333333211 ], [ 81.227083333333013, 6.502083333333211 ], [ 81.231249999999733, 6.497916666666548 ], [ 81.239583333332945, 6.497916666666548 ] ] ] } },
{ "type": "Feature", "properties": { "HYRIV_ID": 41407829, "NEXT_DOWN": 41407905, "MAIN_RIV": 41408473, "LENGTH_KM": 7.35, "DIST_DN_KM": 41.900002, "DIST_UP_KM": 20.4, "CATCH_SKM": 23.030001, "UPLAND_SKM": 69.300003, "ENDORHEIC": 0, "DIS_AV_CMS": 1.529, "ORD_STRA": 2, "ORD_CLAS": 2, "ORD_FLOW": 6, "HYBAS_L12": 4121159460.0, "Shape_Length": 0.066247895569166798 }, "geometry": { "type": "MultiLineString", "coordinates": [ [ [ 81.210416666666362, 6.54375 ], [ 81.218749999999687, 6.54375 ], [ 81.22291666666635, 6.539583333333219 ], [ 81.22291666666635, 6.535416666666556 ], [ 81.235416666666396, 6.522916666666539 ], [ 81.235416666666396, 6.518749999999891 ], [ 81.231249999999733, 6.514583333333228 ], [ 81.235416666666396, 6.510416666666565 ], [ 81.235416666666396, 6.50625 ], [ 81.239583333332945, 6.502083333333211 ], [ 81.239583333332945, 6.497916666666548 ] ] ] } },
{ "type": "Feature", "properties": { "HYRIV_ID": 41407847, "NEXT_DOWN": 41407878, "MAIN_RIV": 41408473, "LENGTH_KM": 4.4699998, "DIST_DN_KM": 26.0, "DIST_UP_KM": 18.6, "CATCH_SKM": 12.8, "UPLAND_SKM": 81.5, "ENDORHEIC": 0, "DIS_AV_CMS": 1.4400001, "ORD_STRA": 2, "ORD_CLAS": 3, "ORD_FLOW": 6, "HYBAS_L12": 4121159370.0, "Shape_Length": 0.04023689270623261 }, "geometry": { "type": "MultiLineString", "coordinates": [ [ [ 81.418749999999619, 6.527083333333245 ], [ 81.418749999999619, 6.518749999999891 ], [ 81.422916666666282, 6.514583333333228 ], [ 81.418749999999619, 6.510416666666565 ], [ 81.422916666666282, 6.50625 ], [ 81.422916666666282, 6.497916666666548 ], [ 81.427083333332945, 6.493749999999899 ] ] ] } },
{ "type": "Feature", "properties": { "HYRIV_ID": 41407848, "NEXT_DOWN": 41407878, "MAIN_RIV": 41408473, "LENGTH_KM": 4.79, "DIST_DN_KM": 26.0, "DIST_UP_KM": 9.4, "CATCH_SKM": 26.450001, "UPLAND_SKM": 26.4, "ENDORHEIC": 0, "DIS_AV_CMS": 0.44600001, "ORD_STRA": 1, "ORD_CLAS": 4, "ORD_FLOW": 7, "HYBAS_L12": 4121159370.0, "Shape_Length": 0.043183170961181488 }, "geometry": { "type": "MultiLineString", "coordinates": [ [ [ 81.445833333332956, 6.529166666666576 ], [ 81.431249999999608, 6.514583333333228 ], [ 81.431249999999608, 6.497916666666548 ], [ 81.427083333332945, 6.493749999999899 ] ] ] } },
{ "type": "Feature", "properties": { "HYRIV_ID": 41407877, "NEXT_DOWN": 41408032, "MAIN_RIV": 41408473, "LENGTH_KM": 12.46, "DIST_DN_KM": 24.700001, "DIST_UP_KM": 26.0, "CATCH_SKM": 35.400002, "UPLAND_SKM": 103.4, "ENDORHEIC": 0, "DIS_AV_CMS": 1.906, "ORD_STRA": 2, "ORD_CLAS": 2, "ORD_FLOW": 6, "HYBAS_L12": 4121159390.0, "Shape_Length": 0.11237734478521089 }, "geometry": { "type": "MultiLineString", "coordinates": [ [ [ 81.364583333333059, 6.560416666666562 ], [ 81.368749999999608, 6.556249999999899 ], [ 81.368749999999608, 6.54375 ], [ 81.372916666666271, 6.539583333333219 ], [ 81.372916666666271, 6.53125 ], [ 81.368749999999608, 6.527083333333245 ], [ 81.385416666666259, 6.510416666666565 ], [ 81.389583333332922, 6.510416666666565 ], [ 81.393749999999642, 6.50625 ], [ 81.397916666666248, 6.50625 ], [ 81.406249999999574, 6.497916666666548 ], [ 81.410416666666293, 6.497916666666548 ], [ 81.414583333332956, 6.493749999999899 ], [ 81.414583333332956, 6.489583333333236 ], [ 81.418749999999619, 6.485416666666573 ], [ 81.422916666666282, 6.485416666666573 ] ] ] } },
{ "type": "Feature", "properties": { "HYRIV_ID": 41407878, "NEXT_DOWN": 41408032, "MAIN_RIV": 41408473, "LENGTH_KM": 1.12, "DIST_DN_KM": 24.9, "DIST_UP_KM": 19.700001, "CATCH_SKM": 1.49, "UPLAND_SKM": 109.4, "ENDORHEIC": 0, "DIS_AV_CMS": 1.9, "ORD_STRA": 2, "ORD_CLAS": 3, "ORD_FLOW": 6, "HYBAS_L12": 4121159370.0, "Shape_Length": 0.010059223176545413 }, "geometry": { "type": "MultiLineString", "coordinates": [ [ [ 81.427083333332945, 6.493749999999899 ], [ 81.427083333332945, 6.489583333333236 ], [ 81.422916666666282, 6.485416666666573 ] ] ] } },
{ "type": "Feature", "properties": { "HYRIV_ID": 41407890, "NEXT_DOWN": 41407971, "MAIN_RIV": 41408473, "LENGTH_KM": 2.8900001, "DIST_DN_KM": 38.8, "DIST_UP_KM": 67.5, "CATCH_SKM": 6.4, "UPLAND_SKM": 598.40002, "ENDORHEIC": 0, "DIS_AV_CMS": 12.571, "ORD_STRA": 3, "ORD_CLAS": 1, "ORD_FLOW": 5, "HYBAS_L12": 4121159450.0, "Shape_Length": 0.02601100286295327 }, "geometry": { "type": "MultiLineString", "coordinates": [ [ [ 81.277083333332968, 6.502083333333211 ], [ 81.277083333332968, 6.497916666666548 ], [ 81.281249999999574, 6.493749999999899 ], [ 81.281249999999574, 6.489583333333236 ], [ 81.289583333332956, 6.48125 ] ] ] } },
{ "type": "Feature", "properties": { "HYRIV_ID": 41407891, "NEXT_DOWN": 41407971, "MAIN_RIV": 41408473, "LENGTH_KM": 2.56, "DIST_DN_KM": 38.599998, "DIST_UP_KM": 5.3, "CATCH_SKM": 11.52, "UPLAND_SKM": 11.5, "ENDORHEIC": 0, "DIS_AV_CMS": 0.223, "ORD_STRA": 1, "ORD_CLAS": 2, "ORD_FLOW": 7, "HYBAS_L12": 4121159450.0, "Shape_Length": 0.023064724608068129 }, "geometry": { "type": "MultiLineString", "coordinates": [ [ [ 81.299999999999699, 6.499999999999879 ], [ 81.293749999999619, 6.493749999999899 ], [ 81.293749999999619, 6.489583333333236 ], [ 81.289583333332956, 6.485416666666573 ], [ 81.289583333332956, 6.48125 ] ] ] } },
{ "type": "Feature", "properties": { "HYRIV_ID": 41407904, "NEXT_DOWN": 41407970, "MAIN_RIV": 41408473, "LENGTH_KM": 1.61, "DIST_DN_KM": 38.599998, "DIST_UP_KM": 4.5, "CATCH_SKM": 7.46, "UPLAND_SKM": 7.5, "ENDORHEIC": 0, "DIS_AV_CMS": 0.154, "ORD_STRA": 1, "ORD_CLAS": 3, "ORD_FLOW": 7, "HYBAS_L12": 4121159460.0, "Shape_Length": 0.014583333333291648 }, "geometry": { "type": "MultiLineString", "coordinates": [ [ [ 81.245833333332968, 6.477083333333219 ], [ 81.260416666666259, 6.477083333333219 ] ] ] } },
{ "type": "Feature", "properties": { "HYRIV_ID": 41407905, "NEXT_DOWN": 41407970, "MAIN_RIV": 41408473, "LENGTH_KM": 3.27, "DIST_DN_KM": 38.8, "DIST_UP_KM": 23.5, "CATCH_SKM": 10.45, "UPLAND_SKM": 100.9, "ENDORHEIC": 0, "DIS_AV_CMS": 2.171, "ORD_STRA": 2, "ORD_CLAS": 2, "ORD_FLOW": 6, "HYBAS_L12": 4121159460.0, "Shape_Length": 0.029462782549422733 }, "geometry": { "type": "MultiLineString", "coordinates": [ [ [ 81.239583333332945, 6.497916666666548 ], [ 81.260416666666259, 6.477083333333219 ] ] ] } },
{ "type": "Feature", "properties": { "HYRIV_ID": 41407970, "NEXT_DOWN": 41408052, "MAIN_RIV": 41408473, "LENGTH_KM": 2.4200001, "DIST_DN_KM": 36.200001, "DIST_UP_KM": 26.1, "CATCH_SKM": 5.7600002, "UPLAND_SKM": 114.1, "ENDORHEIC": 0, "DIS_AV_CMS": 2.4130001, "ORD_STRA": 2, "ORD_CLAS": 2, "ORD_FLOW": 6, "HYBAS_L12": 4121159460.0, "Shape_Length": 0.021844336196357284 }, "geometry": { "type": "MultiLineString", "coordinates": [ [ [ 81.260416666666259, 6.477083333333219 ], [ 81.272916666666248, 6.464583333333245 ], [ 81.277083333332968, 6.464583333333245 ] ] ] } },
{ "type": "Feature", "properties": { "HYRIV_ID": 41407971, "NEXT_DOWN": 41408052, "MAIN_RIV": 41408473, "LENGTH_KM": 2.4200001, "DIST_DN_KM": 36.400002, "DIST_UP_KM": 70.0, "CATCH_SKM": 4.9099998, "UPLAND_SKM": 614.79999, "ENDORHEIC": 0, "DIS_AV_CMS": 12.731, "ORD_STRA": 3, "ORD_CLAS": 1, "ORD_FLOW": 5, "HYBAS_L12": 4121159450.0, "Shape_Length": 0.021844336196326419 }, "geometry": { "type": "MultiLineString", "coordinates": [ [ [ 81.289583333332956, 6.48125 ], [ 81.281249999999574, 6.472916666666556 ], [ 81.281249999999574, 6.46875 ], [ 81.277083333332968, 6.464583333333245 ] ] ] } },
{ "type": "Feature", "properties": { "HYRIV_ID": 41408031, "NEXT_DOWN": 41408090, "MAIN_RIV": 41408473, "LENGTH_KM": 15.4, "DIST_DN_KM": 19.5, "DIST_UP_KM": 20.0, "CATCH_SKM": 51.189999, "UPLAND_SKM": 51.200001, "ENDORHEIC": 0, "DIS_AV_CMS": 0.90499997, "ORD_STRA": 1, "ORD_CLAS": 3, "ORD_FLOW": 7, "HYBAS_L12": 4121159470.0, "Shape_Length": 0.13889384907990066 }, "geometry": { "type": "MultiLineString", "coordinates": [ [ [ 81.333333333332945, 6.533333333333239 ], [ 81.34791666666635, 6.518749999999891 ], [ 81.34791666666635, 6.510416666666565 ], [ 81.352083333333013, 6.50625 ], [ 81.356249999999676, 6.50625 ], [ 81.360416666666396, 6.502083333333211 ], [ 81.360416666666396, 6.497916666666548 ], [ 81.364583333333059, 6.497916666666548 ], [ 81.385416666666259, 6.477083333333219 ], [ 81.389583333332922, 6.48125 ], [ 81.393749999999642, 6.48125 ], [ 81.397916666666248, 6.477083333333219 ], [ 81.402083333332968, 6.477083333333219 ], [ 81.414583333332956, 6.464583333333245 ], [ 81.414583333332956, 6.45625 ], [ 81.418749999999619, 6.452083333333228 ], [ 81.418749999999619, 6.447916666666565 ] ] ] } },
{ "type": "Feature", "properties": { "HYRIV_ID": 41408032, "NEXT_DOWN": 41408090, "MAIN_RIV": 41408473, "LENGTH_KM": 5.12, "DIST_DN_KM": 19.700001, "DIST_UP_KM": 30.9, "CATCH_SKM": 15.14, "UPLAND_SKM": 228.0, "ENDORHEIC": 0, "DIS_AV_CMS": 3.957, "ORD_STRA": 3, "ORD_CLAS": 2, "ORD_FLOW": 6, "HYBAS_L12": 4121159470.0, "Shape_Length": 0.046129449216119313 }, "geometry": { "type": "MultiLineString", "coordinates": [ [ [ 81.422916666666282, 6.485416666666573 ], [ 81.427083333332945, 6.48125 ], [ 81.427083333332945, 6.472916666666556 ], [ 81.431249999999608, 6.46875 ], [ 81.427083333332945, 6.464583333333245 ], [ 81.427083333332945, 6.460416666666582 ], [ 81.422916666666282, 6.45625 ], [ 81.422916666666282, 6.452083333333228 ], [ 81.418749999999619, 6.447916666666565 ] ] ] } },
{ "type": "Feature", "properties": { "HYRIV_ID": 41408052, "NEXT_DOWN": 41408108, "MAIN_RIV": 41408473, "LENGTH_KM": 2.51, "DIST_DN_KM": 33.700001, "DIST_UP_KM": 72.699997, "CATCH_SKM": 9.3800001, "UPLAND_SKM": 738.29999, "ENDORHEIC": 0, "DIS_AV_CMS": 15.092, "ORD_STRA": 3, "ORD_CLAS": 1, "ORD_FLOW": 5, "HYBAS_L12": 4121159500.0, "Shape_Length": 0.022559223176509786 }, "geometry": { "type": "MultiLineString", "coordinates": [ [ [ 81.277083333332968, 6.464583333333245 ], [ 81.277083333332968, 6.45625 ], [ 81.281249999999574, 6.452083333333228 ], [ 81.281249999999574, 6.44375 ] ] ] } },
{ "type": "Feature", "properties": { "HYRIV_ID": 41408087, "NEXT_DOWN": 41408088, "MAIN_RIV": 41408473, "LENGTH_KM": 1.4400001, "DIST_DN_KM": 36.700001, "DIST_UP_KM": 4.5, "CATCH_SKM": 6.6100001, "UPLAND_SKM": 6.6, "ENDORHEIC": 0, "DIS_AV_CMS": 0.134, "ORD_STRA": 1, "ORD_CLAS": 2, "ORD_FLOW": 7, "HYBAS_L12": 4121159500.0, "Shape_Length": 0.013005501431499169 }, "geometry": { "type": "MultiLineString", "coordinates": [ [ [ 81.254166666666293, 6.445833333333233 ], [ 81.260416666666259, 6.439583333333253 ], [ 81.260416666666259, 6.435416666666548 ] ] ] } },
{ "type": "Feature", "properties": { "HYRIV_ID": 41408088, "NEXT_DOWN": 41408108, "MAIN_RIV": 41408473, "LENGTH_KM": 2.96, "DIST_DN_KM": 33.700001, "DIST_UP_KM": 7.4, "CATCH_SKM": 5.33, "UPLAND_SKM": 20.700001, "ENDORHEIC": 0, "DIS_AV_CMS": 0.408, "ORD_STRA": 2, "ORD_CLAS": 2, "ORD_FLOW": 7, "HYBAS_L12": 4121159500.0, "Shape_Length": 0.026725889843229506 }, "geometry": { "type": "MultiLineString", "coordinates": [ [ [ 81.260416666666259, 6.435416666666548 ], [ 81.277083333332968, 6.435416666666548 ], [ 81.281249999999574, 6.439583333333253 ], [ 81.281249999999574, 6.44375 ] ] ] } },
{ "type": "Feature", "properties": { "HYRIV_ID": 41408089, "NEXT_DOWN": 41408193, "MAIN_RIV": 41408473, "LENGTH_KM": 4.3200002, "DIST_DN_KM": 18.0, "DIST_UP_KM": 7.3, "CATCH_SKM": 15.36, "UPLAND_SKM": 15.4, "ENDORHEIC": 0, "DIS_AV_CMS": 0.265, "ORD_STRA": 1, "ORD_CLAS": 3, "ORD_FLOW": 7, "HYBAS_L12": 4121159470.0, "Shape_Length": 0.039016504294520339 }, "geometry": { "type": "MultiLineString", "coordinates": [ [ [ 81.383333333332956, 6.45833333333325 ], [ 81.389583333332922, 6.452083333333228 ], [ 81.389583333332922, 6.447916666666565 ], [ 81.397916666666248, 6.447916666666565 ], [ 81.410416666666293, 6.435416666666548 ] ] ] } },
{ "type": "Feature", "properties": { "HYRIV_ID": 41408090, "NEXT_DOWN": 41408193, "MAIN_RIV": 41408473, "LENGTH_KM": 1.77, "DIST_DN_KM": 18.0, "DIST_UP_KM": 32.700001, "CATCH_SKM": 7.6799998, "UPLAND_SKM": 286.79999, "ENDORHEIC": 0, "DIS_AV_CMS": 4.947, "ORD_STRA": 3, "ORD_CLAS": 2, "ORD_FLOW": 6, "HYBAS_L12": 4121159470.0, "Shape_Length": 0.015951779686448047 }, "geometry": { "type": "MultiLineString", "coordinates": [ [ [ 81.418749999999619, 6.447916666666565 ], [ 81.418749999999619, 6.44375 ], [ 81.410416666666293, 6.435416666666548 ] ] ] } },
{ "type": "Feature", "properties": { "HYRIV_ID": 41408107, "NEXT_DOWN": 41408088, "MAIN_RIV": 41408473, "LENGTH_KM": 0.98, "DIST_DN_KM": 36.900002, "DIST_UP_KM": 3.8, "CATCH_SKM": 8.75, "UPLAND_SKM": 8.7, "ENDORHEIC": 0, "DIS_AV_CMS": 0.175, "ORD_STRA": 1, "ORD_CLAS": 3, "ORD_FLOW": 7, "HYBAS_L12": 4121159500.0, "Shape_Length": 0.0088388347647936592 }, "geometry": { "type": "MultiLineString", "coordinates": [ [ [ 81.254166666666293, 6.429166666666568 ], [ 81.260416666666259, 6.435416666666548 ] ] ] } },
{ "type": "Feature", "properties": { "HYRIV_ID": 41408108, "NEXT_DOWN": 41408192, "MAIN_RIV": 41408473, "LENGTH_KM": 1.77, "DIST_DN_KM": 32.099998, "DIST_UP_KM": 74.199997, "CATCH_SKM": 3.2, "UPLAND_SKM": 762.20001, "ENDORHEIC": 0, "DIS_AV_CMS": 15.416, "ORD_STRA": 3, "ORD_CLAS": 1, "ORD_FLOW": 5, "HYBAS_L12": 4121159500.0, "Shape_Length": 0.015951779686500727 }, "geometry": { "type": "MultiLineString", "coordinates": [ [ [ 81.281249999999574, 6.44375 ], [ 81.285416666666293, 6.439583333333253 ], [ 81.285416666666293, 6.435416666666548 ], [ 81.289583333332956, 6.431249999999885 ] ] ] } },
{ "type": "Feature", "properties": { "HYRIV_ID": 41408128, "NEXT_DOWN": 41408192, "MAIN_RIV": 41408473, "LENGTH_KM": 2.27, "DIST_DN_KM": 32.099998, "DIST_UP_KM": 5.5, "CATCH_SKM": 11.09, "UPLAND_SKM": 11.1, "ENDORHEIC": 0, "DIS_AV_CMS": 0.213, "ORD_STRA": 1, "ORD_CLAS": 2, "ORD_FLOW": 7, "HYBAS_L12": 4121159500.0, "Shape_Length": 0.020475889843164136 }, "geometry": { "type": "MultiLineString", "coordinates": [ [ [ 81.270833333333002, 6.427083333333236 ], [ 81.285416666666293, 6.427083333333236 ], [ 81.289583333332956, 6.431249999999885 ] ] ] } },
{ "type": "Feature", "properties": { "HYRIV_ID": 41408192, "NEXT_DOWN": 41408222, "MAIN_RIV": 41408473, "LENGTH_KM": 5.5700002, "DIST_DN_KM": 26.4, "DIST_UP_KM": 80.0, "CATCH_SKM": 22.82, "UPLAND_SKM": 796.09998, "ENDORHEIC": 0, "DIS_AV_CMS": 15.559, "ORD_STRA": 3, "ORD_CLAS": 1, "ORD_FLOW": 5, "HYBAS_L12": 4121159500.0, "Shape_Length": 0.050296115882722911 }, "geometry": { "type": "MultiLineString", "coordinates": [ [ [ 81.289583333332956, 6.431249999999885 ], [ 81.293749999999619, 6.427083333333236 ], [ 81.297916666666282, 6.431249999999885 ], [ 81.302083333332945, 6.427083333333236 ], [ 81.306249999999608, 6.427083333333236 ], [ 81.310416666666328, 6.422916666666573 ], [ 81.322916666666316, 6.422916666666573 ], [ 81.327083333332979, 6.41875 ], [ 81.327083333332979, 6.414583333333262 ] ] ] } },
{ "type": "Feature", "properties": { "HYRIV_ID": 41408193, "NEXT_DOWN": 41408243, "MAIN_RIV": 41408473, "LENGTH_KM": 5.8400002, "DIST_DN_KM": 11.9, "DIST_UP_KM": 38.700001, "CATCH_SKM": 18.129999, "UPLAND_SKM": 320.29999, "ENDORHEIC": 0, "DIS_AV_CMS": 5.3379998, "ORD_STRA": 3, "ORD_CLAS": 2, "ORD_FLOW": 6, "HYBAS_L12": 4121159470.0, "Shape_Length": 0.052736892706186221 }, "geometry": { "type": "MultiLineString", "coordinates": [ [ [ 81.410416666666293, 6.435416666666548 ], [ 81.410416666666293, 6.431249999999885 ], [ 81.414583333332956, 6.427083333333236 ], [ 81.414583333332956, 6.422916666666573 ], [ 81.418749999999619, 6.41875 ], [ 81.422916666666282, 6.41875 ], [ 81.427083333332945, 6.422916666666573 ], [ 81.435416666666271, 6.422916666666573 ], [ 81.43958333333299, 6.41875 ], [ 81.43958333333299, 6.414583333333262 ], [ 81.443749999999653, 6.414583333333262 ] ] ] } },
{ "type": "Feature", "properties": { "HYRIV_ID": 41408222, "NEXT_DOWN": 41408266, "MAIN_RIV": 41408473, "LENGTH_KM": 0.65, "DIST_DN_KM": 25.9, "DIST_UP_KM": 80.5, "CATCH_SKM": 0.64, "UPLAND_SKM": 804.40002, "ENDORHEIC": 0, "DIS_AV_CMS": 15.662, "ORD_STRA": 3, "ORD_CLAS": 1, "ORD_FLOW": 5, "HYBAS_L12": 4121159500.0, "Shape_Length": 0.0058925565099126826 }, "geometry": { "type": "MultiLineString", "coordinates": [ [ [ 81.327083333332979, 6.414583333333262 ], [ 81.331249999999642, 6.410416666666556 ] ] ] } },
{ "type": "Feature", "properties": { "HYRIV_ID": 41408242, "NEXT_DOWN": 41408222, "MAIN_RIV": 41408473, "LENGTH_KM": 2.27, "DIST_DN_KM": 26.4, "DIST_UP_KM": 6.6, "CATCH_SKM": 7.6799998, "UPLAND_SKM": 7.7, "ENDORHEIC": 0, "DIS_AV_CMS": 0.142, "ORD_STRA": 1, "ORD_CLAS": 2, "ORD_FLOW": 7, "HYBAS_L12": 4121159500.0, "Shape_Length": 0.020475889843330503 }, "geometry": { "type": "MultiLineString", "coordinates": [ [ [ 81.312499999999574, 6.406249999999893 ], [ 81.322916666666316, 6.406249999999893 ], [ 81.327083333332979, 6.410416666666556 ], [ 81.327083333332979, 6.414583333333262 ] ] ] } },
{ "type": "Feature", "properties": { "HYRIV_ID": 41408243, "NEXT_DOWN": 41408269, "MAIN_RIV": 41408473, "LENGTH_KM": 2.23, "DIST_DN_KM": 9.9, "DIST_UP_KM": 96.5, "CATCH_SKM": 5.33, "UPLAND_SKM": 1266.6, "ENDORHEIC": 0, "DIS_AV_CMS": 21.674, "ORD_STRA": 4, "ORD_CLAS": 1, "ORD_FLOW": 5, "HYBAS_L12": 4120050020.0, "Shape_Length": 0.020118446353120972 }, "geometry": { "type": "MultiLineString", "coordinates": [ [ [ 81.443749999999653, 6.414583333333262 ], [ 81.447916666666316, 6.414583333333262 ], [ 81.452083333332979, 6.410416666666556 ], [ 81.456249999999642, 6.410416666666556 ], [ 81.460416666666305, 6.406249999999893 ] ] ] } },
{ "type": "Feature", "properties": { "HYRIV_ID": 41408244, "NEXT_DOWN": 41408269, "MAIN_RIV": 41408473, "LENGTH_KM": 6.3600001, "DIST_DN_KM": 9.7, "DIST_UP_KM": 10.7, "CATCH_SKM": 20.049999, "UPLAND_SKM": 20.1, "ENDORHEIC": 0, "DIS_AV_CMS": 0.315, "ORD_STRA": 1, "ORD_CLAS": 2, "ORD_FLOW": 7, "HYBAS_L12": 4120050020.0, "Shape_Length": 0.057261002863104704 }, "geometry": { "type": "MultiLineString", "coordinates": [ [ [ 81.464583333332968, 6.45833333333325 ], [ 81.464583333332968, 6.447916666666565 ], [ 81.468749999999687, 6.44375 ], [ 81.464583333332968, 6.439583333333253 ], [ 81.464583333332968, 6.41875 ], [ 81.460416666666305, 6.414583333333262 ], [ 81.460416666666305, 6.406249999999893 ] ] ] } },
{ "type": "Feature", "properties": { "HYRIV_ID": 41408266, "NEXT_DOWN": 41408267, "MAIN_RIV": 41408473, "LENGTH_KM": 6.37, "DIST_DN_KM": 19.5, "DIST_UP_KM": 86.800003, "CATCH_SKM": 14.72, "UPLAND_SKM": 830.0, "ENDORHEIC": 0, "DIS_AV_CMS": 15.447, "ORD_STRA": 3, "ORD_CLAS": 1, "ORD_FLOW": 5, "HYBAS_L12": 4121159500.0, "Shape_Length": 0.057618446353046672 }, "geometry": { "type": "MultiLineString", "coordinates": [ [ [ 81.331249999999642, 6.410416666666556 ], [ 81.377083333332934, 6.410416666666556 ], [ 81.385416666666259, 6.402083333333245 ] ] ] } },
{ "type": "Feature", "properties": { "HYRIV_ID": 41408267, "NEXT_DOWN": 41408289, "MAIN_RIV": 41408473, "LENGTH_KM": 1.38, "DIST_DN_KM": 18.0, "DIST_UP_KM": 88.400002, "CATCH_SKM": 2.35, "UPLAND_SKM": 852.0, "ENDORHEIC": 0, "DIS_AV_CMS": 15.665, "ORD_STRA": 3, "ORD_CLAS": 1, "ORD_FLOW": 5, "HYBAS_L12": 4121159500.0, "Shape_Length": 0.012499999999988631 }, "geometry": { "type": "MultiLineString", "coordinates": [ [ [ 81.385416666666259, 6.402083333333245 ], [ 81.397916666666248, 6.402083333333245 ] ] ] } },
{ "type": "Feature", "properties": { "HYRIV_ID": 41408268, "NEXT_DOWN": 41408289, "MAIN_RIV": 41408473, "LENGTH_KM": 14.73, "DIST_DN_KM": 18.0, "DIST_UP_KM": 17.700001, "CATCH_SKM": 53.75, "UPLAND_SKM": 53.8, "ENDORHEIC": 0, "DIS_AV_CMS": 0.931, "ORD_STRA": 1, "ORD_CLAS": 2, "ORD_FLOW": 7, "HYBAS_L12": 4121159500.0, "Shape_Length": 0.13285323462851367 }, "geometry": { "type": "MultiLineString", "coordinates": [ [ [ 81.329166666666282, 6.472916666666556 ], [ 81.335416666666362, 6.472916666666556 ], [ 81.339583333333024, 6.46875 ], [ 81.339583333333024, 6.464583333333245 ], [ 81.335416666666362, 6.460416666666582 ], [ 81.335416666666362, 6.45625 ], [ 81.339583333333024, 6.452083333333228 ], [ 81.339583333333024, 6.435416666666548 ], [ 81.352083333333013, 6.422916666666573 ], [ 81.356249999999676, 6.427083333333236 ], [ 81.360416666666396, 6.422916666666573 ], [ 81.364583333333059, 6.422916666666573 ], [ 81.368749999999608, 6.427083333333236 ], [ 81.377083333332934, 6.427083333333236 ], [ 81.389583333332922, 6.414583333333262 ], [ 81.393749999999642, 6.414583333333262 ], [ 81.397916666666248, 6.410416666666556 ], [ 81.397916666666248, 6.402083333333245 ] ] ] } },
{ "type": "Feature", "properties": { "HYRIV_ID": 41408269, "NEXT_DOWN": 41408291, "MAIN_RIV": 41408473, "LENGTH_KM": 2.03, "DIST_DN_KM": 7.7, "DIST_UP_KM": 98.699997, "CATCH_SKM": 4.48, "UPLAND_SKM": 1291.1, "ENDORHEIC": 0, "DIS_AV_CMS": 21.757999, "ORD_STRA": 4, "ORD_CLAS": 1, "ORD_FLOW": 5, "HYBAS_L12": 4120050020.0, "Shape_Length": 0.018392556509917963 }, "geometry": { "type": "MultiLineString", "coordinates": [ [ [ 81.460416666666305, 6.406249999999893 ], [ 81.464583333332968, 6.402083333333245 ], [ 81.477083333333013, 6.402083333333245 ] ] ] } },
{ "type": "Feature", "properties": { "HYRIV_ID": 41408270, "NEXT_DOWN": 41408291, "MAIN_RIV": 41408473, "LENGTH_KM": 15.66, "DIST_DN_KM": 7.9, "DIST_UP_KM": 19.0, "CATCH_SKM": 40.310001, "UPLAND_SKM": 40.3, "ENDORHEIC": 0, "DIS_AV_CMS": 0.61799997, "ORD_STRA": 1, "ORD_CLAS": 2, "ORD_FLOW": 7, "HYBAS_L12": 4120050020.0, "Shape_Length": 0.14103851002053114 }, "geometry": { "type": "MultiLineString", "coordinates": [ [ [ 81.474999999999596, 6.525 ], [ 81.481249999999676, 6.518749999999891 ], [ 81.481249999999676, 6.514583333333228 ], [ 81.485416666666339, 6.510416666666565 ], [ 81.485416666666339, 6.497916666666548 ], [ 81.477083333333013, 6.489583333333236 ], [ 81.477083333333013, 6.464583333333245 ], [ 81.481249999999676, 6.460416666666582 ], [ 81.481249999999676, 6.45625 ], [ 81.477083333333013, 6.452083333333228 ], [ 81.477083333333013, 6.431249999999885 ], [ 81.481249999999676, 6.427083333333236 ], [ 81.481249999999676, 6.41875 ], [ 81.477083333333013, 6.414583333333262 ], [ 81.477083333333013, 6.410416666666556 ], [ 81.481249999999676, 6.406249999999893 ], [ 81.477083333333013, 6.402083333333245 ] ] ] } },
{ "type": "Feature", "properties": { "HYRIV_ID": 41408288, "NEXT_DOWN": 41408266, "MAIN_RIV": 41408473, "LENGTH_KM": 2.29, "DIST_DN_KM": 25.9, "DIST_UP_KM": 5.3, "CATCH_SKM": 10.88, "UPLAND_SKM": 10.9, "ENDORHEIC": 0, "DIS_AV_CMS": 0.199, "ORD_STRA": 1, "ORD_CLAS": 2, "ORD_FLOW": 7, "HYBAS_L12": 4121159500.0, "Shape_Length": 0.020623947784629074 }, "geometry": { "type": "MultiLineString", "coordinates": [ [ [ 81.316666666666293, 6.395833333333208 ], [ 81.331249999999642, 6.410416666666556 ] ] ] } },
{ "type": "Feature", "properties": { "HYRIV_ID": 41408289, "NEXT_DOWN": 41408290, "MAIN_RIV": 41408473, "LENGTH_KM": 1.5700001, "DIST_DN_KM": 16.4, "DIST_UP_KM": 90.0, "CATCH_SKM": 3.6300001, "UPLAND_SKM": 909.40002, "ENDORHEIC": 0, "DIS_AV_CMS": 16.488001, "ORD_STRA": 3, "ORD_CLAS": 1, "ORD_FLOW": 5, "HYBAS_L12": 4121159500.0, "Shape_Length": 0.014225889843278631 }, "geometry": { "type": "MultiLineString", "coordinates": [ [ [ 81.397916666666248, 6.402083333333245 ], [ 81.402083333332968, 6.397916666666539 ], [ 81.410416666666293, 6.397916666666539 ] ] ] } },
{ "type": "Feature", "properties": { "HYRIV_ID": 41408290, "NEXT_DOWN": 41408243, "MAIN_RIV": 41408473, "LENGTH_KM": 4.4499998, "DIST_DN_KM": 12.1, "DIST_UP_KM": 94.199997, "CATCH_SKM": 14.51, "UPLAND_SKM": 940.90002, "ENDORHEIC": 0, "DIS_AV_CMS": 16.547001, "ORD_STRA": 3, "ORD_CLAS": 1, "ORD_FLOW": 5, "HYBAS_L12": 4121159500.0, "Shape_Length": 0.040236892706272093 }, "geometry": { "type": "MultiLineString", "coordinates": [ [ [ 81.410416666666293, 6.397916666666539 ], [ 81.414583333332956, 6.397916666666539 ], [ 81.418749999999619, 6.402083333333245 ], [ 81.431249999999608, 6.402083333333245 ], [ 81.443749999999653, 6.414583333333262 ] ] ] } },
{ "type": "Feature", "properties": { "HYRIV_ID": 41408291, "NEXT_DOWN": 41408455, "MAIN_RIV": 41408473, "LENGTH_KM": 0.65, "DIST_DN_KM": 7.2, "DIST_UP_KM": 99.199997, "CATCH_SKM": 0.43, "UPLAND_SKM": 1331.9, "ENDORHEIC": 0, "DIS_AV_CMS": 22.305, "ORD_STRA": 4, "ORD_CLAS": 1, "ORD_FLOW": 5, "HYBAS_L12": 4120050020.0, "Shape_Length": 0.0058925565099126826 }, "geometry": { "type": "MultiLineString", "coordinates": [ [ [ 81.477083333333013, 6.402083333333245 ], [ 81.481249999999676, 6.397916666666539 ] ] ] } },
{ "type": "Feature", "properties": { "HYRIV_ID": 41408315, "NEXT_DOWN": 41408455, "MAIN_RIV": 41408473, "LENGTH_KM": 1.4400001, "DIST_DN_KM": 7.0, "DIST_UP_KM": 5.1, "CATCH_SKM": 7.6799998, "UPLAND_SKM": 7.7, "ENDORHEIC": 0, "DIS_AV_CMS": 0.119, "ORD_STRA": 1, "ORD_CLAS": 2, "ORD_FLOW": 7, "HYBAS_L12": 4120050020.0, "Shape_Length": 0.013005501431536925 }, "geometry": { "type": "MultiLineString", "coordinates": [ [ [ 81.470833333332934, 6.391666666666559 ], [ 81.477083333333013, 6.397916666666539 ], [ 81.481249999999676, 6.397916666666539 ] ] ] } },
{ "type": "Feature", "properties": { "HYRIV_ID": 41408316, "NEXT_DOWN": 41408456, "MAIN_RIV": 41408473, "LENGTH_KM": 5.4499998, "DIST_DN_KM": 4.8, "DIST_UP_KM": 8.5, "CATCH_SKM": 26.24, "UPLAND_SKM": 26.200001, "ENDORHEIC": 0, "DIS_AV_CMS": 0.36700001, "ORD_STRA": 1, "ORD_CLAS": 2, "ORD_FLOW": 7, "HYBAS_L12": 4120050020.0, "Shape_Length": 0.049075727471080681 }, "geometry": { "type": "MultiLineString", "coordinates": [ [ [ 81.512499999999619, 6.433333333333216 ], [ 81.506249999999596, 6.427083333333236 ], [ 81.506249999999596, 6.41875 ], [ 81.510416666666259, 6.414583333333262 ], [ 81.510416666666259, 6.410416666666556 ], [ 81.518749999999756, 6.402083333333245 ], [ 81.518749999999756, 6.397916666666539 ], [ 81.522916666666248, 6.393749999999876 ] ] ] } },
{ "type": "Feature", "properties": { "HYRIV_ID": 41408317, "NEXT_DOWN": 41408456, "MAIN_RIV": 41408473, "LENGTH_KM": 0.69, "DIST_DN_KM": 4.6, "DIST_UP_KM": 5.1, "CATCH_SKM": 7.89, "UPLAND_SKM": 7.9, "ENDORHEIC": 0, "DIS_AV_CMS": 0.11, "ORD_STRA": 1, "ORD_CLAS": 3, "ORD_FLOW": 7, "HYBAS_L12": 4120050020.0, "Shape_Length": 0.0062500000000369482 }, "geometry": { "type": "MultiLineString", "coordinates": [ [ [ 81.522916666666248, 6.4 ], [ 81.522916666666248, 6.393749999999876 ] ] ] } },
{ "type": "Feature", "properties": { "HYRIV_ID": 41408359, "NEXT_DOWN": 41408290, "MAIN_RIV": 41408473, "LENGTH_KM": 2.56, "DIST_DN_KM": 16.4, "DIST_UP_KM": 6.2, "CATCH_SKM": 17.07, "UPLAND_SKM": 17.1, "ENDORHEIC": 0, "DIS_AV_CMS": 0.281, "ORD_STRA": 1, "ORD_CLAS": 2, "ORD_FLOW": 7, "HYBAS_L12": 4121159500.0, "Shape_Length": 0.023064724608001949 }, "geometry": { "type": "MultiLineString", "coordinates": [ [ [ 81.399999999999665, 6.379166666666571 ], [ 81.406249999999574, 6.385416666666565 ], [ 81.406249999999574, 6.389583333333228 ], [ 81.410416666666293, 6.393749999999876 ], [ 81.410416666666293, 6.397916666666539 ] ] ] } },
{ "type": "Feature", "properties": { "HYRIV_ID": 41408387, "NEXT_DOWN": 41408267, "MAIN_RIV": 41408473, "LENGTH_KM": 6.0900002, "DIST_DN_KM": 19.5, "DIST_UP_KM": 8.9, "CATCH_SKM": 19.629999, "UPLAND_SKM": 19.6, "ENDORHEIC": 0, "DIS_AV_CMS": 0.338, "ORD_STRA": 1, "ORD_CLAS": 2, "ORD_FLOW": 7, "HYBAS_L12": 4121159500.0, "Shape_Length": 0.054968283980884838 }, "geometry": { "type": "MultiLineString", "coordinates": [ [ [ 81.341666666666271, 6.375 ], [ 81.34791666666635, 6.38125 ], [ 81.352083333333013, 6.38125 ], [ 81.360416666666396, 6.389583333333228 ], [ 81.368749999999608, 6.389583333333228 ], [ 81.377083333332934, 6.397916666666539 ], [ 81.381249999999596, 6.397916666666539 ], [ 81.385416666666259, 6.402083333333245 ] ] ] } },
{ "type": "Feature", "properties": { "HYRIV_ID": 41408455, "NEXT_DOWN": 41408473, "MAIN_RIV": 41408473, "LENGTH_KM": 6.23, "DIST_DN_KM": 0.8, "DIST_UP_KM": 105.6, "CATCH_SKM": 18.129999, "UPLAND_SKM": 1357.7, "ENDORHEIC": 0, "DIS_AV_CMS": 20.787001, "ORD_STRA": 4, "ORD_CLAS": 1, "ORD_FLOW": 5, "HYBAS_L12": 4120050020.0, "Shape_Length": 0.056188672392652537 }, "geometry": { "type": "MultiLineString", "coordinates": [ [ [ 81.481249999999676, 6.397916666666539 ], [ 81.493749999999721, 6.385416666666565 ], [ 81.506249999999596, 6.385416666666565 ], [ 81.518749999999756, 6.372916666666548 ], [ 81.518749999999756, 6.364583333333236 ] ] ] } },
{ "type": "Feature", "properties": { "HYRIV_ID": 41408456, "NEXT_DOWN": 41408473, "MAIN_RIV": 41408473, "LENGTH_KM": 3.81, "DIST_DN_KM": 1.0, "DIST_UP_KM": 12.3, "CATCH_SKM": 10.03, "UPLAND_SKM": 44.200001, "ENDORHEIC": 0, "DIS_AV_CMS": 0.584, "ORD_STRA": 2, "ORD_CLAS": 2, "ORD_FLOW": 7, "HYBAS_L12": 4120050020.0, "Shape_Length": 0.034344336196263085 }, "geometry": { "type": "MultiLineString", "coordinates": [ [ [ 81.522916666666248, 6.393749999999876 ], [ 81.522916666666248, 6.385416666666565 ], [ 81.527083333332968, 6.38125 ], [ 81.527083333332968, 6.372916666666548 ], [ 81.518749999999756, 6.364583333333236 ] ] ] } },
{ "type": "Feature", "properties": { "HYRIV_ID": 41408473, "NEXT_DOWN": 0, "MAIN_RIV": 41408473, "LENGTH_KM": 0.65, "DIST_DN_KM": 0.0, "DIST_UP_KM": 106.0, "CATCH_SKM": 0.43, "UPLAND_SKM": 1402.0, "ENDORHEIC": 0, "DIS_AV_CMS": 21.113001, "ORD_STRA": 4, "ORD_CLAS": 1, "ORD_FLOW": 5, "HYBAS_L12": 4120050020.0, "Shape_Length": 0.0058925565097619533 }, "geometry": { "type": "MultiLineString", "coordinates": [ [ [ 81.518749999999756, 6.364583333333236 ], [ 81.522916666666248, 6.360416666666573 ] ] ] } }
]
}
