{
"type": "FeatureCollection",
"name": "main_river_41407586",
"crs": { "type": "name", "properties": { "name": "urn:ogc:def:crs:OGC:1.3:CRS84" } },
"features": [
{ "type": "Feature", "properties": { "HYRIV_ID": 41407586, "NEXT_DOWN": 0, "MAIN_RIV": 41407586, "LENGTH_KM": 4.0, "DIST_DN_KM": 0.0, "DIST_UP_KM": 8.3, "CATCH_SKM": 6.4, "UPLAND_SKM": 23.700001, "ENDORHEIC": 0, "DIS_AV_CMS": 1.0650001, "ORD_STRA": 2, "ORD_CLAS": 1, "ORD_FLOW": 6, "HYBAS_L12": 4120049000.0, "Shape_Length": 0.036070226039579073 }, "geometry": { "type": "Polygon", "coordinates": [ ] } },
{ "type": "Feature", "properties": { "HYRIV_ID": 41407587, "NEXT_DOWN": 41407586, "MAIN_RIV": 41407586, "LENGTH_KM": 2.36, "DIST_DN_KM": 4.1, "DIST_UP_KM": 4.0, "CATCH_SKM": 8.5299997, "UPLAND_SKM": 8.5, "ENDORHEIC": 0, "DIS_AV_CMS": 0.38600001, "ORD_STRA": 1, "ORD_CLAS": 2, "ORD_FLOW": 7, "HYBAS_L12": 4120049000.0, "Shape_Length": 0.021338834764792338 }, "geometry": { "type": "Polygon", "coordinates": [ ] } },
{ "type": "Feature", "properties": { "HYRIV_ID": 41407638, "NEXT_DOWN": 41407586, "MAIN_RIV": 41407586, "LENGTH_KM": 2.56, "DIST_DN_KM": 4.1, "DIST_UP_KM": 4.5, "CATCH_SKM": 8.7399998, "UPLAND_SKM": 8.7, "ENDORHEIC": 0, "DIS_AV_CMS": 0.394, "ORD_STRA": 1, "ORD_CLAS": 1, "ORD_FLOW": 7, "HYBAS_L12": 4120049000.0, "Shape_Length": 0.023064724608017884 }, "geometry": { "type": "Polygon", "coordinates": [ ] } }
]
}
