{
"type": "FeatureCollection",
"name": "main_river_41402728",
"crs": { "type": "name", "properties": { "name": "urn:ogc:def:crs:OGC:1.3:CRS84" } },
"features": [
{ "type": "Feature", "properties": { "HYRIV_ID": 41402727, "NEXT_DOWN": 41402728, "MAIN_RIV": 41402728, "LENGTH_KM": 0.69, "DIST_DN_KM": 1.1, "DIST_UP_KM": 3.6, "CATCH_SKM": 5.3200002, "UPLAND_SKM": 5.3, "ENDORHEIC": 0, "DIS_AV_CMS": 0.124, "ORD_STRA": 1, "ORD_CLAS": 2, "ORD_FLOW": 7, "HYBAS_L12": 4120049770.0, "Shape_Length": 0.0062500000000369482 }, "geometry": { "type": "MultiLineString", "coordinates": [ [ [ 81.572916666666316, 7.733333333333228 ], [ 81.572916666666316, 7.727083333333191 ] ] ] } },
{ "type": "Feature", "properties": { "HYRIV_ID": 41402728, "NEXT_DOWN": 0, "MAIN_RIV": 41402728, "LENGTH_KM": 0.92, "DIST_DN_KM": 0.0, "DIST_UP_KM": 15.4, "CATCH_SKM": 1.91, "UPLAND_SKM": 79.800003, "ENDORHEIC": 0, "DIS_AV_CMS": 1.831, "ORD_STRA": 2, "ORD_CLAS": 1, "ORD_FLOW": 6, "HYBAS_L12": 4120049770.0, "Shape_Length": 0.0083333333333257542 }, "geometry": { "type": "MultiLineString", "coordinates": [ [ [ 81.572916666666316, 7.727083333333191 ], [ 81.581249999999642, 7.727083333333191 ] ] ] } },
{ "type": "Feature", "properties": { "HYRIV_ID": 41402758, "NEXT_DOWN": 41402728, "MAIN_RIV": 41402728, "LENGTH_KM": 1.12, "DIST_DN_KM": 1.1, "DIST_UP_KM": 14.5, "CATCH_SKM": 2.98, "UPLAND_SKM": 73.199997, "ENDORHEIC": 0, "DIS_AV_CMS": 1.681, "ORD_STRA": 2, "ORD_CLAS": 1, "ORD_FLOW": 6, "HYBAS_L12": 4120049770.0, "Shape_Length": 0.010059223176575559 }, "geometry": { "type": "MultiLineString", "coordinates": [ [ [ 81.568749999999596, 7.718749999999879 ], [ 81.572916666666316, 7.722916666666528 ], [ 81.572916666666316, 7.727083333333191 ] ] ] } },
{ "type": "Feature", "properties": { "HYRIV_ID": 41402834, "NEXT_DOWN": 41402758, "MAIN_RIV": 41402728, "LENGTH_KM": 7.9099998, "DIST_DN_KM": 2.3, "DIST_UP_KM": 10.3, "CATCH_SKM": 27.02, "UPLAND_SKM": 27.0, "ENDORHEIC": 0, "DIS_AV_CMS": 0.621, "ORD_STRA": 1, "ORD_CLAS": 2, "ORD_FLOW": 7, "HYBAS_L12": 4120049770.0, "Shape_Length": 0.07163495064760296 }, "geometry": { "type": "MultiLineString", "coordinates": [ [ [ 81.508333333332956, 7.691666666666556 ], [ 81.522916666666248, 7.70625 ], [ 81.527083333332968, 7.70625 ], [ 81.531249999999574, 7.710416666666553 ], [ 81.543749999999619, 7.710416666666553 ], [ 81.547916666666282, 7.714583333333216 ], [ 81.560416666666271, 7.714583333333216 ], [ 81.564583333332934, 7.718749999999879 ], [ 81.568749999999596, 7.718749999999879 ] ] ] } },
{ "type": "Feature", "properties": { "HYRIV_ID": 41402986, "NEXT_DOWN": 41402758, "MAIN_RIV": 41402728, "LENGTH_KM": 10.53, "DIST_DN_KM": 2.3, "DIST_UP_KM": 13.4, "CATCH_SKM": 43.189999, "UPLAND_SKM": 43.200001, "ENDORHEIC": 0, "DIS_AV_CMS": 0.99400002, "ORD_STRA": 1, "ORD_CLAS": 1, "ORD_FLOW": 7, "HYBAS_L12": 4120049770.0, "Shape_Length": 0.095057118745763058 }, "geometry": { "type": "MultiLineString", "coordinates": [ [ [ 81.524999999999665, 7.656249999999879 ], [ 81.531249999999574, 7.656249999999879 ], [ 81.539583333332956, 7.664583333333191 ], [ 81.539583333332956, 7.668749999999896 ], [ 81.543749999999619, 7.672916666666545 ], [ 81.547916666666282, 7.672916666666545 ], [ 81.552083333332945, 7.677083333333208 ], [ 81.552083333332945, 7.685416666666519 ], [ 81.560416666666271, 7.693749999999888 ], [ 81.568749999999596, 7.693749999999888 ], [ 81.568749999999596, 7.702083333333199 ], [ 81.572916666666316, 7.70625 ], [ 81.568749999999596, 7.710416666666553 ], [ 81.568749999999596, 7.718749999999879 ] ] ] } }
]
}
