{
"type": "FeatureCollection",
"name": "main_river_41409505",
"crs": { "type": "name", "properties": { "name": "urn:ogc:def:crs:OGC:1.3:CRS84" } },
"features": [
{ "type": "Feature", "properties": { "HYRIV_ID": 41409339, "NEXT_DOWN": 41409478, "MAIN_RIV": 41409505, "LENGTH_KM": 0.69, "DIST_DN_KM": 6.7, "DIST_UP_KM": 2.2, "CATCH_SKM": 2.77, "UPLAND_SKM": 2.8, "ENDORHEIC": 0, "DIS_AV_CMS": 0.129, "ORD_STRA": 1, "ORD_CLAS": 2, "ORD_FLOW": 7, "HYBAS_L12": 4120048960.0, "Shape_Length": 0.0062500000000227374 }, "geometry": { "type": "Polygon", "coordinates": [ ] } },
{ "type": "Feature", "properties": { "HYRIV_ID": 41409340, "NEXT_DOWN": 41409478, "MAIN_RIV": 41409505, "LENGTH_KM": 0.92, "DIST_DN_KM": 6.7, "DIST_UP_KM": 5.9, "CATCH_SKM": 1.71, "UPLAND_SKM": 11.1, "ENDORHEIC": 0, "DIS_AV_CMS": 0.52, "ORD_STRA": 2, "ORD_CLAS": 1, "ORD_FLOW": 7, "HYBAS_L12": 4120048960.0, "Shape_Length": 0.0083333333333257542 }, "geometry": { "type": "Polygon", "coordinates": [ ] } },
{ "type": "Feature", "properties": { "HYRIV_ID": 41409341, "NEXT_DOWN": 41409340, "MAIN_RIV": 41409505, "LENGTH_KM": 2.46, "DIST_DN_KM": 7.8, "DIST_UP_KM": 4.7, "CATCH_SKM": 4.48, "UPLAND_SKM": 4.5, "ENDORHEIC": 0, "DIS_AV_CMS": 0.21, "ORD_STRA": 1, "ORD_CLAS": 1, "ORD_FLOW": 7, "HYBAS_L12": 4120048960.0, "Shape_Length": 0.022201779686522753 }, "geometry": { "type": "Polygon", "coordinates": [ ] } },
{ "type": "Feature", "properties": { "HYRIV_ID": 41409342, "NEXT_DOWN": 41409340, "MAIN_RIV": 41409505, "LENGTH_KM": 0.69, "DIST_DN_KM": 7.7, "DIST_UP_KM": 2.2, "CATCH_SKM": 4.9099998, "UPLAND_SKM": 4.9, "ENDORHEIC": 0, "DIS_AV_CMS": 0.228, "ORD_STRA": 1, "ORD_CLAS": 2, "ORD_FLOW": 7, "HYBAS_L12": 4120048960.0, "Shape_Length": 0.0062499999999658939 }, "geometry": { "type": "Polygon", "coordinates": [ ] } },
{ "type": "Feature", "properties": { "HYRIV_ID": 41409478, "NEXT_DOWN": 41409506, "MAIN_RIV": 41409505, "LENGTH_KM": 3.62, "DIST_DN_KM": 3.1, "DIST_UP_KM": 9.5, "CATCH_SKM": 10.67, "UPLAND_SKM": 24.5, "ENDORHEIC": 0, "DIS_AV_CMS": 1.158, "ORD_STRA": 2, "ORD_CLAS": 1, "ORD_FLOW": 6, "HYBAS_L12": 4120048960.0, "Shape_Length": 0.032618446353093668 }, "geometry": { "type": "Polygon", "coordinates": [ ] } },
{ "type": "Feature", "properties": { "HYRIV_ID": 41409505, "NEXT_DOWN": 0, "MAIN_RIV": 41409505, "LENGTH_KM": 2.23, "DIST_DN_KM": 0.0, "DIST_UP_KM": 12.4, "CATCH_SKM": 4.7, "UPLAND_SKM": 40.8, "ENDORHEIC": 0, "DIS_AV_CMS": 1.932, "ORD_STRA": 2, "ORD_CLAS": 1, "ORD_FLOW": 6, "HYBAS_L12": 4120048960.0, "Shape_Length": 0.020118446353147669 }, "geometry": { "type": "Polygon", "coordinates": [ ] } },
{ "type": "Feature", "properties": { "HYRIV_ID": 41409506, "NEXT_DOWN": 41409505, "MAIN_RIV": 41409505, "LENGTH_KM": 0.65, "DIST_DN_KM": 2.6, "DIST_UP_KM": 9.9, "CATCH_SKM": 0.64, "UPLAND_SKM": 33.099998, "ENDORHEIC": 0, "DIS_AV_CMS": 1.559, "ORD_STRA": 2, "ORD_CLAS": 1, "ORD_FLOW": 6, "HYBAS_L12": 4120048960.0, "Shape_Length": 0.0058925565098825365 }, "geometry": { "type": "Polygon", "coordinates": [ ] } },
{ "type": "Feature", "properties": { "HYRIV_ID": 41409518, "NEXT_DOWN": 41409505, "MAIN_RIV": 41409505, "LENGTH_KM": 1.4400001, "DIST_DN_KM": 2.5, "DIST_UP_KM": 3.1, "CATCH_SKM": 3.4200001, "UPLAND_SKM": 3.4, "ENDORHEIC": 0, "DIS_AV_CMS": 0.15700001, "ORD_STRA": 1, "ORD_CLAS": 2, "ORD_FLOW": 7, "HYBAS_L12": 4120048960.0, "Shape_Length": 0.013005501431456536 }, "geometry": { "type": "Polygon", "coordinates": [ ] } },
{ "type": "Feature", "properties": { "HYRIV_ID": 41409519, "NEXT_DOWN": 41409506, "MAIN_RIV": 41409505, "LENGTH_KM": 2.73, "DIST_DN_KM": 3.1, "DIST_UP_KM": 4.5, "CATCH_SKM": 7.9, "UPLAND_SKM": 7.9, "ENDORHEIC": 0, "DIS_AV_CMS": 0.36700001, "ORD_STRA": 1, "ORD_CLAS": 2, "ORD_FLOW": 7, "HYBAS_L12": 4120048960.0, "Shape_Length": 0.024642556509908115 }, "geometry": { "type": "Polygon", "coordinates": [ ] } }
]
}
