{
"type": "FeatureCollection",
"name": "main_river_41394878",
"crs": { "type": "name", "properties": { "name": "urn:ogc:def:crs:OGC:1.3:CRS84" } },
"features": [
{ "type": "Feature", "properties": { "HYRIV_ID": 41394829, "NEXT_DOWN": 41394830, "MAIN_RIV": 41394878, "LENGTH_KM": 1.16, "DIST_DN_KM": 9.0, "DIST_UP_KM": 5.8, "CATCH_SKM": 9.3199997, "UPLAND_SKM": 9.3, "ENDORHEIC": 0, "DIS_AV_CMS": 0.131, "ORD_STRA": 1, "ORD_CLAS": 2, "ORD_FLOW": 7, "HYBAS_L12": 4121154240.0, "Shape_Length": 0.010416666666685614 }, "geometry": { "type": "MultiLineString", "coordinates": [ [ [ 80.739583333332945, 9.299999999999862 ], [ 80.739583333332945, 9.289583333333177 ] ] ] } },
{ "type": "Feature", "properties": { "HYRIV_ID": 41394830, "NEXT_DOWN": 41394877, "MAIN_RIV": 41394878, "LENGTH_KM": 4.12, "DIST_DN_KM": 4.9, "DIST_UP_KM": 54.5, "CATCH_SKM": 14.19, "UPLAND_SKM": 425.29999, "ENDORHEIC": 0, "DIS_AV_CMS": 5.3660002, "ORD_STRA": 3, "ORD_CLAS": 1, "ORD_FLOW": 6, "HYBAS_L12": 4121154240.0, "Shape_Length": 0.037500000000022737 }, "geometry": { "type": "MultiLineString", "coordinates": [ [ [ 80.739583333332945, 9.289583333333177 ], [ 80.777083333332968, 9.289583333333177 ] ] ] } },
{ "type": "Feature", "properties": { "HYRIV_ID": 41394831, "NEXT_DOWN": 41394877, "MAIN_RIV": 41394878, "LENGTH_KM": 2.74, "DIST_DN_KM": 4.9, "DIST_UP_KM": 6.7, "CATCH_SKM": 14.4, "UPLAND_SKM": 14.4, "ENDORHEIC": 0, "DIS_AV_CMS": 0.204, "ORD_STRA": 1, "ORD_CLAS": 2, "ORD_FLOW": 7, "HYBAS_L12": 4121154240.0, "Shape_Length": 0.02479061445121156 }, "geometry": { "type": "MultiLineString", "coordinates": [ [ [ 80.762499999999733, 9.308333333333188 ], [ 80.777083333332968, 9.293749999999839 ], [ 80.777083333332968, 9.289583333333177 ] ] ] } },
{ "type": "Feature", "properties": { "HYRIV_ID": 41394877, "NEXT_DOWN": 41394878, "MAIN_RIV": 41394878, "LENGTH_KM": 3.1300001, "DIST_DN_KM": 1.8, "DIST_UP_KM": 57.599998, "CATCH_SKM": 7.4200001, "UPLAND_SKM": 447.10001, "ENDORHEIC": 0, "DIS_AV_CMS": 5.6290002, "ORD_STRA": 3, "ORD_CLAS": 1, "ORD_FLOW": 6, "HYBAS_L12": 4121154240.0, "Shape_Length": 0.028451779686463376 }, "geometry": { "type": "MultiLineString", "coordinates": [ [ [ 80.777083333332968, 9.289583333333177 ], [ 80.789583333333013, 9.289583333333177 ], [ 80.797916666666339, 9.281249999999865 ], [ 80.802083333333002, 9.281249999999865 ] ] ] } },
{ "type": "Feature", "properties": { "HYRIV_ID": 41394878, "NEXT_DOWN": 0, "MAIN_RIV": 41394878, "LENGTH_KM": 1.56, "DIST_DN_KM": 0.0, "DIST_UP_KM": 59.200001, "CATCH_SKM": 1.7, "UPLAND_SKM": 599.90002, "ENDORHEIC": 0, "DIS_AV_CMS": 7.7160001, "ORD_STRA": 3, "ORD_CLAS": 1, "ORD_FLOW": 6, "HYBAS_L12": 4120049500.0, "Shape_Length": 0.014225889843265133 }, "geometry": { "type": "MultiLineString", "coordinates": [ [ [ 80.802083333333002, 9.281249999999865 ], [ 80.806249999999665, 9.281249999999865 ], [ 80.810416666666328, 9.285416666666528 ], [ 80.814583333333047, 9.285416666666528 ] ] ] } },
{ "type": "Feature", "properties": { "HYRIV_ID": 41395043, "NEXT_DOWN": 41394878, "MAIN_RIV": 41394878, "LENGTH_KM": 3.1500001, "DIST_DN_KM": 2.0, "DIST_UP_KM": 25.9, "CATCH_SKM": 9.7399998, "UPLAND_SKM": 151.3, "ENDORHEIC": 0, "DIS_AV_CMS": 2.099, "ORD_STRA": 2, "ORD_CLAS": 2, "ORD_FLOW": 6, "HYBAS_L12": 4121154260.0, "Shape_Length": 0.028451779686405818 }, "geometry": { "type": "MultiLineString", "coordinates": [ [ [ 80.802083333333002, 9.256249999999874 ], [ 80.802083333333002, 9.268749999999848 ], [ 80.797916666666339, 9.272916666666553 ], [ 80.797916666666339, 9.277083333333159 ], [ 80.802083333333002, 9.281249999999865 ] ] ] } },
{ "type": "Feature", "properties": { "HYRIV_ID": 41395071, "NEXT_DOWN": 41395043, "MAIN_RIV": 41394878, "LENGTH_KM": 0.65, "DIST_DN_KM": 5.1, "DIST_UP_KM": 10.8, "CATCH_SKM": 0.21, "UPLAND_SKM": 46.8, "ENDORHEIC": 0, "DIS_AV_CMS": 0.66100001, "ORD_STRA": 2, "ORD_CLAS": 3, "ORD_FLOW": 7, "HYBAS_L12": 4121154260.0, "Shape_Length": 0.0058925565099126826 }, "geometry": { "type": "MultiLineString", "coordinates": [ [ [ 80.797916666666339, 9.252083333333168 ], [ 80.802083333333002, 9.256249999999874 ] ] ] } },
{ "type": "Feature", "properties": { "HYRIV_ID": 41395096, "NEXT_DOWN": 41395071, "MAIN_RIV": 41394878, "LENGTH_KM": 4.4699998, "DIST_DN_KM": 5.6, "DIST_UP_KM": 8.0, "CATCH_SKM": 14.83, "UPLAND_SKM": 14.8, "ENDORHEIC": 0, "DIS_AV_CMS": 0.21, "ORD_STRA": 1, "ORD_CLAS": 4, "ORD_FLOW": 7, "HYBAS_L12": 4121154260.0, "Shape_Length": 0.040594336196234863 }, "geometry": { "type": "MultiLineString", "coordinates": [ [ [ 80.762499999999733, 9.256249999999874 ], [ 80.768749999999642, 9.256249999999874 ], [ 80.772916666666305, 9.252083333333168 ], [ 80.777083333332968, 9.252083333333168 ], [ 80.781249999999631, 9.247916666666548 ], [ 80.789583333333013, 9.247916666666548 ], [ 80.793749999999676, 9.252083333333168 ], [ 80.797916666666339, 9.252083333333168 ] ] ] } },
{ "type": "Feature", "properties": { "HYRIV_ID": 41395153, "NEXT_DOWN": 41394830, "MAIN_RIV": 41394878, "LENGTH_KM": 8.0600004, "DIST_DN_KM": 9.2, "DIST_UP_KM": 50.200001, "CATCH_SKM": 38.349998, "UPLAND_SKM": 401.79999, "ENDORHEIC": 0, "DIS_AV_CMS": 5.1009998, "ORD_STRA": 3, "ORD_CLAS": 1, "ORD_FLOW": 6, "HYBAS_L12": 4121154240.0, "Shape_Length": 0.072855339059342217 }, "geometry": { "type": "MultiLineString", "coordinates": [ [ [ 80.702083333332922, 9.239583333333194 ], [ 80.702083333332922, 9.260416666666536 ], [ 80.710416666666418, 9.268749999999848 ], [ 80.714583333333081, 9.268749999999848 ], [ 80.714583333333081, 9.272916666666553 ], [ 80.727083333332956, 9.285416666666528 ], [ 80.735416666666282, 9.285416666666528 ], [ 80.739583333332945, 9.289583333333177 ] ] ] } },
{ "type": "Feature", "properties": { "HYRIV_ID": 41395154, "NEXT_DOWN": 41395153, "MAIN_RIV": 41394878, "LENGTH_KM": 1.14, "DIST_DN_KM": 17.1, "DIST_UP_KM": 5.6, "CATCH_SKM": 10.17, "UPLAND_SKM": 10.2, "ENDORHEIC": 0, "DIS_AV_CMS": 0.142, "ORD_STRA": 1, "ORD_CLAS": 2, "ORD_FLOW": 7, "HYBAS_L12": 4121154240.0, "Shape_Length": 0.010416666666742458 }, "geometry": { "type": "MultiLineString", "coordinates": [ [ [ 80.712499999999665, 9.239583333333194 ], [ 80.702083333332922, 9.239583333333194 ] ] ] } },
{ "type": "Feature", "properties": { "HYRIV_ID": 41395210, "NEXT_DOWN": 41395071, "MAIN_RIV": 41394878, "LENGTH_KM": 4.25, "DIST_DN_KM": 5.6, "DIST_UP_KM": 10.3, "CATCH_SKM": 8.4700003, "UPLAND_SKM": 31.8, "ENDORHEIC": 0, "DIS_AV_CMS": 0.449, "ORD_STRA": 2, "ORD_CLAS": 3, "ORD_FLOW": 7, "HYBAS_L12": 4121154260.0, "Shape_Length": 0.038511002862994581 }, "geometry": { "type": "MultiLineString", "coordinates": [ [ [ 80.772916666666305, 9.231249999999882 ], [ 80.777083333332968, 9.231249999999882 ], [ 80.781249999999631, 9.235416666666531 ], [ 80.789583333333013, 9.235416666666531 ], [ 80.797916666666339, 9.243749999999856 ], [ 80.797916666666339, 9.252083333333168 ] ] ] } },
{ "type": "Feature", "properties": { "HYRIV_ID": 41395234, "NEXT_DOWN": 41395210, "MAIN_RIV": 41394878, "LENGTH_KM": 1.79, "DIST_DN_KM": 9.9, "DIST_UP_KM": 4.9, "CATCH_SKM": 12.08, "UPLAND_SKM": 12.1, "ENDORHEIC": 0, "DIS_AV_CMS": 0.171, "ORD_STRA": 1, "ORD_CLAS": 4, "ORD_FLOW": 7, "HYBAS_L12": 4121154260.0, "Shape_Length": 0.016309223176541453 }, "geometry": { "type": "MultiLineString", "coordinates": [ [ [ 80.758333333333013, 9.227083333333177 ], [ 80.764583333332979, 9.227083333333177 ], [ 80.768749999999642, 9.231249999999882 ], [ 80.772916666666305, 9.231249999999882 ] ] ] } },
{ "type": "Feature", "properties": { "HYRIV_ID": 41395325, "NEXT_DOWN": 41395210, "MAIN_RIV": 41394878, "LENGTH_KM": 2.27, "DIST_DN_KM": 9.9, "DIST_UP_KM": 6.1, "CATCH_SKM": 11.23, "UPLAND_SKM": 11.2, "ENDORHEIC": 0, "DIS_AV_CMS": 0.16, "ORD_STRA": 1, "ORD_CLAS": 3, "ORD_FLOW": 7, "HYBAS_L12": 4121154260.0, "Shape_Length": 0.020475889843231027 }, "geometry": { "type": "MultiLineString", "coordinates": [ [ [ 80.768749999999642, 9.212499999999871 ], [ 80.768749999999642, 9.222916666666514 ], [ 80.772916666666305, 9.227083333333177 ], [ 80.772916666666305, 9.231249999999882 ] ] ] } },
{ "type": "Feature", "properties": { "HYRIV_ID": 41395356, "NEXT_DOWN": 41395153, "MAIN_RIV": 41394878, "LENGTH_KM": 4.4499998, "DIST_DN_KM": 17.3, "DIST_UP_KM": 42.099998, "CATCH_SKM": 22.040001, "UPLAND_SKM": 353.29999, "ENDORHEIC": 0, "DIS_AV_CMS": 4.5229998, "ORD_STRA": 3, "ORD_CLAS": 1, "ORD_FLOW": 6, "HYBAS_L12": 4121154240.0, "Shape_Length": 0.040236892706022306 }, "geometry": { "type": "MultiLineString", "coordinates": [ [ [ 80.689583333333047, 9.210416666666497 ], [ 80.693749999999596, 9.214583333333202 ], [ 80.693749999999596, 9.222916666666514 ], [ 80.689583333333047, 9.227083333333177 ], [ 80.689583333333047, 9.231249999999882 ], [ 80.693749999999596, 9.235416666666531 ], [ 80.697916666666373, 9.235416666666531 ], [ 80.702083333332922, 9.239583333333194 ] ] ] } },
{ "type": "Feature", "properties": { "HYRIV_ID": 41395357, "NEXT_DOWN": 41395356, "MAIN_RIV": 41394878, "LENGTH_KM": 0.69, "DIST_DN_KM": 21.5, "DIST_UP_KM": 6.1, "CATCH_SKM": 7.4200001, "UPLAND_SKM": 7.4, "ENDORHEIC": 0, "DIS_AV_CMS": 0.104, "ORD_STRA": 1, "ORD_CLAS": 2, "ORD_FLOW": 7, "HYBAS_L12": 4121154240.0, "Shape_Length": 0.0062499999999090505 }, "geometry": { "type": "MultiLineString", "coordinates": [ [ [ 80.695833333332956, 9.210416666666497 ], [ 80.689583333333047, 9.210416666666497 ] ] ] } },
{ "type": "Feature", "properties": { "HYRIV_ID": 41395385, "NEXT_DOWN": 41395356, "MAIN_RIV": 41394878, "LENGTH_KM": 0.46, "DIST_DN_KM": 21.5, "DIST_UP_KM": 37.900002, "CATCH_SKM": 7.21, "UPLAND_SKM": 323.79999, "ENDORHEIC": 0, "DIS_AV_CMS": 4.1620002, "ORD_STRA": 3, "ORD_CLAS": 1, "ORD_FLOW": 6, "HYBAS_L12": 4121154240.0, "Shape_Length": 0.0041666666666060337 }, "geometry": { "type": "MultiLineString", "coordinates": [ [ [ 80.689583333333047, 9.206249999999891 ], [ 80.689583333333047, 9.210416666666497 ] ] ] } },
{ "type": "Feature", "properties": { "HYRIV_ID": 41395683, "NEXT_DOWN": 41395385, "MAIN_RIV": 41394878, "LENGTH_KM": 6.6799998, "DIST_DN_KM": 22.0, "DIST_UP_KM": 24.8, "CATCH_SKM": 20.77, "UPLAND_SKM": 117.2, "ENDORHEIC": 0, "DIS_AV_CMS": 1.557, "ORD_STRA": 2, "ORD_CLAS": 2, "ORD_FLOW": 6, "HYBAS_L12": 4121154410.0, "Shape_Length": 0.060355339059406266 }, "geometry": { "type": "MultiLineString", "coordinates": [ [ [ 80.668749999999676, 9.160416666666514 ], [ 80.668749999999676, 9.164583333333219 ], [ 80.677083333333002, 9.172916666666531 ], [ 80.672916666666339, 9.177083333333194 ], [ 80.672916666666339, 9.185416666666505 ], [ 80.681249999999665, 9.193749999999874 ], [ 80.681249999999665, 9.197916666666522 ], [ 80.685416666666384, 9.197916666666522 ], [ 80.689583333333047, 9.202083333333185 ], [ 80.689583333333047, 9.206249999999891 ] ] ] } },
{ "type": "Feature", "properties": { "HYRIV_ID": 41395701, "NEXT_DOWN": 41395385, "MAIN_RIV": 41394878, "LENGTH_KM": 16.98, "DIST_DN_KM": 22.0, "DIST_UP_KM": 37.400002, "CATCH_SKM": 105.31, "UPLAND_SKM": 199.39999, "ENDORHEIC": 0, "DIS_AV_CMS": 2.5109999, "ORD_STRA": 2, "ORD_CLAS": 1, "ORD_FLOW": 6, "HYBAS_L12": 4121154380.0, "Shape_Length": 0.15404401145212002 }, "geometry": { "type": "MultiLineString", "coordinates": [ [ [ 80.572916666666373, 9.156249999999865 ], [ 80.572916666666373, 9.164583333333219 ], [ 80.577083333332922, 9.168749999999882 ], [ 80.577083333332922, 9.177083333333194 ], [ 80.593749999999631, 9.193749999999874 ], [ 80.614583333332945, 9.193749999999874 ], [ 80.62708333333299, 9.206249999999891 ], [ 80.647916666666305, 9.206249999999891 ], [ 80.652083333332968, 9.202083333333185 ], [ 80.656249999999631, 9.202083333333185 ], [ 80.66041666666635, 9.206249999999891 ], [ 80.664583333333013, 9.206249999999891 ], [ 80.668749999999676, 9.202083333333185 ], [ 80.672916666666339, 9.206249999999891 ], [ 80.689583333333047, 9.206249999999891 ] ] ] } },
{ "type": "Feature", "properties": { "HYRIV_ID": 41395702, "NEXT_DOWN": 41395683, "MAIN_RIV": 41394878, "LENGTH_KM": 2.25, "DIST_DN_KM": 28.9, "DIST_UP_KM": 7.1, "CATCH_SKM": 16.950001, "UPLAND_SKM": 17.0, "ENDORHEIC": 0, "DIS_AV_CMS": 0.228, "ORD_STRA": 1, "ORD_CLAS": 3, "ORD_FLOW": 7, "HYBAS_L12": 4121154410.0, "Shape_Length": 0.020475889843277823 }, "geometry": { "type": "MultiLineString", "coordinates": [ [ [ 80.649999999999608, 9.156249999999865 ], [ 80.664583333333013, 9.156249999999865 ], [ 80.668749999999676, 9.160416666666514 ] ] ] } },
{ "type": "Feature", "properties": { "HYRIV_ID": 41395722, "NEXT_DOWN": 41395043, "MAIN_RIV": 41394878, "LENGTH_KM": 19.18, "DIST_DN_KM": 5.1, "DIST_UP_KM": 22.8, "CATCH_SKM": 94.720001, "UPLAND_SKM": 94.699997, "ENDORHEIC": 0, "DIS_AV_CMS": 1.3150001, "ORD_STRA": 1, "ORD_CLAS": 2, "ORD_FLOW": 6, "HYBAS_L12": 4121154260.0, "Shape_Length": 0.17350889843218095 }, "geometry": { "type": "MultiLineString", "coordinates": [ [ [ 80.716666666666328, 9.152083333333202 ], [ 80.727083333332956, 9.152083333333202 ], [ 80.731249999999619, 9.156249999999865 ], [ 80.768749999999642, 9.156249999999865 ], [ 80.777083333332968, 9.164583333333219 ], [ 80.781249999999631, 9.164583333333219 ], [ 80.785416666666293, 9.168749999999882 ], [ 80.785416666666293, 9.172916666666531 ], [ 80.797916666666339, 9.185416666666505 ], [ 80.797916666666339, 9.189583333333168 ], [ 80.802083333333002, 9.193749999999874 ], [ 80.802083333333002, 9.210416666666497 ], [ 80.806249999999665, 9.214583333333202 ], [ 80.806249999999665, 9.252083333333168 ], [ 80.802083333333002, 9.256249999999874 ] ] ] } },
{ "type": "Feature", "properties": { "HYRIV_ID": 41395782, "NEXT_DOWN": 41395701, "MAIN_RIV": 41394878, "LENGTH_KM": 2.28, "DIST_DN_KM": 39.200001, "DIST_UP_KM": 6.6, "CATCH_SKM": 15.26, "UPLAND_SKM": 15.3, "ENDORHEIC": 0, "DIS_AV_CMS": 0.192, "ORD_STRA": 1, "ORD_CLAS": 2, "ORD_FLOW": 7, "HYBAS_L12": 4121154380.0, "Shape_Length": 0.020623947784669267 }, "geometry": { "type": "MultiLineString", "coordinates": [ [ [ 80.558333333332968, 9.141666666666517 ], [ 80.572916666666373, 9.156249999999865 ] ] ] } },
{ "type": "Feature", "properties": { "HYRIV_ID": 41395898, "NEXT_DOWN": 41395683, "MAIN_RIV": 41394878, "LENGTH_KM": 4.64, "DIST_DN_KM": 28.9, "DIST_UP_KM": 17.9, "CATCH_SKM": 18.01, "UPLAND_SKM": 79.5, "ENDORHEIC": 0, "DIS_AV_CMS": 1.064, "ORD_STRA": 2, "ORD_CLAS": 2, "ORD_FLOW": 6, "HYBAS_L12": 4121154410.0, "Shape_Length": 0.041962782549413803 }, "geometry": { "type": "MultiLineString", "coordinates": [ [ [ 80.664583333333013, 9.127083333333211 ], [ 80.672916666666339, 9.135416666666522 ], [ 80.672916666666339, 9.139583333333185 ], [ 80.677083333333002, 9.143749999999834 ], [ 80.677083333333002, 9.152083333333202 ], [ 80.668749999999676, 9.160416666666514 ] ] ] } },
{ "type": "Feature", "properties": { "HYRIV_ID": 41395971, "NEXT_DOWN": 41395898, "MAIN_RIV": 41394878, "LENGTH_KM": 4.0100002, "DIST_DN_KM": 33.3, "DIST_UP_KM": 8.4, "CATCH_SKM": 31.16, "UPLAND_SKM": 31.200001, "ENDORHEIC": 0, "DIS_AV_CMS": 0.41600001, "ORD_STRA": 1, "ORD_CLAS": 3, "ORD_FLOW": 7, "HYBAS_L12": 4121154410.0, "Shape_Length": 0.036427669529622231 }, "geometry": { "type": "MultiLineString", "coordinates": [ [ [ 80.63333333333307, 9.114583333333194 ], [ 80.639583333332979, 9.114583333333194 ], [ 80.643749999999642, 9.118749999999842 ], [ 80.647916666666305, 9.118749999999842 ], [ 80.656249999999631, 9.127083333333211 ], [ 80.664583333333013, 9.127083333333211 ] ] ] } },
{ "type": "Feature", "properties": { "HYRIV_ID": 41396037, "NEXT_DOWN": 41395701, "MAIN_RIV": 41394878, "LENGTH_KM": 7.3400002, "DIST_DN_KM": 39.200001, "DIST_UP_KM": 20.200001, "CATCH_SKM": 29.67, "UPLAND_SKM": 78.900002, "ENDORHEIC": 0, "DIS_AV_CMS": 1.01, "ORD_STRA": 2, "ORD_CLAS": 1, "ORD_FLOW": 6, "HYBAS_L12": 4121154380.0, "Shape_Length": 0.066247895569134907 }, "geometry": { "type": "MultiLineString", "coordinates": [ [ [ 80.585416666666305, 9.102083333333219 ], [ 80.585416666666305, 9.106249999999868 ], [ 80.589583333332968, 9.110416666666531 ], [ 80.585416666666305, 9.114583333333194 ], [ 80.589583333332968, 9.118749999999842 ], [ 80.585416666666305, 9.122916666666548 ], [ 80.585416666666305, 9.135416666666522 ], [ 80.581249999999756, 9.139583333333185 ], [ 80.581249999999756, 9.147916666666539 ], [ 80.572916666666373, 9.156249999999865 ] ] ] } },
{ "type": "Feature", "properties": { "HYRIV_ID": 41396086, "NEXT_DOWN": 41396037, "MAIN_RIV": 41394878, "LENGTH_KM": 1.63, "DIST_DN_KM": 46.5, "DIST_UP_KM": 6.7, "CATCH_SKM": 14.41, "UPLAND_SKM": 14.4, "ENDORHEIC": 0, "DIS_AV_CMS": 0.189, "ORD_STRA": 1, "ORD_CLAS": 2, "ORD_FLOW": 7, "HYBAS_L12": 4121154380.0, "Shape_Length": 0.014731391274756585 }, "geometry": { "type": "MultiLineString", "coordinates": [ [ [ 80.59583333333299, 9.091666666666519 ], [ 80.585416666666305, 9.102083333333219 ] ] ] } },
{ "type": "Feature", "properties": { "HYRIV_ID": 41396262, "NEXT_DOWN": 41395898, "MAIN_RIV": 41394878, "LENGTH_KM": 8.21, "DIST_DN_KM": 33.5, "DIST_UP_KM": 13.3, "CATCH_SKM": 30.309999, "UPLAND_SKM": 30.3, "ENDORHEIC": 0, "DIS_AV_CMS": 0.408, "ORD_STRA": 1, "ORD_CLAS": 2, "ORD_FLOW": 7, "HYBAS_L12": 4121154410.0, "Shape_Length": 0.074223785412451102 }, "geometry": { "type": "MultiLineString", "coordinates": [ [ [ 80.643749999999642, 9.070833333333191 ], [ 80.643749999999642, 9.077083333333185 ], [ 80.647916666666305, 9.081249999999876 ], [ 80.652083333332968, 9.081249999999876 ], [ 80.66041666666635, 9.089583333333202 ], [ 80.66041666666635, 9.093749999999851 ], [ 80.672916666666339, 9.106249999999868 ], [ 80.672916666666339, 9.118749999999842 ], [ 80.664583333333013, 9.127083333333211 ] ] ] } },
{ "type": "Feature", "properties": { "HYRIV_ID": 41396571, "NEXT_DOWN": 41396037, "MAIN_RIV": 41394878, "LENGTH_KM": 10.26, "DIST_DN_KM": 46.5, "DIST_UP_KM": 12.9, "CATCH_SKM": 34.77, "UPLAND_SKM": 34.8, "ENDORHEIC": 0, "DIS_AV_CMS": 0.449, "ORD_STRA": 1, "ORD_CLAS": 1, "ORD_FLOW": 7, "HYBAS_L12": 4121154380.0, "Shape_Length": 0.092616341922617848 }, "geometry": { "type": "MultiLineString", "coordinates": [ [ [ 80.597916666666293, 9.024999999999871 ], [ 80.597916666666293, 9.031249999999851 ], [ 80.589583333332968, 9.039583333333205 ], [ 80.589583333332968, 9.043749999999868 ], [ 80.585416666666305, 9.047916666666531 ], [ 80.585416666666305, 9.056249999999842 ], [ 80.581249999999756, 9.060416666666548 ], [ 80.581249999999756, 9.072916666666522 ], [ 80.577083333332922, 9.077083333333185 ], [ 80.577083333332922, 9.081249999999876 ], [ 80.581249999999756, 9.085416666666497 ], [ 80.577083333332922, 9.089583333333202 ], [ 80.581249999999756, 9.093749999999851 ], [ 80.581249999999756, 9.097916666666514 ], [ 80.585416666666305, 9.102083333333219 ] ] ] } }
]
}
