{
"type": "FeatureCollection",
"name": "main_river_41401689",
"crs": { "type": "name", "properties": { "name": "urn:ogc:def:crs:OGC:1.3:CRS84" } },
"features": [
{ "type": "Feature", "properties": { "HYRIV_ID": 41401689, "NEXT_DOWN": 0, "MAIN_RIV": 41401689, "LENGTH_KM": 0.92, "DIST_DN_KM": 0.0, "DIST_UP_KM": 7.8, "CATCH_SKM": 1.49, "UPLAND_SKM": 24.4, "ENDORHEIC": 0, "DIS_AV_CMS": 0.35100001, "ORD_STRA": 2, "ORD_CLAS": 1, "ORD_FLOW": 7, "HYBAS_L12": 4120049190.0, "Shape_Length": 0.0083333333333257542 }, "geometry": { "type": "Polygon", "coordinates": [ ] } },
{ "type": "Feature", "properties": { "HYRIV_ID": 41401690, "NEXT_DOWN": 41401689, "MAIN_RIV": 41401689, "LENGTH_KM": 2.09, "DIST_DN_KM": 1.1, "DIST_UP_KM": 6.9, "CATCH_SKM": 12.33, "UPLAND_SKM": 12.3, "ENDORHEIC": 0, "DIS_AV_CMS": 0.174, "ORD_STRA": 1, "ORD_CLAS": 1, "ORD_FLOW": 7, "HYBAS_L12": 4120049190.0, "Shape_Length": 0.018898057941419463 }, "geometry": { "type": "Polygon", "coordinates": [ ] } },
{ "type": "Feature", "properties": { "HYRIV_ID": 41401745, "NEXT_DOWN": 41401689, "MAIN_RIV": 41401689, "LENGTH_KM": 2.74, "DIST_DN_KM": 1.3, "DIST_UP_KM": 6.3, "CATCH_SKM": 10.84, "UPLAND_SKM": 10.8, "ENDORHEIC": 0, "DIS_AV_CMS": 0.159, "ORD_STRA": 1, "ORD_CLAS": 2, "ORD_FLOW": 7, "HYBAS_L12": 4120049190.0, "Shape_Length": 0.024790614451261805 }, "geometry": { "type": "Polygon", "coordinates": [ ] } }
]
}
