{
"type": "FeatureCollection",
"name": "main_river_41410484",
"crs": { "type": "name", "properties": { "name": "urn:ogc:def:crs:OGC:1.3:CRS84" } },
"features": [
{ "type": "Feature", "properties": { "HYRIV_ID": 41410484, "NEXT_DOWN": 0, "MAIN_RIV": 41410484, "LENGTH_KM": 2.27, "DIST_DN_KM": 0.0, "DIST_UP_KM": 4.5, "CATCH_SKM": 6.4099998, "UPLAND_SKM": 5.6, "ENDORHEIC": 0, "DIS_AV_CMS": 0.20200001, "ORD_STRA": 1, "ORD_CLAS": 1, "ORD_FLOW": 7, "HYBAS_L12": 4120048900.0, "Shape_Length": 0.020475889843231027 }, "geometry": { "type": "Polygon", "coordinates": [ ] } }
]
}
